####018001697####
SAEU KAWN 272100 RRB
METAR EDDB 272050Z 25005KT CAVOK 02/M01 Q1015 NOSIG=
METAR EDDC 272050Z 28004KT CAVOK 02/M01 Q1015 NOSIG=
METAR EDDF 272050Z 28005KT 9999 SCT049 OVC060 04/02 Q1020 NOSIG=
METAR EDDG 272050Z 28004KT 9999 FEW040 02/M00 Q1020 NOSIG=
METAR EDDK 272050Z 03002KT 9999 FEW036 00/M02 Q1021 NOSIG=
METAR EDDM 272050Z 26007KT 4500 -SNRA OVC006 01/01 Q1017 TEMPO 2000
      SN=
METAR EDDS 272050Z 31012KT 8000 -RASN SCT010 BKN024 02/02 Q1019 NOSIG=
METAR EGAA 272050Z 20016G26KT 9999 SCT013 BKN018 07/04 Q1005=
METAR EGAC 272050Z 19014KT 9999 SCT018 BKN021 07/04 Q1006=
METAR EGBB 272050Z 16006KT CAVOK 04/00 Q1016=
METAR COR EGCC 272050Z 20013KT 9999 BKN032 06/01 Q1014 NOSIG=
METAR EGJB 272050Z 19013KT 9999 FEW018 07/05 Q1020=
METAR EGLC 272050Z 19006KT 160V220 CAVOK 06/02 Q1019=
METAR EGNJ 272050Z 19008KT 9999 FEW036 05/01 Q1015=
METAR EGNM 272050Z 20009KT 160V240 9999 SCT037 04/00 Q1013=
METAR EGPE 272050Z 22020KT 9999 FEW015 BKN040 06/01 Q0999=
METAR EGPF 272050Z AUTO 19010KT 9000 -RA OVC019 06/03 Q1006=
METAR EGPH 272050Z 21017KT CAVOK 06/02 Q1006=
METAR EKAH 272050Z AUTO 25001KT 6000NDV BKN032/// 01/M01 Q1015=
METAR EKCH 272052Z 02001KT 5000 -DZRA BKN025 03/02 Q1015 TEMPO 4000
      BKN014=
METAR EKEB 272050Z AUTO 25004KT 9999NDV NCD 00/M01 Q1016=
METAR EKKA 272050Z AUTO 24004KT 9999NDV FEW026/// 01/M00 Q1015=
METAR EKRK 272050Z AUTO 32005KT 2300NDV -RA BR SCT002/// BKN004///
      BKN011/// 01/01 Q1015=
METAR EKSB 272050Z 28006KT CAVOK 03/01 Q1016=
METAR EKSP 272050Z 28004KT CAVOK M01/M02 Q1016=
METAR EKYT 272050Z 25003KT 9999 FEW030 01/M00 Q1015=
METAR LQMO 272100Z VRB02KT 9999 FEW070 07/04 Q1009=
####018001734####
SAEU KAWN 272100 RRC
METAR EGBE 272050Z 20007KT CAVOK 04/01 Q1016=
METAR EGFF 272050Z AUTO 19007KT 9999 SCT026 07/03 Q1017=
METAR EGGD 272050Z 21010KT CAVOK 05/02 Q1017=
METAR EGGP 272050Z 18010KT 140V210 9999 BKN028 07/03 Q1013=
METAR EGGW 272050Z 20005KT CAVOK 04/00 Q1018=
METAR EGHH 272050Z 20006KT CAVOK 07/03 Q1019=
METAR EGHI 272050Z 20007KT CAVOK 06/02 Q1019=
METAR EGKK 272050Z 17004KT CAVOK 04/01 Q1020=
METAR EGLF 272050Z 20010KT CAVOK 05/02 Q1019=
METAR COR EGLL 272050Z 20009KT 160V250 CAVOK 05/02 Q1019 NOSIG=
METAR EGLL 272050Z 20009KT 160V250 CAVOK 05/02 Q1019=
METAR EGMC 272050Z 21009KT CAVOK 04/01 Q1019=
METAR EGNH 272050Z 17013KT 9999 BKN024 BKN030 06/01 Q1013=
METAR EGNT 272050Z 20011KT 9999 SCT030 BKN042 05/00 Q1010=
METAR EGNV 272050Z 18012KT 9999 SCT045 05/M00 Q1012=
METAR EGNX 272050Z 20011KT CAVOK 05/00 Q1016=
METAR EGPA 272050Z AUTO 18022KT 9999 NCD 06/02 Q0998=
METAR COR EGPB 272050Z 19024KT 9000 SCT025 07/03 Q0999 NOSIG=
METAR EGPC 272050Z AUTO 19020KT 170V240 9999 NCD 05/00 Q0999=
METAR EGPD 272050Z 19016KT 9999 BKN025 05/01 Q1004 NOSIG=
METAR EGPK 272050Z 19016G26KT 9999 -SHRA SCT019 SCT023 07/04 Q1006=
METAR EGPL 272050Z AUTO 19025KT 3000 -RA BKN006/// 07/06 Q0995=
METAR EGPM 272050Z AUTO 19022KT 9999 BKN040/// 06/03 Q0997=
METAR EGPN 272050Z 22012KT 200V260 9999 FEW048 07/03 Q1006=
METAR EGPO 272050Z AUTO 21031G41KT 3200 -RA BKN008/// 06/04 Q0993=
METAR COR EGSH 272050Z 18008KT CAVOK 03/00 Q1018 NOSIG=
METAR EGSS 272050Z 18007KT CAVOK 03/M01 Q1018=
METAR EGTE 272050Z 18008KT 9999 SCT025 06/04 Q1018=
METAR EKRN 272050Z AUTO 08004KT 2500NDV BR NCD 02/02 Q1015=
METAR EKVD 272050Z AUTO 28004KT //// ///////// 01/M00 Q1016=
####018001673####
SAUK KAWN 272100
METAR EGAA 272050Z 20016G26KT 9999 SCT013 BKN018 07/04 Q1005=
METAR EGAC 272050Z 19014KT 9999 SCT018 BKN021 07/04 Q1006=
METAR EGBB 272050Z 16006KT CAVOK 04/00 Q1016=
METAR EGBE 272050Z 20007KT CAVOK 04/01 Q1016=
METAR COR EGCC 272050Z 20013KT 9999 BKN032 06/01 Q1014 NOSIG=
METAR EGFF 272050Z AUTO 19007KT 9999 SCT026 07/03 Q1017=
METAR EGGD 272050Z 21010KT CAVOK 05/02 Q1017=
METAR EGGW 272050Z 20005KT CAVOK 04/00 Q1018=
METAR EGHH 272050Z 20006KT CAVOK 07/03 Q1019=
METAR EGHI 272050Z 20007KT CAVOK 06/02 Q1019=
METAR EGJB 272050Z 19013KT 9999 FEW018 07/05 Q1020=
METAR EGKK 272050Z 17004KT CAVOK 04/01 Q1020=
METAR EGLC 272050Z 19006KT 160V220 CAVOK 06/02 Q1019=
METAR EGLF 272050Z 20010KT CAVOK 05/02 Q1019=
METAR EGLL 272050Z 20009KT 160V250 CAVOK 05/02 Q1019=
METAR EGMC 272050Z 21009KT CAVOK 04/01 Q1019=
METAR EGNJ 272050Z 19008KT 9999 FEW036 05/01 Q1015=
METAR EGNM 272050Z 20009KT 160V240 9999 SCT037 04/00 Q1013=
METAR EGNT 272050Z 20011KT 9999 SCT030 BKN042 05/00 Q1010=
METAR EGNV 272050Z 18012KT 9999 SCT045 05/M00 Q1012=
METAR EGNX 272050Z 20011KT CAVOK 05/00 Q1016=
METAR EGPA 272050Z AUTO 18022KT 9999 NCD 06/02 Q0998=
METAR EGPD 272050Z 19016KT 9999 BKN025 05/01 Q1004 NOSIG=
METAR EGPE 272050Z 22020KT 9999 FEW015 BKN040 06/01 Q0999=
METAR EGPF 272050Z AUTO 19010KT 9000 -RA OVC019 06/03 Q1006=
METAR EGPH 272050Z 21017KT CAVOK 06/02 Q1006=
METAR EGPL 272050Z AUTO 19025KT 3000 -RA BKN006/// 07/06 Q0995=
METAR EGPM 272050Z AUTO 19022KT 9999 BKN040/// 06/03 Q0997=
METAR COR EGSH 272050Z 18008KT CAVOK 03/00 Q1018 NOSIG=
METAR EGTE 272050Z 18008KT 9999 SCT025 06/04 Q1018=
####018000489####
SANO35 ENMI 272050
METAR ENMS 272050Z 18015KT 9999 FEW040 04/M03 Q0997 RMK WIND 412FT
           19011KT 130V240=
METAR ENRM 272050Z 21019G29KT 9999 -SHRA FEW009 SCT024 BKN061 05/01
           Q0998=
METAR ENRS 272050Z NIL=
METAR ENSK 272050Z 14011KT 9999 FEW028 SCT060 04/M00 Q0995=
METAR ENSO 272050Z 19011KT 9999 SCT020 SCT032 05/03 Q1008=
METAR ENST 272050Z 19027G39KT 9999 FEW040 BKN080 05/M03 Q0996 RMK
           WIND 300FT 17028G40KT=
METAR ENVD 272050Z NIL=
####018000556####
SANO38 ENMI 272050
METAR ENDR 272050Z AUTO 22042G56KT 04/04 Q0994=
METAR ENEK 272050Z 20018KT 9999 FEW015 06/02 Q1012 W07/S5=
METAR ENGC 272050Z 22034KT 9999 VCSH SCT020 BKN050 07/02 Q1001
           W06/S7=
METAR ENHE 272050Z 23032KT 9999 BKN019 05/02 Q0991 W///S7=
METAR ENOA 272050Z 21033KT 9999 BKN020 06/02 Q1003 W///S6=
METAR ENSL 272050Z AUTO 22029KT 9999NDV FEW018/// 06/02 Q1006
           W05/S5=
METAR ENFB 272050Z AUTO 20037KT 9999NDV BKN022/// BKN055/// BKN120///
           07/03 Q1000 W///S7=
METAR ENSF 272050Z NIL=
####018000268####
SANO37 ENMI 272050
METAR ENNO 272050Z NIL=
METAR ENOV 272050Z NIL=
METAR ENSD 272050Z NIL=
METAR ENSG 272050Z NIL=
METAR ENSN 272050Z NIL=
METAR ENSR 272050Z NIL=
METAR ENSS 272050Z 20026KT 9999 BKN021 01/M02 Q1003 RMK WIND 500FT
           21034KT=
####018000085####
SPUS81 KWBC 272055
SPECI
PADG 272100Z 11012KT 1/4SM SN FG VV001 M03/M04 A3004=
####018000237####
SAEO32 EETN 272050
METAR EEKA 272050Z NIL=
METAR EEKE 272050Z AUTO 00000KT 0750NDV R17/0900N R35/1000N FG VV003 
M00/M00 Q1017=
METAR EETU 272050Z AUTO 01004KT 0250 R26/0800N FG VV001 00/M00 Q1017
RESHUP=
METAR EEPU 272050Z NIL=
####018000376####
SAFI33 EFHK 272050
EFJO 272050Z AUTO 18006KT 150V230 3600 BR OVC003 M02/M02 Q1018=
EFLP 272050Z AUTO 32001KT 0400 R06/P1500D R24/1200U FZFG OVC001
M01/M01 Q1018=
EFMI 272050Z AUTO 17002KT 9999 OVC005 M01/M01 Q1018=
EFSA 272050Z AUTO 15002KT 9999 OVC004 M00/M01 Q1018=
EFUT 272050Z AUTO 17002KT 1000 BR VV002 M01/M01 Q1018=
EFVR 272050Z AUTO  8000 OVC005 ///// Q////=
####018000628####
SAIY32 LIIB 272050
METAR LIBD 272050Z 31008KT 9999 -DZ SCT030 09/07 Q1011=
METAR LIBR 272045Z 29011KT 9999 -RA FEW012 FEW015TCU SCT025 10/09
      Q1009 NOSIG=
METAR LICC 272050Z 26007KT 220V310 9999 FEW040 08/04 Q1011=
METAR LICJ 272050Z 28006KT 9999 SCT024 14/09 Q1013=
METAR LIPB 272050Z VRB01KT 9999 FEW120 04/01 Q1015=
METAR LIPE 272050Z 21005KT CAVOK 06/03 Q1013=
METAR LIPH 272045Z /////KT 9000 NSC 09/06 Q1012=
METAR LIPK 272050Z NIL=
METAR LIPQ 272050Z 10004KT CAVOK 07/00 Q1013=
METAR LIPR 272050Z NIL=
METAR LIPX 272045Z 27006KT CAVOK 06/03 Q1013=
METAR LIPZ 272050Z 23008KT 190V280 CAVOK 09/04 Q1012=
####018000135####
SPNA14 KAWN 272055 RRH
SPECI KTCM 272049Z AUTO 02006KT 10SM -RA BKN007 OVC025 09/09 A2974
      RMK AO2 CIG 007V025 BKN V SCT $=
####018000607####
SARS18 KAWN 272100
METAR EETN 272050Z 10004KT 9999 OVC024 01/M01 Q1017 R08/12//95 NOSIG=
METAR EFHK 272050Z 10005KT 8000 FEW005 OVC022 M00/M01 Q1018 NOSIG=
METAR ESSA 272050Z 18007KT 8000 BR BKN011 02/01 Q1014 R01L/09//95 R08/09//95
      R01R/09//95 TEMPO BKN008=
METAR EVRA 272050Z VRB01KT 8000 OVC008 01/01 Q1016 R36/190095 NOSIG=
METAR EYKA 272050Z 10002KT 3100 -RA BR SCT005 BKN011 OVC037 01/00 Q1016
      R08/090095=
METAR EYPA 272050Z 08003KT 9999 BKN022 BKN091 02/01 Q1016 R19/1///95=
METAR EYVI 272050Z 15002KT 1600 -RASN BR BKN005 OVC015 01/01 Q1015
      R20/2/0195 NOSIG=
####018000830####
SAXN17 KAWN 272100 RRA
METAR MHLC 272100Z 36006KT 9999 SCT022TCU 28/22 Q1012 A2990 NOSIG=
METAR MMDO 272049Z 18010KT 14SM SKC 23/M13 A2997 RMK SLP036 57026 956
      ISOL AC-CI RTS=
METAR MMMD 272045Z 36008KT 7SM BKN025 BKN300 29/21 A2993 RMK SLP132
      56030 927 8/108 HZY=
METAR MMUN 272046Z 13010KT 7SM SCT015TCU SCT080 28/23 A2997 RMK SLP138
      57020 938 8/270 CB 4 QUAD=
METAR MMVA 272051Z 20004KT 7SM FEW006 BKN013 OVC060 24/21 A2998 RMK
      SLP149 57032 940 8/76/ VRBL CONDS=
METAR MRLB 272100Z 08016KT 9999 FEW040 33/17 A2973=
METAR PTRO 272050Z 05009G16KT 14SM BKN016CB BKN300 26/24 A2983 RMK
      CB VC ALQDS=
METAR PTYA 272052Z 03008KT 12SM SCT016 SCT030 BKN130 BKN300 26/23 A2984
      RMK SLP105 8/871 T02580228 52007=
METAR SVMG 272100Z /////KT 9999 FEW010 31/24 Q1014 NOSIG=
####018000110####
SPXX70 KAWN 272000
SPECI KQSA 272049Z 00000KT 8000 HZ FEW080 SCT120 BKN160 02/M01 A3011
      RMK AO2A=
####018000419####
SANO36 ENMI 272050
METAR ENBS 272050Z 22032G42KT 9999 -BLSN FEW014 SCT032 M01/M06
           Q0998=
METAR ENHK 272050Z NIL=
METAR ENHV 272050Z 20015KT 160V230 9999 -RASN FEW015 BKN020 02/M01
           Q0997=
METAR ENLK 272050Z 13013KT 9999 FEW015 SCT060 05/M03 Q0993=
METAR ENMH 272050Z 20027KT 9999 -SHRA BKN018 01/M01 Q0997=
METAR ENNK 272050Z NIL=
METAR ENNM 272050Z 19011KT CAVOK 05/M05 Q1000=
####018000725####
SANO33 ENMI 272050
METAR ENAT 272050Z 20010G20KT 140V250 9999 -SHRA FEW019 BKN028 03/M03
           Q0998 RMK WIND 700FT 19020KT=
METAR ENBL 272050Z 19010KT 9999 -SHRASN FEW005 SCT010 BKN014 01/01
           Q1004=
METAR ENEV 272050Z 22008KT 190V260 CAVOK 02/M03 Q0996 RMK WIND 1400FT
           16014KT=
METAR ENFL 272050Z 19024KT 9999 VCSH FEW015CB SCT020 SCT035 06/03
           Q1003=
METAR ENKB 272050Z 21012G28KT 170V250 9999 SCT047 07/M01 Q0999=
METAR ENKR 272050Z 19016KT 9999 BKN021 00/M03 Q1003 RMK WIND 731FT
           21026KT=
METAR ENML 272050Z 23016KT 9999 FEW040 BKN050 06/01 Q1000=
METAR ENNA 272050Z 17011KT 140V210 9999 BKN024 02/M02 Q0999 RMK WIND
           1800FT 22034KT=
####018000253####
SADL34 EDZO 272050
METAR EDHL 272050Z 28004KT 250V330 9999 SCT016 04/03 Q1016=
METAR EDLP 272050Z VRB02KT 9999 SCT041 02/01 Q1019=
METAR EDLW 272050Z 26004KT 9999 BKN048 02/M02 Q1020=
METAR EDSB 272050Z 21004KT 9999 -RA SCT030 BKN050 03/02 Q1021=
####018000700####
SAIY31 LIIB 272050
METAR LIEA 272050Z 02002KT 9999 FEW040 08/07 Q1014=
METAR LIEE 272050Z 34005KT 9999 FEW020 10/08 Q1014=
METAR LIEO 272050Z 22003KT 200V260 9999 FEW040 07/06 Q1014=
METAR LIMC 272050Z 30005KT CAVOK 04/M00 Q1013 NOSIG=
METAR LIME 272050Z 09005KT 8000 NSC 06/03 Q1013=
METAR LIMF 272050Z 30003KT CAVOK 06/00 Q1013=
METAR LIMJ 272050Z 07003KT 030V090 CAVOK 10/00 Q1013=
METAR LIML 272050Z 24004KT CAVOK 07/03 Q1013 NOSIG=
METAR LIRA 272045Z 16003KT CAVOK 08/05 Q1011=
METAR LIRF 272050Z VRB01KT CAVOK 09/07 Q1012 NOSIG=
METAR LIRN 272050Z 34004KT 9999 SCT050 10/06 Q1012=
METAR LIRP 272045Z 16002KT CAVOK 07/06 Q1012 NOSIG=
METAR LIRQ 272050Z VRB02KT CAVOK 06/02 Q1012=
####018000232####
SADL33 EDZO 272050
METAR EDFE 272050Z NIL=
METAR EDFH 272050Z 28006KT 9999 FEW045 BKN082 01/M01 Q1019=
METAR EDFM 272050Z NIL=
METAR EDLV 272050Z 25004KT CAVOK 02/02 Q1021=
METAR EDVK 272050Z 30009KT 9999 BKN041 03/01 Q1018=
####018000136####
SADL35 EDZO 272050
METAR EDJA 272050Z 25011KT 3900 -SN BR BKN006 BKN009 00/M00 Q1017=
METAR EDVE 272050Z 29007KT CAVOK 03/03 Q1018=
####018000421####
SANO34 ENMI 272050
METAR ENBN 272050Z 20021KT 9999 -SHRA FEW030 SCT040 BKN055 05/M03
           Q0998=
METAR ENBV 272050Z 22023KT 9999 -SHRA FEW011 SCT051 01/M02 Q0999=
METAR ENFG 272050Z NIL=
METAR ENHF 272050Z 19006KT 140V240 9999 -SNRA FEW011 BKN015 01/M00
           Q0996 RMK WIND 1254FT /////KT=
METAR ENRA 272050Z VRB02KT 9999 FEW050 BKN070 02/M03 Q0998=
METAR ENSH 272050Z NIL=
METAR ENVR 272050Z NIL=
####018000266####
SAUS20 KNKA 272054
METAR KCHD 272047Z 21008G20KT 40SM FEW150 24/M01 A2968 =
METAR KORB 272053Z AUTO 22008KT 10SM CLR M07/M25 A3029 RMK AO2=
METAR KTOA 272050Z 15008KT 10SM BKN030 18/13 A2982=
METAR KXVG 272056Z AUTO 22008KT 10SM CLR M07/M22 A3037 RMK AO2=
####018000086####
SAFK41 EGYP 272050
METAR EGYP 272050Z 23015KT 9999 FEW028 BKN090 09/02 Q1002 BLU=
####018000558####
SANO32 ENMI 272050
METAR ENAL 272050Z 21018KT 9999 BKN035 06/02 Q1000=
METAR ENCN 272050Z 06003KT 9999 BKN033 M01/M01 Q1013=
METAR ENHD 272050Z 17011KT 9999 FEW016 SCT026 05/03 Q1009=
METAR ENRO 272050Z AUTO 17007KT 120V230 9999NDV NCD M01/M07 Q1003=
METAR ENRY 272050Z 20005KT CAVOK 01/M00 Q1012=
METAR ENSB 272050Z 11012KT 9999 NSC M10/M21 Q1007 RMK WIND 1400FT
           11010KT=
METAR ENTC 272050Z 19012KT 9999 -RA FEW007 BKN033 02/M00 Q0997 NOSIG
           RMK WIND 2600FT 18017KT=
METAR ENTO 272050Z 21006KT CAVOK 01/M02 Q1012=
####018000614####
SANO31 ENMI 272050
METAR ENAN 272050Z 15015KT CAVOK 03/00 Q0994 NOSIG=
METAR ENBR 272050Z 17017KT 9999 VCSH SCT012 BKN035 05/04 Q1007 RMK
           WIND 1200FT 18019KT=
METAR ENBO 272050Z 16017KT CAVOK 05/M03 Q0995 TEMPO 18020G30KT=
METAR ENDU 272050Z 10005KT 9999 -RASN FEW005 SCT025 00/M00 Q0997=
METAR ENGM 272050Z VRB02KT 8000 4000W BCFG BKN002 M01/M01 Q1010 TEMPO
           2000 BCFG=
METAR ENOL 272050Z 14007KT 9999 SCT040 BKN060 04/02 Q1000 NOSIG=
METAR ENVA 272050Z 18015KT CAVOK 06/M06 Q1001 RMK WIND 670FT
           20023KT=
METAR ENZV 272050Z 17008KT 9999 SCT030 04/03 Q1010=
####018000565####
SANO39 ENMI 272050
METAR ENNE 272050Z NIL=
METAR ENQR 272050Z NIL=
METAR ENSE 272050Z AUTO 21035KT 9999NDV FEW025/// SCT039/// BKN051///
           07/03 Q1000 W///S7=
METAR ENQC 272050Z AUTO 20030KT 9999NDV BKN022/// 07/03 Q1003
           W///S6=
METAR ENQA 272050Z AUTO 20032KT 9999NDV FEW023/// 06/02 Q1004
           W04/S6=
METAR ENHM 272050Z AUTO 21029KT 9999NDV NCD 06/02 Q1004 W07/S6=
METAR ENVH 272050Z AUTO 21018KT 9999NDV BKN021/// 05/02 Q1013
           W///S4=
METAR ENLA 272050Z AUTO 21023KT 9999NDV NCD 06/03 Q1010 W///S4=
####018000072####
SAYE20 OYHD 272100
METAR OYHD 272100Z 19007KT 7000 NSC 26/24 Q1012=
####018002249####
SAUS90 KWBC 272100
METAR KFDK 272045Z 28008KT 10SM SKC 00/M16 A3051=
METAR KN60 272052Z AUTO 19011KT M07/M15 A3017 RMK AO1 SLP269
     T10721150 56033=
METAR KREO 272052Z AUTO 28003KT 04/01 A2964 RMK AO1 SLP048 P0005
     60015 T00390011 58021=
METAR KP59 272051Z AUTO 35008KT M08/M20 A3036 RMK AO1 SLP304
     T10831200 56008=
METAR KP69 272052Z AUTO 17003KT 12/M02 A2972 RMK AO1 SLP071
     T01171017 57036=
METAR KSAN 272051Z 18014KT 10SM SCT021 BKN036 18/11 A2985 RMK AO2
     SLP106 T01780111 58012=
METAR KOQT 272053Z AUTO 09007KT 050V110 10SM CLR 02/M09 A3048 RMK
     AO2 SLP336 T00171094 55003=
METAR KMWS 272045Z 21504G07KT 05/05 RMK SNOW DEPTH 1.00=
METAR KTUP 272053Z 10007KT 10SM CLR 04/M09 A3046 RMK AO2 SLP318
     T00391089 56021=
METAR KLOR 272053Z AUTO 36010KT 10SM CLR 14/M02 A3028 RMK AO2
     SLP254 T01441022 56018=
METAR KCQC 272053Z AUTO 13008KT 2SM -SN OVC006 M09/M12 A2988 RMK
     AO2 SLP177 P0000 60000 T10941122 55016=
METAR KMWT 272053Z AUTO VRB03KT 10SM BKN055 OVC070 M02/M12 A3048
     RMK AO2 SLP336 T10171122 58006=
METAR K6R6 272053Z AUTO 09012KT 02/M02 A3016 RMK AO1 SLP216
     T00171022 58028=
METAR PHTO 272053Z 12011KT 10SM FEW030 SCT100 SCT200 28/20 A2997
     RMK AO2 SLP147 T02830200 50000=
METAR KP68 272053Z AUTO VRB05KT 04/M03 A2967 RMK AO1 SLP048 P0001
     60001 T00391028 56024=
METAR KTCS 272053Z AUTO 15009KT 10SM FEW037 08/M02 A2987 RMK AO2
     SLP094 T00781022 58033 TSNO=
METAR KCTY 272053Z AUTO 04008G15KT 13/03 A3025 RMK AO1 SLP242
     T01280033 56010=
METAR PGUM 272054Z 07008KT 5SM -RA FEW031 SCT055 BKN070 26/23
     A2991 RMK AO2 RAB46 SLP122 P0001 60001 T02560228 53014=
METAR KP92 272053Z AUTO VRB05KT 11/01 A3029 RMK AO1 SLP256
     T01110011 56022=
METAR KCRW 272054Z VRB04KT 10SM BKN037 M06/M15 A3055 RMK AO2
     SLP358 T10611150 53002 $=
METAR K12N 272054Z AUTO VRB04KT M03/M17 A3039 RMK AO1 SLP310
     T10331167 53009=
METAR KAPN 272054Z AUTO 23007KT 10SM UP CLR M07/M18 A3044 RMK AO2
     SLP327 P0000 60000 T10721183 55003=
METAR K1V4 272054Z AUTO M07/M23 A3032 RMK AO1 SLP294 T10721228
     53005=
METAR KMQE 272054Z AUTO 26007KT M04/M19 A3030 RMK AO1 SLP282
     T10441189 53009=
####018000221####
SAUS90 KWBC 272100 CCA
METAR KATT 272051Z AUTO VRB04KT 10SM OVC023 01/M04 A3033 RMK AO2
     SLP281 T00111039 56025=
METAR KATT 272051Z AUTO VRB04KT 10SM OVC023 01/M04 A3033 RMK AO2
     SLP281 T00111039 56025=
####018000074####
SABZ21 SBFN 272100
METAR SBFN 272100Z 18005KT 9999 SCT011 27/24 Q1011=
####018000110####
SAUS44 KLCH 272055
MTRP92
METAR KP92 272053Z AUTO VRB05KT 11/01 A3029 RMK AO1 SLP256 T01110011 
56022
####018001639####
SAEU KAWN 272100 RRD
METAR EBAW 272050Z 26004KT CAVOK 03/M00 Q1022 NOSIG=
METAR EBBR 272050Z 23002KT CAVOK 01/M01 Q1022 NOSIG=
METAR EBCI 272050Z 23004KT CAVOK 02/M02 Q1022 NOSIG=
METAR EBLG 272050Z 27004KT CAVOK 01/M02 Q1022 NOSIG=
METAR EBOS 272050Z 20008KT 9999 FEW022 02/M00 Q1021 NOSIG=
METAR COR EDDV 272050Z 26004KT 230V290 9999 FEW035 SCT250 01/00 Q1018
      NOSIG=
METAR EHKD 272055Z AUTO 23006KT 9999 NCD 03/01 Q1020 BLU=
METAR EKSP 272050Z 28004KT CAVOK M01/M02 Q1016 RMK SCT230=
METAR ELLX 272050Z 29004KT 9999 FEW041 01/M02 Q1021 NOSIG=
METAR ENFB 272050Z AUTO 20037KT 9999NDV BKN022/// BKN055/// BKN120///
      07/03 Q1000 W///S7=
METAR ENHE 272050Z 23032KT 9999 BKN019 05/02 Q0991 W///S7=
METAR ENMS 272050Z 18015KT 9999 FEW040 04/M03 Q0997 RMK WIND 412FT
      19011KT 130V240=
METAR ENRM 272050Z 21019G29KT 9999 -SHRA FEW009 SCT024 BKN061 05/01
      Q0998=
METAR ENSK 272050Z 14011KT 9999 FEW028 SCT060 04/M00 Q0995=
METAR ENSO 272050Z 19011KT 9999 SCT020 SCT032 05/03 Q1008=
METAR ENSS 272050Z 20026KT 9999 BKN021 01/M02 Q1003 RMK WIND 500FT
      21034KT=
METAR ENST 272050Z 19027G39KT 9999 FEW040 BKN080 05/M03 Q0996 RMK WIND
      300FT 17028G40KT=
METAR LOWG 272050Z 06004KT 9999 BKN034 04/01 Q1014 NOSIG=
METAR LOWI 272050Z 16003KT 130V190 6000 -RA SCT006 BKN012 01/01 Q1016
      R08/1///95 TEMPO BKN006=
METAR LOWK 272050Z 31003KT CAVOK 02/M00 Q1014 NOSIG=
METAR LOWL 272050Z 25007KT 9999 FEW044 BKN100 04/01 Q1016 NOSIG=
METAR LOWS 272050Z VRB01KT 9999 -RA FEW025 BKN030 04/01 Q1017 NOSIG=
METAR LOWW 272050Z 12003KT 9999 FEW035 03/01 Q1015 NOSIG=
####018000074####
SABZ19 SBSL 272100
METAR SBSL 272100Z 03009KT 9999 SCT020 28/22 Q1009=
####018000267####
SAGR34 LGAT 272050
METAR LGAV 272050Z 18002KT 9999 -RA FEW020 SCT030 BKN070 10/07 Q1006
NOSIG=
METAR LGIR 272050Z 21010KT 9999 -RA FEW018TCU SCT030 13/09 Q1009
NOSIG=
METAR LGKR 272050Z NIL=
METAR LGRP 272050Z 21003KT 9999 FEW018TCU SCT020 14/10 Q1010 NOSIG=
####018000121####
SAUS41 KRLX 272055
MTRCRW
METAR KCRW 272054Z VRB04KT 10SM BKN037 M06/M15 A3055 RMK AO2 SLP358 
T10611150 53002 $
####018000499####
SAHW31 KMSC 272054
METAR PHNL 272053Z 05003KT 10SM FEW030 SCT038 SCT050 SCT140 BKN240 
 28/18 A2998 RMK AO2 SLP150 T02830183 50001=
METAR PHTO 272053Z 12011KT 10SM FEW030 SCT100 SCT200 28/20 A2997 RMK 
 AO2 SLP147 T02830200 50000=
METAR PHKO 272053Z 29008KT 10SM CLR 27/19 A2996 RMK AO2 SLP147 
 T02720194 50005=
METAR PHLI 272053Z 01014KT 10SM CLR 27/17 A3001 RMK AO2 SLP159 
 T02720172 50007=
METAR PHJR 272053Z 27007KT 10SM CLR 28/18 A3000 RMK AO2 SLP164 
 T02780183 51004=
####018002909####
SAAK41 KNKA 272054
METAR PAAQ 272053Z 17003KT 10SM FEW120 M04/M07 A3042 RMK AO2 SLP307 
 T10391067 58010=
METAR PABE 272053Z 12007KT 10SM OVC031 M02/M05 A3028 RMK AO2 SLP256 
 T10171050 58018=
METAR PABI 272053Z 11005KT 10SM FEW200 M07/M11 A3044 RMK AO2 SLP350 
 T10721111 58010=
METAR PABR 272053Z 26019KT 3SM -SN BLSN OVC010 M13/M15 A3008 RMK AO2 
 SNB49 SLP187 P0000 60000 T11331150 53013=
METAR PACD 272053Z 14021KT 10SM FEW055 OVC100 05/02 A3010 RMK AO2 PK 
 WND 13029/2039 SLP193 60000 T00500022 58010 $=
METAR PACV 272053Z 00000KT 10SM CLR 04/M02 A3045 RMK AO2 SLP313 
 I3000 T00391017 50005=
METAR PADQ 272053Z 27003KT 10SM SCT011 BKN045 OVC200 01/M01 A3042 
 RMK AO2 SLP303 T00061011 58006=
METAR PAEG 272053Z AUTO 00000KT 10SM FEW070 M07/M12 A3040 RMK AO2 
 SLP319 T10721117 57006 TSNO=
METAR PAFA 272053Z 00000KT 10SM FEW090 SCT200 M08/M12 A3046 RMK AO2 
 SLP328 T10831117 58008=
METAR PAGK 272053Z AUTO 00000KT 10SM CLR M09/M14 A3053 RMK AO2 
 SLP397 T10941144 56005 TSNO=
METAR PAGY 272053Z AUTO 04009KT 10SM CLR 07/M11 A3046 RMK AO2 SLP313 
 T00671106 58010 TSNO=
METAR PAIL 272053Z 35006KT 10SM CLR M03/M07 A3040 RMK AO2 SLP298 
 T10331067 58006=
METAR PAJN 272053Z 26003KT 10SM CLR 05/M04 A3044 RMK AO2 SLP307 
 T00501039 58003=
METAR PAKT 272053Z 32011KT 10SM CLR 09/M06 A3032 RMK AO2 SLP267 
 T00891061 51003=
METAR PAKU 272045Z 27020G26KT 7SM R24/P6000FT DRSN BKN042 M10/M12 
 A3016=
METAR PAKV 272053Z AUTO 00000KT 10SM BKN013 OVC021 M01/M03 A3034 RMK 
    AO1 SLP276 T10061028 56011 FZRANO TSNO=
METAR PAKW 272053Z AUTO VRB05KT 10SM CLR 10/M04 A3033 RMK AO2 SLP270 
 T01001039 50000 TSNO=
METAR PALH 272053Z 00000KT 10SM CLR M05/M10 A3048 RMK AO2 SLP321 
 T10501100 55006=
METAR PAMC 272053Z 00000KT 10SM OVC010 M08/M12 A3038 RMK AO2 SLP296 
 T10831117 58017=
METAR PAMR 272053Z 27004KT 10SM CLR M05/M09 A3046 RMK AO2 SLP316 
 T10501089 56009=
METAR PANC 272053Z 33003KT 10SM BKN190 M04/M10 A3046 RMK AO2 SLP317 
 T10391100 55006=
METAR PANN 272053Z AUTO 09010KT 10SM CLR M07/M11 A3042 RMK AO2 
 SLP313 T10671106 58015 TSNO=
METAR PANT 272053Z 31007KT 10SM FEW250 09/M03 A3030 RMK AO2 SLP261 
 T00941033 51004=
METAR PAOM 272053Z 14012KT 10SM FEW010 OVC027 M01/M02 A3014 RMK AO2 
 SLP207 T10111022 56009=
METAR PAOR 272053Z 00000KT 10SM FEW003 FEW150 SCT200 M11/M13 A3044 
 RMK AO2 SLP364 IC T11111128 56006=
METAR PAPB 272053Z AUTO 15011KT 10SM OVC024 03/02 A3002 RMK AO2 
    SLP152 T00330022 58004 TSNO=
METAR PAQT 272053Z AUTO 27020KT 3SM BLSN BKN042 M11/M13 A3018 RMK 
 AO2 PK WND 27030/2001 UPE1954 SLP219 6//// T11061133 53015 TSNO 
 PNO=
METAR PASC 272053Z 25021G29KT 5SM -SN BLSN BKN029 OVC120 M08/M11 
 A3015 RMK AO2 PK WND 28032/2027 SLP212 P0000 60000 T10831111 
 53030=
METAR PASI 272053Z 21003KT 10SM CLR 07/M03 A3038 RMK AO2 SLP288 
 T00671028 53001=
####018000707####
SAAK41 KNKA 272054
METAR PASN 272053Z 17009KT 7SM BKN018 BKN027 03/02 A3000 RMK AO2 
 SLP159 60000 T00280017 57007 $=
METAR PASO 272053Z AUTO 00000KT 10SM CLR 00/M02 A3044 RMK AO2 SLP308 
    I1000 I3000 T00001017 51004 TSNO=
METAR PATK 272053Z 35005KT 10SM CLR M04/M13 A3044 RMK AO2 SLP315 
 T10391128 58014=
METAR PATO 272053Z AUTO 00000KT 2 1/2SM BR OVC002 M05/M06 A3045 RMK 
    AO2 SLP314 T10501056 56009 TSNO=
METAR PAWD 272053Z AUTO 00000KT 10SM CLR 02/M08 A3044 RMK AO2 SLP308 
 T00171083 56003 TSNO=
METAR PAYA 272053Z 00000KT 10SM FEW160 06/M01 A3045 RMK AO2 SLP309 
 T00561011 51002=
METAR PHJR 272053Z 27007KT 10SM CLR 28/18 A3000 RMK AO2 SLP164 
 T02780183 51004=
####018002970####
SAUS20 KNKA 272055
METAR K04W 272053Z AUTO 21009KT 10SM CLR M08/M18 A3045 RMK AO2=
METAR K14Y 272058Z AUTO 23006KT 10SM CLR M09/M20 A3043 RMK AO2=
METAR K21D 272051Z AUTO 24006KT 10SM CLR M08/M16 A3051 RMK AO2=
METAR K9MN 272053Z AUTO 27006KT 10SM CLR M12/M18 A3052 RMK AO1
     T11161183=
METAR KAAF 272053Z AUTO 05009KT 10SM CLR 15/04 A3025 RMK AO2 SLP243 
 T01500039 56019=
METAR KABR 272053Z AUTO 20008KT 10SM CLR M09/M17 A3040 RMK AO2 
 SLP332 T10941167 56026=
METAR KABY 272053Z 05009KT 10SM CLR 14/01 A3032 RMK AO2 SLP266 
 T01440011 56018=
METAR KACK 272053Z 22006KT 10SM CLR M04/M13 A3037 RMK AO2 SLP283 
 T10441128 53015=
METAR KACV 272053Z AUTO 32008KT 5SM -RA BR SCT024 BKN033 OVC048 
 11/09 A2987 RMK AO2 RAB30 SLP121 P0002 60002 T01060094 58013=
METAR KADG 272053Z AUTO 28006KT 10SM FEW047 M08/M19 A3057 RMK AO2 
 UPB32E41 SLP375 P0000 60000 T10831189 53001 TSNO=
METAR KAEL 272052Z AUTO 24005KT 10SM CLR M13/M18 A3052 RMK AO2=
METAR KAEX 272053Z 36006KT 10SM CLR 08/M03 A3036 RMK AO2 SLP285 
 T00781028 56025=
METAR KAFW 272053Z 03009KT 1/2SM R16L/2600V5000FT SN FZFG BKN013 
 OVC018 M04/M06 A3042 RMK AO2 SLP319 P0001 60004 T10441056 56022=
METAR KAGC 272053Z 27008KT 10SM FEW045 M08/M21 A3049 RMK AO2 SLP357 
 T10831211 53007=
METAR KAGS 272053Z VRB03KT 10SM CLR 13/00 A3032 RMK AO2 SLP268 
 T01330000 55016=
METAR KAIA 272053Z AUTO 17020G28KT 3SM -SN FEW019 SCT024 OVC035 
 M07/M12 A3005 RMK AO2 PK WND 16031/1957 SNB29 SLP241 P0000 60000 
 T10721117 56028=
METAR KAIT 272054Z AUTO 24007KT 10SM CLR M06/M24 A3039 RMK AO2=
METAR KAKO 272053Z AUTO 17020G26KT 9SM FEW018 SCT024 OVC029 M09/M13 
 A3002 RMK AO2 PK WND 17029/2011 SNB1959E09 SLP236 P0000 60000 
 T10941133 56024=
METAR KALI 272053Z AUTO 05011KT 10SM OVC023 12/06 A3020 RMK AO2 
 SLP226 T01170061 56027=
METAR KALW 272053Z 33004KT 10SM CLR 11/01 A2970 RMK AO2 SLP060 
 T01110011 58011=
METAR KAMA 272053Z 14008KT 4SM -SN OVC017 M09/M13 A3022 RMK AO2 
 SLP272 P0000 60000 T10941128 58021=
METAR KAMG 272053Z AUTO VRB05KT 10SM CLR 12/02 A3031 RMK AO2 SLP263 
 T01170022 56012=
METAR KAMW 272053Z AUTO 21005KT 10SM CLR M12/M18 A3058 RMK AO2 
 SLP378 T11221183 56015=
METAR KANB 272053Z AUTO 04006KT 10SM CLR 07/M06 A3041 RMK AO2 SLP306 
 T00671056 56012=
METAR KAOH 272053Z AUTO 32008KT 10SM CLR M09/M19 A3057 RMK AO2 
 SLP373 T10891189 53003=
METAR KAOO 272053Z AUTO 29010KT 10SM CLR M08/M17 A3043 RMK AO2 
 SLP334 T10781172 53015=
METAR KAPA 272053Z 00000KT 10SM FEW045 FEW100 FEW240 M08/M16 A2986 
 RMK AO2 SLP195 T10781156 58022=
METAR KAPF 272053Z 04008KT 10SM OVC017 19/14 A3011 RMK AO2 SLP196 
 T01890139 56008=
METAR KARA 272053Z 01008KT 10SM CLR 12/01 A3032 RMK AO2 SLP266 
 T01170011 56022=
METAR KARB 272053Z 31009KT 10SM SCT045 M08/M19 A3055 RMK AO2 SLP366 
 T10831189 53003=
METAR KASD 272053Z AUTO VRB03KT 10SM CLR 12/M01 A3031 RMK AO2 SLP263 
 T01221006 56021=
####018000112####
SAUS41 KPHI 272055
MTR12N
METAR K12N 272054Z AUTO VRB04KT M03/M17 A3039 RMK AO1 SLP310 
T10331167 53009
####018000123####
SAUS46 KLOX 272055
MTRNFG
METAR KNFG 272054Z 21008KT 7SM FEW027 BKN040 18/11 A2981 RMK AO2 
SLP094 T01780106 58021
####018000126####
SAUS46 KLOX 272055
MTRNZY
METAR KNZY 272052Z 19013KT 10SM FEW028 BKN037 17/12 A2983 RMK AO2 
SLP099 T01720122 58012 $
####018001688####
SAEU KAWN 272100 RRE
METAR ENAT 272050Z 20010G20KT 140V250 9999 -SHRA FEW019 BKN028 03/M03
      Q0998 RMK WIND 700FT 19020KT=
METAR ENBN 272050Z 20021KT 9999 -SHRA FEW030 SCT040 BKN055 05/M03 Q0998=
METAR ENBS 272050Z 22032G42KT 9999 -BLSN FEW014 SCT032 M01/M06 Q0998=
METAR ENBV 272050Z 22023KT 9999 -SHRA FEW011 SCT051 01/M02 Q0999=
METAR ENEK 272050Z 20018KT 9999 FEW015 06/02 Q1012 W07/S5=
METAR ENEV 272050Z 22008KT 190V260 CAVOK 02/M03 Q0996 RMK WIND 1400FT
      16014KT=
METAR ENFL 272050Z 19024KT 9999 VCSH FEW015CB SCT020 SCT035 06/03 Q1003=
METAR ENGC 272050Z 22034KT 9999 VCSH SCT020 BKN050 07/02 Q1001 W06/S7=
METAR ENHF 272050Z 19006KT 140V240 9999 -SNRA FEW011 BKN015 01/M00
      Q0996 RMK WIND 1254FT /////KT=
METAR ENHV 272050Z 20015KT 160V230 9999 -RASN FEW015 BKN020 02/M01
      Q0997=
METAR ENKR 272050Z 19016KT 9999 BKN021 00/M03 Q1003 RMK WIND 731FT
      21026KT=
METAR ENLK 272050Z 13013KT 9999 FEW015 SCT060 05/M03 Q0993=
METAR ENML 272050Z 23016KT 9999 FEW040 BKN050 06/01 Q1000=
METAR ENOA 272050Z 21033KT 9999 BKN020 06/02 Q1003 W///S6=
METAR LICJ 272050Z 28006KT 9999 SCT024 14/09 Q1013=
METAR LIEE 272050Z 34005KT 9999 FEW020 10/08 Q1014=
METAR LIME 272050Z 09005KT 8000 NSC 06/03 Q1013=
METAR LIMF 272050Z 30003KT CAVOK 06/00 Q1013=
METAR LIMJ 272050Z 07003KT 030V090 CAVOK 10/00 Q1013=
METAR LIPH 272045Z /////KT 9000 NSC 09/06 Q1012=
METAR LIPZ 272050Z 23008KT 190V280 CAVOK 09/04 Q1012=
METAR LIRF 272050Z VRB01KT CAVOK 09/07 Q1012 NOSIG=
METAR LIRN 272050Z 34004KT 9999 SCT050 10/06 Q1012=
METAR LIRP 272045Z 16002KT CAVOK 07/06 Q1012 NOSIG=
METAR LIRQ 272050Z VRB02KT CAVOK 06/02 Q1012=
####018000093####
SABO SLLP 272000 RRA
METAR SLSU 272000Z 04011KT 9999 FEW023 FEW033CB SCT200 20/09 Q1026=
####018000136####
SAUS43 KAPX 272055
MTRAPN
METAR KAPN 272054Z AUTO 23007KT 10SM UP CLR M07/M18 A3044 RMK AO2 
SLP327 P0000 60000 T10721183 55003
####018000117####
SAUS41 KGYX 272055
MTRNKT
METAR KNKT 272054Z 33009KT 10SM CLR 10/M02 A3038 RMK AO2 SLP285 
T01001017 53003 $
####018000101####
SAUS41 KBTV 272055
MTR1V4
METAR K1V4 272054Z AUTO M07/M23 A3032 RMK AO1 SLP294 T10721228 53005
####018000112####
SAUS41 KBOX 272055
MTRMQE
METAR KMQE 272054Z AUTO 26007KT M04/M19 A3030 RMK AO1 SLP282 
T10441189 53009
####018000138####
SAUS42 TJSJ 272055 COR
MTRJNR
METAR TJNR 272053Z AUTO 10011G18KT 10SM FEW047 SCT055 27/20 A3006 
RMK AO2 SLP178 T02670200 56007 $
####018003709####
SAUS99 KWBC 272056
METAR
KCHD 272047Z 21008G20KT 40SM FEW150 24/M01 A2968=
KORB 272053Z AUTO 22008KT 10SM CLR M07/M25 A3029 RMK AO2=
KTOA 272050Z 15008KT 10SM BKN030 18/13 A2982=
KXVG 272056Z AUTO 22008KT 10SM CLR M07/M22 A3037 RMK AO2=
PASN 272053Z 17009KT 7SM BKN018 BKN027 03/02 A3000 RMK AO2 SLP159
     60000 T00280017 57007 $=
PASO 272053Z AUTO 00000KT 10SM CLR 00/M02 A3044 RMK AO2 SLP308
     I1000 I3000 T00001017 51004 TSNO=
PATK 272053Z 35005KT 10SM CLR M04/M13 A3044 RMK AO2 SLP315
     T10391128 58014=
PATO 272053Z AUTO 00000KT 2 1/2SM BR OVC002 M05/M06 A3045 RMK AO2
     SLP314 T10501056 56009 TSNO=
PAWD 272053Z AUTO 00000KT 10SM CLR 02/M08 A3044 RMK AO2 SLP308
     T00171083 56003 TSNO=
PAYA 272053Z 00000KT 10SM FEW160 06/M01 A3045 RMK AO2 SLP309
     T00561011 51002=
PHJR 272053Z 27007KT 10SM CLR 28/18 A3000 RMK AO2 SLP164 T02780183
     51004=
PAAQ 272053Z 17003KT 10SM FEW120 M04/M07 A3042 RMK AO2 SLP307
     T10391067 58010=
PABE 272053Z 12007KT 10SM OVC031 M02/M05 A3028 RMK AO2 SLP256
     T10171050 58018=
PABI 272053Z 11005KT 10SM FEW200 M07/M11 A3044 RMK AO2 SLP350
     T10721111 58010=
PABR 272053Z 26019KT 3SM -SN BLSN OVC010 M13/M15 A3008 RMK AO2
     SNB49 SLP187 P0000 60000 T11331150 53013=
PACD 272053Z 14021KT 10SM FEW055 OVC100 05/02 A3010 RMK AO2 PK WND
     13029/2039 SLP193 60000 T00500022 58010 $=
PACV 272053Z 00000KT 10SM CLR 04/M02 A3045 RMK AO2 SLP313 I3000
     T00391017 50005=
PADQ 272053Z 27003KT 10SM SCT011 BKN045 OVC200 01/M01 A3042 RMK
     AO2 SLP303 T00061011 58006=
PAEG 272053Z AUTO 00000KT 10SM FEW070 M07/M12 A3040 RMK AO2 SLP319
     T10721117 57006 TSNO=
PAFA 272053Z 00000KT 10SM FEW090 SCT200 M08/M12 A3046 RMK AO2
     SLP328 T10831117 58008=
PAGK 272053Z AUTO 00000KT 10SM CLR M09/M14 A3053 RMK AO2 SLP397
     T10941144 56005 TSNO=
PAGY 272053Z AUTO 04009KT 10SM CLR 07/M11 A3046 RMK AO2 SLP313
     T00671106 58010 TSNO=
PAIL 272053Z 35006KT 10SM CLR M03/M07 A3040 RMK AO2 SLP298
     T10331067 58006=
PAJN 272053Z 26003KT 10SM CLR 05/M04 A3044 RMK AO2 SLP307
     T00501039 58003=
PAKT 272053Z 32011KT 10SM CLR 09/M06 A3032 RMK AO2 SLP267
     T00891061 51003=
PAKU 272045Z 27020G26KT 7SM R24/P6000FT DRSN BKN042 M10/M12
     A3016=
PAKV 272053Z AUTO 00000KT 10SM BKN013 OVC021 M01/M03 A3034 RMK AO1
     SLP276 T10061028 56011 FZRANO TSNO=
PAKW 272053Z AUTO VRB05KT 10SM CLR 10/M04 A3033 RMK AO2 SLP270
     T01001039 50000 TSNO=
PALH 272053Z 00000KT 10SM CLR M05/M10 A3048 RMK AO2 SLP321
     T10501100 55006=
PAMC 272053Z 00000KT 10SM OVC010 M08/M12 A3038 RMK AO2 SLP296
     T10831117 58017=
PAMR 272053Z 27004KT 10SM CLR M05/M09 A3046 RMK AO2 SLP316
     T10501089 56009=
PANC 272053Z 33003KT 10SM BKN190 M04/M10 A3046 RMK AO2 SLP317
     T10391100 55006=
PANN 272053Z AUTO 09010KT 10SM CLR M07/M11 A3042 RMK AO2 SLP313
     T10671106 58015 TSNO=
PANT 272053Z 31007KT 10SM FEW250 09/M03 A3030 RMK AO2 SLP261
     T00941033 51004=
PAOM 272053Z 14012KT 10SM FEW010 OVC027 M01/M02 A3014 RMK AO2
     SLP207 T10111022 56009=
PAOR 272053Z 00000KT 10SM FEW003 FEW150 SCT200 M11/M13 A3044 RMK
     AO2 SLP364 IC T11111128 56006=
PAPB 272053Z AUTO 15011KT 10SM OVC024 03/02 A3002 RMK AO2 SLP152
     T00330022 58004 TSNO=
PAQT 272053Z AUTO 27020KT 3SM BLSN BKN042 M11/M13 A3018 RMK AO2 PK
     WND 27030/2001 UPE1954 SLP219 6//// T11061133 53015 TSNO
     PNO=
PASC 272053Z 25021G29KT 5SM -SN BLSN BKN029 OVC120 M08/M11 A3015
     RMK AO2 PK WND 28032/2027 SLP212 P0000 60000 T10831111
     53030=
PASI 272053Z 21003KT 10SM CLR 07/M03 A3038 RMK AO2 SLP288
     T00671028 53001=
####018002877####
SAUS99 KWBC 272056 RRA
METAR
K04W 272053Z AUTO 21009KT 10SM CLR M08/M18 A3045 RMK AO2=
K14Y 272058Z AUTO 23006KT 10SM CLR M09/M20 A3043 RMK AO2=
K21D 272051Z AUTO 24006KT 10SM CLR M08/M16 A3051 RMK AO2=
K9MN 272053Z AUTO 27006KT 10SM CLR M12/M18 A3052 RMK AO1
     T11161183=
KAAF 272053Z AUTO 05009KT 10SM CLR 15/04 A3025 RMK AO2 SLP243
     T01500039 56019=
KABR 272053Z AUTO 20008KT 10SM CLR M09/M17 A3040 RMK AO2 SLP332
     T10941167 56026=
KABY 272053Z 05009KT 10SM CLR 14/01 A3032 RMK AO2 SLP266 T01440011
     56018=
KACK 272053Z 22006KT 10SM CLR M04/M13 A3037 RMK AO2 SLP283
     T10441128 53015=
KACV 272053Z AUTO 32008KT 5SM -RA BR SCT024 BKN033 OVC048 11/09
     A2987 RMK AO2 RAB30 SLP121 P0002 60002 T01060094 58013=
KADG 272053Z AUTO 28006KT 10SM FEW047 M08/M19 A3057 RMK AO2
     UPB32E41 SLP375 P0000 60000 T10831189 53001 TSNO=
KAEL 272052Z AUTO 24005KT 10SM CLR M13/M18 A3052 RMK AO2=
KAEX 272053Z 36006KT 10SM CLR 08/M03 A3036 RMK AO2 SLP285
     T00781028 56025=
KAFW 272053Z 03009KT 1/2SM R16L/2600V5000FT SN FZFG BKN013 OVC018
     M04/M06 A3042 RMK AO2 SLP319 P0001 60004 T10441056 56022=
KAGC 272053Z 27008KT 10SM FEW045 M08/M21 A3049 RMK AO2 SLP357
     T10831211 53007=
KAGS 272053Z VRB03KT 10SM CLR 13/00 A3032 RMK AO2 SLP268 T01330000
     55016=
KAIA 272053Z AUTO 17020G28KT 3SM -SN FEW019 SCT024 OVC035 M07/M12
     A3005 RMK AO2 PK WND 16031/1957 SNB29 SLP241 P0000 60000
     T10721117 56028=
KAIT 272054Z AUTO 24007KT 10SM CLR M06/M24 A3039 RMK AO2=
KAKO 272053Z AUTO 17020G26KT 9SM FEW018 SCT024 OVC029 M09/M13
     A3002 RMK AO2 PK WND 17029/2011 SNB1959E09 SLP236 P0000 60000
     T10941133 56024=
KALI 272053Z AUTO 05011KT 10SM OVC023 12/06 A3020 RMK AO2 SLP226
     T01170061 56027=
KALW 272053Z 33004KT 10SM CLR 11/01 A2970 RMK AO2 SLP060 T01110011
     58011=
KAMA 272053Z 14008KT 4SM -SN OVC017 M09/M13 A3022 RMK AO2 SLP272
     P0000 60000 T10941128 58021=
KAMG 272053Z AUTO VRB05KT 10SM CLR 12/02 A3031 RMK AO2 SLP263
     T01170022 56012=
KAMW 272053Z AUTO 21005KT 10SM CLR M12/M18 A3058 RMK AO2 SLP378
     T11221183 56015=
KANB 272053Z AUTO 04006KT 10SM CLR 07/M06 A3041 RMK AO2 SLP306
     T00671056 56012=
KAOH 272053Z AUTO 32008KT 10SM CLR M09/M19 A3057 RMK AO2 SLP373
     T10891189 53003=
KAOO 272053Z AUTO 29010KT 10SM CLR M08/M17 A3043 RMK AO2 SLP334
     T10781172 53015=
KAPA 272053Z 00000KT 10SM FEW045 FEW100 FEW240 M08/M16 A2986 RMK
     AO2 SLP195 T10781156 58022=
KAPF 272053Z 04008KT 10SM OVC017 19/14 A3011 RMK AO2 SLP196
     T01890139 56008=
KARA 272053Z 01008KT 10SM CLR 12/01 A3032 RMK AO2 SLP266 T01170011
     56022=
KARB 272053Z 31009KT 10SM SCT045 M08/M19 A3055 RMK AO2 SLP366
     T10831189 53003=
KASD 272053Z AUTO VRB03KT 10SM CLR 12/M01 A3031 RMK AO2 SLP263
     T01221006 56021=
####018000215####
SPUS80 KWBC 272056
SPECI
KAAT 272052Z AUTO 00000KT 10SM FEW024 BKN030 OVC037 02/01 A2969
     RMK AO2 RAB19E50UPB50E52 P0007=
KAKQ 272052Z AUTO 03007KT 10SM BKN027 BKN055 03/M03 A3044 RMK AO2
     TSNO=
####018000217####
SAUS80 KWBC 272100 CCA
METAR
KATT 272051Z AUTO VRB04KT 10SM OVC023 01/M04 A3033 RMK AO2 SLP281
     T00111039 56025=
KATT 272051Z AUTO VRB04KT 10SM OVC023 01/M04 A3033 RMK AO2 SLP281
     T00111039 56025=
####018000150####
SAPQ50 KWBC 272100
METAR
PGUM 272054Z 07008KT 5SM -RA FEW031 SCT055 BKN070 26/23 A2991 RMK
     AO2 RAB46 SLP122 P0001 60001 T02560228 53014=
####018000074####
SABZ20 SBRB 272100
METAR SBRB 272100Z 36005KT 9999 SCT030 31/24 Q1007=
####018003662####
SAUS70 KWBC 272100
METAR
KGTR 272050Z 01006KT 10SM SKC 06/M06 A3043=
KHQZ 272050Z 03009G14KT 7SM BKN016 BKN055 OVC065 M02/M05 A3042=
KRYY 272047Z 33008G15KT 10SM SKC 06/M06 A3040=
KUNV 272053Z 29012KT 10SM FEW035 M07/M17 A3043=
TJBQ 272050Z 09015G27KT 10SM FEW030 27/21 A3003 RMK RWY 08 - ATIS
     H=
KADC 272052Z AUTO 28006KT 10SM CLR M10/M20 A3040 RMK AO2=
KAFN 272052Z AUTO 30007KT 10SM CLR M06/M22 A3029 RMK AO2 SLP281
     T10561217 53010=
KAQW 272052Z AUTO 28004KT 10SM CLR M07/M21 A3037 RMK AO2 SLP299
     T10671211 53009=
KARR 272052Z 29010KT 10SM CLR M12/M20 A3061 RMK AO2 SLP385
     T11171200 56009=
KATL 272052Z 34008KT 10SM FEW250 08/M06 A3035 RMK AO2 SLP285
     T00831061 55006=
KBIS 272052Z 20011G19KT 10SM CLR M07/M16 A3026 RMK AO2 SLP289
     T10721161 56030=
KBLF 272052Z AUTO 28011G18KT 10SM CLR M04/M14 A3036 RMK AO2 SLP313
     T10441139 53007=
KBLH 272052Z AUTO 20007KT 10SM CLR 23/00 A2966 RMK AO2 SLP039
     T02280000 58029=
KBML 272052Z AUTO 32007G16KT 10SM CLR M08/M24 A3025 RMK AO2 SLP276
     T10831244 53005=
KBRL 272053Z AUTO 00000KT 10SM CLR M11/M19 A3063 RMK AO2 SLP390
     T11111189 56012=
KBRO 272053Z 04009KT 10SM FEW032 SCT041 BKN048 18/13 A3013 RMK AO2
     SLP203 60000 T01780128 58027=
KCFV 272052Z AUTO 08007KT 7SM OVC050 M06/M16 A3055 RMK AO2 SLP360
     T10611161 56023=
KCKV 272052Z AUTO 06006KT 10SM CLR M03/M12 A3057 RMK AO2 SLP358
     T10281117 55010=
KCLT 272052Z 34005KT 10SM FEW050 SCT250 09/M05 A3035 RMK AO2
     SLP281 T00941050 55006=
KCMX 272053Z AUTO 26013G21KT 10SM CLR M11/M20 A3034 RMK AO2 SLP307
     T11111200 56009=
KCNW 272050Z 05010KT 10SM OVC021 00/M04 A3039=
KCPS 272053Z 35006KT 10SM CLR M06/M17 A3064 RMK AO2 SLP383
     T10611172 56012=
KCQX 272052Z AUTO 33004KT 10SM CLR M04/M14 A3037 RMK AO2 SLP285
     T10441144 53014=
KCVG 272052Z 00000KT 10SM FEW046 M06/M18 A3057 RMK AO2 SLP367
     T10611178 55003=
KMWH 272052Z 05011G19KT 10SM FEW110 12/M01 A2978 RMK AO2 SLP088
     T01171006 58013=
KOKB 272052Z AUTO 22012KT 9SM SCT023 BKN031 OVC038 18/11 A2981 RMK
     AO2 SLP094 T01780111 58018=
KOKC 272052Z 07006KT 2SM -SN BKN013 BKN019 OVC033 M07/M12 A3047
     RMK AO2 SLP336 P0001 60003 T10721117 56021=
KOMA 272052Z 00000KT 10SM FEW030 FEW200 M08/M17 A3055 RMK AO2
     SLP365 T10781172 56026=
KOTM 272053Z AUTO 30004KT 10SM CLR M11/M18 A3060 RMK AO2 SLP383
     T11111178 58017=
KPPF 272052Z AUTO 00000KT 10SM BKN060 OVC075 M06/M17 A3055 RMK AO2
     SLP359 T10611172 58025=
KPUC 272053Z AUTO VRB05KT 10SM SCT048 04/M09 A2972 RMK AO2 SLP091
     T00391094 58023=
KPWK 272052Z 25008KT 10SM CLR M09/M21 A3060 RMK AO2 SLP378
     T10891206 55005=
KPYM 272052Z AUTO 04007KT 10SM CLR M04/M16 A3035 RMK AO2 SLP280
     T10441156 53011=
KRAP 272052Z 18018G26KT 10SM OVC038 M06/M11 A3004 RMK AO2 PK WND
     19027/2035 SLP239 T10561111 58029=
KRHV 272053Z 32012KT 10SM SCT026 BKN040 17/09 2983=
KRVS 272053Z 07006KT 2SM -SN FEW021 BKN033 OVC041 M07/M11 A3055
     RMK AO2 SFC VIS 3 SLP360 P0000 60000 T10671111 56025=
KSGF 272052Z 35004KT 10SM OVC085 M06/M16 A3051 RMK AO2 SLP352
     T10561161 56015=
KSPI 272052Z 22007KT 10SM CLR M11/M17 A3065 RMK AO2 SLP393
     T11111172 55010=
KSPW 272053Z AUTO 22006KT 10SM M11/M16 A3051 RMK AO2 SLP369
     T11111161 TSNO $=
KTAN 272052Z AUTO 32004KT 10SM CLR M02/M17 A3035 RMK AO2 SLP277
     T10171167 53010=
KTRM 272052Z AUTO 01009KT 10SM CLR 25/03 A2963 RMK AO2 PRESFR
     SLP033 T02500033 58035 TSNO=
KDCA 272052Z 33013G18KT 10SM FEW040 01/M12 A3050 RMK AO2 SLP327
     T00111117 53018=
####018003728####
SAUS80 KWBC 272100
METAR
KN60 272052Z AUTO 19011KT M07/M15 A3017 RMK AO1 SLP269 T10721150
     56033=
KREO 272052Z AUTO 28003KT 04/01 A2964 RMK AO1 SLP048 P0005 60015
     T00390011 58021=
KP59 272051Z AUTO 35008KT M08/M20 A3036 RMK AO1 SLP304 T10831200
     56008=
KP69 272052Z AUTO 17003KT 12/M02 A2972 RMK AO1 SLP071 T01171017
     57036=
KSAN 272051Z 18014KT 10SM SCT021 BKN036 18/11 A2985 RMK AO2 SLP106
     T01780111 58012=
KABI 272052Z 05008KT 3SM BR BKN007 OVC015 M06/M08 A3034 RMK AO2
     CIG 005V011 SLP291 60000 I1001 I3001 T10611083 58013=
KABQ 272052Z 35005KT 8SM -SN FEW009 BKN015 OVC025 M03/M06 A2991
     RMK AO2 SLP154 MTNS OBSC NE-SE P0000 60000 T10281056
     58024=
KALS 272052Z AUTO 17011KT 10SM CLR M02/M08 A2976 RMK AO2 SLP098
     T10221083 58021=
KBDR 272052Z 31007KT 10SM CLR M02/M16 A3040 RMK AO2 SLP295
     T10221156 53009=
KBIL 272053Z 22005KT 10SM FEW060 SCT160 BKN220 M04/M13 A2991 RMK
     AO2 SLP186 ACSL DSNT S-SW T10391128 58014=
KBLU 272052Z AUTO 24009KT 10SM SCT016 BKN024 OVC075 04/M01 A2976
     RMK AO2 RAB38E48 SLP057 P0000 60000 T00391006 58013=
KBVE 272051Z AUTO 05010G18KT 10SM BKN026 10/04 A3029 RMK AO2
     SLP257 T01000039 58019=
KCID 272052Z 30005KT 10SM CLR M14/M18 A3060 RMK AO2 SLP388
     T11441183 56010=
KCNU 272052Z AUTO 13008KT 090V160 10SM SCT047 OVC070 M07/M16 A3054
     RMK AO2 SNB1955E17 SLP359 P0000 60000 T10721161 56023=
KSPS 272052Z AUTO 05012KT 5SM HZ OVC060 M07/M10 A3045 RMK AO2
     UPE08 SLP322 P0001 60003 T10671100 56020=
KTOL 272052Z 25009KT 10SM CLR M09/M19 A3059 RMK AO2 SLP377
     T10941194 53003=
KVCT 272051Z 05015KT 7SM OVC020 09/04 A3026 RMK AO2 SLP247
     T00890039 58019=
KVTN 272052Z AUTO 18013KT 10SM CLR M04/M18 A3022 RMK AO2 SLP287
     T10391178 56033=
KFNB 272053Z AUTO 00000KT 10SM CLR M07/M19 A3054 RMK AO2 SLP362
     T10671189 56031=
KHLC 272053Z AUTO 17011KT 10SM BKN036 M06/M16 A3037 RMK AO2 SLP321
     T10561161 56028=
KMBG 272052Z AUTO 14015KT 10SM CLR M07/M15 A3025 RMK AO2 SLP285
     T10671150 56031=
KMFD 272052Z 30006KT 10SM CLR M10/M18 A3054 RMK AO2 SLP369
     T11001183 53006=
KMHK 272052Z 10003KT 10SM BKN075 OVC090 M08/M18 A3054 RMK AO2
     SLP363 T10831178 56027=
KMLF 272052Z AUTO 36005KT 10SM OVC090 10/M11 A2968 RMK AO2 SLP042
     T01001106 58032 TSNO=
KOQT 272053Z AUTO 09007KT 050V110 10SM CLR 02/M09 A3048 RMK AO2
     SLP336 T00171094 55003=
KMWS 272045Z 21504G07KT 05/05 RMK SNOW DEPTH 1.00=
KTUP 272053Z 10007KT 10SM CLR 04/M09 A3046 RMK AO2 SLP318
     T00391089 56021=
KCQC 272053Z AUTO 13008KT 2SM -SN OVC006 M09/M12 A2988 RMK AO2
     SLP177 P0000 60000 T10941122 55016=
KMWT 272053Z AUTO VRB03KT 10SM BKN055 OVC070 M02/M12 A3048 RMK AO2
     SLP336 T10171122 58006=
K6R6 272053Z AUTO 09012KT 02/M02 A3016 RMK AO1 SLP216 T00171022
     58028=
PHTO 272053Z 12011KT 10SM FEW030 SCT100 SCT200 28/20 A2997 RMK AO2
     SLP147 T02830200 50000=
KP68 272053Z AUTO VRB05KT 04/M03 A2967 RMK AO1 SLP048 P0001 60001
     T00391028 56024=
KNUI 272053Z AUTO 04006KT 7SM CLR M01/M07 A3047 RMK AO2 SNE12
     SLP316 P0000 60000 T10061067 53017=
KTCS 272053Z AUTO 15009KT 10SM FEW037 08/M02 A2987 RMK AO2 SLP094
     T00781022 58033 TSNO=
KCTY 272053Z AUTO 04008G15KT 13/03 A3025 RMK AO1 SLP242 T01280033
     56010=
KP92 272053Z AUTO VRB05KT 11/01 A3029 RMK AO1 SLP256 T01110011
     56022=
KCRW 272054Z VRB04KT 10SM BKN037 M06/M15 A3055 RMK AO2 SLP358
     T10611150 53002 $=
PASN 272053Z 17009KT 7SM BKN018 BKN027 03/02 A3000 RMK AO2 SLP159
     60000 T00280017 57007 $=
PATK 272053Z 35005KT 10SM CLR M04/M13 A3044 RMK AO2 SLP315
     T10391128 58014=
####018003665####
SAUS70 KWBC 272100 RRA
METAR
KDDC 272052Z AUTO 14009KT 8SM OVC021 M09/M14 A3035 RMK AO2
     UPB1958E08SNE1958B20E30 SLP317 P0000 60001 T10941144
     58021=
KDPA 272052Z 27008KT 10SM CLR M12/M20 A3059 RMK AO2 SLP379 60000
     T11171200 55005=
KDVN 272052Z AUTO 28006KT 10SM CLR M14/M19 A3062 RMK AO2 SLP393
     T11391194 56010=
KEMT 272045Z 16004KT 10SM SCT040 BKN049 18/08 A2982=
KFIT 272052Z AUTO 33008KT 10SM CLR M03/M20 A3034 RMK AO2 SLP280
     T10331200 53007=
KGFL 272053Z AUTO 16011KT 10SM CLR M06/M17 A3038 RMK AO2 SLP304
     T10611167 53001=
KGLS 272052Z 04015KT 10SM OVC016 07/03 A3032 RMK AO2 SLP267
     T00670033 56021=
KGRI 272053Z 18008KT 10SM FEW120 M06/M19 A3041 RMK AO2 SLP341
     T10561194 56033=
KHIE 272052Z AUTO 29008KT 10SM CLR M08/M23 A3028 RMK AO2 SLP284
     T10831228 53002=
KHRL 272052Z 06008KT 10SM OVC045 17/12 A3014 RMK AO2 SLP205
     T01670122 56028=
KHUT 272052Z 13007KT 1 1/4SM R13/6000VP6000FT -SN SCT015 BKN026
     OVC037 M09/M13 A3048 RMK AO2 SLP344 P0000 60000 T10891128
     58009=
KIAD 272052Z 35010KT 10SM FEW050 M01/M13 A3048 RMK AO2 SLP324
     T10111133 53013=
KIEN 272052Z AUTO 19017G27KT 10SM OVC042 M04/M14 A3008 RMK AO2 PK
     WND 18029/2001 SLP250 T10391139 56027=
KIJD 272052Z AUTO 30008KT 10SM CLR M03/M18 A3036 RMK AO2 SLP285
     60000 T10331178 53010=
KIOW 272052Z AUTO 23005KT 10SM CLR M13/M19 A3064 RMK AO2 SLP396
     T11331189 56012=
KISN 272052Z AUTO 16009KT 10SM CLR M04/M16 A3009 RMK AO2 SLP239
     T10441156 56033=
KLAL 272050Z 04011KT 12SM OVC021 14/09 A3019=
KLWC 272052Z AUTO 05006KT 10SM OVC085 M08/M18 A3057 RMK AO2 SLP368
     T10831183 56027=
KMDH 272052Z 00000KT 10SM BKN031 M06/M14 A3062 RMK AO2 SLP376
     T10611139 56013=
KMEB 272052Z AUTO 09003KT 10SM CLR 11/M03 A3036 RMK AO2 SLP280
     T01111028 55007=
KMHE 272053Z AUTO 15009KT 10SM CLR M05/M19 A3042 RMK AO2 SLP330
     T10501189 56030=
KMKE 272052Z 26009KT 10SM CLR M08/M22 A3055 RMK AO2 SLP364
     T10831217 55007=
KMLI 272052Z 28005KT 10SM CLR M10/M19 A3062 RMK AO2 SLP384
     T11001189 56013=
KMTO 272053Z AUTO 31004KT 10SM CLR M10/M17 A3062 RMK AO2 SLP385
     T11001172 55005=
PATA 272052Z 11005KT 10SM OVC030 M04/M08 A3041 RMK AO2 SLP305
     T10441078 58011 PNO=
KCHD 272047Z 21008G20KT 40SM FEW150 24/M01 A2968=
KORB 272053Z AUTO 22008KT 10SM CLR M07/M25 A3029 RMK AO2=
KTOA 272050Z 15008KT 10SM BKN030 18/13 A2982=
KXVG 272056Z AUTO 22008KT 10SM CLR M07/M22 A3037 RMK AO2=
PASO 272053Z AUTO 00000KT 10SM CLR 00/M02 A3044 RMK AO2 SLP308
     I1000 I3000 T00001017 51004 TSNO=
PATO 272053Z AUTO 00000KT 2 1/2SM BR OVC002 M05/M06 A3045 RMK AO2
     SLP314 T10501056 56009 TSNO=
PAWD 272053Z AUTO 00000KT 10SM CLR 02/M08 A3044 RMK AO2 SLP308
     T00171083 56003 TSNO=
PAAQ 272053Z 17003KT 10SM FEW120 M04/M07 A3042 RMK AO2 SLP307
     T10391067 58010=
PABR 272053Z 26019KT 3SM -SN BLSN OVC010 M13/M15 A3008 RMK AO2
     SNB49 SLP187 P0000 60000 T11331150 53013=
PACV 272053Z 00000KT 10SM CLR 04/M02 A3045 RMK AO2 SLP313 I3000
     T00391017 50005=
PAEG 272053Z AUTO 00000KT 10SM FEW070 M07/M12 A3040 RMK AO2 SLP319
     T10721117 57006 TSNO=
PAGK 272053Z AUTO 00000KT 10SM CLR M09/M14 A3053 RMK AO2 SLP397
     T10941144 56005 TSNO=
PAGY 272053Z AUTO 04009KT 10SM CLR 07/M11 A3046 RMK AO2 SLP313
     T00671106 58010 TSNO=
PAIL 272053Z 35006KT 10SM CLR M03/M07 A3040 RMK AO2 SLP298
     T10331067 58006=
PAKT 272053Z 32011KT 10SM CLR 09/M06 A3032 RMK AO2 SLP267
     T00891061 51003=
PAKU 272045Z 27020G26KT 7SM R24/P6000FT DRSN BKN042 M10/M12
     A3016=
####018000112####
SABZ19 SBBE 272100
METAR SBBE 272100Z 09002KT 9999 4000S -TSRA FEW015 BKN025 FEW030CB BK
N100
 23/22 Q1010=
####018000111####
SAXX60 KWBC 272000 RRN
METAR
KNCA 271956Z 30005KT 10SM CLR 09/M01 A3037 RMK AO2 SLP286
     T00941011=
####018000850####
SARS32 RUMS 272030
METAR URKA 272030Z NIL=
METAR URKK 272030Z 07008G11MPS CAVOK 05/03 Q1015 NOSIG RMK QFE758
SC065=
METAR URML 272030Z NIL=
METAR URMM 272030Z 11009G12MPS 3500 -DZ BR OVC003 03/02 Q1017
R12/290050 NOSIG RMK QBB110 MT OBSC QFE735/0980=
METAR URMN 272030Z NIL=
METAR URMO 272030Z NIL=
METAR URMT 272030Z 11009G12MPS 0150 R07/0450N FG VV001 02/02 Q1016
NOSIG RMK QBB040 OBST OBSC QFE722 SC060=
METAR URRR 272030Z 10009G12MPS P8000 BKN009 BKN100 03/02 Q1020
04CLRD70 TEMPO 09012G17MPS=
METAR URSS 272030Z 07004MPS 9999 BKN230 10/02 Q1010 NOSIG RMK
R02/05005MPS QFE757 06000070 02//////=
METAR URWA 272030Z 08004MPS 8000 SCT003 M03/M04 Q1029 NOSIG RMK
QBB100 OBST OBSC QFE773/1031 SC060=
METAR URWI 272030Z NIL=
METAR URWW 272030Z 08005MPS 0600 R11/P1500 FZFG OVC003 M01/M01 Q1027
NOSIG RMK QBB090 OBST OBSC 11290055=
####018000108####
SAAJ31 UBBB 272100
METAR UBBN 272100Z 03006KT 9999 NSC 01/M04 Q1022 R14R/CLRD60
NOSIG RMK MT OP QFE691=
####018000076####
SASP LEMO 272100
METAR LEMO 272100Z 21008KT   CAVOK 12/10 Q1025 
NOSIG=
####018000247####
SAXX60 KWBC 272100 CCA
METAR
KNFW 272052Z 01008KT 1/2SM -SN FZFG VV012 M03/M05 A3047 RMK AO2
     SLP300 P0002 60003 T10281050 56023 $=
TJNR 272053Z AUTO 10011G18KT 10SM FEW047 SCT055 27/20 A3006 RMK
     AO2 SLP178 T02670200 56007 $=
####018003411####
SAUS70 KWBC 272100 RRB
METAR
PAKV 272053Z AUTO 00000KT 10SM BKN013 OVC021 M01/M03 A3034 RMK AO1
     SLP276 T10061028 56011 FZRANO TSNO=
PAKW 272053Z AUTO VRB05KT 10SM CLR 10/M04 A3033 RMK AO2 SLP270
     T01001039 50000 TSNO=
PALH 272053Z 00000KT 10SM CLR M05/M10 A3048 RMK AO2 SLP321
     T10501100 55006=
PAMR 272053Z 27004KT 10SM CLR M05/M09 A3046 RMK AO2 SLP316
     T10501089 56009=
PAPB 272053Z AUTO 15011KT 10SM OVC024 03/02 A3002 RMK AO2 SLP152
     T00330022 58004 TSNO=
PASC 272053Z 25021G29KT 5SM -SN BLSN BKN029 OVC120 M08/M11 A3015
     RMK AO2 PK WND 28032/2027 SLP212 P0000 60000 T10831111
     53030=
PASI 272053Z 21003KT 10SM CLR 07/M03 A3038 RMK AO2 SLP288
     T00671028 53001=
K04W 272053Z AUTO 21009KT 10SM CLR M08/M18 A3045 RMK AO2=
K14Y 272058Z AUTO 23006KT 10SM CLR M09/M20 A3043 RMK AO2=
K21D 272051Z AUTO 24006KT 10SM CLR M08/M16 A3051 RMK AO2=
KABR 272053Z AUTO 20008KT 10SM CLR M09/M17 A3040 RMK AO2 SLP332
     T10941167 56026=
KABY 272053Z 05009KT 10SM CLR 14/01 A3032 RMK AO2 SLP266 T01440011
     56018=
KACK 272053Z 22006KT 10SM CLR M04/M13 A3037 RMK AO2 SLP283
     T10441128 53015=
KACV 272053Z AUTO 32008KT 5SM -RA BR SCT024 BKN033 OVC048 11/09
     A2987 RMK AO2 RAB30 SLP121 P0002 60002 T01060094 58013=
KADG 272053Z AUTO 28006KT 10SM FEW047 M08/M19 A3057 RMK AO2
     UPB32E41 SLP375 P0000 60000 T10831189 53001 TSNO=
KAEL 272052Z AUTO 24005KT 10SM CLR M13/M18 A3052 RMK AO2=
KAEX 272053Z 36006KT 10SM CLR 08/M03 A3036 RMK AO2 SLP285
     T00781028 56025=
KAFW 272053Z 03009KT 1/2SM R16L/2600V5000FT SN FZFG BKN013 OVC018
     M04/M06 A3042 RMK AO2 SLP319 P0001 60004 T10441056 56022=
KAGC 272053Z 27008KT 10SM FEW045 M08/M21 A3049 RMK AO2 SLP357
     T10831211 53007=
KAGS 272053Z VRB03KT 10SM CLR 13/00 A3032 RMK AO2 SLP268 T01330000
     55016=
KAIA 272053Z AUTO 17020G28KT 3SM -SN FEW019 SCT024 OVC035 M07/M12
     A3005 RMK AO2 PK WND 16031/1957 SNB29 SLP241 P0000 60000
     T10721117 56028=
KAIT 272054Z AUTO 24007KT 10SM CLR M06/M24 A3039 RMK AO2=
KAKO 272053Z AUTO 17020G26KT 9SM FEW018 SCT024 OVC029 M09/M13
     A3002 RMK AO2 PK WND 17029/2011 SNB1959E09 SLP236 P0000 60000
     T10941133 56024=
KALI 272053Z AUTO 05011KT 10SM OVC023 12/06 A3020 RMK AO2 SLP226
     T01170061 56027=
KALW 272053Z 33004KT 10SM CLR 11/01 A2970 RMK AO2 SLP060 T01110011
     58011=
KAMA 272053Z 14008KT 4SM -SN OVC017 M09/M13 A3022 RMK AO2 SLP272
     P0000 60000 T10941128 58021=
KAMG 272053Z AUTO VRB05KT 10SM CLR 12/02 A3031 RMK AO2 SLP263
     T01170022 56012=
KAMW 272053Z AUTO 21005KT 10SM CLR M12/M18 A3058 RMK AO2 SLP378
     T11221183 56015=
KANB 272053Z AUTO 04006KT 10SM CLR 07/M06 A3041 RMK AO2 SLP306
     T00671056 56012=
KAOH 272053Z AUTO 32008KT 10SM CLR M09/M19 A3057 RMK AO2 SLP373
     T10891189 53003=
KAOO 272053Z AUTO 29010KT 10SM CLR M08/M17 A3043 RMK AO2 SLP334
     T10781172 53015=
KAPA 272053Z 00000KT 10SM FEW045 FEW100 FEW240 M08/M16 A2986 RMK
     AO2 SLP195 T10781156 58022=
KAPF 272053Z 04008KT 10SM OVC017 19/14 A3011 RMK AO2 SLP196
     T01890139 56008=
KARA 272053Z 01008KT 10SM CLR 12/01 A3032 RMK AO2 SLP266 T01170011
     56022=
KARB 272053Z 31009KT 10SM SCT045 M08/M19 A3055 RMK AO2 SLP366
     T10831189 53003=
KASD 272053Z AUTO VRB03KT 10SM CLR 12/M01 A3031 RMK AO2 SLP263
     T01221006 56021=
####018002969####
SAUS20 KNKA 272055
METAR KASE 272053Z 36006KT 3SM -SN BKN022 BKN028 OVC035 M03/M08 
 A2970 RMK AO2 SLP058 P0000 60000 T10331078 58017=
METAR KASX 272053Z AUTO 22010G14KT 10SM CLR M08/M21 A3043 RMK AO2 
 SLP326 T10781206 56014=
METAR KATY 272053Z AUTO 19007KT 10SM CLR M12/M18 A3039 RMK AO2 
 SLP339 T11171178 56023=
METAR KAUG 272053Z AUTO 29007KT 10SM CLR M06/M23 A3029 RMK AO2 
 SLP265 T10561228 53005=
METAR KAUS 272053Z 02012KT 10SM OVC023 02/M04 A3032 RMK AO2 SLP275 
 T00221039 56026=
METAR KAWM 272053Z AUTO 03011KT 10SM FEW037 00/M06 A3051 RMK AO2 
    SLP335 T00001061 56025=
METAR KAXN 272053Z AUTO 22006KT 10SM CLR A3042 RMK AO2 SLPNO 58016 $=
METAR KAXV 272050Z AUTO 28006KT 10SM SCT044 M07/M17 A3059 RMK AO2=
METAR KAZO 272053Z 26012KT 10SM BKN042 M08/M16 A3055 RMK AO2 SLP368 
 T10831161 55002=
METAR KBBB 272054Z AUTO 25003KT 10SM CLR M09/M19 A3047 RMK AO2=
METAR KBBP 272055Z AUTO 34004KT 10SM CLR 12/M02 A3035 RMK AO2=
METAR KBBW 272053Z AUTO 18009G21KT 10SM CLR M05/M19 A3029 RMK AO2 
 SLP311 T10501189 56032=
METAR KBCE 272053Z AUTO 14007KT 10SM OVC060 M01/M07 A2971 RMK AO2 
 SLP063 T10061067 58023=
METAR KBDE 272053Z AUTO 27010KT 10SM CLR M08/M21 A3030 RMK AO2 
 SLP293 T10781206 56013 TSNO=
METAR KBEH 272053Z AUTO 22012KT 10SM CLR M09/M16 A3059 RMK AO2 
 SLP375 T10941161 53002=
METAR KBFD 272053Z AUTO 33012KT 10SM CLR M12/M21 A3037 RMK AO2 
 SLP331 60000 T11171211 53015=
METAR KBFF 272053Z AUTO 17020KT 6SM -SN SCT030 OVC037 M05/M13 A3002 
 RMK AO2 PK WND 16026/2010 SNB18E27B45 SLP222 P0000 60000 
 T10501128 58028=
METAR KBFI 272053Z 02005KT 10SM OVC075 12/06 A2976 RMK AO2 SLP078 
 60000 T01170061 50002=
METAR KBFM 272053Z 36011KT 10SM CLR 13/01 A3030 RMK AO2 SLP260 
 T01330006 56027=
METAR KBGM 272053Z 36011KT 10SM CLR M10/M19 A3036 RMK AO2 SLP317 
 60000 T11001189 53015=
METAR KBGR 272053Z 27005KT 10SM CLR M06/M22 A3028 RMK AO2 SLP259 
 T10611222 52004=
METAR KBHM 272053Z 03007KT 10SM CLR 06/M07 A3043 RMK AO2 SLP310 
 T00561072 55015=
METAR KBIV 272053Z AUTO 26008KT 10SM OVC035 M07/M15 A3056 RMK AO2 
 SLP368 60000 T10721150 55002 $=
METAR KBJI 272052Z AUTO 26007KT 10SM CLR M09/M20 A3036 RMK AO2
 T10911205=
METAR KBKE 272053Z AUTO 08009KT 10SM OVC024 06/01 A2968 RMK AO2 
 RAB1956E38 SLP063 P0000 60001 T00560011 58019 TSNO=
METAR KBKL 272053Z 26005KT 10SM BKN030 M10/M16 A3059 RMK AO2 SLP373 
 T11001161 53003=
METAR KBKV 272053Z AUTO 05009KT 10SM OVC028 17/08 A3019 RMK AO2 
 SLP222 T01720083 56016=
METAR KBLI 272053Z 02009G16KT 10SM -RA OVC070 11/02 A2981 RMK AO2 
 SLP103 P0000 60001 T01060022 50005=
METAR KBMG 272053Z AUTO 05006KT 10SM SCT046 M06/M18 A3057 RMK AO2 
 SLP371 60000 T10611178 55007=
METAR KBMQ 272053Z AUTO 03009KT 2 1/2SM BR BKN012 OVC016 M02/M03 
 A3032 RMK AO2 SLP274 I1000 I3000 T10171033 56016=
METAR KBNA 272053Z 03008KT 10SM SCT250 01/M12 A3054 RMK AO2 SLP347 
 T00061122 55010=
####018002957####
SAUS20 KNKA 272055
METAR KBOI 272053Z 15012KT 10SM CLR 11/M02 A2968 RMK AO2 SLP051 
 T01061017 58029=
METAR KBPI 272053Z AUTO 10003KT 10SM SCT042 BKN070 M06/M13 A2974 RMK 
 AO2 SLP115 T10561128 58022=
METAR KBPK 272053Z AUTO 02003KT 10SM OVC065 M06/M17 A3055 RMK AO2 
 SLP359 T10561172 55008=
METAR KBPT 272053Z 07009KT 10SM CLR 11/00 A3032 RMK AO2 SLP265 
 T01110000 56026=
METAR KBRD 272053Z AUTO 23011KT 10SM CLR M08/M20 A3041 RMK AO2 
 SLP330 T10831200 56018=
METAR KBTL 272053Z 28008KT 10SM OVC040 M08/M16 A3054 RMK AO2 SLP365 
 T10781161 55002=
METAR KBTM 272053Z AUTO 11010KT 10SM OVC048 M01/M12 A2976 RMK AO2 
 SLP131 T10061117 58015=
METAR KBTR 272053Z 06007KT 10SM CLR 11/01 A3033 RMK AO2 SLP269 
 T01110006 56023=
METAR KBUR 272053Z VRB03KT 10SM BKN033 OVC046 16/09 A2979 RMK AO2 
 SLP080 T01610089 58022=
METAR KBVO 272053Z AUTO 06008KT 1SM -SN VV016 M07/M11 A3056 RMK AO2 
 SNB12 SLP358 P0000 60000 T10721111 56028=
METAR KBVY 272053Z 32004KT 10SM CLR M03/M22 A3034 RMK AO2 SLP274 
 T10331217 53007=
METAR KBWG 272053Z AUTO VRB04KT 10SM CLR M02/M14 A3056 RMK AO2 
 SLP355 T10171144 56011=
METAR KBYG 272053Z AUTO 17009KT 10SM CLR M07/M15 A2982 RMK AO2 
 SLP167 T10721150 58015=
METAR KBYI 272053Z AUTO VRB04KT 10SM FEW027 BKN085 07/M02 A2970 RMK 
 AO2 SLP059 T00671017 58023=
METAR KCAG 272053Z AUTO VRB04KT 10SM CLR 00/M08 A2978 RMK AO2 SLP124 
 T00001083 58024=
METAR KCCR 272053Z 26013G18KT 10SM FEW045 18/07 A2979 RMK AO2 SLP074 
 T01780072 58023=
METAR KCDC 272053Z AUTO 24004KT 10SM CLR 06/M07 A2970 RMK AO2 SLP050 
 T00561067 58025=
METAR KCDR 272053Z AUTO 19019G28KT 10SM OVC037 M04/M12 A3006 RMK AO2 
 PK WND 18028/2050 SLP254 T10441122 58029=
METAR KCDS 272053Z AUTO 09006KT 2SM -SN SCT014 BKN022 OVC027 M08/M11 
 A3038 RMK AO2 SLP312 P0000 60001 T10781111 58020=
METAR KCDW 272053Z AUTO 33009KT 10SM CLR M02/M17 A3041 RMK AO2 
 SLP306 60000 T10221167 53008 TSNO=
METAR KCEW 272053Z AUTO VRB05KT 10SM CLR 14/M01 A3030 RMK AO2 SLP259 
 T01441006 56018=
METAR KCEZ 272053Z AUTO 23003KT 4SM -SN BR SCT012 OVC036 00/M01 
 A2980 RMK AO2 SLP090 P0000 60000 T00001011 58021=
METAR KCGI 272053Z 05007KT 10SM CLR M05/M14 A3060 RMK AO2 SLP369 
 T10501139 58010=
METAR KCHA 272053Z 01007KT 10SM FEW250 04/M08 A3045 RMK AO2 SLP314 
 T00441083 56011=
METAR KCHO 272053Z 19006KT 10SM BKN065 03/M11 A3040 RMK AO2 SLP297 
 T00281106 53007=
METAR KCKB 272053Z 29006KT 10SM BKN075 M06/M17 A3051 RMK AO2 UPE1955 
 SLP346 P0000 60000 T10611167 53008=
METAR KCLL 272053Z 04011KT 10SM OVC032 06/M03 A3034 RMK AO2 SLP276 
 T00561028 56025=
METAR KCLM 272053Z AUTO 07007KT 7SM -RA SCT007 BKN015 OVC023 08/06 
 A2982 RMK AO2 SLP097 P0002 60012 T00780061 51006=
METAR KCMI 272053Z 26006KT 10SM CLR M11/M17 A3061 RMK AO2 SLP385 
 T11061172 56008=
METAR KCNM 272053Z AUTO 13009KT 10SM OVC013 M04/M08 A3016 RMK AO2 
 SLP224 T10391078 56027=
####018001330####
SAXX60 KWBC 272100
METAR
KNRB 272052Z 02013G23KT 10SM BKN015 OVC220 10/06 A3029 RMK AO2
     SLP258 T01000061 57008 $=
KNHK 272052Z 04008KT 9SM FEW033 SCT045 SCT250 M01/M07 A3047 RMK
     AO2 SLP318 IR12P 60000 T10111067 53015=
KBAN 272052Z AUTO 23011G22KT 10SM BKN040 OVC050 06/M07 A2966 RMK
     AO2 PK WND 22029/2026 RAB15E41 SLP036 P0001 60001 T00561072
     58024 $=
ROTM 272058Z 11016G23KT 9000 DZ BR OVC015 17/16 A3007 RMK SLP170
     P0001 60001 T01670153 58003=
KHEY 272053Z AUTO 06008KT 10SM CLR 14/M03 A3028 RMK AO2 SLP245
     T01391033 56016=
KLOR 272053Z AUTO 36010KT 10SM CLR 14/M02 A3028 RMK AO2 SLP254
     T01441022 56018=
KNQX 272053Z 02009KT 10SM BKN008 BKN100 23/19 A3006 RMK AO2 SLP178
     T02330194 58014 $=
TJNR 272053Z AUTO 10011G18KT 10SM FEW047 SCT055 27/20 A3006 RMK
     AO2 SLP178 T02670200 56007 $=
KNIP 272053Z 04015KT 10SM FEW028 SCT150 BKN250 13/04 A3029 RMK AO2
     SLP253 T01330039 56009=
PABI 272053Z 11005KT 10SM FEW200 M07/M11 A3044 RMK AO2 SLP350
     T10721111 58010=
KNFG 272054Z 21008KT 7SM FEW027 BKN040 18/11 A2981 RMK AO2 SLP094
     T01780106 58021=
KNZY 272052Z 19013KT 10SM FEW028 BKN037 17/12 A2983 RMK AO2 SLP099
     T01720122 58012 $=
KNKT 272054Z 33009KT 10SM CLR 10/M02 A3038 RMK AO2 SLP285
     T01001017 53003 $=
####018002354####
SAUS80 KWBC 272100 RRA
METAR
PAYA 272053Z 00000KT 10SM FEW160 06/M01 A3045 RMK AO2 SLP309
     T00561011 51002=
PHJR 272053Z 27007KT 10SM CLR 28/18 A3000 RMK AO2 SLP164 T02780183
     51004=
PABE 272053Z 12007KT 10SM OVC031 M02/M05 A3028 RMK AO2 SLP256
     T10171050 58018=
PACD 272053Z 14021KT 10SM FEW055 OVC100 05/02 A3010 RMK AO2 PK WND
     13029/2039 SLP193 60000 T00500022 58010 $=
PADQ 272053Z 27003KT 10SM SCT011 BKN045 OVC200 01/M01 A3042 RMK
     AO2 SLP303 T00061011 58006=
PAFA 272053Z 00000KT 10SM FEW090 SCT200 M08/M12 A3046 RMK AO2
     SLP328 T10831117 58008=
PAJN 272053Z 26003KT 10SM CLR 05/M04 A3044 RMK AO2 SLP307
     T00501039 58003=
PAMC 272053Z 00000KT 10SM OVC010 M08/M12 A3038 RMK AO2 SLP296
     T10831117 58017=
PANC 272053Z 33003KT 10SM BKN190 M04/M10 A3046 RMK AO2 SLP317
     T10391100 55006=
PANN 272053Z AUTO 09010KT 10SM CLR M07/M11 A3042 RMK AO2 SLP313
     T10671106 58015 TSNO=
PANT 272053Z 31007KT 10SM FEW250 09/M03 A3030 RMK AO2 SLP261
     T00941033 51004=
PAOM 272053Z 14012KT 10SM FEW010 OVC027 M01/M02 A3014 RMK AO2
     SLP207 T10111022 56009=
PAOR 272053Z 00000KT 10SM FEW003 FEW150 SCT200 M11/M13 A3044 RMK
     AO2 SLP364 IC T11111128 56006=
PAQT 272053Z AUTO 27020KT 3SM BLSN BKN042 M11/M13 A3018 RMK AO2 PK
     WND 27030/2001 UPE1954 SLP219 6//// T11061133 53015 TSNO
     PNO=
K9MN 272053Z AUTO 27006KT 10SM CLR M12/M18 A3052 RMK AO1
     T11161183=
KAAF 272053Z AUTO 05009KT 10SM CLR 15/04 A3025 RMK AO2 SLP243
     T01500039 56019=
PHNL 272053Z 05003KT 10SM FEW030 SCT038 SCT050 SCT140 BKN240 28/18
     A2998 RMK AO2 SLP150 T02830183 50001=
PHTO 272053Z 12011KT 10SM FEW030 SCT100 SCT200 28/20 A2997 RMK AO2
     SLP147 T02830200 50000=
PHKO 272053Z 29008KT 10SM CLR 27/19 A2996 RMK AO2 SLP147 T02720194
     50005=
PHLI 272053Z 01014KT 10SM CLR 27/17 A3001 RMK AO2 SLP159 T02720172
     50007=
PHJR 272053Z 27007KT 10SM CLR 28/18 A3000 RMK AO2 SLP164 T02780183
     51004=
K12N 272054Z AUTO VRB04KT M03/M17 A3039 RMK AO1 SLP310 T10331167
     53009=
KAPN 272054Z AUTO 23007KT 10SM UP CLR M07/M18 A3044 RMK AO2 SLP327
     P0000 60000 T10721183 55003=
K1V4 272054Z AUTO M07/M23 A3032 RMK AO1 SLP294 T10721228 53005=
KMQE 272054Z AUTO 26007KT M04/M19 A3030 RMK AO1 SLP282 T10441189
     53009=
####018000107####
SAAW34 KWBC 272045 RRA
METAR
OAKB 272050Z 22003KT 5000 BR NSC 00/M01 Q1020 NOSIG RMK WHT
     WHT=
####018000032####
SAAW41 KWBC 272050 RRA
NIL=
####018000551####
SABX31 KWBC 272050
METAR
EBAW 272050Z 26004KT CAVOK 03/M00 Q1022 NOSIG=
EBBE NIL=
EBBL NIL=
EBBR 272050Z 23002KT CAVOK 01/M01 Q1022 NOSIG=
EBBT NIL=
EBCI 272050Z 23004KT CAVOK 02/M02 Q1022 NOSIG=
EBCV NIL=
EBDT NIL=
EBFN NIL=
EBFS NIL=
EBGB NIL=
EBKH NIL=
EBKT NIL=
EBLB NIL=
EBLG 272050Z 27004KT CAVOK 01/M02 Q1022 NOSIG=
EBMT NIL=
EBOS 272050Z 20008KT 9999 FEW022 02/M00 Q1021 NOSIG=
EBSH NIL=
EBSP NIL=
EBST NIL=
EBTN NIL=
EBTY NIL=
EBZW NIL=
ELLX 272050Z 29004KT 9999 FEW041 01/M02 Q1021 NOSIG=
####018000859####
SADL31 KWBC 272050
METAR
EDBB NIL=
EDBT NIL=
EDCK NIL=
EDDF 272050Z 28005KT 9999 SCT049 OVC060 04/02 Q1020 NOSIG=
EDDH 272050Z 29009KT 9999 BKN034 03/01 Q1017 NOSIG=
EDDK 272050Z 03002KT 9999 FEW036 00/M02 Q1021 NOSIG=
EDDL 272050Z 29007KT CAVOK 04/M01 Q1021 NOSIG=
EDDM 272050Z 26007KT 4500 -SNRA OVC006 01/01 Q1017 TEMPO 2000
     SN=
EDDN 272050Z 27006KT 9999 -RA SCT011 BKN023 03/02 Q1017 NOSIG=
EDDS 272050Z 31012KT 8000 -RASN SCT010 BKN024 02/02 Q1019
     NOSIG=
EDDW 272050Z 29006KT 9999 BKN035 03/00 Q1019 NOSIG=
EDFE 272050Z NIL=
EDFM 272050Z NIL=
EDHI NIL=
EDHL 272050Z 28004KT 250V330 9999 SCT016 04/03 Q1016=
EDHL 272050Z 28004KT 250V330 9999 SCT016 04/03 Q1016 RMK ATIS
     FOX=
EDJA 272050Z 25011KT 3900 -SN BR BKN006 BKN009 00/M00 Q1017=
EDKB NIL=
EDKS NIL=
EDLE NIL=
EDLG NIL=
EDLI NIL=
####018000493####
SADL32 KWBC 272050
METAR
EDLN NIL=
EDLP 272050Z VRB02KT 9999 SCT041 02/01 Q1019=
EDLP 272050Z VRB02KT 9999 SCT041 02/01 Q1019 RMK ATIS GOL=
EDLS NIL=
EDLW 272050Z 26004KT 9999 BKN048 02/M02 Q1020=
EDLW 272050Z 26004KT 9999 BKN048 02/M02 Q1020 RMK ATIS H=
EDMA NIL=
EDML NIL=
EDMO NIL=
EDMS NIL=
EDQD NIL=
EDQM NIL=
EDRS NIL=
EDRT NIL=
EDTB NIL=
EDTD NIL=
EDTF NIL=
EDTK NIL=
EDTO NIL=
EDTY NIL=
EDTZ NIL=
EDVE 272050Z 29007KT CAVOK 03/03 Q1018=
####018000157####
SADL33 KWBC 272045 RRB
METAR
EDDV 272050Z 26004KT 230V290 9999 FEW035 SCT250 01/00 Q1018
     NOSIG=
EDVK 272050Z 30009KT 9999 BKN041 03/01 Q1018=
####018000931####
SADN31 KWBC 272050
METAR
EKAH 272050Z AUTO 25001KT 6000NDV BKN032/// 01/M01 Q1015=
EKBI 272050Z AUTO 25002KT 8000NDV NCD M01/M01 Q1016=
EKCH 272052Z 02001KT 5000 -DZRA BKN025 03/02 Q1015 TEMPO 4000
     BKN014=
EKEB 272050Z AUTO 25004KT 9999NDV NCD 00/M01 Q1016=
EKHO NIL=
EKKA 272050Z AUTO 24004KT 9999NDV FEW026/// 01/M00 Q1015=
EKMB NIL=
EKOD 272053Z NIL=
EKRK 272050Z AUTO 32005KT 2300NDV -RA BR SCT002/// BKN004///
     BKN011/// 01/01 Q1015=
EKRN 272050Z AUTO 08004KT 2500NDV BR NCD 02/02 Q1015=
EKSB 272050Z 28006KT CAVOK 03/01 Q1016=
EKSN 272053Z NIL=
EKSP 272050Z 28004KT CAVOK M01/M02 Q1016 RMK SCT230=
EKSP 272050Z 28004KT CAVOK M01/M02 Q1016=
EKSV NIL=
EKTS NIL=
EKVA NIL=
EKVD 272050Z AUTO 28004KT //// ///////// 01/M00 Q1016=
EKVG 272050Z AUTO 15023G35KT 8000NDV -RA OVC007/// 06/05 Q0980=
EKVJ 272053Z NIL=
EKVL NIL=
EKYT 272050Z 25003KT 9999 FEW030 01/M00 Q1015=
####018000414####
SAEM31 KWBC 272030 RRB
METAR
LOWG 272050Z 06004KT 9999 BKN034 04/01 Q1014 NOSIG=
LOWI 272050Z 16003KT 130V190 6000 -RA SCT006 BKN012 01/01 Q1016
     R08/1///95 TEMPO BKN006=
LOWK 272050Z 31003KT CAVOK 02/M00 Q1014 NOSIG=
LOWL 272050Z 25007KT 9999 FEW044 BKN100 04/01 Q1016 NOSIG=
LOWS 272050Z VRB01KT 9999 -RA FEW025 BKN030 04/01 Q1017 NOSIG=
LOWW 272050Z 12003KT 9999 FEW035 03/01 Q1015 NOSIG=
####018001924####
SAEN31 KWBC 272050
METAR
EETN 272050Z 10004KT 9999 OVC024 01/M01 Q1017 R08/12//95 NOSIG=
EFHF 272050Z AUTO 10006KT 9999 FEW006 OVC022 00/M01 Q1018=
EFHK 272050Z 10005KT 8000 FEW005 OVC022 M00/M01 Q1018 NOSIG=
EFIV NIL=
EFJY 272050Z AUTO 15005KT 9999 FEW021 M01/M03 Q1016=
EFKE NIL=
EFKK 272050Z 19015KT 150V220 9999 OVC018 00/M03 Q1012=
EFKU 272050Z AUTO 17009KT 9999 OVC015 00/M02 Q1017=
EFMA 272050Z AUTO 18010KT 9999 OVC011 03/02 Q1015=
EFOU 272050Z AUTO 17009KT 9999 BKN031/// M00/M03 Q1012
     R12/19//95=
EFPN NIL=
EFPO 272050Z AUTO 16009KT 9999 OVC010/// 01/M01 Q1015
     R12/0/0095=
EFRO 272050Z AUTO 17013KT 9000 -SN FEW011 SCT014 BKN017 OVC021
     M02/M03 Q1008=
EFTN NIL=
EFTP 272050Z AUTO 17008KT 130V200 9999 BKN009 BKN011 00/M02
     Q1016=
EFTU 272050Z AUTO 19004KT 150V230 9999 OVC007/// 00/M01 Q1016
     R08/19//95=
EFVA 272050Z AUTO 19013KT 9999 OVC011/// 01/M01 Q1012
     R16/12//95=
ENBO 272050Z 16017KT CAVOK 05/M03 Q0995 TEMPO 18020G30KT=
ENBR 272050Z 17017KT 9999 VCSH SCT012 BKN035 05/04 Q1007 RMK WIND
     1200FT 18019KT=
ENCN 272050Z 06003KT 9999 BKN033 M01/M01 Q1013=
ENEB NIL=
ENFB 272050Z AUTO 20037KT 9999NDV BKN022/// BKN055/// BKN120///
     07/03 Q1000 W///S7=
ENGM 272050Z VRB02KT 8000 4000W BCFG BKN002 M01/M01 Q1010 TEMPO
     2000 BCFG=
ENHD 272050Z 17011KT 9999 FEW016 SCT026 05/03 Q1009=
ENKR 272050Z 19016KT 9999 BKN021 00/M03 Q1003 RMK WIND 731FT
     21026KT=
ENSB 272050Z 11012KT 9999 NSC M10/M21 Q1007 RMK WIND 1400FT
     11010KT=
ENTC 272050Z 19012KT 9999 -RA FEW007 BKN033 02/M00 Q0997 NOSIG RMK
     WIND 2600FT 18017KT=
ENVA 272050Z 18015KT CAVOK 06/M06 Q1001 RMK WIND 670FT 20023KT=
ENZV 272050Z 17008KT 9999 SCT030 04/03 Q1010=
EVRA 272050Z VRB01KT 8000 OVC008 01/01 Q1016 R36/190095 NOSIG=
EYVI 272050Z 15002KT 1600 -RASN BR BKN005 OVC015 01/01 Q1015
     R20/2/0195 NOSIG=
####018000447####
SAGR31 KWBC 272050
METAR
LGAD NIL=
LGAL NIL=
LGAT NIL=
LGAV 272050Z 18002KT 9999 -RA FEW020 SCT030 BKN070 10/07 Q1006
     NOSIG=
LGAZ NIL=
LGEL NIL=
LGIR 272050Z 21010KT 9999 -RA FEW018TCU SCT030 13/09 Q1009
     NOSIG=
LGKF NIL=
LGKL NIL=
LGKO NIL=
LGKR 272050Z NIL=
LGKV NIL=
LGLM NIL=
LGMT NIL=
LGRP 272050Z 21003KT 9999 FEW018TCU SCT020 14/10 Q1010 NOSIG=
LGSA NIL=
LGSM NIL=
LGSR NIL=
LGTS NIL=
####018000028####
SAGR41 KWBC 272050
NIL=
####018000749####
SAIY31 KWBC 272050
METAR
LIBC NIL=
LIBD 272050Z 31008KT 9999 -DZ SCT030 09/07 Q1011=
LIBP NIL=
LIBR 272045Z 29011KT 9999 -RA FEW012 FEW015TCU SCT025 10/09 Q1009
     NOSIG=
LICA NIL=
LICC 272050Z 26007KT 220V310 9999 FEW040 08/04 Q1011=
LICG NIL=
LICJ 272050Z 28006KT 9999 SCT024 14/09 Q1013=
LICR NIL=
LICT NIL=
LIEA 272050Z 02002KT 9999 FEW040 08/07 Q1014=
LIEE 272050Z 34005KT 9999 FEW020 10/08 Q1014=
LIEO 272050Z 22003KT 200V260 9999 FEW040 07/06 Q1014=
LIEU NIL=
LIMC 272050Z 30005KT CAVOK 04/M00 Q1013 NOSIG=
LIME 272050Z 09005KT 8000 NSC 06/03 Q1013=
LIMF 272050Z 30003KT CAVOK 06/00 Q1013=
LIMG NIL=
LIMJ 272050Z 07003KT 030V090 CAVOK 10/00 Q1013=
LIML 272050Z 24004KT CAVOK 07/03 Q1013 NOSIG=
####018000590####
SAIY32 KWBC 272050
METAR
LIMW NIL=
LIPB 272050Z VRB01KT 9999 FEW120 04/01 Q1015=
LIPE 272050Z 21005KT CAVOK 06/03 Q1013=
LIPH 272045Z /////KT 9000 NSC 09/06 Q1012=
LIPK 272050Z NIL=
LIPO NIL=
LIPQ 272050Z 10004KT CAVOK 07/00 Q1013=
LIPR 272050Z NIL=
LIPV NIL=
LIPX 272045Z 27006KT CAVOK 06/03 Q1013=
LIPY NIL=
LIPZ 272050Z 23008KT 190V280 CAVOK 09/04 Q1012=
LIRA 272045Z 16003KT CAVOK 08/05 Q1011=
LIRF 272050Z VRB01KT CAVOK 09/07 Q1012 NOSIG=
LIRJ NIL=
LIRP 272045Z 16002KT CAVOK 07/06 Q1012 NOSIG=
LIRQ 272050Z VRB02KT CAVOK 06/02 Q1012=
LIRZ NIL=
####018000306####
SAIY41 KWBC 272050
METAR
LIBA NIL=
LIBE NIL=
LIBG NIL=
LIBN NIL=
LIBQ NIL=
LIBT NIL=
LIBV NIL=
LIBY NIL=
LICD NIL=
LICE NIL=
LICF NIL=
LICU NIL=
LICX NIL=
LICZ NIL=
LIEB NIL=
LIED NIL=
LIIH NIL=
LIIJ NIL=
LIIZ NIL=
LIMC 272050Z 30005KT CAVOK 04/M00 Q1013 NOSIG=
####018000028####
SAIY42 KWBC 272050
NIL=
####018000395####
SAIY43 KWBC 272050
METAR
LIPX 272045Z 27006KT CAVOK 06/03 Q1013=
LIQC NIL=
LIQE NIL=
LIQN NIL=
LIQO NIL=
LIQW NIL=
LIRE NIL=
LIRG NIL=
LIRH NIL=
LIRK NIL=
LIRL NIL=
LIRO NIL=
LIRS NIL=
LIRT NIL=
LIRU NIL=
LIRV NIL=
LIRX NIL=
LIRZ NIL=
LIVA NIL=
LIVC NIL=
LIVD NIL=
LIVE NIL=
LIVF NIL=
LIVM NIL=
LIVO NIL=
LIVP NIL=
LIVR NIL=
LIVT NIL=
####018000078####
SAID33 WABP 272100
METAR WABP 272100Z 00000KT 6000 HZ SCT014 23/23 Q1010=
####018000144####
SAMX41 KWBC 272045 RRB
METAR
MMCE 272044Z 36006KT 5SM SCT010 OVC070 26/22 A2993 RMK SLP132
     52027 930 8/21/ SC=
MMMT 272045Z NIL=
####018000292####
SAMX31 KWBC 272045 RRB
METAR
MMMD 272045Z 36008KT 7SM BKN025 BKN300 29/21 A2993 RMK SLP132
     56030 927 8/108 HZY=
MMTP 272042Z 26010KT 10SM SKC 31/22 A2979 RMK SLP078 57023 953=
MMUN 272046Z 13010KT 7SM SCT015TCU SCT080 28/23 A2997 RMK SLP138
     57020 938 8/270 CB 4 QUAD=
####018000105####
SPCN46 CWAO 272055
SPECI CYKL 272055Z AUTO 29012G20KT 7SM -SN OVC035 M26/M33 A2966 RMK
 SLP117=

####018000335####
SANL31 KWBC 272050
METAR
EHAM NIL=
EHBD NIL=
EHBK NIL=
EHDL NIL=
EHEH NIL=
EHGG NIL=
EHGR NIL=
EHHO NIL=
EHHV NIL=
EHKD 272055Z AUTO 23006KT 9999 NCD 03/01 Q1020 BLU=
EHLE NIL=
EHLW NIL=
EHMZ NIL=
EHRD NIL=
EHSB NIL=
EHTE NIL=
EHTW NIL=
EHTX NIL=
EHVB NIL=
EHVK NIL=
EHVL NIL=
EHWO NIL=
####018001197####
SANO41 KWBC 272050
METAR
ENAL 272050Z 21018KT 9999 BKN035 06/02 Q1000=
ENAN 272050Z 15015KT CAVOK 03/00 Q0994 NOSIG=
ENAT 272050Z 20010G20KT 140V250 9999 -SHRA FEW019 BKN028 03/M03
     Q0998 RMK WIND 700FT 19020KT=
ENBL 272050Z 19010KT 9999 -SHRASN FEW005 SCT010 BKN014 01/01
     Q1004=
ENBN 272050Z 20021KT 9999 -SHRA FEW030 SCT040 BKN055 05/M03
     Q0998=
ENBV 272050Z 22023KT 9999 -SHRA FEW011 SCT051 01/M02 Q0999=
ENDI NIL=
ENDU 272050Z 10005KT 9999 -RASN FEW005 SCT025 00/M00 Q0997=
ENEK 272050Z 20018KT 9999 FEW015 06/02 Q1012 W07/S5=
ENEV 272050Z 22008KT 190V260 CAVOK 02/M03 Q0996 RMK WIND 1400FT
     16014KT=
ENFG 272050Z NIL=
ENFL 272050Z 19024KT 9999 VCSH FEW015CB SCT020 SCT035 06/03
     Q1003=
ENFR NIL=
ENGC 272050Z 22034KT 9999 VCSH SCT020 BKN050 07/02 Q1001
     W06/S7=
ENHF 272050Z 19006KT 140V240 9999 -SNRA FEW011 BKN015 01/M00 Q0996
     RMK WIND 1254FT /////KT=
ENHV 272050Z 20015KT 160V230 9999 -RASN FEW015 BKN020 02/M01
     Q0997=
ENKB 272050Z 21012G28KT 170V250 9999 SCT047 07/M01 Q0999=
ENLI NIL=
ENLK 272050Z 13013KT 9999 FEW015 SCT060 05/M03 Q0993=
ENMH 272050Z 20027KT 9999 -SHRA BKN018 01/M01 Q0997=
####018001116####
SANO42 KWBC 272050
METAR
ENML 272050Z 23016KT 9999 FEW040 BKN050 06/01 Q1000=
ENMS 272050Z 18015KT 9999 FEW040 04/M03 Q0997 RMK WIND 412FT
     19011KT 130V240=
ENNA 272050Z 17011KT 140V210 9999 BKN024 02/M02 Q0999 RMK WIND
     1800FT 22034KT=
ENNK 272050Z NIL=
ENNM 272050Z 19011KT CAVOK 05/M05 Q1000=
ENNO 272050Z NIL=
ENOA 272050Z 21033KT 9999 BKN020 06/02 Q1003 W///S6=
ENOL 272050Z 14007KT 9999 SCT040 BKN060 04/02 Q1000 NOSIG=
ENOV 272050Z NIL=
ENRA 272050Z VRB02KT 9999 FEW050 BKN070 02/M03 Q0998=
ENRM 272050Z 21019G29KT 9999 -SHRA FEW009 SCT024 BKN061 05/01
     Q0998=
ENRO 272050Z AUTO 17007KT 120V230 9999NDV NCD M01/M07 Q1003=
ENRS 272050Z NIL=
ENRY 272050Z 20005KT CAVOK 01/M00 Q1012=
ENSD 272050Z NIL=
ENSG 272050Z NIL=
ENSH 272050Z NIL=
ENSK 272050Z 14011KT 9999 FEW028 SCT060 04/M00 Q0995=
ENSN 272050Z NIL=
ENSO 272050Z 19011KT 9999 SCT020 SCT032 05/03 Q1008=
ENSR 272050Z NIL=
ENST 272050Z 19027G39KT 9999 FEW040 BKN080 05/M03 Q0996 RMK WIND
     300FT 17028G40KT=
ENSV NIL=
ENTO 272050Z 21006KT CAVOK 01/M02 Q1012=
ENVD 272050Z NIL=
####018000032####
SAOM43 KWBC 272050 RRA
NIL=
####018001546####
SASN31 KWBC 272050
METAR
ESDB NIL=
ESDF 272050Z AUTO 11003KT 1900NDV BR OVC003/// 03/03 Q1015=
ESGG 272050Z 21004KT 0350 R03/P1500N R21/0600N FZFG NSC M02/M03
     Q1013 R21/29//95=
ESGJ 272050Z AUTO 25002KT 4500 DZ SCT011/// 02/01 Q1013 REDZ=
ESGP 272050Z 19003KT 1200 R01/P2000D R19/P2000D BCFG OVC003 01/00
     Q1014=
ESKN 272050Z 17005KT 140V210 5000 BR VV006 02/01 Q1014=
ESMK 272050Z AUTO 00000KT 0050 R01/0250N R19/0175N FG VV000 01/01
     Q1014=
ESMS 272050Z 08003KT 0100 R17/0250N R35/0175V0250N FG VV002 01/01
     Q1014 R17/19//95=
ESMX 272050Z 17005KT 6000 BR OVC006 02/01 Q1014=
ESNN 272050Z AUTO 14007KT 9999 FEW014/// SCT019/// OVC027/// 01/00
     Q1009 R16/19//70=
ESNO 272050Z 20009KT 8000 BR OVC004 01/01 Q1008=
ESNQ 272050Z 20019KT 9999 -SN OVC008 M01/M02 Q0997=
ESNS 272050Z 19011KT 7000 DZ BKN007 OVC009 01/01 Q1007=
ESNU 272050Z 19015G25KT 9000 -DZ OVC006 01/00 Q1009 R14/29//65=
ESOK 272050Z AUTO 17004KT 1200 R03/P1500N R21/P1500N BR FEW001///
     BKN015/// M00/M00 Q1012=
ESOW 272050Z 20006KT 5000 -DZ BKN009 02/01 Q1014 R01/19//95=
ESPA 272050Z 19016KT 9999 OVC007 01/M00 Q1007=
ESPC NIL=
ESSA 272050Z 18007KT 8000 BR BKN011 02/01 Q1014 R01L/09//95
     R08/09//95 R01R/09//95 TEMPO BKN008=
ESSB 272050Z 19006KT 150V220 8000 BR OVC008 03/01 Q1014=
ESSD 272050Z AUTO 21004KT 9999 BKN015/// BKN023/// OVC031/// 02/00
     Q1012=
ESSN NIL=
ESSP 272050Z AUTO VRB03KT 2900 BR OVC006/// 01/01 Q1014=
ESSV 272050Z AUTO 18004KT 9000 OVC007/// 02/02 Q1016=
####018000649####
SASW31 KWBC 272050
METAR
LSGC 272050Z AUTO VRB02KT 4300 -SN OVC004 M02/M03 Q1019=
LSGG 272050Z 08002KT 9999 FEW030 BKN060 03/M00 Q1021 NOSIG=
LSGL NIL=
LSGN NIL=
LSGS 272050Z NIL=
LSZA 272050Z VRB01KT CAVOK 04/01 Q1013 NOSIG=
LSZB 272050Z VRB02KT 9999 -RASN FEW020 SCT030 BKN045 02/01 Q1020
     NOSIG=
LSZD NIL=
LSZG 272050Z AUTO VRB03KT 9999 -DZ BKN029 BKN050 03/00 Q1020=
LSZH 272050Z 21004KT 9999 -RA FEW006 SCT013 BKN018 02/01 Q1020
     TEMPO BKN012=
LSZL 272050Z AUTO 00000KT 9999NDV SCT160 04/M01 Q1013 RMK BLU=
LSZR 272050Z AUTO 25008KT 210V290 9999 -RA FEW042 BKN050 04/01
     Q1020=
LSZS 272050Z NIL=
####018000089####
SAUK31 KWBC 272050 CCA
METAR
EGLL 272050Z 20009KT 160V250 CAVOK 05/02 Q1019 NOSIG=
####018000879####
SAUK31 KWBC 272050
METAR
EGAA 272050Z 20016G26KT 9999 SCT013 BKN018 07/04 Q1005=
EGBB 272050Z 16006KT CAVOK 04/00 Q1016=
EGCC 272050Z 20013KT 9999 BKN032 06/01 Q1014 NOSIG=
EGFF 272050Z AUTO 19007KT 9999 SCT026 07/03 Q1017=
EGGD 272050Z 21010KT CAVOK 05/02 Q1017=
EGGP 272050Z 18010KT 140V210 9999 BKN028 07/03 Q1013=
EGGW 272050Z 20005KT CAVOK 04/00 Q1018=
EGHD NIL=
EGHH 272050Z 20006KT CAVOK 07/03 Q1019=
EGHI 272050Z 20007KT CAVOK 06/02 Q1019=
EGJB 272050Z 19013KT 9999 FEW018 07/05 Q1020=
EGJJ 272050Z NIL=
EGKA 272050Z NIL=
EGKB 272050Z NIL=
EGKK 272050Z 17004KT CAVOK 04/01 Q1020=
EGLF 272050Z 20010KT CAVOK 05/02 Q1019=
EGLL 272050Z 20009KT 160V250 CAVOK 05/02 Q1019=
EGMC 272050Z 21009KT CAVOK 04/01 Q1019=
EGMD 272050Z NIL=
EGNH 272050Z 17013KT 9999 BKN024 BKN030 06/01 Q1013=
EGNJ 272050Z 19008KT 9999 FEW036 05/01 Q1015=
####018000738####
SAUK32 KWBC 272050
METAR
EGNM 272050Z 20009KT 160V240 9999 SCT037 04/00 Q1013=
EGNS 272050Z NIL=
EGNT 272050Z 20011KT 9999 SCT030 BKN042 05/00 Q1010=
EGNV 272050Z 18012KT 9999 SCT045 05/M00 Q1012=
EGNX 272050Z 20011KT CAVOK 05/00 Q1016=
EGPA 272050Z AUTO 18022KT 9999 NCD 06/02 Q0998=
EGPB 272050Z 19024KT 9000 SCT025 07/03 Q0999 NOSIG=
EGPC 272050Z AUTO 19020KT 170V240 9999 NCD 05/00 Q0999=
EGPD 272050Z 19016KT 9999 BKN025 05/01 Q1004 NOSIG=
EGPF 272050Z AUTO 19010KT 9000 -RA OVC019 06/03 Q1006=
EGPH 272050Z 21017KT CAVOK 06/02 Q1006=
EGPK 272050Z 19016G26KT 9999 -SHRA SCT019 SCT023 07/04 Q1006=
EGSH 272050Z 18008KT CAVOK 03/00 Q1018 NOSIG=
EGTE 272050Z 18008KT 9999 SCT025 06/04 Q1018=
EGTG NIL=
####018000537####
SAUK41 KWBC 272050
METAR
EGAC 272050Z 19014KT 9999 SCT018 BKN021 07/04 Q1006=
EGAE 272050Z NIL=
EGBE 272050Z 20007KT CAVOK 04/01 Q1016=
EGBJ 272050Z NIL=
EGDC NIL=
EGDG NIL=
EGDL NIL=
EGDM NIL=
EGDN NIL=
EGDP NIL=
EGDR NIL=
EGDY NIL=
EGFH NIL=
EGGP 272050Z 18010KT 140V210 9999 BKN028 07/03 Q1013=
EGGW 272050Z 20005KT CAVOK 04/00 Q1018=
EGHE 272050Z NIL=
EGJA 272050Z NIL=
EGLC 272050Z 19006KT 160V220 CAVOK 06/02 Q1019=
EGNC 272050Z NIL=
EGNT 272050Z 20011KT 9999 SCT030 BKN042 05/00 Q1010=
####018000657####
SAUK42 KWBC 272050
METAR
EGOS NIL=
EGOV NIL=
EGPC 272050Z AUTO 19020KT 170V240 9999 NCD 05/00 Q0999=
EGPE 272050Z 22020KT 9999 FEW015 BKN040 06/01 Q0999=
EGPF 272050Z AUTO 19010KT 9000 -RA OVC019 06/03 Q1006=
EGPL 272050Z AUTO 19025KT 3000 -RA BKN006/// 07/06 Q0995=
EGPM 272050Z AUTO 19022KT 9999 BKN040/// 06/03 Q0997=
EGPN 272050Z 22012KT 200V260 9999 FEW048 07/03 Q1006=
EGPO 272050Z AUTO 21031G41KT 3200 -RA BKN008/// 06/04 Q0993=
EGPT NIL=
EGPU 272050Z NIL=
EGPW NIL=
EGQJ NIL=
EGQK NIL=
EGQL NIL=
EGQM NIL=
EGQS NIL=
EGSC 272050Z NIL=
EGSS 272050Z 18007KT CAVOK 03/M01 Q1018=
EGTC 272050Z NIL=
EGTI NIL=
####018000028####
SAUR31 KWBC 272050
NIL=
####018000295####
SAXX99 KWBC 272000 RRX
METAR
MMCP 272041Z 33010G20KT 7SM SCT030 27/23 A2988 RMK SLP118 57029
     920 8/100=
MMCT 272042Z 09010KT 8SM BKN015 29/21 A2993 RMK 8/400 MSGTX
     MMMD=
MMTG 272042Z 31019KT 7SM SCT022 BKN070 OVC100 23/15 A2997 RMK
     SLP120 57021 921 8/77/ FU W SW=
####018000121####
SAUS41 KLWX 272055
MTRNAK
METAR KNAK 272054Z AUTO 32009KT 10SM CLR M01/M11 A3048 RMK AO2 
SLP324 T10111111 53017
####018000112####
SAUS41 KOKX 272055
MTRMTP
METAR KMTP 272054Z AUTO 25007KT M03/M12 A3039 RMK AO1 SLP291 
T10281122 53013
####018000120####
SAUS44 KSHV 272055
MTRBKB
METAR KBKB 272054Z AUTO VRB04KT 10SM CLR 11/M03 A3032 RMK AO2 SLP298 
T01061028 56019
####018000082####
SACS31 MROC 272100
METAR 
MROC 272100Z 08012KT 9999 FEW040 29/13 A2992 NOSIG=
####018000978####
SAMX43 MMMZ 272100
METAR MMCL 272043Z 21005KT 10SM  FEW025 29/15 A2987 
      RMK SLP118 57020 907 8/100=
METAR MMCN 272045Z 16012KT 10SM  FEW025 25/13 A2981 
      RMK SLP095 8/100 HZY=
METAR MMDO 272049Z 18010KT 14SM  SKC 23/M13 A2997 
      RMK SLP036 57026 956 ISOL AC-CI RTS=
METAR MMGM 272056Z  NIL=
METAR MMHO 272045Z 17015KT 10SM  SKC 28/09 A2980 
      RMK SLP084 57023 966 ISOL CU HZY=
METAR MMLM 272040Z 19015KT 10SM  SKC 25/10 A2987 RMK SLP115 HZY=
METAR MMLP 272040Z 16006KT 10SM  SKC 27/05 A2985 RMK SLP108 57033 961=
METAR MMLT 272042Z 00000KT 8SM  SKC 27/17 A2979 RMK SLP088=
METAR MMML 272048Z 21008KT 10SM  SKC 25/03 A2968 
      RMK SLP051 57027 990 HZY=
METAR MMMZ 272045Z 23009KT 15SM  FEW230 24/14 A2985 
      RMK SLP108 57020 903 8/005=
METAR MMSD 272042Z 12018KT 12SM  SKC 26/13 A2986 RMK SLP099 57020 960=
METAR MMSL 272047Z 26008KT 10SM  SKC 23/14 A2992 
      RMK ISOL CI MSGTX MMSD=
METAR MMTJ 272056Z  NIL=
####018000106####
SPAU64 AMMC 272056
SPECI YHID 272056Z AUTO 34009KT 9999 -SHRA SCT014 BKN019 OVC053 26/25 Q1007=


####018000063####
SAUS45 KTFX 272056
MTR8S0
METAR K8S0 272040Z 35012G25KT 
####018000127####
SAUS44 KEWX 272056 COR
MTRATT
METAR KATT 272051Z AUTO VRB04KT 10SM OVC023 01/M04 A3033 RMK AO2 
SLP281 T00111039 56025
####018002935####
SAUS20 KNKA 272055
METAR KCNO 272053Z 31006KT 10SM BKN034 OVC045 17/09 A2981 RMK AO2 
 SLP091 T01720094 58023=
METAR KCNY 272053Z AUTO 00000KT 10SM OVC065 07/M05 A2974 RMK AO2 
 SLP070 T00671050 58027=
METAR KCOT 272053Z AUTO 02009KT 6SM BR FEW009 OVC015 03/01 A3026 RMK 
 AO2 SLP246 60001 T00330011 58024=
METAR KCPR 272053Z 21012KT 10SM CLR M04/M13 A2981 RMK AO2 SLP160 
 T10391128 58025=
METAR KCRE 272053Z 02005KT 10SM CLR 11/M01 A3035 RMK AO1 SLP279 
 T01111011 56005=
METAR KCRG 272053Z 03013G18KT 10SM FEW019 11/05 A3030 RMK AO2 SLP259 
 T01060050 55005=
METAR KCRQ 272053Z 20012KT 10SM FEW022 BKN027 OVC033 17/11 A2981 RMK 
 AO2 SLP092 T01720106 58012=
METAR KCRS 272053Z AUTO 07010KT 10SM SCT060 OVC085 01/M07 A3040 RMK 
 AO2 SLP296 60000 T00111067 58025=
METAR KCSM 272053Z 07010KT 2 1/2SM -SN OVC016 M08/M12 A3042 RMK AO2 
 SLP326 P0000 60000 T10781122 56018=
METAR KCSV 272053Z AUTO 03009KT 10SM CLR M02/M13 A3042 RMK AO2 
 SLP322 T10171133 55005=
METAR KCUB 272053Z AUTO VRB03KT 10SM CLR 13/M01 A3034 RMK AO2 SLP274 
 T01281006 55014=
METAR KCUT 272053Z AUTO VRB06KT 2SM -SN OVC015 M12/M16 A2988 RMK AO2 
 SLP232 P0000 60000 T11171156 58019=
METAR KCVH 272050Z AUTO 30003KT 10SM SCT028 BKN048 OVC050 17/11
 A2983 RMK AO1=
METAR KCXO 272053Z 03005KT 10SM SCT038 OVC100 08/M02 A3034 RMK AO2 
 SLP275 T00831022 58017=
METAR KCYS 272053Z 19015KT 4SM -SN OVC016 M11/M15 A2985 RMK AO2 
 SNB50 SLP203 P0000 60000 T11111150 58019=
METAR KD39 272052Z AUTO 23008KT 10SM CLR M10/M19 A3044 RMK AO2
 T10971190=
METAR KD95 272052Z AUTO 27008G11KT 10SM SCT038 M09/M18 A3053 RMK
 AO2 T10881181=
METAR KDAB 272053Z 36013G21KT 9SM OVC014 12/09 A3024 RMK AO2 SLP240 
 T01220089 55007=
METAR KDAL 272053Z 07009KT 2SM -SN BR BKN013 OVC042 M02/M06 A3043 
 RMK AO2 SLP308 P0000 60008 T10221056 56027=
METAR KDAN 272053Z AUTO 33005KT 10SM CLR 05/M08 A3040 RMK AO2 SLP294 
 T00501078 53002=
METAR KDBQ 272053Z AUTO 27006KT 10SM CLR M13/M21 A3056 RMK AO2 
 SLP382 T11281206 56009=
METAR KDCU 272053Z AUTO 10SM CLR 01/M08 A3047 RMK AO2 SLP324 
 T00111078 56017=
METAR KDEN 272053Z 16003KT 10SM FEW060 FEW110 M08/M15 A2990 RMK AO2 
 SLP189 T10831150 58022=
METAR KDEQ 272053Z AUTO 08008KT 8SM BKN041 OVC055 M01/M11 A3049 RMK 
 AO2 SLP327 T10061106 58018=
METAR KDET 272053Z 24007KT 10SM CLR M07/M20 A3055 RMK AO2 SLPNO 
 T10671200 55000=
METAR KDEW 272053Z AUTO 05012G20KT 10SM FEW050 08/M04 A2980 RMK AO2 
    SLP105 T00831039 58010=
METAR KDFI 272053Z AUTO 23005KT 10SM CLR M08/M18 A3059 RMK AO2 
    SLP378 T10781183 55002=
METAR KDFW 272053Z 04007KT 1/2SM R17C/3000V6000FT SN BKN010 OVC015 
 M03/M05 A3042 RMK AO2 SLP307 P0002 60007 T10331050 55024 $=
METAR KDGW 272053Z AUTO 15013KT 10SM CLR M06/M12 A2986 RMK AO2 
 SLP181 T10561122 58025=
METAR KDHN 272053Z 07007KT 10SM CLR 14/M01 A3032 RMK AO2 SLP265 
 T01391011 56015=
####018000096####
SPUS81 KWBC 272056
SPECI
KAAT 272052Z AUTO 00000KT 10SM FEW024 BKN030 OVC037 02/01 A2969=
####018000090####
SPUS81 KWBC 272056
SPECI
KAKQ 272052Z AUTO 03007KT 10SM BKN027 BKN055 03/M03 A3044=
####018002968####
SAUS20 KNKA 272055
METAR KEPH 272053Z AUTO 04012KT 10SM SCT110 11/M01 A2978 RMK AO2 
 SLP089 T01061011 58012=
METAR KEQY 272053Z AUTO 05008KT 10SM BKN050 10/M02 A3034 RMK AO2 
    SLP291 T01001022 55006=
METAR KESF 272053Z AUTO VRB06KT 10SM CLR 08/M03 A3038 RMK AO2 SLP287 
 T00831028 56020=
METAR KEST 272052Z AUTO 22007KT 10SM CLR M12/M18 A3050 RMK AO2 
 SLP366 T11221178 56014=
METAR KEVM 272051Z AUTO 24006KT 10SM CLR M08/M21 A3034 RMK AO2=
METAR KEVW 272053Z AUTO 20010KT 10SM FEW029 FEW060 OVC085 M02/M07 
 A2971 RMK AO2 SLP088 T10171067 58019=
METAR KEWB 272053Z 28005KT 10SM CLR M02/M16 A3035 RMK AO2 SLP277 
 60000 T10221161 53012=
METAR KEYE 272053Z AUTO 33006KT 10SM CLR M09/M19 A3059 RMK AO2 
 SLP377 T10941189 55004=
METAR KEYW 272053Z 01011KT 10SM OVC009 23/20 A3006 RMK AO2 SLP179 
 T02280200 58015=
METAR KFAR 272053Z 22011KT 10SM CLR M09/M18 A3043 RMK AO2 SLP328 
 T10891178 58020=
METAR KFAT 272053Z 30007KT 10SM SCT037 BKN085 17/08 A2979 RMK AO2 
 SLP087 T01720078 58024=
METAR KFAY 272053Z AUTO 34006KT 10SM CLR 11/M03 A3036 RMK AO2 SLP276 
 T01111028 55004=
METAR KFBL 272054Z AUTO 22005KT 10SM CLR M11/M18 A3052 RMK AO2=
METAR KFCM 272053Z 22010KT 10SM CLR M11/M18 A3051 RMK AO2 SLP355 
 T11061183 56016=
METAR KFDR 272053Z AUTO 07010KT 2 1/2SM HZ BKN013 BKN018 OVC036 
 M07/M11 A3042 RMK AO2 SNE1959 SLP314 P0000 60001 T10721106 56021 
 $=
METAR KFDY 272053Z AUTO 28007KT 10SM CLR M09/M18 A3058 RMK AO2 
 SLP370 T10941183 53001=
METAR KFFC 272053Z AUTO 33007KT 10SM CLR 10/M07 A3035 RMK AO2 SLP284 
 T01001067 56009=
METAR KFFM 272054Z AUTO 00000KT 10SM CLR M10/M20 A3047 RMK AO2=
METAR KFFT 272053Z AUTO 03005KT 10SM CLR M04/M18 A3057 RMK AO2 
 SLP365 T10441178 55004=
METAR KFGN 272054Z AUTO 24009G22KT 10SM CLR M08/M23 A3028 RMK AO2=
METAR KFHR 272053Z AUTO 01007KT 10SM -RA OVC040 08/06 A2982 RMK AO2 
 SLP100 P0000 60000 T00830056 50005=
METAR KFKA 272055Z AUTO 26006KT 10SM CLR M14/M20 A3053 RMK AO2
     T11431202=
METAR KFLD 272053Z AUTO 26008KT 10SM CLR M08/M19 A3051 RMK AO2 
    SLP354 T10831189 56010=
METAR KFLL 272053Z 35009KT 10SM BKN015 OVC250 22/18 A3009 RMK AO2 
 SLP188 T02170183 56003=
METAR KFLO 272053Z VRB06KT 10SM CLR 12/M02 A3034 RMK AO2 SLP273 
 T01221017 56009=
METAR KFMN 272053Z 11008KT 3/4SM -SN BR BKN006 OVC015 00/M01 A2980 
 RMK AO2 SLP106 P0002 60009 T00001011 58021=
METAR KFMY 272053Z 06010KT 10SM OVC017 17/13 A3013 RMK AO2 SLP205 
 T01720128 56005=
METAR KFNT 272053Z 26010KT 10SM FEW037 M08/M17 A3054 RMK AO2 SLP362 
 T10781167 55002=
METAR KFOE 272053Z VRB05KT 10SM OVC075 M07/M17 A3054 RMK AO2 SLP362 
 T10721172 56026=
METAR KFOK 272053Z 32012G15KT 10SM CLR M03/M16 A3041 RMK AO2 SLP298 
 T10281156 53012=
METAR KFOZ 272053Z AUTO 23005G08KT 10SM CLR M06/M22 A3033 RMK AO2=
METAR KFPR 272053Z 35008G16KT 6SM OVC007 15/14 A3015 RMK AO2 
 RAB15E51 SLP208 P0002 60003 T01500144 55005=
####018002918####
SAUS20 KNKA 272055
METAR KDHT 272053Z AUTO 16014KT 4SM -SN SCT017 OVC023 M08/M12 A3017 
 RMK AO2 SLP256 P0000 60000 T10831122 58019=
METAR KDKK 272053Z AUTO 25009KT 10SM SCT021 M12/M17 A3057 RMK AO2 
 SLP369 T11221172 53009=
METAR KDLN 272053Z AUTO 10SM OVC070 M01/M11 A2976 RMK AO2 SLP125 
 T10111111 58019=
METAR KDLS 272053Z AUTO 06004KT 10SM -RA OVC031 08/06 A2975 RMK AO2 
 SLP075 P0003 60010 T00830061 50000=
METAR KDLZ 272107Z AUTO 32006KT 10SM CLR M09/M19 A3059 RMK AO2=
METAR KDMN 272053Z AUTO VRB06G14KT 10SM CLR 11/M03 A2987 RMK AO2 
 SLP095 T01111033 58030=
METAR KDMO 272053Z AUTO 09004KT 10SM CLR M06/M18 A3058 RMK AO2 
 SLP373 60000 T10611178 56026=
METAR KDNL 272053Z AUTO 00000KT 10SM CLR 14/00 A3032 RMK AO2 SLP267 
 T01440000 55015=
METAR KDRO 272053Z AUTO 19005KT 6SM BR SCT010 BKN014 OVC027 M02/M04 
 A2979 RMK AO2 SNE07B35E50 SLP114 P0000 60001 T10171039 56018=
METAR KDRT 272053Z AUTO 08006KT 10SM OVC017 03/M01 A3024 RMK AO2 
 SLP241 T00331006 58025=
METAR KDTN 272053Z 04010KT 10SM OVC080 01/M08 A3044 RMK AO2 SLP310 
 T00061078 58016=
METAR KDTO 272053Z 03011KT 1/4SM -SN FZFG VV013 M04/M07 A3044 RMK 
 AO2 SLP314 P0001 60002 T10441067 56024=
METAR KDTS 272053Z AUTO VRB05KT 10SM CLR 14/01 A3027 RMK AO2 SLP249 
 T01440011 56021 TSNO=
METAR KDTW 272053Z 21008KT 10SM FEW050 M07/M18 A3057 RMK AO2 SLP366 
 T10721183 53001=
METAR KDUJ 272053Z AUTO 27013KT 10SM CLR M10/M19 A3040 RMK AO2 
 SLP333 T11001194 53011=
METAR KDVP 272053Z AUTO 00000KT 10SM CLR M11/M18 A3045 RMK AO2
 T11101181=
METAR KDVT 272053Z VRB05G17KT 10SM CLR 21/M06 A2968 RMK AO2 SLP037 
 6//// T02111061 58027 $=
METAR KDWH 272053Z 01006KT 10SM OVC023 07/00 A3034 RMK AO2 SLP274 
 T00670000 58020=
METAR KDXR 272053Z 30006KT 10SM CLR M04/M19 A3038 RMK AO2 SLP296 
 T10441189 53008=
METAR KDXX 272054Z AUTO 27003KT 10SM CLR M09/M18 A3047 RMK AO2=
METAR KDYT 272053Z AUTO 22012G17KT 10SM CLR M07/M20 A3043 RMK AO2=
METAR KECP 272053Z 01008G16KT 10SM CLR 13/01 A3026 RMK AO2 SLP260 
 T01330006 56019=
METAR KEEO 272053Z AUTO 00000KT 10SM CLR M02/M07 A2977 RMK AO2 
 SLP104 T10221072 58022=
METAR KEET 272053Z AUTO 01008KT 10SM CLR 08/M04 A3040 RMK AO2 SLP296 
 T00781044 56016=
METAR KELD 272053Z AUTO 02006KT 10SM OVC090 01/M08 A3049 RMK AO2 
 SLP327 T00061078 56006=
METAR KELM 272053Z AUTO 29005KT 10SM CLR M07/M19 A3043 RMK AO2 
 SLP326 60000 T10721194 53009=
METAR KELN 272053Z AUTO 30008KT 10SM FEW009 OVC075 07/03 A2977 RMK 
 AO2 RAE00 SLP088 P0000 60002 T00670028 58003=
METAR KELO 272053Z AUTO 29006KT 10SM CLR M07/M24 A3030 RMK AO2=
METAR KELY 272053Z AUTO 20004KT 10SM OVC075 05/M11 A2966 RMK AO2 
 SLP046 T00501111 58030=
METAR KEMP 272053Z AUTO VRB04KT 10SM OVC075 M08/M18 A3052 RMK AO2 
 SLP362 T10781178 55025=
METAR KENW 272053Z 25011KT 10SM CLR M11/M19 A3057 RMK AO2 SLP372 
 T11061189 55005=
####018002951####
SAUS20 KNKA 272055
METAR KFRG 272053Z 31008KT 10SM CLR M03/M15 A3041 RMK AO2 SLP299 
 T10281150 53011=
METAR KFSM 272053Z 10004KT 2SM R25/4500V5500FT -SN OVC016 M06/M09 
 A3056 RMK AO2 SNB00 SLP353 P0001 60001 T10611089 58008=
METAR KFST 272053Z AUTO 06010KT 2 1/2SM BR OVC005 M03/M03 A3016 RMK 
 AO2 SLP222 I1001 I3004 T10331033 56019=
METAR KFTW 272053Z 01007KT 1/4SM R16/4000VP6000FT SN FZFG VV009 
 M03/M06 A3042 RMK AO2 SLP306 P0000 60000 T10331056 56023=
METAR KFTY 272053Z 01008KT 10SM CLR 08/M06 A3036 RMK AO2 SLP286 
 T00781061 56007=
METAR KFUL 272053Z VRB04KT 10SM OVC037 18/10 A2979 RMK AO2 SLP088 
 T01780100 58020=
METAR KFVE 272053Z AUTO 26012KT 10SM CLR M11/M23 A3011 RMK AO2 
 SLP221 T11111228 53018=
METAR KFWN 272053Z AUTO 28007KT 10SM CLR M04/M17 A3040 RMK AO2 
    SLP301 T10391172 53010=
METAR KFXE 272053Z AUTO 36007KT 10SM OVC011 21/18 A3010 RMK AO2 
 SLP195 T02110183 56007 TSNO=
METAR KFYV 272053Z 11005KT 1 1/2SM -SN BKN028 OVC038 M07/M13 A3051 
 RMK AO2 VIS 3/4V2 1/2 SNB40 SLP352 P0000 60000 T10721128 58005=
METAR KFZY 272054Z AUTO 26012G18KT 10SM BKN031 M09/M17 A3050 RMK AO2 
 SLP338 60000 T10941167 52011=
METAR KGAG 272053Z AUTO 12007KT 3SM -SN OVC023 M08/M13 A3037 RMK AO2 
 SLP316 P0000 60000 T10831128 56026=
METAR KGCC 272053Z AUTO 17015KT 10SM CLR M06/M12 A2987 RMK AO2 PK 
 WND 15027/1955 SLP181 T10561122 57022 TSNO=
METAR KGDB 272052Z AUTO 00000KT 7SM CLR M09/M17 A3050 RMK AO2
 T10951166=
METAR KGEG 272053Z 06010KT 10SM SCT050 SCT120 BKN200 08/M03 A2977 
 RMK AO2 SLP093 T00831033 58013=
METAR KGEY 272053Z AUTO 00000KT 10SM CLR M03/M14 A2987 RMK AO2 
    SLP163 60000 T10281144 58023=
METAR KGEZ 272053Z AUTO 31005KT 10SM CLR M07/M17 A3059 RMK AO2 
 SLP375 T10671172 55005=
METAR KGFK 272053Z 22008KT 10SM FEW250 M08/M16 A3038 RMK AO2 SLP314 
 T10831161 56018=
METAR KGGG 272053Z 04009KT 10SM FEW032 OVC080 00/M08 A3043 RMK AO2 
 SLP311 T00001078 55018=
METAR KGGW 272053Z AUTO 00000KT 10SM CLR M07/M16 A3002 RMK AO2 
 SLP215 T10671156 56016=
METAR KGHW 272047Z AUTO 24007KT 10SM CLR M10/M18 A3044 RMK AO2=
METAR KGIF 272053Z AUTO 04011KT 10SM OVC023 14/08 A3020 RMK AO2 
 SLP226 T01440083 56010=
METAR KGJT 272053Z 10SM SCT100 05/M05 A2976 RMK AO2 SLP074 T00501050 
 58024=
METAR KGKJ 272053Z AUTO 27007KT M12/M21 A3049 RMK AO2 SLP358 
 T11171206 53008 TSNO $=
METAR KGKY 272053Z 03008KT 1SM -SN BKN010 BKN017 OVC024 M02/M06 
 A3042 RMK AO2 SLP304 P0001 60002 T10221056 56025=
METAR KGLD 272053Z AUTO 17018G25KT 8SM -SN FEW017 OVC028 M09/M13 
 A3018 RMK AO2 UPE1954SNB13E41B52 SLP275 P0000 60000 T10891128 
 58018=
METAR KGLH 272053Z AUTO 03014G19KT 10SM SCT025 01/M04 A3047 RMK AO2 
 SLP328 T00111044 55022=
METAR KGLR 272053Z AUTO 27008G17KT 10SM SCT029 M11/M17 A3040 RMK AO2 
 SLP336 T11111172 53003=
METAR KGMU 272053Z 00000KT 10SM CLR 11/M03 A3032 RMK AO2 SLP272 
 T01061033 55006=
####018000645####
SAGR32 LGAT 272050
METAR LGAL 272050Z 04009KT 9999 FEW030 BKN080 13/06 Q1006=
METAR LGEL 272050Z 00000KT 7000 -RA FEW010 BKN025 OVC070 09/09 Q1005=
METAR LGIO 272050Z AUTO VRB03KT //// -RA ////// 09/06 Q1006
     RE//=
METAR LGKV 272050Z 09008KT 9999 SCT030 BKN080 13/09 Q1006=
METAR LGMT 272050Z NIL=
METAR LGPZ 272050Z 00000KT 9999 FEW012 FEW020TCU SCT025 OVC080 10/08
      Q1008=
METAR LGRX 272050Z 05004KT 8000 -RA FEW020TCU BKN025 OVC080 10/10
      Q1007=
METAR LGSK 272050Z NIL=
METAR LGSR 272050Z AUTO 24013KT //// -RA ////// 14/08 Q1008
     RE//=
METAR LGZA 272050Z AUTO 33004KT //// // ////// 10/// Q1007
     RERA=
####018000575####
SAGR33 LGAT 272050
METAR LGBL 272050Z 27005KT 6000 RA SCT008 BKN020 OVC070 09/09 Q1005=
METAR LGHI 272050Z NIL=
METAR LGKC 272050Z NIL=
METAR LGKF 272050Z AUTO 33005KT 280V350 //// -RA //////
     12/// Q1007 RE//=
METAR LGKP 272050Z AUTO 23018KT //// -RA ////// 15/08 Q1011
     RE//=
METAR LGKZ 272050Z AUTO 32006KT //// -RA ////// 07/05 Q1007
     RE//=
METAR LGMK 272050Z NIL=
METAR LGNX 272050Z NIL=
METAR LGPA 272050Z AUTO 20016KT //// -RA ////// 13/09 Q1007
     RE//=
METAR LGSO 272050Z AUTO 21017G33KT 190V280 //// -RA //////
     12/09 Q1006 RE//=
####018000472####
SAGR31 LGAT 272050
METAR LGAD 272050Z 00000KT 9999 FEW018TCU SCT025 OVC080 09/08 Q1007=
METAR LGKL 272050Z 00000KT 9999 -RA SCT020TCU SCT030 OVC080 10/09
      Q1007=
METAR LGKO 272050Z 13003KT 9999 SCT018 10/08 Q1009=
METAR LGLM 272050Z AUTO 13008KT //// -RA ////// 11/10 Q1006
     RE//=
METAR LGSA 272050Z 34005KT 9999 FEW018TCU SCT025 11/06 Q1008=
METAR LGSM 272050Z NIL=
METAR LGTS 272050Z 33012KT 9999 DZ FEW012 BKN025 OVC070 11/08 Q1007
      TEMPO RA=
####018000081####
SABZ21 SBPS 272100
METAR SBPS 272100Z 05013KT 9999 FEW015 BKN100 28/24 Q1009=
####018000391####
SAFI34 EFHK 272050
EFET 272050Z AUTO 18009KT 130V220 9999 -SN OVC010 M01/M02 Q1000=
EFIV 272050Z AUTO 18011KT 140V230 5000 -SN OVC018 M01/M03 Q1004=
EFKE 272050Z AUTO 18019G29KT 2300 -SN OVC016 00/M02 Q1009=
EFKI 272050Z AUTO 18008KT 070V220 9999 SCT018 M01/M04 Q1015=
EFKS 272050Z 19009KT 9999 OVC018 M02/M05 Q1012=
EFKT 272050Z 18017KT 4700 -SN BR OVC011 M01/M02 Q1003 R16/39//92=
####018000091####
SABZ24 SBFL 272100
METAR SBFL 272100Z 14007KT 9999 SCT030 FEW035TCU SCT100 27/22 Q1008=
####018000146####
SAUS44 KFWD 272056 COR
MTRNFW
METAR KNFW 272052Z 01008KT 1/2SM -SN FZFG VV012 M03/M05 A3047 RMK 
AO2 SLP300 P0002 60003 T10281050 56023 $
####018001639####
SAEU KAWN 272100 RRF
METAR ENAL 272050Z 21018KT 9999 BKN035 06/02 Q1000=
METAR ENAN 272050Z 15015KT CAVOK 03/00 Q0994 NOSIG=
METAR ENBL 272050Z 19010KT 9999 -SHRASN FEW005 SCT010 BKN014 01/01
      Q1004=
METAR ENBR 272050Z 17017KT 9999 VCSH SCT012 BKN035 05/04 Q1007 RMK
      WIND 1200FT 18019KT=
METAR ENCN 272050Z 06003KT 9999 BKN033 M01/M01 Q1013=
METAR ENHD 272050Z 17011KT 9999 FEW016 SCT026 05/03 Q1009=
METAR ENKB 272050Z 21012G28KT 170V250 9999 SCT047 07/M01 Q0999=
METAR ENMH 272050Z 20027KT 9999 -SHRA BKN018 01/M01 Q0997=
METAR ENNA 272050Z 17011KT 140V210 9999 BKN024 02/M02 Q0999 RMK WIND
      1800FT 22034KT=
METAR ENNM 272050Z 19011KT CAVOK 05/M05 Q1000=
METAR ENRA 272050Z VRB02KT 9999 FEW050 BKN070 02/M03 Q0998=
METAR ENSB 272050Z 11012KT 9999 NSC M10/M21 Q1007 RMK WIND 1400FT 11010KT=
METAR ENTO 272050Z 21006KT CAVOK 01/M02 Q1012=
METAR LGRP 272050Z 21003KT 9999 FEW018TCU SCT020 14/10 Q1010 NOSIG=
METAR LIBD 272050Z 31008KT 9999 -DZ SCT030 09/07 Q1011=
METAR LIBR 272045Z 29011KT 9999 -RA FEW012 FEW015TCU SCT025 10/09 Q1009
      NOSIG=
METAR LICC 272050Z 26007KT 220V310 9999 FEW040 08/04 Q1011=
METAR LIEA 272050Z 02002KT 9999 FEW040 08/07 Q1014=
METAR LIEO 272050Z 22003KT 200V260 9999 FEW040 07/06 Q1014=
METAR LIMC 272050Z 30005KT CAVOK 04/M00 Q1013 NOSIG=
METAR LIML 272050Z 24004KT CAVOK 07/03 Q1013 NOSIG=
METAR LIPB 272050Z VRB01KT 9999 FEW120 04/01 Q1015=
METAR LIPE 272050Z 21005KT CAVOK 06/03 Q1013=
METAR LIPQ 272050Z 10004KT CAVOK 07/00 Q1013=
METAR LIPX 272045Z 27006KT CAVOK 06/03 Q1013=
METAR LIRA 272045Z 16003KT CAVOK 08/05 Q1011=
####018000438####
SAUS17 KAWN 272100
METAR KBYS 272055Z AUTO 28012KT 10SM CLR 18/02 A2965 RMK AO2 SLP035
      T01780018 58033 $=
METAR KEFD 272050Z 36009KT 7SM OVC020 06/01 A3035=
METAR KIWA 272047Z 24007G16KT 45SM SCT250 23/M02 A2970=
METAR KMTC 272055Z 15010KT 10SM FEW035 M09/M16 A3053 RMK SLP361 T10931160
      55002=
METAR KNFW 272052Z 01008KT 1/2SM -SN FZFG VV012 M03/M05 A3047 RMK AO2
      SLP300 P0002 60003 T10281050 56023 $=
####018000339####
SAXX70 KAWN 272100 RRB
METAR KQAY 272055Z AUTO 24006KT 9999 CLR 15/00 A3006 RMK AO2 SLP177
      T01530004 50001 $=
METAR KQFQ 272055Z AUTO 17001KT 6SM BKN150 BKN200 M04/M08 A3038 RMK
      AO2 SLP291 T10371084 58006 $=
METAR KQSF 272055Z AUTO 00000KT 2000 BR FEW120 BKN180 01/M02 A3016
      RMK AO2 SLP273 T00131021 57005=
####018000074####
SABZ24 SBCR 272100
METAR SBCR 272100Z 31002KT 9999 FEW020 33/23 Q1007=
####018000087####
SAGL31 BGGH 272050 RRA
METAR BGBW 272050Z 00000KT 9999 SCT070 BKN180 M06/M12 Q0988=
####018000104####
SADL31 EDZO 272050 CCA
METAR COR EDDV 272050Z 26004KT 230V290 9999 FEW035 SCT250 01/00
Q1018 NOSIG=
####018002940####
SAUS20 KNKA 272055
METAR KLOZ 272053Z AUTO 05007KT 10SM CLR M03/M14 A3050 RMK AO2 
 SLP344 T10281144 55006=
METAR KLPR 272053Z AUTO 24005KT 10SM FEW038 M11/M18 A3058 RMK AO2 
 SLP377 T11061183 53004 TSNO=
METAR KLSE 272053Z 34005KT 10SM CLR M08/M20 A3056 RMK AO2 SLP375 
 T10831200 58015=
METAR KLUK 272053Z 02004KT 10SM FEW050 M06/M17 A3062 RMK AO2 
 UPB1958E07 SLP378 P0000 60000 T10561172 55003=
METAR KLVJ 272053Z AUTO 03010KT 8SM OVC020 06/01 A3035 RMK AO2 
 SLP276 T00610006 56017=
METAR KLVK 272053Z 24015G22KT 10SM SCT032 17/08 A2980 RMK AO2 SLP090 
 T01720083 58021=
METAR KLVM 272053Z AUTO 32003KT 10SM OVC070 M02/M12 A2983 RMK AO2 
 SLP158 T10221117 58011=
METAR KLVS 272053Z AUTO 18018KT 3/4SM -SN BR OVC006 M12/M14 A2989 
 RMK AO2 UPB1954E08SNE1954B08 SLP180 P0000 60000 T11171139 57023=
METAR KLWD 272053Z AUTO 00000KT 10SM CLR M11/M18 A3056 RMK AO2 
 SLP377 T11111178 58020=
METAR KLWV 272053Z AUTO 36008KT 10SM CLR M06/M16 A3064 RMK AO2 
 SNE1958 SLP382 P0000 60000 T10611161 56011=
METAR KLXL 272054Z AUTO 22007KT 10SM CLR M08/M21 A3044 RMK AO2=
METAR KLXT 272053Z AUTO 03004KT 10SM BKN090 M08/M18 A3056 RMK AO2 
    SLP368 T10781178 56026=
METAR KLXV 272053Z AUTO 17007KT 1 1/2SM -SN BR BKN019 OVC026 M09/M12 
 A2965 RMK AO2 SNB00 SLP080 P0000 60000 T10941117 58016=
METAR KLYV 272055Z AUTO 20007KT 10SM CLR M10/M16 A3048 RMK AO2=
METAR KMAE 272053Z AUTO 30009KT 10SM FEW040 SCT065 18/07 A2980 RMK 
 AO2 SLP089 T01830067 58022=
METAR KMAF 272053Z 07013KT 3SM BR OVC010 M06/M08 A3022 RMK AO2 
 SLP252 60000 T10611083 58020 $=
METAR KMAI 272053Z AUTO 05011KT 10SM CLR 14/02 A3028 RMK AO2 
 RAB08E45 SLP255 P0000 60000 T01390017 56018=
METAR KMAO 272115Z AUTO 00000KT 10SM CLR 11/00 A3036 RMK AO2=
METAR KMBS 272053Z 23015KT 10SM CLR M08/M17 A3053 RMK AO2 SLP354 
 T10831167 55004=
METAR KMCB 272053Z AUTO 05008KT 360V090 10SM CLR 09/M02 A3033 RMK 
 AO2 SLP272 T00891022 56027=
METAR KMCE 272053Z AUTO VRB04KT 10SM FEW041 SCT049 OVC065 18/08 
 A2979 RMK AO2 SLP088 T01830078 58024=
METAR KMCI 272053Z VRB04KT 10SM OVC200 M08/M18 A3055 RMK AO2 SLP366 
 T10831178 56027=
METAR KMCK 272053Z AUTO 16010G20KT 10SM BKN040 OVC060 M05/M16 A3029 
 RMK AO2 SLP302 T10501156 56031=
METAR KMCN 272053Z VRB04KT 10SM CLR 14/M01 A3031 RMK AO2 SLP265 
 T01391006 56016=
METAR KMCO 272053Z 01011KT 10SM SCT019 OVC026 13/10 A3021 RMK AO2 
 SLP228 60000 T01330100 56009=
METAR KMCW 272053Z AUTO 27004KT 10SM CLR M14/M18 A3055 RMK AO2 
 SLP377 T11391183 56011=
METAR KMDS 272050Z AUTO 18009KT 10SM CLR M10/M16 A3041 RMK AO2=
METAR KMDW 272053Z 26009KT 230V310 10SM CLR M08/M19 A3060 RMK AO2 
 SLP385 T10831189 56006=
METAR KMFE 272053Z 02007KT 10SM OVC030 17/09 A3016 RMK AO2 SLP211 
 T01670089 56029=
METAR KMFR 272053Z 23005G16KT 10SM -RA FEW041 SCT050 BKN070 09/05 
 A2977 RMK AO2 RAE1955B34 SLP081 P0000 60000 T00890050 58014=
####018002938####
SAUS20 KNKA 272055
METAR KHOT 272053Z AUTO 06010KT 10SM OVC085 M01/M13 A3053 RMK AO2 
 SLP343 T10111128 58001=
METAR KHOU 272053Z 03010KT 10SM OVC021 06/01 A3034 RMK AO2 SLP279 
 T00560006 56016=
METAR KHQM 272053Z AUTO 05014G19KT 8SM SCT015 BKN022 OVC029 12/08 
 A2972 RMK AO2 SLP066 60000 T01170078 58001=
METAR KHRI 272053Z AUTO 02006KT 10SM BKN055 OVC070 10/03 A2972 RMK 
    AO2 RAE42 SLP063 P0000 60000 T01000028 58005=
METAR KHRO 272053Z AUTO 10003KT 10SM OVC055 M07/M17 A3052 RMK AO2 
 SLP358 T10721167 55004=
METAR KHSI 272053Z AUTO 15007KT 10SM FEW110 M06/M21 A3039 RMK AO2 
 SLP332 T10611206 56031=
METAR KHSV 272053Z 01008KT 10SM CLR 02/M08 A3046 RMK AO2 SLP317 
 T00221078 56017=
METAR KHTL 272053Z AUTO 24006KT 10SM FEW040 M09/M17 A3044 RMK AO2 
 SLP340 T10891172 55003=
METAR KHUF 272053Z 31007KT 10SM CLR M08/M18 A3062 RMK AO2 SLP379 
 T10831183 56008=
METAR KHUL 272053Z AUTO 27012G19KT 10SM CLR M08/M23 A3019 RMK AO2 
 SLP238 T10831228 53014=
METAR KHVN 272053Z 34009KT 10SM CLR M03/M18 A3039 RMK AO2 SLP290 
 T10281178 53010=
METAR KHVR 272053Z AUTO 27009KT 10SM BKN029 M05/M13 A3004 RMK AO2 
 SLP223 60000 T10501128 57008=
METAR KHWO 272053Z 35012KT 10SM SCT013 22/17 A3011 RMK AO2 SLP194 
 T02220172 56002=
METAR KHYR 272053Z AUTO 24007KT 10SM CLR M09/M22 A3043 RMK AO2 
 SLP340 60000 T10941217 56013=
METAR KHZX 272048Z AUTO 23006KT 10SM CLR M07/M21 A3040 RMK AO2=
METAR KHZY 272053Z AUTO 27009KT 10SM CLR M11/M20 A3056 RMK AO2 
 SLP374 T11111200 53007=
METAR KI69 272055Z AUTO 31003KT 10SM CLR M06/M17 A3059 RMK AO1=
METAR KIAH 272053Z 04005KT 8SM OVC022 06/00 A3035 RMK AO2 SLP277 
 T00610000 56019=
METAR KICR 272053Z AUTO 17015G19KT 10SM CLR M03/M21 A3028 RMK AO2 
 SLP291 T10331206 56035=
METAR KICT 272053Z 10003KT 1 1/4SM -SN SCT024 OVC036 M09/M13 A3050 
 RMK AO2 SFC VIS 1 1/2 SLP353 P0000 60002 T10891133 56009=
METAR KIDA 272053Z 00000KT 10SM SCT019 BKN024 OVC034 00/M04 A2976 
 RMK AO2 SNE08 SLP103 P0000 60000 T00001039 56013=
METAR KIKW 272053Z AUTO 25010KT 10SM SCT039 M07/M16 A3051 RMK AO2
 T10701161=
METAR KILM 272053Z 03006KT 10SM CLR 11/00 A3036 RMK AO2 SLP279 
 T01060000 58004=
METAR KIML 272053Z AUTO 16016G22KT 6SM -SN M07/M13 A3019 RMK AO2 
 SNB47 SLP277 P0000 60000 T10671128 56029 $=
METAR KIMS 272052Z AUTO 00000KT 10SM CLR M05/M20 A3060 RMK AO1=
METAR KINK 272053Z AUTO 08011KT 10SM OVC012 M04/M08 A3019 RMK AO2 
 SLP239 T10391078 56027=
METAR KIPL 272053Z AUTO VRB04KT 10SM CLR 25/04 A2965 RMK AO2 SLP041 
 T02500039 58028=
METAR KITR 272053Z AUTO 16019KT 5SM HZ SCT017 SCT026 OVC047 M10/M14 
 A3011 RMK AO2 PK WND 16027/2006 SNE45 SLP254 P0000 60000 
 T11001139 56017=
METAR KIXD 272053Z 05004KT 10SM BKN075 OVC090 M07/M18 A3054 RMK AO2 
 SLP364 60000 T10721183 56028=
METAR KJBR 272053Z AUTO 05010KT 10SM FEW024 FEW110 M04/M09 A3057 RMK 
 AO2 SLP356 T10441089 55012=
####018002935####
SAUS20 KNKA 272055
METAR KGNV 272053Z 04009KT 10SM CLR 14/04 A3025 RMK AO2 SLP243 
 T01440044 56014=
METAR KGOK 272053Z AUTO 10007KT 2SM -SN SCT019 BKN038 OVC070 M07/M12 
 A3050 RMK AO2 SLP348 P0000 60000 T10721117 56018=
METAR KGPT 272053Z 02007KT 340V060 10SM CLR 13/M01 A3029 RMK AO2 
 SLP255 T01281011 56026=
METAR KGRB 272053Z AUTO 24012KT 10SM CLR M08/M17 A3049 RMK AO2 
 SLP342 T10781172 56010=
METAR KGRR 272053Z 26008KT 2SM R26L/5500VP6000FT -SN FEW012 BKN018 
 BKN031 M08/M12 A3054 RMK AO2 SNB06 SLP362 P0000 60000 T10831122 
 55004=
METAR KGSH 272053Z AUTO 24007KT 10SM BKN033 M09/M16 A3057 RMK AO2 
 SLP375 T10891161 56003 $=
METAR KGSP 272053Z 05005KT 10SM CLR 12/M03 A3031 RMK AO2 SLP264 
 T01171033 55007=
METAR KGTF 272053Z 34009KT 8SM OVC019 M08/M12 A3000 RMK AO2 SNE53 
 SLP232 P0000 60000 T10781117 50001=
METAR KGUP 272053Z AUTO 26008KT 7SM -SN FEW009 BKN040 OVC060 02/M01 
 A2979 RMK AO2 SNE24B45 SLP094 P0000 60002 T00221006 58019=
METAR KGUY 272053Z AUTO 14010KT 4SM -SN OVC024 M09/M13 A3025 RMK AO2 
 SLP278 P0000 60001 T10891133 58027=
METAR KGVL 272053Z AUTO 26010KT 10SM CLR 08/M10 A3034 RMK AO2 SLP278 
 T00831100 55007=
METAR KGWO 272053Z AUTO A3044 RMK AO2 SLPNO 57030 PWINO=
METAR KGYL 272054Z AUTO 25005KT 10SM CLR M10/M16 A3050 RMK AO2
 T11031161=
METAR KGZH 272053Z AUTO 04006G18KT 10SM CLR 13/M02 A3032 RMK AO2 
 SLP266 T01281017 56022=
METAR KHAO 272053Z AUTO 31007KT 10SM CLR M07/M17 A3062 RMK AO2 
 SLP380 T10721167 55003=
METAR KHBG 272053Z AUTO 01008KT 10SM CLR 09/M01 A3035 RMK AO2 SLP277 
 T00941011 56033=
METAR KHBR 272053Z AUTO 08012KT 6SM HZ OVC040 M08/M11 A3043 RMK AO2 
 SLP326 60000 T10781111 56014=
METAR KHCD 272053Z AUTO 21006KT 10SM CLR M10/M17 A3050 RMK AO2
 T11021175=
METAR KHEI 272053Z AUTO 17015G22KT 10SM CLR M04/M16 A3008 RMK AO2 
 SLP240 T10391156 56032=
METAR KHFD 272053Z 27007KT 10SM CLR M03/M19 A3038 RMK AO2 SLP288 
 60000 T10281194 53006=
METAR KHGR 272053Z AUTO 33010KT 10SM FEW050 M02/M14 A3045 RMK AO2 
 SLP331 T10171144 53010=
METAR KHHR 272053Z 20007KT 10SM BKN023 BKN031 OVC045 18/12 A2981 RMK 
 AO2 SLP093 T01780117 58020=
METAR KHIB 272053Z AUTO 27008KT 10SM CLR M07/M23 A3034 RMK AO2 
 SLP314 60000 T10721228 56016=
METAR KHIO 272053Z 04003KT 10SM BKN027 OVC042 11/06 A2971 RMK AO2 
 SLP061 T01060061 58008=
METAR KHJO 272053Z AUTO 29005KT 7SM SCT075 19/07 A2979 RMK AO2 
 SLP090 T01940072 58024=
METAR KHKA 272053Z AUTO 02010KT 10SM FEW028 M03/M08 A3058 RMK AO2 
 SLP358 T10281083 55018=
METAR KHKS 272053Z VRB06KT 10SM CLR 07/M04 A3037 RMK AO2 SLP281 
 60000 T00721044 56033=
METAR KHKY 272053Z AUTO 00000KT 10SM CLR 09/M07 A3032 RMK AO2 SLP265 
 T00891067 55005=
METAR KHLG 272053Z 26012KT 10SM CLR M08/M19 A3052 RMK AO2 SLP363 
 T10831194 53005=
METAR KHLN 272053Z 35015KT 10SM SCT029 M04/M12 A2994 RMK AO2 SLP212 
 T10391117 58012=
####018002935####
SAUS20 KNKA 272055
METAR KMSS 272053Z AUTO 24011KT 10SM CLR M09/M22 A3044 RMK AO2 
 SLP318 T10941217 53004=
METAR KMSY 272053Z 01010KT 10SM FEW250 11/01 A3032 RMK AO2 SLP268 
 T01060011 56021=
METAR KMTH 272053Z AUTO 35005KT 10SM CLR 25/22 A3006 RMK AO2 SLP177 
 T02500217 57013=
METAR KMTJ 272053Z AUTO 33010KT 10SM BKN009 OVC090 00/M03 A2978 RMK 
 AO2 CIG 007V011 SLP085 T00001028 58018=
METAR KMVE 272054Z AUTO 24005KT 10SM CLR M06/M15 A3049 RMK AO2=
METAR KMVY 272053Z 26006KT 10SM CLR M03/M17 A3036 RMK AO2 SLP281 
 T10331167 53012=
METAR KMWL 272053Z AUTO 03009KT 3/4SM -SN BR FEW009 BKN025 OVC044 
 M05/M07 A3040 RMK AO2 SLP303 P0000 60001 T10501072 56012=
METAR KMWM 272053Z AUTO 25005KT 10SM CLR M11/M17 A3047 RMK AO2=
METAR KMYF 272053Z 18013KT 10SM BKN031 17/11 A2983 RMK AO2 SLP098 
 T01720106 58014=
METAR KMYV 272053Z AUTO 15009KT 10SM CLR 18/08 A2975 RMK AO2 SLP077 
 T01780083 58026=
METAR KN03 272055Z AUTO 28005KT 10SM CLR M10/M17 A3043 RMK AO2=
METAR KNEW 272053Z 31007KT 10SM CLR 12/01 A3032 RMK AO2 SLP259 
 T01170011 56022=
METAR KOAK 272053Z 28021KT 10SM FEW028 SCT140 17/08 A2983 RMK AO2 PK 
 WND 27027/2037 SLP100 T01670078 58021=
METAR KODO 272053Z AUTO 08010KT 8SM OVC009 M06/M08 A3022 RMK AO2 
 SLP251 60000 T10611083 58016=
METAR KODX 272053Z AUTO 18011G17KT 10SM CLR M06/M21 A3035 RMK AO2 
 SLP324 T10561211 56032=
METAR KOGB 272053Z AUTO 21003KT 10SM CLR 12/00 A3033 RMK AO2 SLP272 
 T01170000 55014=
METAR KOGD 272053Z 21007KT 10SM SCT040 OVC080 06/M04 A2973 RMK AO2 
 SLP068 T00561039 58023=
METAR KOJC 272053Z 08004KT 10SM FEW085 M08/M19 A3053 RMK AO2 SLP360 
 T10781189 56028=
METAR KOLF 272053Z AUTO 18010KT 10SM CLR M03/M13 A3004 RMK AO2 
 SLP214 T10281133 56028=
METAR KOMK 272053Z AUTO 01017G25KT 10SM FEW060 OVC085 06/00 A2986 
 RMK AO2 SLP119 T00610000 56003=
METAR KONA 272056Z AUTO 24004KT 10SM CLR M10/M18 A3057 RMK AO2=
METAR KONO 272053Z AUTO 11006KT 10SM SCT042 BKN050 BKN065 12/01 
 A2970 RMK AO2 SLP064 T01220011 58028=
METAR KONT 272053Z 28006KT 10SM OVC039 16/08 A2980 RMK AO2 SLP087 
 T01560078 58022=
METAR KONZ 272054Z AUTO 20010KT 10SM CLR M09/M19 A3056 RMK AO2=
METAR KOPF 272053Z 36011KT 10SM CLR 24/18 A3009 RMK AO2 SLP191 
 T02390178 56008=
METAR KORL 272053Z 02008KT 6SM HZ BKN021 OVC032 13/09 A3021 RMK AO2 
 SLP235 T01330089 56010=
METAR KOSC 272053Z AUTO 24006G09KT 10SM CLR M07/M17 A3045 RMK AO2
 T10691172=
METAR KOSH 272053Z 26009KT 10SM CLR M08/M19 A3050 RMK AO2 SLP358 
 T10831189 56012=
METAR KOSU 272053Z 35008KT 10SM SCT041 M09/M17 A3058 RMK AO2 SLP373 
 T10891172 53001=
METAR KOVE 272053Z AUTO 18003KT 10SM SCT042 BKN050 17/06 A2976 RMK 
 AO2 SLP078 T01670056 58025=
METAR KOVL 272053Z AUTO 26004KT 10SM CLR M10/M17 A3048 RMK AO2=
METAR KOVS 272053Z AUTO 21009KT 10SM CLR M09/M19 A3058 RMK AO2 
    UPB27E33 SLP374 P0000 60000 T10941194 55012=
####018002960####
SAUS20 KNKA 272055
METAR KMGG 272055Z AUTO 24004KT 10SM CLR M09/M17 A3049 RMK AO2
     T10881174=
METAR KMGM 272053Z 32009KT 10SM CLR 11/M02 A3036 RMK AO2 SLP282 
 T01111022 56016=
METAR KMGW 272053Z 30005KT 10SM CLR M06/M18 A3050 RMK AO2 SLP351 
 T10561183 53002=
METAR KMGY 272053Z AUTO 29003KT 10SM SCT042 M07/M17 A3057 RMK AO2 
    SLP369 60000 T10721172 55001=
METAR KMHT 272053Z VRB06KT 10SM CLR M04/M21 A3033 RMK AO2 SLP292 
 T10391206 53007=
METAR KMIA 272053Z 36009KT 10SM FEW029 FEW110 FEW250 25/18 A3008 RMK 
 AO2 SLP187 T02500178 56010=
METAR KMIC 272053Z 21007KT 10SM CLR M09/M17 A3050 RMK AO2 SLP349 
 T10891172 56016=
METAR KMIE 272053Z 00000KT 10SM CLR M09/M18 A3058 RMK AO2 SLP373 
 T10891178 55002=
METAR KMIW 272053Z AUTO 24004KT 10SM CLR M14/M19 A3058 RMK AO2 
 SLP386 T11441189 56012=
METAR KMJQ 272053Z AUTO 25008KT 10SM CLR M11/M17 A3048 RMK AO2=
METAR KMKL 272053Z 02007G16KT 10SM CLR 01/M11 A3050 RMK AO2 SLP334 
 T00111111 56020=
METAR KMKO 272053Z AUTO 07007KT 1 1/2SM -SN BKN023 BKN027 OVC033 
 M06/M11 A3055 RMK AO2 SNB05 SLP353 P0000 60000 T10611106 58023=
METAR KMLB 272053Z AUTO 35015G22KT 4SM VCTS -RA BR OVC008 13/12 
 A3018 RMK AO2 CIG 007V011 SLP217 P0006 60007 T01280122 56007=
METAR KMLC 272053Z AUTO 05005KT 3/4SM -SN SCT012 OVC017 M06/M09 
 A3050 RMK AO2 SLP336 P0001 60004 T10561089 58028=
METAR KMLP 272053Z AUTO VRB03KT 10SM SCT027 BKN033 M04/M09 A2972 RMK 
    AO2 SLP107 60000 T10391089 56005=
METAR KMLS 272053Z AUTO 18009KT 10SM CLR M04/M13 A2999 RMK AO2 
 SLP204 T10441128 58023=
METAR KMLT 272053Z AUTO 29008G18KT 10SM CLR M07/M22 A3025 RMK AO2 
 SLP257 T10721222 53010=
METAR KMLU 272053Z 04008KT 360V070 10SM BKN028 BKN095 02/M04 A3049 
 RMK AO2 SLP324 T00221039 56013=
METAR KMMK 272053Z AUTO 32009KT 10SM CLR M03/M18 A3038 RMK AO2 
    SLP291 T10281183 53009 TSNO=
METAR KMMV 272053Z AUTO 20007KT 10SM SCT027 BKN033 BKN055 12/06 
 A2972 RMK AO2 RAE1956 SLP065 P0000 60000 T01220061 56011=
METAR KMNN 272053Z AUTO 26006KT 10SM CLR M10/M19 A3058 RMK AO2 
    SLP378 T11001189 53003 TSNO=
METAR KMOD 272053Z 27012KT 10SM BKN044 BKN065 19/06 A2978 RMK AO2 
 WSHFT 2015 SLP083 T01890061 58027=
METAR KMOX 272053Z AUTO 20006KT 10SM CLR M09/M17 A3044 RMK AO2=
METAR KMPO 272053Z AUTO A3030 RMK AO2 SLPNO PWINO FZRANO=
METAR KMQJ 272055Z AUTO 27004KT 10SM CLR M07/M26 A3059 RMK AO1=
METAR KMRB 272053Z 34012G17KT 10SM CLR 00/M14 A3046 RMK AO2 SLP320 
 T00001139 53006=
METAR KMRT 272053Z AUTO 34009KT 10SM CLR M08/M19 A3057 RMK AO2
     T10801192=
METAR KMSL 272053Z AUTO VRB03KT 10SM CLR 03/M09 A3048 RMK AO2 SLP325 
 T00281094 56016=
METAR KMSN 272053Z VRB06KT 10SM CLR M09/M20 A3053 RMK AO2 SLP361 
 T10941200 56013=
METAR KMSO 272053Z 12013KT 10SM BKN080 OVC100 03/M11 A2984 RMK AO2 
 SLP129 T00331111 58020=
METAR KMSP 272053Z 21007KT 10SM CLR M09/M18 A3051 RMK AO2 SLP354 
 T10941183 56017=
####018002928####
SAUS20 KNKA 272055
METAR KOWD 272053Z 31007KT 10SM CLR M03/M19 A3035 RMK AO2 SLP279 
 T10331194 53007=
METAR KOXB 272053Z AUTO 02003KT 5SM HZ SCT027 OVC033 M01/M05 A3046 
 RMK AO2 SLP315 T10111050 53020 TSNO=
METAR KPAE 272053Z 35007G14KT 9SM OVC003 08/07 A2977 RMK AO2 RAE04 
 SLP084 P0000 60004 T00830072 50002=
METAR KPAH 272053Z 00000KT 10SM SCT038 M04/M13 A3059 RMK AO2 SLP365 
 T10391133 55009=
METAR KPBF 272053Z AUTO 02011KT 10SM BKN028 OVC095 M02/M08 A3056 RMK 
 AO2 SLP350 T10221078 55007=
METAR KPBG 272053Z AUTO 15005KT 10SM CLR M09/M19 A3040 RMK AO2 
 SLP300 60000 T10941194 53005=
METAR KPBI 272053Z 35014KT 10SM OVC007 19/17 A3010 RMK AO2 RAE18 
 SLP193 P0000 60000 T01940172 56007=
METAR KPCW 272053Z AUTO 20010KT 10SM CLR M09/M18 A3059 RMK AO2
     53002 T10881177=
METAR KPDK 272053Z 33006KT 10SM CLR 08/M05 A3035 RMK AO2 SLP292 
 T00831050 55005=
METAR KPDT 272053Z 27011KT 10SM -RA SCT042 BKN055 OVC070 07/04 A2969 
 RMK AO2 WSHFT 1956 RAB00E11B46 SLP052 P0000 60000 T00720044 
 58007=
METAR KPDX 272053Z 00000KT 10SM FEW020 BKN030 BKN080 13/07 A2972 RMK 
 AO2 SLP064 60000 T01280072 58010=
METAR KPEO 272053Z AUTO 33012KT 10SM CLR M09/M19 A3045 RMK AO2 
 SLP334 T10941194 53010=
METAR KPEX 272054Z AUTO 21007KT 10SM CLR M11/M21 A3046 RMK AO2
 T11101214=
METAR KPGA 272053Z AUTO 05008KT 10SM FEW032 FEW043 OVC055 06/01 
 A2976 RMK AO2 SLP066 60000 T00610011 58027 TSNO=
METAR KPGD 272053Z AUTO 05012KT 10SM BKN017 OVC037 15/11 A3017 RMK 
 AO2 SLP218 T01500111 56008=
METAR KPHD 272053Z AUTO 34008KT 10SM CLR M08/M18 A3058 RMK AO2 
    SLP373 T10781183 53004=
METAR KPIE 272053Z AUTO 07010KT 10SM OVC027 18/11 A3016 RMK AO2 
 SLP214 T01780111 56015=
METAR KPIH 272053Z VRB03KT 10SM FEW028 SCT037 BKN085 03/M03 A2975 
 RMK AO2 SLP087 60000 T00331028 58018=
METAR KPIL 272053Z AUTO 36007KT 5SM HZ SCT031 BKN043 OVC070 16/12 
 A3013 RMK AO2 RAB1959E16 SLP202 P0000 60000 T01560122 58027=
METAR KPIR 272053Z AUTO 16014G18KT 10SM CLR M03/M21 A3027 RMK AO2 
 SLP284 T10331206 56034=
METAR KPKB 272053Z 35008KT 10SM FEW047 M06/M17 A3058 RMK AO2 SLP372 
 60000 T10561167 56001=
METAR KPKD 272053Z AUTO 26008KT 10SM CLR M08/M21 A3036 RMK AO2 
 SLP322 T10831211 56014=
METAR KPMD 272053Z AUTO 25022KT 10SM CLR 16/06 A2974 RMK AO2 PK WND 
 25027/2038 SLP062 T01560056 58025=
METAR KPMP 272053Z 35008KT 9SM OVC012 21/18 A3010 RMK AO2 SLP194 
 T02110178 55006=
METAR KPNC 272053Z AUTO 13006KT 2 1/2SM -SN SCT024 OVC038 M07/M12 
 A3053 RMK AO2 SLP353 P0000 60000 T10721122 56018=
METAR KPNM 272054Z AUTO 24005KT 10SM CLR M07/M18 A3046 RMK AO2=
METAR KPNS 272053Z 06009KT 10SM CLR 14/M02 A3028 RMK AO2 SLP256 
 T01391017 56020=
METAR KPOF 272053Z AUTO 08009KT 10SM CLR M06/M14 A3058 RMK AO2 
 SLP367 T10611139 56018=
METAR KPOU 272053Z AUTO VRB03KT 10SM CLR M03/M17 A3040 RMK AO2 
 SLP294 T10281172 53004=
####018002910####
SAUS20 KNKA 272055
METAR KRSL 272053Z AUTO 14007KT 10SM FEW042 OVC055 M07/M17 A3042 RMK 
 AO2 SNB10E21 SLP337 P0000 60000 T10721167 56025=
METAR KRSW 272053Z AUTO 04011KT 10SM OVC016 17/12 A3014 RMK AO2 
 SLP203 T01670122 56006=
METAR KRTN 272053Z AUTO 20013KT 2SM -SN OVC011 M11/M13 A2993 RMK AO2 
 SLP201 P0000 60000 T11061133 58019=
METAR KRUE 272053Z AUTO 00000KT 10SM OVC075 M02/M17 A3056 RMK AO2 
 SLP349 T10171167 55003=
METAR KRWF 272053Z AUTO 26006KT 10SM CLR M10/M17 A3049 RMK AO2 
 SLP354 T11001167 56020=
METAR KRWI 272053Z AUTO 35008KT 10SM CLR 08/M03 A3039 RMK AO2 SLP293 
 T00831033 53002=
METAR KRWL 272053Z AUTO 24012G17KT 10SM CLR M02/M14 A2974 RMK AO2 
 SLP130 T10221139 58023=
METAR KRXE 272053Z AUTO 36003KT 10SM BKN020 OVC030 00/M04 A2975 RMK 
    AO2 SLP106 60000 T00001044 58017=
METAR KRZR 272055Z AUTO 06006KT 10SM CLR 02/M08 A3045 RMK=
METAR KRZT 272055Z AUTO 32007KT 10SM CLR M07/M17 A3060 RMK AO2=
METAR KSAC 272053Z AUTO 20004KT 10SM FEW046 18/07 A2975 RMK AO2 
 SLP074 T01830072 58028=
METAR KSAF 272053Z 15014KT 6SM -SN OVC017 M07/M12 A2990 RMK AO2 
 UPB27E33SNB12E27B36 SLP158 P0000 60000 T10671117 58022=
METAR KSAV 272053Z 04006KT 10SM FEW060 SCT180 BKN250 11/01 A3034 RMK 
 AO2 SLP274 T01110006 55010=
METAR KSAZ 272054Z AUTO 28006KT 10SM CLR M09/M21 A3041 RMK AO2=
METAR KSBA 272053Z VRB04KT 10SM FEW048 20/12 A2978 RMK AO2 WSHFT 
 1941 SLP083 T02000117 58025=
METAR KSBM 272053Z AUTO 26012KT 10SM CLR M09/M18 A3052 RMK AO2 
    SLP352 T10891183 55007=
METAR KSDL 272053Z VRB03KT 10SM CLR 22/M04 A2969 RMK AO2 SLP041 
 T02221039 58028=
METAR KSDM 272053Z 19014KT 10SM BKN035 18/09 A2982 RMK AO2 SLP097 
 T01830094 58016=
METAR KSEA 272053Z 36008KT 10SM FEW005 OVC060 10/07 A2976 RMK AO2 
 RAE10 SLP084 P0000 60002 T01000072 50003=
METAR KSEG 272053Z AUTO 31007KT 10SM CLR M03/M16 A3046 RMK AO2 
 SLP321 T10331156 53005=
METAR KSFB 272053Z 03012KT 10SM OVC020 13/08 A3022 RMK AO2 SLP233 
 T01280083 55008=
METAR KSFF 272053Z 05009KT 360V080 10SM SCT050 10/M04 A2979 RMK AO2 
 SLP097 T01001039 56014=
METAR KSGR 272053Z 05010KT 7SM OVC020 06/01 A3033 RMK AO2 SLP273 
 T00560006 56017=
METAR KSGS 272050Z AUTO 22005KT 10SM CLR M09/M17 A3052 RMK AO2
     T10871175=
METAR KSHN 272053Z AUTO 03008KT 10SM -RA SCT011 BKN024 OVC038 08/06 
 A2973 RMK AO2 RAB35 SLP071 P0000 60001 T00830061 50000=
METAR KSHR 272053Z AUTO 27004KT 10SM CLR M08/M14 A2989 RMK AO2 
 SLP206 T10781144 56018=
METAR KSIY 272053Z AUTO 25005KT 10SM SCT045 BKN075 OVC090 09/02 
 A2973 RMK AO2 SLP080 60000 T00940017 58018=
METAR KSJC 272053Z 31011KT 10SM FEW015 BKN040 BKN250 16/08 A2983 RMK 
 AO2 SLP102 T01560083 58021=
METAR KSLC 272053Z 19004KT 10SM FEW047TCU FEW055 SCT095 SCT180 
 05/M04 A2974 RMK AO2 SLP073 VIRGA SE-S AND DSNT NE CB DSNT NE 
 AND W TCU SW-NW SH DSNT SE T00501044 58025=
####018003000####
SAUS20 KNKA 272055
METAR KJEF 272053Z AUTO 33003KT 10SM CLR M05/M19 A3060 RMK AO2 
 SLP361 T10501189 56027=
METAR KJER 272053Z AUTO 12005KT 10SM BKN035 OVC095 07/M03 A2971 RMK 
    AO2 SLP069 T00671028 58023=
METAR KJKJ 272051Z AUTO 24006KT 10SM CLR M08/M22 A3043 RMK AO2=
METAR KJKL 272053Z AUTO 31003KT 10SM CLR M03/M16 A3050 RMK AO2 
 SLP347 T10331161 55001=
METAR KJLN 272053Z 04005KT 10SM OVC080 M06/M17 A3054 RMK AO2 SLP356 
 T10611172 56020=
METAR KJMR 272055Z AUTO 22009KT 10SM CLR M08/M18 A3047 RMK AO2=
METAR KLAA 272053Z AUTO 16016G24KT 3SM -SN BKN018 OVC030 M08/M13 
 A3012 RMK AO2 SLP245 P0000 60000 T10831128 58020=
METAR KLAN 272053Z 28011KT 10SM SCT039 M08/M17 A3054 RMK AO2 SLP364 
 60000 T10781172 55001=
METAR KLAR 272053Z AUTO 00000KT 10SM CLR M06/M14 A2973 RMK AO2 
 SLP135 T10561139 58015 $=
METAR KLAW 272053Z 07010KT 8SM FEW017 BKN041 OVC048 M07/M11 A3046 
 RMK AO2 SNE06 SLP330 P0000 60001 T10721111 56018=
METAR KLAX 272053Z 20009KT 10SM FEW020 BKN035 BKN044 17/12 A2980 RMK 
 AO2 SLP092 T01670122 58020=
METAR KLBB 272053Z 09008KT 2SM -SN FEW000 OVC014 M08/M12 A3022 RMK 
 AO2 SLP266 SN FEW000 P0000 60000 T10831117 56015=
METAR KLBF 272053Z AUTO 16011KT 10SM CLR M04/M17 A3024 RMK AO2 
 SLP295 T10441172 56033=
METAR KLBX 272053Z AUTO 02014KT 7SM OVC016 04/02 A3031 RMK AO2 
 SLP264 T00440017 56017=
METAR KLCH 272053Z 08010KT 10SM CLR 10/00 A3033 RMK AO2 SLP277 
 T01000000 56024=
METAR KLEB 272053Z 36003KT 10SM CLR M06/M22 A3033 RMK AO2 SLP288 
 T10561217 53005=
METAR KLEE 272053Z AUTO 04012KT 10SM OVC027 15/07 A3022 RMK AO2 
 SLP232 T01500072 56011=
METAR KLFK 272053Z AUTO 01006KT 10SM OVC090 07/M03 A3037 RMK AO2 
 SLP284 T00721033 56020=
METAR KLFT 272053Z 06009G14KT 030V090 10SM CLR 11/01 A3033 RMK AO2 
 SLP268 T01060011 56023=
METAR KLGB 272053Z 18009KT 10SM OVC039 17/11 A2981 RMK AO2 SLP093 
 T01720111 58018=
METAR KLHQ 272053Z AUTO VRB04KT 8SM OVC039 M08/M16 A3058 RMK AO2 
    SLP376 60000 T10831156 55000=
METAR KLHX 272053Z AUTO 13016KT 10SM CLR M07/M12 A3003 RMK AO2 
 SLP210 T10671122=
METAR KLIT 272053Z 35008KT 10SM BKN090 OVC150 M01/M15 A3058 RMK AO2 
 SLP360 T10061150 55006=
METAR KLJF 272053Z AUTO 24004KT 10SM CLR M11/M18 A3048 RMK AO2=
METAR KLKR 272055Z AUTO 00000KT 10SM CLR 12/M03 A3034 RMK AO2=
METAR KLLQ 272053Z AUTO 02006KT 10SM FEW031 BKN110 01/M07 A3051 RMK 
 AO2 SLP333 T00111072 55008=
METAR KLMT 272053Z 29015G20KT 10SM FEW027 OVC070 07/00 A2969 RMK AO2 
 WSHFT 1958 RAB07E18 SLP049 P0000 60000 T00720000 58015=
METAR KLND 272053Z AUTO 00000KT 10SM FEW013 M11/M14 A2980 RMK AO2 
 SLP179 T11111144 58022=
METAR KLNS 272053Z 31006KT 10SM CLR M04/M14 A3045 RMK AO2 SLP318 
 T10391144 53012=
METAR KLOL 272053Z AUTO 19010KT 3SM -RA BKN040 OVC055 06/02 A2966 
 RMK AO2 PK WND 24027/2025 RAB00 SLP041 P0002 60002 T00560022 
 56026=
METAR KLOU 272053Z VRB04KT 10SM CLR M03/M16 A3060 RMK AO2 SLP371 
 T10331161 55004=
####018002987####
SAUS20 KNKA 272055
METAR KPOV 272057Z AUTO 33005KT 10SM SCT041 M09/M20 A3053 RMK AO2
 T10911199=
METAR KPQL 272053Z 03011G16KT 10SM CLR 14/M01 A3028 RMK AO2 SLP255 
    T01391011 56028=
METAR KPQN 272054Z AUTO 25004KT 10SM CLR M12/M17 A3043 RMK AO2=
METAR KPRB 272053Z AUTO 31013KT 10SM CLR 18/08 A2981 RMK AO2 SLP093 
 T01780078 58026 TSNO $=
METAR KPRC 272053Z 22013G20KT 10SM BKN075 12/M06 A2974 RMK AO2 
 SLP035 T01171061 58021=
METAR KPSC 272053Z 04006KT 10SM FEW110 12/03 A2974 RMK AO2 SLP070 
 T01220028 58016=
METAR KPSP 272053Z 32014G19KT 290V350 10SM SCT070 23/04 A2967 RMK 
 AO2 SLP045 T02330044 58029=
METAR KPSX 272053Z AUTO 05021KT 8SM -RA BKN050 09/03 A3026 RMK AO2 
 PK WND 06026/2046 RAB48 SLP245 P0000 60000 T00940033 58029=
METAR KPTK 272053Z 27010KT 10SM FEW032 M09/M18 A3051 RMK AO2 SLP358 
 T10891183 53003 $=
METAR KPUB 272053Z 10006KT 10SM BKN020 M08/M13 A2998 RMK AO2 
 SNB1954E27 SLP210 P0000 60000 T10831128 58023=
METAR KPUW 272053Z AUTO 13009KT 10SM CLR 09/M02 A2973 RMK AO2 SLP078 
 T00891022 58016=
METAR KPWA 272053Z 09007KT 1 1/2SM -SN FEW012 BKN044 OVC060 M07/M11 
 A3048 RMK AO2 SFC VIS 3 SLP340 P0000 60000 T10721111 56020=
METAR KPWC 272053Z AUTO 26006KT 10SM CLR M08/M20 A3041 RMK AO2=
METAR KRAC 272053Z AUTO 25010KT 10SM CLR M10/M21 A3058 RMK AO2 
    SLP373 T11001206 55005=
METAR KRAL 272053Z 26006KT 10SM OVC042 17/08 A2980 RMK AO2 SLP081 
 T01670078 58020=
METAR KRBD 272053Z 05010KT 3SM -SN OVC013 M03/M06 A3040 RMK AO2 
 SLP299 P0000 60002 T10281056 56028=
METAR KRBG 272053Z AUTO 25004KT 1SM -RA FEW018 BKN025 OVC038 09/06 
 A2979 RMK AO2 RAB20 SLP088 P0008 60008 T00940061 58015=
METAR KRDD 272053Z 16008KT 10SM BKN090 18/06 A2968 RMK AO2 SLP049 
 T01830056 58031=
METAR KRHI 272053Z AUTO 26010G16KT 10SM CLR M09/M20 A3037 RMK AO2 
 SLP329 T10891200 55007=
METAR KRIL 272053Z AUTO 20008KT 10SM BKN060 BKN075 03/M08 A2974 RMK 
 AO2 SLP076 T00331083 58025=
METAR KRIW 272053Z AUTO 04006KT 10SM CLR M10/M15 A2982 RMK AO2 
 SLP186 T11001150 58021=
METAR KRKP 272053Z AUTO 06016G23KT 8SM OVC028 12/06 A3022 RMK AO2 
 SLP234 T01220061 58024=
METAR KRME 272053Z 31011KT 10SM SCT041 M10/M17 A3048 RMK AO2 SLP332 
 60000 T11001167 53013=
METAR KRMG 272053Z AUTO 35007G14KT 10SM CLR 06/M06 A3041 RMK AO2 
 SLP300 T00561056 56009=
METAR KRMY 272053Z AUTO 24009KT 10SM OVC042 M09/M17 A3054 RMK AO2
 T10901173=
METAR KRNM 272053Z 23011KT 10SM BKN029 OVC039 17/09 A2981 RMK AO2 
 SLP090 T01670089 58018=
METAR KRNT 272053Z 30009KT 10SM SCT015 BKN080 10/M01 A2976 RMK AO2 
 SLP081 60000 T01001011 50002=
METAR KROS 272055Z AUTO 22005KT 10SM CLR M09/M19 A3047 RMK AO2
 T10891193=
METAR KROX 272055Z AUTO 10SM CLR M10/M18 A3033 RMK AO2=
METAR KRQE 272053Z AUTO 26008KT 6SM -SN SCT018 BKN026 OVC055 02/M02 
 A2978 RMK AO2 SNE34B53 SLP065 P0001 60004 T00221017 56024 TSNO=
METAR KRRT 272053Z AUTO 23010G16KT 10SM CLR M11/M19 A3033 RMK AO2=
####018002941####
SAUS20 KNKA 272055
METAR KSLN 272053Z 09007KT 10SM OVC070 M06/M17 A3050 RMK AO2 SLP353 
 T10611172 56026=
METAR KSMF 272053Z 00000KT 10SM FEW040 SCT200 18/08 A2974 RMK AO2 
 SLP072 T01780078 58027=
METAR KSMQ 272053Z AUTO VRB06KT 10SM CLR M01/M16 A3041 RMK AO2 
 SLP300 T10111156 53009 TSNO=
METAR KSNA 272053Z 19010KT 10SM SCT035 BKN050 BKN055 21/09 A2980 RMK 
 AO2 SLP091 T02060094 58019=
METAR KSNS 272053Z 25016KT 10SM FEW023 18/09 A2984 RMK AO2 SLP114 
 T01830094 58020 $=
METAR KSNY 272053Z AUTO 17019G25KT 10SM OVC031 M08/M13 A3004 RMK AO2 
 PK WND 18027/2012 SLP245 60000 T10781133 58028=
METAR KSPB 272053Z AUTO 35004KT 10SM FEW017 BKN042 OVC080 10/08 
 A2972 RMK AO2 RAE47 SLP063 P0001 60001 T01000078 58006=
METAR KSPG 272053Z AUTO 08014KT 10SM OVC023 17/12 A3016 RMK AO2 
 SLP213 T01670117 56004=
METAR KSRQ 272053Z AUTO 10010KT 10SM BKN021 OVC050 16/11 A3016 RMK 
 AO2 SLP211 T01560106 55010=
METAR KSSF 272053Z 03010KT 10SM OVC018 02/M03 A3027 RMK AO2 SLP257 
 60000 T00221028 56021=
METAR KSSI 272053Z AUTO 03014KT 10SM CLR 09/02 A3032 RMK AO2 SLP267 
 T00890022 56010=
METAR KSTC 272053Z 21005KT 10SM CLR M09/M19 A3046 RMK AO2 SLP351 
 T10891194 56018=
METAR KSTJ 272053Z 10SM FEW120 M07/M18 A3057 RMK AO2 SLP368 
 T10721178 56031=
METAR KSTP 272053Z 24009KT 10SM CLR M09/M19 A3053 RMK AO2 SLP353 
 T10891189 56017=
METAR KSTS 272053Z 35013G19KT 10SM SCT045 17/06 A2978 RMK AO2 SLP079 
 T01670061 58026=
METAR KSWO 272053Z 08006KT 3SM -SN BKN041 OVC050 M07/M14 A3052 RMK 
 AO2 SFC VIS 5 SLP347 P0000 60000 T10721139 55018=
METAR KSYM 272050Z AUTO VRB04G11KT 10SM FEW037 M06/M15 A3058 RMK
 AO2=
METAR KSYN 272054Z AUTO 25006KT 10SM CLR M11/M18 A3052 RMK AO2
 T11071185=
METAR KTCC 272053Z AUTO 18011KT 6SM -SN BKN024 OVC037 M08/M12 A3013 
 RMK AO2 SNB40 SLP242 P0000 60000 T10831122 56024=
METAR KTCL 272053Z 03009KT 10SM CLR 08/M06 A3042 RMK AO2 SLP301 
 T00831056 56022=
METAR KTCS 272053Z AUTO 15009KT 10SM FEW037 08/M02 A2987 RMK AO2 
 SLP094 T00781022 58033 TSNO=
METAR KTDZ 272053Z AUTO 22010KT 10SM CLR M10/M18 A3060 RMK AO2 
    SLP377 T11001178 53002 TSNO=
METAR KTEW 272054Z AUTO 26009KT 10SM BKN041 M08/M18 A3053 RMK AO2
 T10801179=
METAR KTHV 272053Z AUTO 31009KT 10SM CLR M03/M13 A3046 RMK AO2 
    SLP323 T10331133 53011=
METAR KTIW 272053Z 01009KT 4SM -RA BR FEW005 BKN009 OVC013 08/07 
 A2975 RMK AO2 SLP077 P0001 60003 T00830067 50003=
METAR KTKC 272045Z AUTO 23004KT 10SM CLR M09/M16 A3047 RMK AO2
 T10911165=
METAR KTKI 272053Z 06010KT 1SM -SN BKN010 BKN019 OVC023 M03/M06 
 A3043 RMK AO2 SLP324 P0000 60003 T10281056 58028=
METAR KTLH 272053Z 03007KT 10SM FEW005 BKN160 BKN250 14/04 A3027 RMK 
 AO2 SLP249 FU FEW005 FU S T01390039 56015 $=
METAR KTMB 272053Z 01010KT 10SM CLR 25/18 A3008 RMK AO2 SLP185 
 T02500178 56010=
METAR KTOB 272053Z AUTO 25007KT 10SM CLR M14/M18 A3050 RMK AO2=
####018001689####
SAEW KAWN 272100 RRB
METAR EBAW 272050Z 26004KT CAVOK 03/M00 Q1022 NOSIG=
METAR EBBR 272050Z 23002KT CAVOK 01/M01 Q1022 NOSIG=
METAR EBCI 272050Z 23004KT CAVOK 02/M02 Q1022 NOSIG=
METAR EBLG 272050Z 27004KT CAVOK 01/M02 Q1022 NOSIG=
METAR EBOS 272050Z 20008KT 9999 FEW022 02/M00 Q1021 NOSIG=
METAR EDDB 272050Z 25005KT CAVOK 02/M01 Q1015 NOSIG=
METAR EDDS 272050Z 31012KT 8000 -RASN SCT010 BKN024 02/02 Q1019 NOSIG=
METAR COR EDDV 272050Z 26004KT 230V290 9999 FEW035 SCT250 01/00 Q1018
      NOSIG=
METAR EHDL 272055Z AUTO 25003KT 9999 FEW100 M01/M02 Q1021 BLU=
METAR EHGR 272055Z AUTO 21004KT 9999 OVC380 01/M00 Q1021 BLU=
METAR EHKD 272055Z AUTO 23006KT 9999 NCD 03/01 Q1020 BLU=
METAR EHLW 272055Z AUTO 23004KT 9999 FEW026 OVC029 02/01 Q1019 BLU=
METAR EHVK 272055Z AUTO 25003KT 9999 NCD 00/M01 Q1021 BLU=
METAR EHVL 272055Z AUTO 25009KT 9999 NCD 04/01 Q1019 BLU=
METAR EHWO 272055Z AUTO 20001KT 9999 NCD M01/M02 Q1022 BLU=
METAR EKAH 272050Z AUTO 25001KT 6000NDV BKN032/// 01/M01 Q1015=
METAR EKCH 272052Z 02001KT 5000 -DZRA BKN025 03/02 Q1015 TEMPO 4000
      BKN014=
METAR EKEB 272050Z AUTO 25004KT 9999NDV NCD 00/M01 Q1016=
METAR EKKA 272050Z AUTO 24004KT 9999NDV FEW026/// 01/M00 Q1015=
METAR EKRK 272050Z AUTO 32005KT 2300NDV -RA BR SCT002/// BKN004///
      BKN011/// 01/01 Q1015=
METAR EKRN 272050Z AUTO 08004KT 2500NDV BR NCD 02/02 Q1015=
METAR EKSB 272050Z 28006KT CAVOK 03/01 Q1016=
METAR EKSP 272050Z 28004KT CAVOK M01/M02 Q1016 RMK SCT230=
METAR EKVD 272050Z AUTO 28004KT //// ///////// 01/M00 Q1016=
METAR EKYT 272050Z 25003KT 9999 FEW030 01/M00 Q1015=
METAR ELLX 272050Z 29004KT 9999 FEW041 01/M02 Q1021 NOSIG=
####018001549####
SAZZ40 KAWN 272100 RRB
METAR BGGH 272050Z 04004KT 9999 FEW008 M11/M13 Q0993=
METAR BGJN 272050Z AUTO 14008KT 9999NDV SCT120/// BKN140/// M23/M28
      Q0993=
METAR BGKK 272050Z AUTO 08015KT //// BKN026/// M02/M07 Q0990=
METAR BGSF 272050Z AUTO 05004KT 9999NDV BKN190/// M28/M33 Q0995=
METAR KBYS 272055Z AUTO 28012KT 10SM CLR 18/02 A2965 RMK AO2 SLP035
      T01780018 58033 $=
METAR KMTC 272055Z 15010KT 10SM FEW035 M09/M16 A3053 RMK SLP361 T10931160
      55002=
METAR KNFG 272054Z 21008KT 7SM FEW027 BKN040 18/11 A2981 RMK AO2 SLP094
      T01780106 58021=
METAR KNFW 272052Z 01008KT 1/2SM -SN FZFG VV012 M03/M05 A3047 RMK AO2
      SLP300 P0002 60003 T10281050 56023 $=
METAR KNHK 272052Z 04008KT 9SM FEW033 SCT045 SCT250 M01/M07 A3047 RMK
      AO2 SLP318 IR12P 60000 T10111067 53015=
METAR KNIP 272053Z 04015KT 10SM FEW028 SCT150 BKN250 13/04 A3029 RMK
      AO2 SLP253 T01330039 56009=
METAR KNZY 272052Z 19013KT 10SM FEW028 BKN037 17/12 A2983 RMK AO2 SLP099
      T01720122 58012 $=
METAR OAMS 272050Z 00000KT 6000 BKN020 OVC100 04/04 Q1027 WHT WHT TEMPO
      YLO=
METAR OJAQ 272100Z 13004KT CAVOK 22/10 Q1013 NOSIG=
METAR ORSU 272100Z VRB02KT CAVOK 04/M02 Q1022=
METAR PABI 272053Z 11005KT 10SM FEW200 M07/M11 A3044 RMK AO2 SLP350
      T10721111 58010=
METAR PASC 272053Z 25021G29KT 5SM -SN BLSN BKN029 OVC120 M08/M11 A3015
      RMK AO2 PK WND 28032/2027 SLP212 P0000 60000 T10831111 53030=
METAR PHJR 272053Z 27007KT 10SM CLR 28/18 A3000 RMK AO2 SLP164 T02780183
      51004=
####018000140####
SAFA31 EKCH 272050
METAR EKVG 272050Z AUTO 15023G35KT 8000NDV -RA  OVC007/// 06/05
Q0980 RMK BKN008/// WIND 850FT 15036G55KT 110V170=
####018000090####
SABE31 TXKF 272055
METAR TXKF 272055Z 24017KT 9000 -RA BKN007 OVC017 22/20
Q1022
####018001272####
SAUS20 KNKA 272055
METAR KVPC 272053Z AUTO 35007KT 10SM CLR 05/M07 A3042 RMK AO2 SLP301 
 T00501072 55005=
METAR KVRB 272053Z AUTO 35011KT 9SM OVC007 15/13 A3016 RMK AO2 
 SLP212 60008 T01500133 56006=
METAR KVUO 272053Z AUTO 00000KT 10SM FEW027 SCT041 BKN050 11/05 
 A2972 RMK AO2 SLP064 T01110050 58008=
METAR KVVV 272054Z AUTO 00000KT 10SM CLR M09/M20 A3045 RMK AO2=
METAR KWRL 272053Z AUTO 00000KT 10SM CLR M04/M13 A2986 RMK AO2 
 SLP172 T10441128 58022=
METAR KWST 272053Z AUTO VRB06KT 10SM CLR M02/M15 A3037 RMK AO2 
 SLP285 T10171150 53011=
METAR KWVI 272053Z AUTO 25013G20KT 10SM CLR 19/08 A2983 RMK AO2 
 SLP099 T01940083 58023=
METAR KXNA 272053Z 08005KT 2 1/2SM -SN BKN026 OVC034 M07/M13 A3051 
 RMK AO2 SNB19 SLP350 P0000 60000 T10721128 58007=
METAR KY63 272055Z AUTO 23005KT 10SM CLR M11/M17 A3044 RMK AO2
     T11151175=
METAR KY70 272054Z AUTO 24014KT 10SM OVC041 M07/M14 A3052 RMK AO2
     T10691144=
METAR KYIP 272053Z AUTO 34009KT 10SM SCT049 M06/M18 A3056 RMK AO2 
 SLP362 T10611183 53001 TSNO=
METAR KYKM 272053Z 29007KT 10SM -RA SCT027 OVC036 08/04 A2978 RMK 
 AO2 SLP088 P0001 60009 T00830044 58005=
METAR KZZV 272053Z AUTO 29004KT 10SM OVC039 M08/M18 A3057 RMK AO2 
 SLP371 T10831178 53003 TSNO=
####018002931####
SAUS20 KNKA 272055
METAR KBID 272055Z AUTO 26011KT 10SM CLR M03/M12 A3035 RMK AO1 52010=
METAR KBLM 272055Z AUTO 29010G14KT 10SM CLR M01/M13 A3041 RMK AO1 
 52010=
METAR KBMT 272055Z AUTO 06004KT 10SM CLR 11/00 A3032 RMK AO2 
 T01120000=
METAR KBNL 272055Z AUTO 02005KT 10SM CLR 13/02 A3034 RMK AO2=
METAR KBOS 272054Z VRB03KT 10SM FEW035 SCT250 M03/M19 A3036 RMK AO2 
 SLP279 T10281189 53006=
METAR KBTP 272055Z AUTO 29008G15KT 10SM CLR M09/M19 A3053 RMK AO1 
 52010=
METAR KBTV 272054Z 35004KT 10SM FEW250 M07/M20 A3038 RMK AO2 SLP296 
 T10671200 53003=
METAR KBUF 272054Z 23018KT 9SM -SN BKN019 BKN025 M12/M17 A3053 RMK 
 AO2 SLP356 P0000 60000 T11221167 53009=
METAR KBUY 272054Z AUTO 02004KT 10SM SCT050 06/M06 A3038 RMK AO2 
 SLP292 T00611061 55002=
METAR KBVU 272055Z AUTO 06009KT 10SM CLR 17/M03 A2970 RMK AO2=
METAR KBVX 272055Z AUTO 10006KT 10SM BKN080 OVC085 M03/M14 A3059 RMK 
 AO1 57003=
METAR KBWI 272054Z 31013G18KT 10SM FEW050 SCT250 M01/M12 A3048 RMK 
 AO2 SLP321 T10111122 53019=
METAR KBXA 272055Z AUTO 03008KT 10SM 10/00 A3035 RMK AO2 T01000002=
METAR KCAR 272054Z AUTO 30010KT 10SM CLR M09/M23 A3016 RMK AO2 
 SLP232 T10941233 53016=
METAR KCCU 272055Z AUTO 28014KT 1SM -SN OVC006 M10/M14 A2963 RMK
 AO2=
METAR KCDD 272048Z AUTO 24007KT 203V273 10SM CLR M08/M25 A3034 RMK
 AO2=
METAR KCDN 272055Z AUTO 00000KT 9SM CLR 12/M01 A3034 RMK AO2 TSNO=
METAR KCEU 272054Z AUTO 05006KT 10SM CLR 12/M05 A3032 RMK AO2 SLP269 
 T01171050 55008=
METAR KCGZ 272055Z AUTO 22009G19KT 10SM CLR 24/M02 A2968 RMK AO1 
 57037=
METAR KCIU 272055Z AUTO 23010G15KT 190V250 10SM CLR M09/M16 A3041 
 RMK AO1 54000=
METAR KCOD 272055Z 00000KT 10SM CLR M07/M12 A2982 RMK AO1 57014=
METAR KCOE 272055Z AUTO 01009G14KT 10SM SCT055 09/M04 A2977 RMK AO1 
 57017=
METAR KCOS 272054Z 13005KT 1 1/2SM -SN BR BKN016 OVC021 M12/M16 
 A2990 RMK AO2 SFC VIS 2 1/2 SLP221 PCPN VRY LGT P0000 60000 
 T11221156 56021=
METAR KCOU 272054Z 35003KT 10SM CLR M06/M17 A3057 RMK AO2 SLP367 
 T10561167 56026=
METAR KCPW 272054Z AUTO 20014G23KT 1/2SM SN OVC001 M12/M13 A2973
 RMK AO2 P0001=
METAR KCQW 272055Z AUTO 08005KT 10SM FEW050 11/M04 A3035 RMK AO2=
METAR KCRW 272054Z VRB04KT 10SM BKN037 M06/M15 A3055 RMK AO2
 SLP358 T10611150 53002 $=
METAR KCVN 272055Z AUTO 15010KT 9SM OVC016 M11/M14 A3014 RMK AO1 
 57030=
METAR KCVO 272055Z AUTO 21008KT 10SM FEW021 SCT027 BKN032 11/07 
 A2974 RMK AO1 P0001 60001 57014=
METAR KCWI 272055Z AUTO 27007KT 10SM CLR M13/M19 A3064 RMK AO1 57010=
METAR KDDH 272054Z AUTO 33007KT 10SM CLR M07/M20 A3036 RMK AO2 
 SLP296 T10721200 53008=
METAR KDEC 272054Z 10005KT 10SM CLR M10/M17 A3063 RMK AO2 SLP388 
 60001 T11001167 55007=
METAR KDKB 272055Z AUTO 26007KT 10SM CLR M13/M20 A3059 RMK AO2 
 T11301200=
METAR KDSV 272054Z AUTO 32008KT 10SM CLR M09/M19 A3050 RMK AO2 
    SLP352 T10891194 53014=
####018002948####
SAUS20 KNKA 272055
METAR KGCN 272054Z 23013G19KT 10SM BKN034 OVC040 05/M02 A2975 RMK 
 AO2 SNB1959E41 SLP068 P0000 60000 T00501022 58027=
METAR KGDV 272055Z AUTO 18009G18KT 10SM CLR M02/M14 A3003 RMK AO1 
 57027=
METAR KGED 272054Z AUTO 30007KT 10SM BKN029 BKN070 07/M08 A3047 RMK 
 AO2 SNB16E25 SLP317 P0000 60000 T00671083 53018=
METAR KGSO 272054Z 32004KT 10SM SCT048 06/M06 A3036 RMK AO2 SLP289 
 T00561061 55000 $=
METAR KGUC 272055Z 26014G18KT 10SM CLR 00/M10 A2973 RMK AO1 57030=
METAR KGXY 272055Z AUTO 16009KT 10SM BKN032 OVC038 M05/M14 A2995 RMK 
 AO1 57027=
METAR KHDN 272055Z AUTO 26006KT 10SM CLR M02/M13 A2977 RMK AO1 57024=
METAR KHEZ 272055Z AUTO 35012KT 10SM CLR 08/M02 A3037 RMK AO1 57020=
METAR KHNB 272055Z AUTO 33006KT 10SM CLR M06/M13 A3061 RMK AO1 57010=
METAR KHVS 272055Z AUTO 00000KT 10SM CLR 12/M01 A3034 RMK AO2=
METAR KHWD 272054Z 28016G27KT 10SM CLR 17/09 A2982 RMK AO2 PK WND 
 29027/2051 SLP108 T01720089 58019=
METAR KHYS 272055Z AUTO 13010KT 10SM OVC060 M07/M18 A3040 RMK AO1 
 57024=
METAR KHYW 272055Z AUTO 04003KT 5SM HZ CLR 10/00 A3035 RMK AO2=
METAR KI67 272055Z AUTO 05006KT 10SM BKN050 M06/M16 A3060 RMK AO1=
METAR KILE 272055Z AUTO 02009KT 10SM OVC016 M01/M07 A3033 RMK AO1 
 57024=
METAR KILN 272054Z AUTO 06005KT 10SM CLR M09/M19 A3056 RMK AO2 UPE03 
 SLP396 P0000 60000 T10891189 53000=
METAR KIND 272054Z 28009KT 10SM FEW046 M08/M18 A3059 RMK AO2 SLP375 
 T10831183 55007=
METAR KINT 272054Z AUTO 32007KT 10SM FEW055 06/M07 A3038 RMK AO2 
 SLP290 T00611072 55001=
METAR KIPT 272054Z 27009KT 10SM CLR M02/M17 A3043 RMK AO2 SLP313 
 60000 T10171172 53003=
METAR KIWD 272055Z AUTO 27009G15KT 10SM CLR M09/M19 A3036 RMK AO1 
 57007=
METAR KIWI 272053Z AUTO 27007KT 220V320 10SM CLR M04/M23 A3032 RMK 
 AO2 SLP269 T10391228 53004=
METAR KIZG 272054Z AUTO VRB06KT 10SM CLR M04/M23 A3029 RMK AO2 
 SLP267 T10441228 53007=
METAR KJAN 272054Z 35007KT 10SM CLR 08/M04 A3037 RMK AO2 SLP286 
 T00781039 56032=
METAR KJHN 272055Z AUTO 15018KT 4SM -SN SCT009 BKN020 OVC049 
 M10/M14 A3023 RMK AO2 T10961136=
METAR KJHW 272055Z 29011G14KT 10SM CLR M13/M21 A3044 RMK AO1 52010=
METAR KJKA 272055Z AUTO 04009KT 10SM CLR 13/00 A3028 RMK AO2 
 T01341004=
METAR KJST 272054Z AUTO 25013G17KT 10SM SCT029 M11/M18 A3036 RMK AO2 
 SLP334 T11111183 53013=
METAR KJYL 272055Z AUTO 09004KT 10SM CLR 12/04 A3034 RMK AO2 
 T01150037=
METAR KKLS 272055Z 19008KT 10SM FEW070 OVC100 13/07 A2975 RMK AO1 
 60001 57007=
METAR KLAF 272054Z 01006KT 10SM CLR M09/M19 A3062 RMK AO2 SLP383 
 T10941189 55004=
METAR KLBL 272055Z AUTO 13012KT 10SM OVC070 M09/M14 A3031 RMK AO1 
 57027=
METAR KLBT 272054Z AUTO 00000KT 10SM CLR 11/M02 A3035 RMK AO2 SLP278 
 T01061017 55006=
METAR KLCI 272055Z AUTO 27011KT 10SM CLR M06/M22 A3030 RMK AO1 52007=
METAR KLCK 272055Z AUTO 28008KT 10SM BKN042 M08/M17 A3059 RMK AO2 
 T10781170=
####018002985####
SAUS20 KNKA 272055
METAR KPHF 272054Z 03009KT 8SM OVC018 02/M03 A3046 RMK AO2 RAE28 
 SLP315 P0000 60000 T00171033 53018=
METAR KPHL 272054Z 32008KT 10SM FEW250 M01/M13 A3046 RMK AO2 SLP314 
 T10111133 53011=
METAR KPHT 272055Z AUTO 06008KT 10SM CLR M03/M12 A3053 RMK=
METAR KPIA 272054Z 28005KT 10SM CLR M09/M19 A3064 RMK AO2 SLP390 
 T10891194 55010=
METAR KPIB 272055Z AUTO 03011G14KT 10SM CLR 09/M02 A3035 RMK AO1 
 57030=
METAR KPNE 272054Z 34010KT 10SM CLR M01/M15 A3046 RMK AO2 SLP318 
 T10111150 53013=
METAR KPQI 272055Z AUTO 27012G15KT 10SM CLR M08/M26 A3018 RMK AO1 
 52014=
METAR KPRX 272055Z 04009KT 1 1/2SM BKN008 OVC017 M03/M07 A3048 RMK 
 AO1 57027=
METAR KPSF 272054Z AUTO 30009KT 10SM CLR M08/M19 A3031 RMK AO2 
 SLP295 T10781189 53012=
METAR KPSO 272055Z AUTO 21005KT 3SM HZ BKN010 BKN019 OVC040 M01/M04
 A2978 RMK AO2 T10121045=
METAR KPTN 272055Z AUTO 06010KT 10SM CLR 12/02 A3031 RMK AO1 57020=
METAR KPTV 272055Z AUTO 29005KT 8SM CLR 18/08 A2980 RMK AO1 57024=
METAR KPTW 272054Z AUTO 29008KT 10SM CLR M03/M15 A3045 RMK AO2 
 SLP313 T10281150 53008=
METAR KPVC 272055Z 33008KT 10SM CLR M05/M16 A3037 RMK AO1 60001 
 52010=
METAR KPVG 272055Z AUTO 03010KT 10SM CLR 01/M04 A3047 RMK AO1 52024=
METAR KPWG 272055Z AUTO 04009KT 10SM M01/M06 A3039 RMK AO1 57024=
METAR KPWT 272055Z AUTO 01008G15KT 10SM FEW013 BKN029 OVC034 08/07 
 A2978 RMK AO1 P0001 60009 52003=
METAR KRBL 272054Z AUTO 15011KT 10SM FEW060 18/05 A2972 RMK AO2 
 SLP062 T01780050 58028=
METAR KRCV 272055Z AUTO 05006KT 10SM BKN012 BKN070 BKN110 M06/M10
 A2975 RMK AO2 T10611097=
METAR KRDG 272054Z 30010KT 10SM CLR M04/M16 A3045 RMK AO2 SLP320 
 T10391161 53011=
METAR KRFD 272054Z 29007KT 10SM CLR M11/M21 A3061 RMK AO2 SLP386 
 T11111206 56007=
METAR KRIC 272054Z 04006KT 10SM SCT060 BKN250 03/M06 A3044 RMK AO2 
 SLP316 T00281056 53009=
METAR KRKD 272055Z AUTO 29009KT 10SM CLR M06/M21 A3030 RMK AO1 52007=
METAR KRKR 272055Z AUTO 01005KT 1/2SM -SN OVC012 M06/M08 A3054 
 RMK AO2 T10591083=
METAR KROA 272054Z 31009KT 10SM FEW055 01/M11 A3042 RMK AO2 SLP309 
 T00111111 53007=
METAR KROC 272054Z 25013G21KT 10SM FEW035 M11/M18 A3052 RMK AO2 
 SLP350 T11061183 53013=
METAR KRQO 272055Z AUTO 06008KT BKN014 BKN020 OVC055 M07/M10 A3046 
 RMK AO2 PWINO=
METAR KRUT 272055Z 03004KT 10SM CLR M08/M24 A3033 RMK AO1 54000=
METAR KSBN 272054Z 26006KT 10SM CLR M08/M18 A3058 RMK AO2 SLP374 
 T10781183 56004=
METAR KSBS 272055Z AUTO 00000KT 10SM CLR M02/M13 A2976 RMK AO1
 T10211134=
METAR KSBY 272054Z 31009KT 5SM HZ OVC049 00/M06 A3047 RMK AO2 SNE09 
 SLP320 P0000 60000 T00001056 53024=
METAR KSDY 272055Z AUTO 17010KT 9SM CLR M02/M15 A3009 RMK AO1 57034=
METAR KSET 272054Z AUTO VRB04KT 10SM CLR M09/M18 A3065 RMK AO2 
 SLP386 T10941178 56011=
METAR KSFM 272055Z AUTO 29009KT 10SM CLR M04/M21 A3032 RMK AO1 52007=
METAR KSFZ 272055Z 31005KT 10SM CLR M04/M17 A3032 RMK AO1 52010=
####018002928####
SAUS20 KNKA 272055
METAR KTOI 272053Z AUTO 04009G16KT 10SM CLR 13/M03 A3032 RMK AO2 
 SLP268 T01331028 56018=
METAR KTOP 272053Z 11003KT 10SM OVC090 M08/M18 A3056 RMK AO2 SLP367 
 T10781178 56028=
METAR KTOR 272053Z AUTO 18020G27KT 10SM SCT034 M03/M14 A2996 RMK AO2 
 PK WND 16029/2026 SLP203 60000 T10331139 58028=
METAR KTPA 272053Z 02010KT 10SM OVC025 18/09 A3017 RMK AO2 SLP216 
 T01780094 56015=
METAR KTRI 272053Z 00000KT 10SM BKN039 00/M06 A3043 RMK AO2 SLP309 
 60001 T00001061 51005=
METAR KTRL 272053Z AUTO 05011KT 10SM BKN017 OVC070 M01/M04 A3042 RMK 
 AO2 SNE07 SLP304 P0000 60002 T10061044 58021=
METAR KTTD 272053Z 16005KT 10SM BKN024 BKN032 12/06 A2971 RMK AO2 
 SLP062 T01220061 58010=
METAR KTTN 272053Z 33004KT 10SM CLR M02/M15 A3043 RMK AO2 SLP301 
 T10221150 53010=
METAR KTUL 272053Z 06009KT 1 1/2SM R36R/6000VP6000FT -SN FEW014 
 BKN022 OVC034 M07/M10 A3054 RMK AO2 TWR VIS 2 1/2 SLP351 P0001 
 60001 T10721100 58027=
METAR KTUP 272053Z 10007KT 10SM CLR 04/M09 A3046 RMK AO2 SLP318 
 T00391089 56021=
METAR KTUS 272053Z 25015G22KT 10SM CLR 23/M04 A2974 RMK AO2 SLP041 
 T02331044 58031=
METAR KTVC 272053Z 25009KT 10SM BKN033 M09/M16 A3048 RMK AO2 SLP339 
 T10891161 55003=
METAR KTVL 272053Z AUTO 19011KT 10SM SCT050 OVC060 05/M07 A2972 RMK 
 AO2 SLP041 T00501067 58015=
METAR KTVR 272053Z AUTO 02009KT 10SM CLR 05/M03 A3043 RMK AO2 SLP311 
 T00501028 56029=
METAR KTWF 272053Z 04004KT 10SM FEW036 08/M02 A2970 RMK AO2 SLP043 
 T00781017 58024=
METAR KTWM 272054Z AUTO 25008G14KT 10SM CLR M06/M18 A3035 RMK AO2=
METAR KTXK 272053Z 06008KT 10SM OVC085 M01/M09 A3048 RMK AO2 SLP323 
 T10111094 58016=
METAR KTYR 272053Z 04009KT 10SM OVC075 00/M09 A3042 RMK AO2 SLP305 
 T00001089 55017 $=
METAR KTYS 272053Z 02006KT 10SM FEW030 01/M09 A3046 RMK AO2 SLP321 
 T00061089 55005=
METAR KUAO 272053Z AUTO 17010KT 10SM FEW024 SCT034 OVC044 11/07 
 A2973 RMK AO2 SLP069 60001 T01110072 58009=
METAR KUIL 272053Z AUTO 04011G21KT 9SM FEW025 09/06 A2976 RMK AO2 
 SLP077 60000 T00940056 50007=
METAR KULM 272054Z AUTO 00000KT 10SM CLR M12/M19 A3051 RMK AO2=
METAR KUNO 272053Z AUTO 08004KT 10SM OVC080 M07/M19 A3052 RMK AO2 
    SLP357 T10671189 55016=
METAR KUTS 272053Z AUTO 34006KT 10SM FEW033 BKN090 OVC110 06/M02 
 A3035 RMK AO2 SLP279 T00611022 58016=
METAR KUUU 272053Z AUTO 14007KT 10SM CLR M04/M12 A3035 RMK AO2 
 SLP280 T10441117 53012=
METAR KVCB 272053Z AUTO 28011G16KT 10SM OVC055 19/06 A2976 RMK AO2 
 SLP077 T01890061 58025=
METAR KVEL 272053Z AUTO 26005KT 10SM FEW038 SCT100 02/M08 A2978 RMK 
 AO2 SLP100 T00221083 58026=
METAR KVGT 272053Z 17006KT 10SM CLR 16/M07 A2968 RMK AO2 SLP059 
 T01611072 58033=
METAR KVIH 272053Z AUTO 06006KT 10SM BKN100 M07/M19 A3051 RMK AO2 
 SLP354 T10671189 56023=
METAR KVLD 272053Z 04009KT 10SM SCT040 12/04 A3030 RMK AO2 SLP268 
 T01170039 55013=
####018002931####
SAUS20 KNKA 272055
METAR K04V 272056Z AUTO 11006KT 5SM HZ OVC018 M03/M08 A2976 RMK
 AO2=
METAR K0A9 272055Z AUTO VRB03KT 10SM OVC034 M02/M08 A3043 RMK=
METAR K0CO 272055Z AUTO 31013G25KT 1/2SM -SN OVC003 M15/M18 A2962
 RMK AO2=
METAR K1S5 272055Z AUTO 36009KT 10SM SCT035 SCT060 OVC090 08/02 
 A2975 RMK AO2 T00800022=
METAR K1V6 272055Z AUTO 11006KT 10SM CLR M07/M12 A2993 RMK AO2=
METAR K20V 272055Z AUTO 00000KT 10SM SCT036 OVC048 M01/M11 A2974
 RMK AO2=
METAR K2V5 272055Z AUTO 15013G18KT 7SM SCT022 OVC032 M07/M12 A3015 
     RMK AO2 T10661119=
METAR K33V 272055Z AUTO 00000KT 10SM CLR M07/M13 A2971 RMK AO2=
METAR K4BM 272056Z AUTO 21007KT 10SM SCT003 SCT036 BKN048 M08/M12
 A2968 RMK AO2=
METAR K5SM 272055Z AUTO 23003KT 2SM -SN BKN005 OVC011 M07/M08 RMK
     AO2=
METAR K7BM 272054Z AUTO 12003KT 10SM SCT024 BKN041 OVC050 M06/M10
 A2967 RMK AO2=
METAR KAAO 272054Z AUTO 13005KT 2 1/2SM -SN FEW018 BKN023 OVC032 
 M09/M13 A3050 RMK AO2 SLP356 P0000 60000 T10891128 56021=
METAR KADH 272055Z AUTO 04003KT 1/2SM -SN VV005 M06/M08 A3048 RMK 
 AO2=
METAR KAFJ 272055Z AUTO 30005KT 10SM CLR M08/M19 A3053 RMK AO1 52007=
METAR KAIZ 272055Z AUTO 04004KT 10SM OVC090 M06/M18 A3056 RMK AO1 
 57020=
METAR KAKH 272054Z AUTO 36005KT 10SM CLR 10/M03 A3034 RMK AO2 SLP278 
 T01001033 55008=
METAR KAKQ 272054Z AUTO 03007KT 10SM BKN025 BKN055 03/M03 A3044 RMK 
 AO2 SLP312 T00281033 51015 TSNO=
METAR KAKR 272054Z AUTO 31007KT 10SM FEW039 M09/M19 A3054 RMK AO2 
 SLP365 T10891189 53005=
METAR KALM 272055Z AUTO 19010KT 10SM FEW031 05/M04 A2996 RMK AO2=
METAR KALO 272054Z AUTO 25007KT 10SM CLR M14/M21 A3060 RMK AO2 
 UPB17E24 SLP389 P0000 60000 T11441206 56010=
METAR KAPC 272054Z 27019G23KT 10SM FEW045 16/09 A2978 RMK AO2 SLP075 
 T01610089 58025=
METAR KAPN 272054Z AUTO 23007KT 10SM UP CLR M07/M18 A3044 RMK AO2
 SLP327 P0000 60000 T10721183 55003=
METAR KAQP 272054Z AUTO 25003KT 10SM CLR M08/M19 A3047 RMK AO2=
METAR KARG 272055Z AUTO 04008KT 7SM CLR M04/M11 A3060 RMK AO1 57017=
METAR KAUO 272055Z AUTO 02008G14KT 10SM CLR 11/M04 A3035 RMK AO1 
 57014=
METAR KAVL 272054Z 35014KT 10SM CLR 03/M06 A3033 RMK AO2 SLP281 
 T00281061 55001=
METAR KAVP 272054Z 34009KT 10SM CLR M06/M18 A3040 RMK AO2 SLP308 
 T10561178 53010=
METAR KAWO 272055Z AUTO 01008KT 10SM OVC060 09/06 A2980 RMK AO1 
 54000=
METAR KBAF 272053Z 30009KT 10SM CLR M04/M19 A3036 RMK AO2 SLP290 
 T10391189 53009=
METAR KBCB 272055Z AUTO 31009G14KT 10SM CLR M02/M11 A3039 RMK AO2 
 T10201115=
METAR KBDU 272057Z AUTO 02004KT 3SM -SN OVC017 M08/M12 A2992 RMK
 AO2=
METAR KBFL 272054Z 33007KT 10SM CLR 19/06 A2979 RMK AO2 SLP084 
 T01890061 58023=
METAR KBFW 272054Z AUTO 21008KT 180V240 10SM CLR M04/M22 A3033 RMK
 AO2=
METAR KBGF 272055Z AUTO 01008KT 10SM CLR 01/M10 A3046 RMK=
METAR KBHB 272055Z 29005KT 10SM CLR M04/M20 A3029 RMK AO1 52007=
####018000318####
SAHW31 KMSC 272055
METAR PHMK 272054Z 36011G15KT 10SM FEW020 26/21 A3001 RMK AO2 SLP164 
 P0001 60001 T02610206 50006=
METAR PHOG 272054Z 35007KT 10SM FEW025 SCT050 28/18 A2999 RMK AO2 
 SLP161 T02830183 50007 $=
METAR PGSN 272054Z 06014KT 10SM SCT016 24/23 A2992 RMK AO2 SLP154 
 60000 T02440228 53016=
####018002899####
SAUS20 KNKA 272055
METAR KDWU 272055Z AUTO 27004KT 10SM OVC047 M04/M14 A3058 RMK AO1 
 57003=
METAR KDYB 272055Z AUTO 00000KT 10SM CLR 11/01 A3036 RMK AO1=
METAR KDYL 272054Z AUTO 28008KT 10SM CLR M03/M15 A3042 RMK AO2 
    SLP311 T10331150 53009=
METAR KDYR 272055Z 05007KT 10SM FEW031 M03/M14 A3058 RMK AO1 57017=
METAR KEAR 272055Z 16010KT 10SM CLR M06/M21 A3036 RMK AO1 57034=
METAR KECG 272054Z 04010KT 10SM OVC041 04/M03 A3041 RMK AO2 SLP298 
 T00391028 53010=
METAR KEDC 272055Z AUTO 02012KT 10SM OVC024 02/M04 A3032 RMK AO2=
METAR KEEN 272055Z AUTO 35007KT 10SM CLR M05/M20 A3034 RMK AO1 52010=
METAR KEGE 272055Z 33007KT 10SM VCSH SCT035 OVC050 01/M08 A2974=
METAR KEHR 272055Z AUTO 35006KT 10SM BKN034 M05/M12 A3062 RMK AO1 
 57010=
METAR KEIK 272055Z AUTO 00000KT 10SM CLR M09/M13 A2993 RMK AO2
 T10901135=
METAR KESC 272055Z AUTO 18012G16KT 10SM CLR M09/M17 A3044 RMK AO1 
 57007=
METAR KETC 272055Z AUTO 34004KT 10SM CLR 09/M04 A3040 RMK AO2 
     T00901042=
METAR KEUG 272054Z 23009KT 10SM SCT026 BKN055 OVC080 11/07 A2976 RMK 
 AO2 RAE03 SLP076 P0000 60003 T01060067 58013=
METAR KEVV 272054Z VRB04KT 10SM FEW031 M06/M13 A3062 RMK AO2 SLP377 
 T10561133 55010=
METAR KEWK 272055Z AUTO 12005KT 3SM OVC018 M09/M15 A3050 RMK AO1 
 57020=
METAR KEWN 272054Z 35007KT 320V040 10SM CLR 10/M01 A3039 RMK AO2 
 SLP290 6//// T01001011 53003 PNO=
METAR KFAM 272055Z AUTO 02003KT 10SM FEW100 M07/M16 A3058 RMK AO1 
 57014=
METAR KFCI 272055Z AUTO 04005KT 10SM BKN028 BKN035 OVC055 03/M08 
 A3045 RMK AO1 52010=
METAR KFGX 272055Z AUTO 31004KT 10SM CLR M06/M15 A3059 RMK AO2 
 T10631154=
METAR KFIG 272054Z AUTO 27009KT 10SM CLR M08/M19 A3042 RMK AO2 
 UPE1956B38E54 SLP333 P0000 60000 T10781189 53011=
METAR KFKL 272055Z AUTO 29008KT 270V350 10SM CLR M11/M20 A3049 RMK 
 AO1 52010=
METAR KFLP 272055Z 00000KT 10SM BKN060 M05/M17 A3056 RMK AO1 57007=
METAR KFLY 272052Z AUTO 18009KT 2 1/2SM -SN OVC010 M12/M16 A2985
     RMK AO2 VIS 1 1/2V5 T11211165=
METAR KFMH 272055Z AUTO VRB04KT 10SM CLR M04/M14 A3035 RMK AO2 
 FZRANO=
METAR KFMM 272055Z AUTO 16018KT 10SM OVC029 M07/M13 A3001 RMK AO2 
 T10751133=
METAR KFNL 272055Z AUTO 00000KT 10SM FEW020 M08/M12 A2996 RMK AO1 
 P0009 60010 57024=
METAR KFOD 272055Z AUTO 24004KT 10SM CLR M12/M18 A3056 RMK AO1 57017=
METAR KFWA 272054Z 27004KT 10SM BKN044 M09/M17 A3059 RMK AO2 SLP378 
 T10891167 55002=
METAR KFYJ 272055Z AUTO 36004KT 10SM CLR 02/M07 A3048 RMK AO2 
 T00211068=
METAR KGAD 272055Z 02009KT 10SM CLR 04/M07 A3042 RMK AO1 57014=
METAR KGAI 272055Z AUTO 30007G15KT 10SM CLR M03/M14 A3050 RMK AO1 
 52014=
METAR KGBD 272055Z AUTO 14006KT 9SM BKN025 BKN030 OVC037 M08/M14 
 A3043 RMK AO1 57020=
METAR KGCK 272054Z 15013KT 4SM HZ SCT023 BKN055 OVC070 M10/M14 A3030 
 RMK AO2 SNE35B36E53 SLP306 P0000 60001 T11001139 56021=
####018002997####
SAUS20 KNKA 272055
METAR KLEW 272055Z AUTO 34007KT 10SM CLR M05/M21 A3030 RMK AO1 52007=
METAR KLEX 272054Z VRB05KT 10SM CLR M05/M16 A3057 RMK AO2 SLP368 
 T10501156 55004 $=
METAR KLGD 272055Z AUTO 19009KT 10SM BKN033 BKN041 BKN075 08/M01 
 A2967 RMK AO1 57020=
METAR KLKV 272055Z 30003KT 10SM FEW012 SCT029 BKN055 06/00 A2967 RMK 
 AO1 57024=
METAR KLMO 272054Z AUTO 32003KT 7SM -SN BKN019 00/M13 A2996 RMK
 AO2 P0006 T10031128=
METAR KLPC 272055Z AUTO 31014G23KT 10SM BKN021 OVC028 17/09 A2986 
 RMK AO1 57010=
METAR KLWM 272054Z 34005KT 10SM CLR M04/M21 A3036 RMK AO2 SLP282 
 T10391206 53004=
METAR KLYH 272054Z 26006KT 10SM CLR 03/M12 A3040 RMK AO2 SLP301 
 T00281117 53003=
METAR KM91 272055Z AUTO 05008KT 10SM CLR M03/M12 A3055 RMK=
METAR KMBL 272055Z AUTO 26010G18KT 10SM BKN028 M09/M17 A3052 RMK AO1 
 57003=
METAR KMEM 272054Z 07010KT 10SM BKN250 01/M11 A3051 RMK AO2 SLP334 
 T00111111 56021=
METAR KMEZ 272055Z AUTO 05008KT 1 1/2SM OVC011 M03/M06 A3047 RMK 
 AO2=
METAR KMGJ 272054Z AUTO 30009KT 10SM CLR M03/M17 A3037 RMK AO2 
 SLP290 T10281167 53006 TSNO=
METAR KMIV 272054Z AUTO 31009KT 10SM CLR M01/M12 A3044 RMK AO2 
 SLP309 T10061117 53015=
METAR KMJX 272055Z AUTO 31013KT 10SM CLR M01/M13 A3043 RMK AO1 52014=
METAR KMKC 272054Z VRB04KT 10SM SCT090 M08/M18 A3058 RMK AO2 SLP369 
 T10781178 56026=
METAR KMKY 272055Z AUTO 05009KT 10SM OVC017 19/13 A3011 RMK AO1 
 57010=
METAR KMNH 272056Z AUTO 18011KT 10SM CLR M10/M15 A2979 RMK AO2=
METAR KMNM 272055Z AUTO 23009G14KT 10SM CLR M08/M19 A3045 RMK AO1 
 57007=
METAR KMRF 272055Z AUTO 06013KT 10SM OVC012 00/M03 A3003 RMK AO1 
 57027=
METAR KMRN 272055Z AUTO 00000KT 10SM CLR 08/M09 A3036 RMK AO2 
     T00831092=
METAR KMRY 272054Z 28008KT 10SM BKN017 15/10 A2987 RMK AO2 SLP128 
 T01500100 58015=
METAR KMSV 272055Z AUTO 33013G18KT 10SM CLR M07/M17 A3033 RMK AO1 
 52010=
METAR KMVL 272054Z AUTO 01003KT 10SM CLR M08/M22 A3035 RMK AO2 
 SLP296 T10781217 53004 TSNO=
METAR KMVN 272055Z AUTO 34003KT 10SM CLR M06/M15 A3063 RMK AO1 57014=
METAR KMWT 272053Z AUTO VRB03KT 10SM BKN055 OVC070 M02/M12 A3048
     RMK AO2 SLP336 T10171122 58006=
METAR KOAJ 272055Z AUTO 32006KT 10SM CLR 09/M02 A3038 RMK AO1 54000=
METAR KOCH 272055Z AUTO 01008KT 10SM BKN090 04/M05 A3039 RMK AO1 
 57020=
METAR KOFP 272054Z AUTO 06004KT 10SM BKN060 02/M08 A3046 RMK AO2 
 SLP316 T00171083 53010=
METAR KOKK 272055Z AUTO 30006KT 10SM CLR M08/M13 A3060 RMK AO1 57003=
METAR KOLM 272054Z 04006KT 10SM SCT008 BKN016 OVC037 10/08 A2974 RMK 
 AO2 SLP071 T01000078 50000=
METAR KOLS 272054Z AUTO 20021G27KT 10SM CLR 21/M06 A2979 RMK AO2 PK 
 WND 20028/2030 SLP048 T02111056 58022=
METAR KOLU 272055Z AUTO 15007KT 10SM CLR M07/M19 A3047 RMK AO1 57030=
METAR KORH 272054Z VRB05KT 10SM CLR M05/M19 A3028 RMK AO2 SLP275 
 T10501194 53012=
METAR KOTH 272055Z 00000KT 7SM SCT014 BKN020 OVC037 10/09 A2981 RMK 
 AO1 
 P0005 60006 57014=
####018002938####
SAUS20 KNKA 272055
METAR KSGT 272055Z AUTO 01013KT 10SM SCT034 OVC100 M02/M09 A3055 RMK 
 AO1 57010=
METAR KSJN 272054Z AUTO 25016G25KT 10SM OVC080 11/M07 A2973 RMK AO2 
 SLP030 T01061067 58025=
METAR KSKX 272055Z AUTO 23003KT 1/2SM BKN010 OVC016 M07/M10 A2985 
 RMK AO1 57027=
METAR KSLG 272055Z AUTO 08005KT 10SM SCT039 OVC048 M07/M17 A3052 RMK 
 AO1 57010=
METAR KSOP 272055Z AUTO 07006KT 10SM CLR 09/M04 A3037 RMK AO1 57003=
METAR KSQI 272055Z AUTO 25005KT 10SM CLR M11/M18 A3062 RMK AO1 57014=
METAR KSTK 272050Z AUTO 17017G22KT 10SM BKN028 BKN038 M06/M12
     A3006 RMK AO2=
METAR KSUE 272055Z AUTO 25011KT 10SM CLR M09/M19 A3049 RMK AO1 57007=
METAR KSUS 272054Z 02005KT 10SM CLR M07/M18 A3062 RMK AO2 SLP386 
 T10721183 56013=
METAR KTAD 272054Z AUTO 09003KT 10SM CLR M07/M14 A2990 RMK AO2 
 SLP180 T10721139 56021=
METAR KTEX 272055Z AUTO 32003KT 10SM BKN050 BKN055 BKN120 M02/M13 
 A2973 RMK AO2 T10241126=
METAR KTGI 272055Z AUTO 36011KT 10SM SCT037 OVC045 00/M05 A3047 
     RMK AO1=
METAR KTHA 272055Z AUTO 03005KT 10SM CLR 01/M12 A3045 RMK=
METAR KTME 272055Z AUTO 06009KT 7SM OVC020 05/00 A3034 RMK AO2=
METAR KTPL 272055Z AUTO 01010KT 10SM OVC019 00/M06 A3034 RMK AO1 
 57020=
METAR KTSP 272055Z AUTO 30016G22KT 8SM OVC026 09/04 A2979 RMK AO2=
METAR KUDG 272055Z AUTO 06006KT 10SM CLR 12/M01 A3036 RMK AO1 57010=
METAR KUIN 272054Z AUTO 00000KT 10SM CLR M12/M21 A3063 RMK AO2 
 SLP389 T11171206 56013=
METAR KUTA 272055Z AUTO 01007KT 10SM CLR 00/M06 A3051 RMK AO2=
METAR KUYF 272055Z AUTO 33007KT 10SM CLR M09/M17 A3057 RMK AO2=
METAR KUZA 272054Z AUTO 01008KT 10SM CLR 11/M03 A3034 RMK AO2 SLP280 
 T01061028 55007=
METAR KVAY 272054Z AUTO 31008KT 270V330 10SM CLR M02/M14 A3045 RMK 
 AO2 SLP311 T10171139 53013=
METAR KVBT 272055Z AUTO 07007KT 1 3/4SM OVC020 M08/M13 A3051 RMK AO1 
 57010=
METAR KVIS 272055Z AUTO 29004KT 8SM BKN085 18/08 A2979 RMK AO1 57027=
METAR KVSF 272054Z AUTO 27011G17KT 10SM CLR M07/M21 A3035 RMK AO2 
 SLP291 T10671211 53009 TSNO=
METAR KVTA 272054Z AUTO 34003KT 10SM FEW029 OVC039 M08/M16 A3057 RMK 
    AO2 SNE19 SLP371 P0000 60000 T10831156 53002=
METAR KVTP 272055Z AUTO 21006G15KT 170V270 3SM -SN BKN002 OVC009
 M06/M09 A2971 RMK AO2=
METAR KW96 272055Z AUTO 36004KT 10SM BKN055 01/M05 A3046 RMK AO1 
 6//// T00111050=
METAR KWAL 272054Z 07005KT 4SM -SN OVC020 M01/M04 A3047 RMK AO2 
 SNB42 SLP314 P0000 60000 T10111039 52019=
METAR KWDR 272055Z AUTO 33007KT 10SM CLR 11/M04 A3036 RMK AO1=
METAR KWLD 272054Z AUTO 12006KT 6SM HZ OVC042 M08/M14 A3052 RMK AO2 
 SNB1959E47 SLP356 P0000 60000 T10781144 56023=
METAR KWVL 272055Z 28008KT CLR M05/M22 A3026 RMK AO1 52007=
METAR KWWD 272055Z AUTO 29007KT 10SM SCT065 BKN075 M02/M10 A3046 RMK 
 AO1 52017=
METAR KXLL 272055Z AUTO 29006KT 10SM CLR M02/M16 A3044 RMK AO2=
METAR K7N0 272055Z AUTO 02005KT 10SM CLR A3030 RMK AO1 57024=
####018000084####
SAUK33 EGGY 272050 RRA
METAR EGNS 272050Z 21025KT 9999 BKN015 08/05 Q1009 NOSIG=
####018000074####
SABZ20 SBCY 272100
METAR SBCY 272100Z 35003KT 9999 FEW020 32/20 Q1009=
####018001444####
SAMX41 MMMX 272055
METAR MMMX 272048Z 15010KT 12SM FEW025 BKN200 23/00 A3012
      NOSIG RMK SLP023 57021 912 8/108 HZY=
METAR MMAA 272044Z 21005KT 8SM FEW010 SCT300 28/22 A2984
      RMK SLP114 57001 926 8/102 HZY=
METAR MMBT 272040Z 00000KT 7SM FEW040 29/24 A2987
      RMK 8/100 HZY=
METAR MMCB 272044Z 00000KT 10SM  FEW020 SCT200 29/02 A2997 RMK 8/102=
METAR MMIT 272100Z 36015G25KT 6SM FEW010 27/16 A2988 RMK 8/500 
      HZ =
METAR MMOX 272045Z 09007KT 10SM SCT025 SCT200 26/03 A3007
      RMK SLP048 57048 920 8/108 HZY=
METAR MMPA 272040Z 30006KT 3SM BR HZ  BKN008 OVC010 18/17 A3010 
      RMK SLP193 57030 940 60035 8/8// OCNL DROPS RTS=
METAR MMPB 272044Z 19014KT 11SM  BKN220 22/02 A3015 RMK 8/002 ISOL CU=
METAR MMPS 272041Z 23006KT 13SM SKC 26/22 A3000
      RMK SLP134 57020 957 CU N HZY=
METAR MMQT 272045Z 30005KT 7SM SCT025 BKN250 24/05 A3010 RMK 8/102 HZY=
METAR MMTB 272100Z 34006KT 7SM BKN020 OVC070 22/17 A3003 RMK 
      8/47/ ST OVR MT N/NW =
METAR MMTO 272046Z 20005KT 7SM  SCT015 BKN200 21/M02 A3021 
      RMK SLP059 57003 910 8/108 HZY=
METAR MMVR 272044Z 03012KT 6SM  FEW015 SCT030 BKN045 22/15 A3005 
      RMK SLP154 57025 939 8/800 HZY=
METAR MMZH 272040Z 22005KT 7SM SCT250 31/22 A2986 RMK SLP/// 5//// 9// 8/002=
METAR MMSM 272100Z 20010KT 7SM FEW020 SCT070 BKN180 25/01 A3013 
           RMK 8/134 HZY =
METAR MMTM 272055Z NIL=
METAR MMES 272055Z NIL=
####018000217####
SATO31 NFTF 272100
METAR NFTV 272100Z 07007KT 9999 FEW009 SCT017TCU BKN120 29/25 Q1010=
METAR NFTL 272100Z 00000KT 9999 SCT018TCU BKN110 29/27 Q1011=
METAR NFTF 272100Z 00000KT 9999 FEW017 SCT120 29/27 Q1011=
####018001480####
SAXN17 KAWN 272100 RRB
METAR MMCN 272045Z 16012KT 10SM FEW025 25/13 A2981 RMK SLP095 8/100
      HZY=
METAR MMCS 272046Z 10013KT 10SM SCT250 06/M03 A2992 RMK SLP133 57041
      974 8/002=
METAR MMCV 272046Z 08006KT 10SM SCT020TCU BKN070 20/09 A3009 RMK SLP194
      57037 940 8/270=
METAR MMML 272048Z 21008KT 10SM SKC 25/03 A2968 RMK SLP051 57027 990
      HZY=
METAR MMMY 272048Z 12004KT 1 1/2SM -DZ BR BKN004 OVC006 08/06 A3014
      RMK SLP229 55020 944 60025 8/7//=
METAR MMMZ 272045Z 23009KT 15SM FEW230 24/14 A2985 RMK SLP108 57020
      903 8/005=
METAR MMRX 272045Z 03008KT 7SM SCT030 BKN050 OVC080 15/07 A3015 RMK
      SLP208 57029 942 8/53/ HZY FU=
METAR PACZ 272055Z AUTO 18027G34KT 1/4SM -FZDZ FZFG VV002 M01/M01 A3008
      RMK AO2 SLP193 P0000 60000 T10121010 57014 $=
METAR PASV 272055Z AUTO 01001KT 10SM CLR M03/M05 A3028 RMK AO2 SLP284
      T10271053 58005=
METAR PATC 272055Z AUTO 20032G36KT 6SM -SN OVC002 M01/M01 A2995 RMK
      AO2 PK WND 21040/2017 SNB1929 SLP146 P0000 60000 T10111009
      57012=
METAR PATL 272055Z AUTO 00000KT 10SM OVC006 M07/M08 A3035 RMK AO2 SLP302
      T10671083 57015 $=
METAR PHJR 272053Z 27007KT 10SM CLR 28/18 A3000 RMK AO2 SLP164 T02780183
      51004=
METAR TJNR 272053Z AUTO 10011G18KT 10SM FEW047 SCT055 27/20 A3006 RMK
      AO2 SLP178 T02670200 56007 $=
METAR TJNR 272053Z AUTO 10011G18KT 10SM FEW047 SCT055 27/20 A3006 RMK
      AO2 SLP178 T02670200 56007 $=
####018000268####
SAZA42 FAOR 272100
METAR FAVV 272100Z AUTO /////KT //// // ////// 15/12 Q1023=
METAR FAJB 272100Z AUTO 11003KT //// // ////// 16/12 Q1022=
METAR FASI 272100Z AUTO /////KT //// // ////// 14/12 Q1023=
METAR FAGC 272100Z AUTO 10013KT //// // ////// 16/12 Q1022=
####018000080####
SAVN22 SVMI 272100
METAR SVMI 272100Z 05003KT 9999 FEW023 31/24 Q1012 NOSIG=
####018000111####
SAMX44 MMMD 272056
METAR MMMT 272054Z 36015KT 10SM  OVC020 23/20 A2996 
      RMK SLP221 55001 940 8/5//=
####018000656####
SAAK41 KNKA 272055
METAR PADE 272053Z AUTO 16009G15KT 10SM FEW020 SCT025 BKN048 10/M03 
 A3010 RMK AO2 SLP193 T01001033 58004 TSNO=
METAR PAEN 272053Z 03008KT 10SM CLR M03/M09 A3046 RMK AO2 SLP319 
 T10331094 58004=
METAR PAHN 272054Z AUTO 30016G24KT 10SM CLR 04/M08 A3045 RMK AO2 
 SLP314 T00391083 58004 TSNO=
METAR PAKN 272054Z 00000KT 10SM BKN120 M01/M02 A3031 RMK AO2 SLP265 
 I1000 I3000 T10111017 58014=
METAR PAOT 272053Z 17017KT 10SM BKN024 OVC039 00/M02 A3010 RMK AO2 
 SLP193 T00001017 56008 $=
METAR PAVL 272053Z AUTO 12008KT 1SM -SN BR SCT006 OVC010 M02/M03 
 A3003 RMK AO2 SLP170 P0001 60001 T10221028 58018 TSNO $=
####018000115####
SAUS41 KPHI 272056
MTRACY
METAR KACY 272054Z 32006KT 10SM CLR 01/M09 A3043 RMK AO2 SLP304 
T00061094 53013
####018000152####
SAUS46 KLOX 272056
MTRVBG
METAR KVBG 272055Z 32021G28KT 10SM SCT015 BKN020 BKN250 16/12 A2986 
RMK AO2 PK WND 32030/2011 SLP102 T01610117 58012
####018000066####
SASP LEJR 272100
METAR LEJR 272100Z 22005KT CAVOK 12/11 Q1025=
####018000107####
SAMX41 MMMX 272056
METAR MMTM 272055Z 36010KT 7SM  SCT030 BKN050 OVC070 20/14 A3008 
      RMK 8/57/=
####018003712####
SAUS99 KWBC 272057 RRA
METAR
KBBP 272055Z AUTO 34004KT 10SM CLR 12/M02 A3035 RMK AO2=
KBBW 272053Z AUTO 18009G21KT 10SM CLR M05/M19 A3029 RMK AO2 SLP311
     T10501189 56032=
KBCE 272053Z AUTO 14007KT 10SM OVC060 M01/M07 A2971 RMK AO2 SLP063
     T10061067 58023=
KBDE 272053Z AUTO 27010KT 10SM CLR M08/M21 A3030 RMK AO2 SLP293
     T10781206 56013 TSNO=
KBEH 272053Z AUTO 22012KT 10SM CLR M09/M16 A3059 RMK AO2 SLP375
     T10941161 53002=
KBFD 272053Z AUTO 33012KT 10SM CLR M12/M21 A3037 RMK AO2 SLP331
     60000 T11171211 53015=
KBFF 272053Z AUTO 17020KT 6SM -SN SCT030 OVC037 M05/M13 A3002 RMK
     AO2 PK WND 16026/2010 SNB18E27B45 SLP222 P0000 60000
     T10501128 58028=
KBFI 272053Z 02005KT 10SM OVC075 12/06 A2976 RMK AO2 SLP078 60000
     T01170061 50002=
KBFM 272053Z 36011KT 10SM CLR 13/01 A3030 RMK AO2 SLP260 T01330006
     56027=
KBGM 272053Z 36011KT 10SM CLR M10/M19 A3036 RMK AO2 SLP317 60000
     T11001189 53015=
KBGR 272053Z 27005KT 10SM CLR M06/M22 A3028 RMK AO2 SLP259
     T10611222 52004=
KBHM 272053Z 03007KT 10SM CLR 06/M07 A3043 RMK AO2 SLP310
     T00561072 55015=
KBIV 272053Z AUTO 26008KT 10SM OVC035 M07/M15 A3056 RMK AO2 SLP368
     60000 T10721150 55002 $=
KBJI 272052Z AUTO 26007KT 10SM CLR M09/M20 A3036 RMK AO2
     T10911205=
KBKE 272053Z AUTO 08009KT 10SM OVC024 06/01 A2968 RMK AO2
     RAB1956E38 SLP063 P0000 60001 T00560011 58019 TSNO=
KBKL 272053Z 26005KT 10SM BKN030 M10/M16 A3059 RMK AO2 SLP373
     T11001161 53003=
KBKV 272053Z AUTO 05009KT 10SM OVC028 17/08 A3019 RMK AO2 SLP222
     T01720083 56016=
KBLI 272053Z 02009G16KT 10SM -RA OVC070 11/02 A2981 RMK AO2 SLP103
     P0000 60001 T01060022 50005=
KBMG 272053Z AUTO 05006KT 10SM SCT046 M06/M18 A3057 RMK AO2 SLP371
     60000 T10611178 55007=
KBMQ 272053Z AUTO 03009KT 2 1/2SM BR BKN012 OVC016 M02/M03 A3032
     RMK AO2 SLP274 I1000 I3000 T10171033 56016=
KBNA 272053Z 03008KT 10SM SCT250 01/M12 A3054 RMK AO2 SLP347
     T00061122 55010=
KCNO 272053Z 31006KT 10SM BKN034 OVC045 17/09 A2981 RMK AO2 SLP091
     T01720094 58023=
KCNY 272053Z AUTO 00000KT 10SM OVC065 07/M05 A2974 RMK AO2 SLP070
     T00671050 58027=
KCOT 272053Z AUTO 02009KT 6SM BR FEW009 OVC015 03/01 A3026 RMK AO2
     SLP246 60001 T00330011 58024=
KCPR 272053Z 21012KT 10SM CLR M04/M13 A2981 RMK AO2 SLP160
     T10391128 58025=
KCRE 272053Z 02005KT 10SM CLR 11/M01 A3035 RMK AO1 SLP279
     T01111011 56005=
KCRG 272053Z 03013G18KT 10SM FEW019 11/05 A3030 RMK AO2 SLP259
     T01060050 55005=
KCRQ 272053Z 20012KT 10SM FEW022 BKN027 OVC033 17/11 A2981 RMK AO2
     SLP092 T01720106 58012=
KCRS 272053Z AUTO 07010KT 10SM SCT060 OVC085 01/M07 A3040 RMK AO2
     SLP296 60000 T00111067 58025=
KCSM 272053Z 07010KT 2 1/2SM -SN OVC016 M08/M12 A3042 RMK AO2
     SLP326 P0000 60000 T10781122 56018=
KCSV 272053Z AUTO 03009KT 10SM CLR M02/M13 A3042 RMK AO2 SLP322
     T10171133 55005=
KCUB 272053Z AUTO VRB03KT 10SM CLR 13/M01 A3034 RMK AO2 SLP274
     T01281006 55014=
KCUT 272053Z AUTO VRB06KT 2SM -SN OVC015 M12/M16 A2988 RMK AO2
     SLP232 P0000 60000 T11171156 58019=
KCVH 272050Z AUTO 30003KT 10SM SCT028 BKN048 OVC050 17/11 A2983
     RMK AO1=
KCXO 272053Z 03005KT 10SM SCT038 OVC100 08/M02 A3034 RMK AO2
     SLP275 T00831022 58017=
KCYS 272053Z 19015KT 4SM -SN OVC016 M11/M15 A2985 RMK AO2 SNB50
     SLP203 P0000 60000 T11111150 58019=
KD39 272052Z AUTO 23008KT 10SM CLR M10/M19 A3044 RMK AO2
     T10971190=
KD95 272052Z AUTO 27008G11KT 10SM SCT038 M09/M18 A3053 RMK AO2
     T10881181=
KDAB 272053Z 36013G21KT 9SM OVC014 12/09 A3024 RMK AO2 SLP240
     T01220089 55007=
####018003721####
SAUS99 KWBC 272057
METAR
KBOI 272053Z 15012KT 10SM CLR 11/M02 A2968 RMK AO2 SLP051
     T01061017 58029=
KBPI 272053Z AUTO 10003KT 10SM SCT042 BKN070 M06/M13 A2974 RMK AO2
     SLP115 T10561128 58022=
KBPK 272053Z AUTO 02003KT 10SM OVC065 M06/M17 A3055 RMK AO2 SLP359
     T10561172 55008=
KBPT 272053Z 07009KT 10SM CLR 11/00 A3032 RMK AO2 SLP265 T01110000
     56026=
KBRD 272053Z AUTO 23011KT 10SM CLR M08/M20 A3041 RMK AO2 SLP330
     T10831200 56018=
KBTL 272053Z 28008KT 10SM OVC040 M08/M16 A3054 RMK AO2 SLP365
     T10781161 55002=
KBTM 272053Z AUTO 11010KT 10SM OVC048 M01/M12 A2976 RMK AO2 SLP131
     T10061117 58015=
KBTR 272053Z 06007KT 10SM CLR 11/01 A3033 RMK AO2 SLP269 T01110006
     56023=
KBUR 272053Z VRB03KT 10SM BKN033 OVC046 16/09 A2979 RMK AO2 SLP080
     T01610089 58022=
KBVO 272053Z AUTO 06008KT 1SM -SN VV016 M07/M11 A3056 RMK AO2
     SNB12 SLP358 P0000 60000 T10721111 56028=
KBVY 272053Z 32004KT 10SM CLR M03/M22 A3034 RMK AO2 SLP274
     T10331217 53007=
KBWG 272053Z AUTO VRB04KT 10SM CLR M02/M14 A3056 RMK AO2 SLP355
     T10171144 56011=
KBYG 272053Z AUTO 17009KT 10SM CLR M07/M15 A2982 RMK AO2 SLP167
     T10721150 58015=
KBYI 272053Z AUTO VRB04KT 10SM FEW027 BKN085 07/M02 A2970 RMK AO2
     SLP059 T00671017 58023=
KCAG 272053Z AUTO VRB04KT 10SM CLR 00/M08 A2978 RMK AO2 SLP124
     T00001083 58024=
KCCR 272053Z 26013G18KT 10SM FEW045 18/07 A2979 RMK AO2 SLP074
     T01780072 58023=
KCDC 272053Z AUTO 24004KT 10SM CLR 06/M07 A2970 RMK AO2 SLP050
     T00561067 58025=
KCDR 272053Z AUTO 19019G28KT 10SM OVC037 M04/M12 A3006 RMK AO2 PK
     WND 18028/2050 SLP254 T10441122 58029=
KCDS 272053Z AUTO 09006KT 2SM -SN SCT014 BKN022 OVC027 M08/M11
     A3038 RMK AO2 SLP312 P0000 60001 T10781111 58020=
KCDW 272053Z AUTO 33009KT 10SM CLR M02/M17 A3041 RMK AO2 SLP306
     60000 T10221167 53008 TSNO=
KCEW 272053Z AUTO VRB05KT 10SM CLR 14/M01 A3030 RMK AO2 SLP259
     T01441006 56018=
KCEZ 272053Z AUTO 23003KT 4SM -SN BR SCT012 OVC036 00/M01 A2980
     RMK AO2 SLP090 P0000 60000 T00001011 58021=
KCGI 272053Z 05007KT 10SM CLR M05/M14 A3060 RMK AO2 SLP369
     T10501139 58010=
KCHA 272053Z 01007KT 10SM FEW250 04/M08 A3045 RMK AO2 SLP314
     T00441083 56011=
KCHO 272053Z 19006KT 10SM BKN065 03/M11 A3040 RMK AO2 SLP297
     T00281106 53007=
KCKB 272053Z 29006KT 10SM BKN075 M06/M17 A3051 RMK AO2 UPE1955
     SLP346 P0000 60000 T10611167 53008=
KCLL 272053Z 04011KT 10SM OVC032 06/M03 A3034 RMK AO2 SLP276
     T00561028 56025=
KCLM 272053Z AUTO 07007KT 7SM -RA SCT007 BKN015 OVC023 08/06 A2982
     RMK AO2 SLP097 P0002 60012 T00780061 51006=
KCMI 272053Z 26006KT 10SM CLR M11/M17 A3061 RMK AO2 SLP385
     T11061172 56008=
KCNM 272053Z AUTO 13009KT 10SM OVC013 M04/M08 A3016 RMK AO2 SLP224
     T10391078 56027=
KASE 272053Z 36006KT 3SM -SN BKN022 BKN028 OVC035 M03/M08 A2970
     RMK AO2 SLP058 P0000 60000 T10331078 58017=
KASX 272053Z AUTO 22010G14KT 10SM CLR M08/M21 A3043 RMK AO2 SLP326
     T10781206 56014=
KATY 272053Z AUTO 19007KT 10SM CLR M12/M18 A3039 RMK AO2 SLP339
     T11171178 56023=
KAUG 272053Z AUTO 29007KT 10SM CLR M06/M23 A3029 RMK AO2 SLP265
     T10561228 53005=
KAUS 272053Z 02012KT 10SM OVC023 02/M04 A3032 RMK AO2 SLP275
     T00221039 56026=
KAWM 272053Z AUTO 03011KT 10SM FEW037 00/M06 A3051 RMK AO2 SLP335
     T00001061 56025=
KAXN 272053Z AUTO 22006KT 10SM CLR A3042 RMK AO2 SLPNO 58016 $=
KAXV 272050Z AUTO 28006KT 10SM SCT044 M07/M17 A3059 RMK AO2=
KAZO 272053Z 26012KT 10SM BKN042 M08/M16 A3055 RMK AO2 SLP368
     T10831161 55002=
KBBB 272054Z AUTO 25003KT 10SM CLR M09/M19 A3047 RMK AO2=
####018003742####
SAUS99 KWBC 272057 RRC
METAR
KGLD 272053Z AUTO 17018G25KT 8SM -SN FEW017 OVC028 M09/M13 A3018
     RMK AO2 UPE1954SNB13E41B52 SLP275 P0000 60000 T10891128
     58018=
KGLH 272053Z AUTO 03014G19KT 10SM SCT025 01/M04 A3047 RMK AO2
     SLP328 T00111044 55022=
KGLR 272053Z AUTO 27008G17KT 10SM SCT029 M11/M17 A3040 RMK AO2
     SLP336 T11111172 53003=
KGMU 272053Z 00000KT 10SM CLR 11/M03 A3032 RMK AO2 SLP272
     T01061033 55006=
KEPH 272053Z AUTO 04012KT 10SM SCT110 11/M01 A2978 RMK AO2 SLP089
     T01061011 58012=
KEQY 272053Z AUTO 05008KT 10SM BKN050 10/M02 A3034 RMK AO2 SLP291
     T01001022 55006=
KESF 272053Z AUTO VRB06KT 10SM CLR 08/M03 A3038 RMK AO2 SLP287
     T00831028 56020=
KEST 272052Z AUTO 22007KT 10SM CLR M12/M18 A3050 RMK AO2 SLP366
     T11221178 56014=
KEVM 272051Z AUTO 24006KT 10SM CLR M08/M21 A3034 RMK AO2=
KEVW 272053Z AUTO 20010KT 10SM FEW029 FEW060 OVC085 M02/M07 A2971
     RMK AO2 SLP088 T10171067 58019=
KEWB 272053Z 28005KT 10SM CLR M02/M16 A3035 RMK AO2 SLP277 60000
     T10221161 53012=
KEYE 272053Z AUTO 33006KT 10SM CLR M09/M19 A3059 RMK AO2 SLP377
     T10941189 55004=
KEYW 272053Z 01011KT 10SM OVC009 23/20 A3006 RMK AO2 SLP179
     T02280200 58015=
KFAR 272053Z 22011KT 10SM CLR M09/M18 A3043 RMK AO2 SLP328
     T10891178 58020=
KFAT 272053Z 30007KT 10SM SCT037 BKN085 17/08 A2979 RMK AO2 SLP087
     T01720078 58024=
KFAY 272053Z AUTO 34006KT 10SM CLR 11/M03 A3036 RMK AO2 SLP276
     T01111028 55004=
KFBL 272054Z AUTO 22005KT 10SM CLR M11/M18 A3052 RMK AO2=
KFCM 272053Z 22010KT 10SM CLR M11/M18 A3051 RMK AO2 SLP355
     T11061183 56016=
KFDR 272053Z AUTO 07010KT 2 1/2SM HZ BKN013 BKN018 OVC036 M07/M11
     A3042 RMK AO2 SNE1959 SLP314 P0000 60001 T10721106 56021
     $=
KFDY 272053Z AUTO 28007KT 10SM CLR M09/M18 A3058 RMK AO2 SLP370
     T10941183 53001=
KFFC 272053Z AUTO 33007KT 10SM CLR 10/M07 A3035 RMK AO2 SLP284
     T01001067 56009=
KFFM 272054Z AUTO 00000KT 10SM CLR M10/M20 A3047 RMK AO2=
KFFT 272053Z AUTO 03005KT 10SM CLR M04/M18 A3057 RMK AO2 SLP365
     T10441178 55004=
KFGN 272054Z AUTO 24009G22KT 10SM CLR M08/M23 A3028 RMK AO2=
KFHR 272053Z AUTO 01007KT 10SM -RA OVC040 08/06 A2982 RMK AO2
     SLP100 P0000 60000 T00830056 50005=
KFKA 272055Z AUTO 26006KT 10SM CLR M14/M20 A3053 RMK AO2
     T11431202=
KFLD 272053Z AUTO 26008KT 10SM CLR M08/M19 A3051 RMK AO2 SLP354
     T10831189 56010=
KFLL 272053Z 35009KT 10SM BKN015 OVC250 22/18 A3009 RMK AO2 SLP188
     T02170183 56003=
KFLO 272053Z VRB06KT 10SM CLR 12/M02 A3034 RMK AO2 SLP273
     T01221017 56009=
KFMN 272053Z 11008KT 3/4SM -SN BR BKN006 OVC015 00/M01 A2980 RMK
     AO2 SLP106 P0002 60009 T00001011 58021=
KFMY 272053Z 06010KT 10SM OVC017 17/13 A3013 RMK AO2 SLP205
     T01720128 56005=
KFNT 272053Z 26010KT 10SM FEW037 M08/M17 A3054 RMK AO2 SLP362
     T10781167 55002=
KFOE 272053Z VRB05KT 10SM OVC075 M07/M17 A3054 RMK AO2 SLP362
     T10721172 56026=
KFOK 272053Z 32012G15KT 10SM CLR M03/M16 A3041 RMK AO2 SLP298
     T10281156 53012=
KFOZ 272053Z AUTO 23005G08KT 10SM CLR M06/M22 A3033 RMK AO2=
KFPR 272053Z 35008G16KT 6SM OVC007 15/14 A3015 RMK AO2 RAB15E51
     SLP208 P0002 60003 T01500144 55005=
KDHT 272053Z AUTO 16014KT 4SM -SN SCT017 OVC023 M08/M12 A3017 RMK
     AO2 SLP256 P0000 60000 T10831122 58019=
KDKK 272053Z AUTO 25009KT 10SM SCT021 M12/M17 A3057 RMK AO2 SLP369
     T11221172 53009=
KDLN 272053Z AUTO 10SM OVC070 M01/M11 A2976 RMK AO2 SLP125
     T10111111 58019=
KDLS 272053Z AUTO 06004KT 10SM -RA OVC031 08/06 A2975 RMK AO2
     SLP075 P0003 60010 T00830061 50000=
KDLZ 272107Z AUTO 32006KT 10SM CLR M09/M19 A3059 RMK AO2=
####018003606####
SAUS99 KWBC 272057 RRB
METAR
KDAL 272053Z 07009KT 2SM -SN BR BKN013 OVC042 M02/M06 A3043 RMK
     AO2 SLP308 P0000 60008 T10221056 56027=
KDAN 272053Z AUTO 33005KT 10SM CLR 05/M08 A3040 RMK AO2 SLP294
     T00501078 53002=
KDBQ 272053Z AUTO 27006KT 10SM CLR M13/M21 A3056 RMK AO2 SLP382
     T11281206 56009=
KDCU 272053Z AUTO 10SM CLR 01/M08 A3047 RMK AO2 SLP324 T00111078
     56017=
KDEN 272053Z 16003KT 10SM FEW060 FEW110 M08/M15 A2990 RMK AO2
     SLP189 T10831150 58022=
KDEQ 272053Z AUTO 08008KT 8SM BKN041 OVC055 M01/M11 A3049 RMK AO2
     SLP327 T10061106 58018=
KDET 272053Z 24007KT 10SM CLR M07/M20 A3055 RMK AO2 SLPNO
     T10671200 55000=
KDEW 272053Z AUTO 05012G20KT 10SM FEW050 08/M04 A2980 RMK AO2
     SLP105 T00831039 58010=
KDFI 272053Z AUTO 23005KT 10SM CLR M08/M18 A3059 RMK AO2 SLP378
     T10781183 55002=
KDFW 272053Z 04007KT 1/2SM R17C/3000V6000FT SN BKN010 OVC015
     M03/M05 A3042 RMK AO2 SLP307 P0002 60007 T10331050 55024
     $=
KDGW 272053Z AUTO 15013KT 10SM CLR M06/M12 A2986 RMK AO2 SLP181
     T10561122 58025=
KDHN 272053Z 07007KT 10SM CLR 14/M01 A3032 RMK AO2 SLP265
     T01391011 56015=
KFRG 272053Z 31008KT 10SM CLR M03/M15 A3041 RMK AO2 SLP299
     T10281150 53011=
KFSM 272053Z 10004KT 2SM R25/4500V5500FT -SN OVC016 M06/M09 A3056
     RMK AO2 SNB00 SLP353 P0001 60001 T10611089 58008=
KFST 272053Z AUTO 06010KT 2 1/2SM BR OVC005 M03/M03 A3016 RMK AO2
     SLP222 I1001 I3004 T10331033 56019=
KFTW 272053Z 01007KT 1/4SM R16/4000VP6000FT SN FZFG VV009 M03/M06
     A3042 RMK AO2 SLP306 P0000 60000 T10331056 56023=
KFTY 272053Z 01008KT 10SM CLR 08/M06 A3036 RMK AO2 SLP286
     T00781061 56007=
KFUL 272053Z VRB04KT 10SM OVC037 18/10 A2979 RMK AO2 SLP088
     T01780100 58020=
KFVE 272053Z AUTO 26012KT 10SM CLR M11/M23 A3011 RMK AO2 SLP221
     T11111228 53018=
KFWN 272053Z AUTO 28007KT 10SM CLR M04/M17 A3040 RMK AO2 SLP301
     T10391172 53010=
KFXE 272053Z AUTO 36007KT 10SM OVC011 21/18 A3010 RMK AO2 SLP195
     T02110183 56007 TSNO=
KFYV 272053Z 11005KT 1 1/2SM -SN BKN028 OVC038 M07/M13 A3051 RMK
     AO2 VIS 3/4V2 1/2 SNB40 SLP352 P0000 60000 T10721128
     58005=
KFZY 272054Z AUTO 26012G18KT 10SM BKN031 M09/M17 A3050 RMK AO2
     SLP338 60000 T10941167 52011=
KGAG 272053Z AUTO 12007KT 3SM -SN OVC023 M08/M13 A3037 RMK AO2
     SLP316 P0000 60000 T10831128 56026=
KGCC 272053Z AUTO 17015KT 10SM CLR M06/M12 A2987 RMK AO2 PK WND
     15027/1955 SLP181 T10561122 57022 TSNO=
KGDB 272052Z AUTO 00000KT 7SM CLR M09/M17 A3050 RMK AO2
     T10951166=
KGEG 272053Z 06010KT 10SM SCT050 SCT120 BKN200 08/M03 A2977 RMK
     AO2 SLP093 T00831033 58013=
KGEY 272053Z AUTO 00000KT 10SM CLR M03/M14 A2987 RMK AO2 SLP163
     60000 T10281144 58023=
KGEZ 272053Z AUTO 31005KT 10SM CLR M07/M17 A3059 RMK AO2 SLP375
     T10671172 55005=
KGFK 272053Z 22008KT 10SM FEW250 M08/M16 A3038 RMK AO2 SLP314
     T10831161 56018=
KGGG 272053Z 04009KT 10SM FEW032 OVC080 00/M08 A3043 RMK AO2
     SLP311 T00001078 55018=
KGGW 272053Z AUTO 00000KT 10SM CLR M07/M16 A3002 RMK AO2 SLP215
     T10671156 56016=
KGHW 272047Z AUTO 24007KT 10SM CLR M10/M18 A3044 RMK AO2=
KGIF 272053Z AUTO 04011KT 10SM OVC023 14/08 A3020 RMK AO2 SLP226
     T01440083 56010=
KGJT 272053Z 10SM SCT100 05/M05 A2976 RMK AO2 SLP074 T00501050
     58024=
KGKJ 272053Z AUTO 27007KT M12/M21 A3049 RMK AO2 SLP358 T11171206
     53008 TSNO $=
KGKY 272053Z 03008KT 1SM -SN BKN010 BKN017 OVC024 M02/M06 A3042
     RMK AO2 SLP304 P0001 60002 T10221056 56025=
####018003741####
SAUS99 KWBC 272057 RRD
METAR
KDMN 272053Z AUTO VRB06G14KT 10SM CLR 11/M03 A2987 RMK AO2 SLP095
     T01111033 58030=
KDMO 272053Z AUTO 09004KT 10SM CLR M06/M18 A3058 RMK AO2 SLP373
     60000 T10611178 56026=
KDNL 272053Z AUTO 00000KT 10SM CLR 14/00 A3032 RMK AO2 SLP267
     T01440000 55015=
KDRO 272053Z AUTO 19005KT 6SM BR SCT010 BKN014 OVC027 M02/M04
     A2979 RMK AO2 SNE07B35E50 SLP114 P0000 60001 T10171039
     56018=
KDRT 272053Z AUTO 08006KT 10SM OVC017 03/M01 A3024 RMK AO2 SLP241
     T00331006 58025=
KDTN 272053Z 04010KT 10SM OVC080 01/M08 A3044 RMK AO2 SLP310
     T00061078 58016=
KDTO 272053Z 03011KT 1/4SM -SN FZFG VV013 M04/M07 A3044 RMK AO2
     SLP314 P0001 60002 T10441067 56024=
KDTS 272053Z AUTO VRB05KT 10SM CLR 14/01 A3027 RMK AO2 SLP249
     T01440011 56021 TSNO=
KDTW 272053Z 21008KT 10SM FEW050 M07/M18 A3057 RMK AO2 SLP366
     T10721183 53001=
KDUJ 272053Z AUTO 27013KT 10SM CLR M10/M19 A3040 RMK AO2 SLP333
     T11001194 53011=
KDVP 272053Z AUTO 00000KT 10SM CLR M11/M18 A3045 RMK AO2
     T11101181=
KDVT 272053Z VRB05G17KT 10SM CLR 21/M06 A2968 RMK AO2 SLP037 6////
     T02111061 58027 $=
KDWH 272053Z 01006KT 10SM OVC023 07/00 A3034 RMK AO2 SLP274
     T00670000 58020=
KDXR 272053Z 30006KT 10SM CLR M04/M19 A3038 RMK AO2 SLP296
     T10441189 53008=
KDXX 272054Z AUTO 27003KT 10SM CLR M09/M18 A3047 RMK AO2=
KDYT 272053Z AUTO 22012G17KT 10SM CLR M07/M20 A3043 RMK AO2=
KECP 272053Z 01008G16KT 10SM CLR 13/01 A3026 RMK AO2 SLP260
     T01330006 56019=
KEEO 272053Z AUTO 00000KT 10SM CLR M02/M07 A2977 RMK AO2 SLP104
     T10221072 58022=
KEET 272053Z AUTO 01008KT 10SM CLR 08/M04 A3040 RMK AO2 SLP296
     T00781044 56016=
KELD 272053Z AUTO 02006KT 10SM OVC090 01/M08 A3049 RMK AO2 SLP327
     T00061078 56006=
KELM 272053Z AUTO 29005KT 10SM CLR M07/M19 A3043 RMK AO2 SLP326
     60000 T10721194 53009=
KELN 272053Z AUTO 30008KT 10SM FEW009 OVC075 07/03 A2977 RMK AO2
     RAE00 SLP088 P0000 60002 T00670028 58003=
KELO 272053Z AUTO 29006KT 10SM CLR M07/M24 A3030 RMK AO2=
KELY 272053Z AUTO 20004KT 10SM OVC075 05/M11 A2966 RMK AO2 SLP046
     T00501111 58030=
KEMP 272053Z AUTO VRB04KT 10SM OVC075 M08/M18 A3052 RMK AO2 SLP362
     T10781178 55025=
KENW 272053Z 25011KT 10SM CLR M11/M19 A3057 RMK AO2 SLP372
     T11061189 55005=
KGNV 272053Z 04009KT 10SM CLR 14/04 A3025 RMK AO2 SLP243 T01440044
     56014=
KGOK 272053Z AUTO 10007KT 2SM -SN SCT019 BKN038 OVC070 M07/M12
     A3050 RMK AO2 SLP348 P0000 60000 T10721117 56018=
KGPT 272053Z 02007KT 340V060 10SM CLR 13/M01 A3029 RMK AO2 SLP255
     T01281011 56026=
KGRB 272053Z AUTO 24012KT 10SM CLR M08/M17 A3049 RMK AO2 SLP342
     T10781172 56010=
KGRR 272053Z 26008KT 2SM R26L/5500VP6000FT -SN FEW012 BKN018
     BKN031 M08/M12 A3054 RMK AO2 SNB06 SLP362 P0000 60000
     T10831122 55004=
KGSH 272053Z AUTO 24007KT 10SM BKN033 M09/M16 A3057 RMK AO2 SLP375
     T10891161 56003 $=
KGSP 272053Z 05005KT 10SM CLR 12/M03 A3031 RMK AO2 SLP264
     T01171033 55007=
KGTF 272053Z 34009KT 8SM OVC019 M08/M12 A3000 RMK AO2 SNE53 SLP232
     P0000 60000 T10781117 50001=
KGUP 272053Z AUTO 26008KT 7SM -SN FEW009 BKN040 OVC060 02/M01
     A2979 RMK AO2 SNE24B45 SLP094 P0000 60002 T00221006 58019=
KGUY 272053Z AUTO 14010KT 4SM -SN OVC024 M09/M13 A3025 RMK AO2
     SLP278 P0000 60001 T10891133 58027=
KGVL 272053Z AUTO 26010KT 10SM CLR 08/M10 A3034 RMK AO2 SLP278
     T00831100 55007=
KGWO 272053Z AUTO A3044 RMK AO2 SLPNO 57030 PWINO=
KGYL 272054Z AUTO 25005KT 10SM CLR M10/M16 A3050 RMK AO2
     T11031161=
KGZH 272053Z AUTO 04006G18KT 10SM CLR 13/M02 A3032 RMK AO2 SLP266
     T01281017 56022=
####018003728####
SAUS99 KWBC 272057 RRE
METAR
KHAO 272053Z AUTO 31007KT 10SM CLR M07/M17 A3062 RMK AO2 SLP380
     T10721167 55003=
KHBG 272053Z AUTO 01008KT 10SM CLR 09/M01 A3035 RMK AO2 SLP277
     T00941011 56033=
KHBR 272053Z AUTO 08012KT 6SM HZ OVC040 M08/M11 A3043 RMK AO2
     SLP326 60000 T10781111 56014=
KHCD 272053Z AUTO 21006KT 10SM CLR M10/M17 A3050 RMK AO2
     T11021175=
KHEI 272053Z AUTO 17015G22KT 10SM CLR M04/M16 A3008 RMK AO2 SLP240
     T10391156 56032=
KHFD 272053Z 27007KT 10SM CLR M03/M19 A3038 RMK AO2 SLP288 60000
     T10281194 53006=
KHGR 272053Z AUTO 33010KT 10SM FEW050 M02/M14 A3045 RMK AO2 SLP331
     T10171144 53010=
KHHR 272053Z 20007KT 10SM BKN023 BKN031 OVC045 18/12 A2981 RMK AO2
     SLP093 T01780117 58020=
KHIB 272053Z AUTO 27008KT 10SM CLR M07/M23 A3034 RMK AO2 SLP314
     60000 T10721228 56016=
KHIO 272053Z 04003KT 10SM BKN027 OVC042 11/06 A2971 RMK AO2 SLP061
     T01060061 58008=
KHJO 272053Z AUTO 29005KT 7SM SCT075 19/07 A2979 RMK AO2 SLP090
     T01940072 58024=
KHKA 272053Z AUTO 02010KT 10SM FEW028 M03/M08 A3058 RMK AO2 SLP358
     T10281083 55018=
KHKS 272053Z VRB06KT 10SM CLR 07/M04 A3037 RMK AO2 SLP281 60000
     T00721044 56033=
KHKY 272053Z AUTO 00000KT 10SM CLR 09/M07 A3032 RMK AO2 SLP265
     T00891067 55005=
KHLG 272053Z 26012KT 10SM CLR M08/M19 A3052 RMK AO2 SLP363
     T10831194 53005=
KHLN 272053Z 35015KT 10SM SCT029 M04/M12 A2994 RMK AO2 SLP212
     T10391117 58012=
KJEF 272053Z AUTO 33003KT 10SM CLR M05/M19 A3060 RMK AO2 SLP361
     T10501189 56027=
KJER 272053Z AUTO 12005KT 10SM BKN035 OVC095 07/M03 A2971 RMK AO2
     SLP069 T00671028 58023=
KJKJ 272051Z AUTO 24006KT 10SM CLR M08/M22 A3043 RMK AO2=
KJKL 272053Z AUTO 31003KT 10SM CLR M03/M16 A3050 RMK AO2 SLP347
     T10331161 55001=
KJLN 272053Z 04005KT 10SM OVC080 M06/M17 A3054 RMK AO2 SLP356
     T10611172 56020=
KJMR 272055Z AUTO 22009KT 10SM CLR M08/M18 A3047 RMK AO2=
KLAA 272053Z AUTO 16016G24KT 3SM -SN BKN018 OVC030 M08/M13 A3012
     RMK AO2 SLP245 P0000 60000 T10831128 58020=
KLAN 272053Z 28011KT 10SM SCT039 M08/M17 A3054 RMK AO2 SLP364
     60000 T10781172 55001=
KLAR 272053Z AUTO 00000KT 10SM CLR M06/M14 A2973 RMK AO2 SLP135
     T10561139 58015 $=
KLAW 272053Z 07010KT 8SM FEW017 BKN041 OVC048 M07/M11 A3046 RMK
     AO2 SNE06 SLP330 P0000 60001 T10721111 56018=
KLAX 272053Z 20009KT 10SM FEW020 BKN035 BKN044 17/12 A2980 RMK AO2
     SLP092 T01670122 58020=
KLBB 272053Z 09008KT 2SM -SN FEW000 OVC014 M08/M12 A3022 RMK AO2
     SLP266 SN FEW000 P0000 60000 T10831117 56015=
KLBF 272053Z AUTO 16011KT 10SM CLR M04/M17 A3024 RMK AO2 SLP295
     T10441172 56033=
KLBX 272053Z AUTO 02014KT 7SM OVC016 04/02 A3031 RMK AO2 SLP264
     T00440017 56017=
KLCH 272053Z 08010KT 10SM CLR 10/00 A3033 RMK AO2 SLP277 T01000000
     56024=
KLEB 272053Z 36003KT 10SM CLR M06/M22 A3033 RMK AO2 SLP288
     T10561217 53005=
KLEE 272053Z AUTO 04012KT 10SM OVC027 15/07 A3022 RMK AO2 SLP232
     T01500072 56011=
KLFK 272053Z AUTO 01006KT 10SM OVC090 07/M03 A3037 RMK AO2 SLP284
     T00721033 56020=
KLFT 272053Z 06009G14KT 030V090 10SM CLR 11/01 A3033 RMK AO2
     SLP268 T01060011 56023=
KLGB 272053Z 18009KT 10SM OVC039 17/11 A2981 RMK AO2 SLP093
     T01720111 58018=
KLHQ 272053Z AUTO VRB04KT 8SM OVC039 M08/M16 A3058 RMK AO2 SLP376
     60000 T10831156 55000=
KLHX 272053Z AUTO 13016KT 10SM CLR M07/M12 A3003 RMK AO2 SLP210
     T10671122=
KLIT 272053Z 35008KT 10SM BKN090 OVC150 M01/M15 A3058 RMK AO2
     SLP360 T10061150 55006=
KLJF 272053Z AUTO 24004KT 10SM CLR M11/M18 A3048 RMK AO2=
KLKR 272055Z AUTO 00000KT 10SM CLR 12/M03 A3034 RMK AO2=
####018003674####
SAUS99 KWBC 272057 RRF
METAR
KLLQ 272053Z AUTO 02006KT 10SM FEW031 BKN110 01/M07 A3051 RMK AO2
     SLP333 T00111072 55008=
KLMT 272053Z 29015G20KT 10SM FEW027 OVC070 07/00 A2969 RMK AO2
     WSHFT 1958 RAB07E18 SLP049 P0000 60000 T00720000 58015=
KLND 272053Z AUTO 00000KT 10SM FEW013 M11/M14 A2980 RMK AO2 SLP179
     T11111144 58022=
KLNS 272053Z 31006KT 10SM CLR M04/M14 A3045 RMK AO2 SLP318
     T10391144 53012=
KLOL 272053Z AUTO 19010KT 3SM -RA BKN040 OVC055 06/02 A2966 RMK
     AO2 PK WND 24027/2025 RAB00 SLP041 P0002 60002 T00560022
     56026=
KLOU 272053Z VRB04KT 10SM CLR M03/M16 A3060 RMK AO2 SLP371
     T10331161 55004=
KHOT 272053Z AUTO 06010KT 10SM OVC085 M01/M13 A3053 RMK AO2 SLP343
     T10111128 58001=
KHOU 272053Z 03010KT 10SM OVC021 06/01 A3034 RMK AO2 SLP279
     T00560006 56016=
KHQM 272053Z AUTO 05014G19KT 8SM SCT015 BKN022 OVC029 12/08 A2972
     RMK AO2 SLP066 60000 T01170078 58001=
KHRI 272053Z AUTO 02006KT 10SM BKN055 OVC070 10/03 A2972 RMK AO2
     RAE42 SLP063 P0000 60000 T01000028 58005=
KHRO 272053Z AUTO 10003KT 10SM OVC055 M07/M17 A3052 RMK AO2 SLP358
     T10721167 55004=
KHSI 272053Z AUTO 15007KT 10SM FEW110 M06/M21 A3039 RMK AO2 SLP332
     T10611206 56031=
KHSV 272053Z 01008KT 10SM CLR 02/M08 A3046 RMK AO2 SLP317
     T00221078 56017=
KHTL 272053Z AUTO 24006KT 10SM FEW040 M09/M17 A3044 RMK AO2 SLP340
     T10891172 55003=
KHUF 272053Z 31007KT 10SM CLR M08/M18 A3062 RMK AO2 SLP379
     T10831183 56008=
KHUL 272053Z AUTO 27012G19KT 10SM CLR M08/M23 A3019 RMK AO2 SLP238
     T10831228 53014=
KHVN 272053Z 34009KT 10SM CLR M03/M18 A3039 RMK AO2 SLP290
     T10281178 53010=
KHVR 272053Z AUTO 27009KT 10SM BKN029 M05/M13 A3004 RMK AO2 SLP223
     60000 T10501128 57008=
KHWO 272053Z 35012KT 10SM SCT013 22/17 A3011 RMK AO2 SLP194
     T02220172 56002=
KHYR 272053Z AUTO 24007KT 10SM CLR M09/M22 A3043 RMK AO2 SLP340
     60000 T10941217 56013=
KHZX 272048Z AUTO 23006KT 10SM CLR M07/M21 A3040 RMK AO2=
KHZY 272053Z AUTO 27009KT 10SM CLR M11/M20 A3056 RMK AO2 SLP374
     T11111200 53007=
KI69 272055Z AUTO 31003KT 10SM CLR M06/M17 A3059 RMK AO1=
KIAH 272053Z 04005KT 8SM OVC022 06/00 A3035 RMK AO2 SLP277
     T00610000 56019=
KICR 272053Z AUTO 17015G19KT 10SM CLR M03/M21 A3028 RMK AO2 SLP291
     T10331206 56035=
KICT 272053Z 10003KT 1 1/4SM -SN SCT024 OVC036 M09/M13 A3050 RMK
     AO2 SFC VIS 1 1/2 SLP353 P0000 60002 T10891133 56009=
KIDA 272053Z 00000KT 10SM SCT019 BKN024 OVC034 00/M04 A2976 RMK
     AO2 SNE08 SLP103 P0000 60000 T00001039 56013=
KIKW 272053Z AUTO 25010KT 10SM SCT039 M07/M16 A3051 RMK AO2
     T10701161=
KILM 272053Z 03006KT 10SM CLR 11/00 A3036 RMK AO2 SLP279 T01060000
     58004=
KIML 272053Z AUTO 16016G22KT 6SM -SN M07/M13 A3019 RMK AO2 SNB47
     SLP277 P0000 60000 T10671128 56029 $=
KIMS 272052Z AUTO 00000KT 10SM CLR M05/M20 A3060 RMK AO1=
KINK 272053Z AUTO 08011KT 10SM OVC012 M04/M08 A3019 RMK AO2 SLP239
     T10391078 56027=
KIPL 272053Z AUTO VRB04KT 10SM CLR 25/04 A2965 RMK AO2 SLP041
     T02500039 58028=
KITR 272053Z AUTO 16019KT 5SM HZ SCT017 SCT026 OVC047 M10/M14
     A3011 RMK AO2 PK WND 16027/2006 SNE45 SLP254 P0000 60000
     T11001139 56017=
KIXD 272053Z 05004KT 10SM BKN075 OVC090 M07/M18 A3054 RMK AO2
     SLP364 60000 T10721183 56028=
KJBR 272053Z AUTO 05010KT 10SM FEW024 FEW110 M04/M09 A3057 RMK AO2
     SLP356 T10441089 55012=
KLOZ 272053Z AUTO 05007KT 10SM CLR M03/M14 A3050 RMK AO2 SLP344
     T10281144 55006=
KLPR 272053Z AUTO 24005KT 10SM FEW038 M11/M18 A3058 RMK AO2 SLP377
     T11061183 53004 TSNO=
####018003735####
SAUS99 KWBC 272057 RRG
METAR
KLSE 272053Z 34005KT 10SM CLR M08/M20 A3056 RMK AO2 SLP375
     T10831200 58015=
KLUK 272053Z 02004KT 10SM FEW050 M06/M17 A3062 RMK AO2 UPB1958E07
     SLP378 P0000 60000 T10561172 55003=
KLVJ 272053Z AUTO 03010KT 8SM OVC020 06/01 A3035 RMK AO2 SLP276
     T00610006 56017=
KLVK 272053Z 24015G22KT 10SM SCT032 17/08 A2980 RMK AO2 SLP090
     T01720083 58021=
KLVM 272053Z AUTO 32003KT 10SM OVC070 M02/M12 A2983 RMK AO2 SLP158
     T10221117 58011=
KLVS 272053Z AUTO 18018KT 3/4SM -SN BR OVC006 M12/M14 A2989 RMK
     AO2 UPB1954E08SNE1954B08 SLP180 P0000 60000 T11171139
     57023=
KLWD 272053Z AUTO 00000KT 10SM CLR M11/M18 A3056 RMK AO2 SLP377
     T11111178 58020=
KLWV 272053Z AUTO 36008KT 10SM CLR M06/M16 A3064 RMK AO2 SNE1958
     SLP382 P0000 60000 T10611161 56011=
KLXL 272054Z AUTO 22007KT 10SM CLR M08/M21 A3044 RMK AO2=
KLXT 272053Z AUTO 03004KT 10SM BKN090 M08/M18 A3056 RMK AO2 SLP368
     T10781178 56026=
KLXV 272053Z AUTO 17007KT 1 1/2SM -SN BR BKN019 OVC026 M09/M12
     A2965 RMK AO2 SNB00 SLP080 P0000 60000 T10941117 58016=
KLYV 272055Z AUTO 20007KT 10SM CLR M10/M16 A3048 RMK AO2=
KMAE 272053Z AUTO 30009KT 10SM FEW040 SCT065 18/07 A2980 RMK AO2
     SLP089 T01830067 58022=
KMAF 272053Z 07013KT 3SM BR OVC010 M06/M08 A3022 RMK AO2 SLP252
     60000 T10611083 58020 $=
KMAI 272053Z AUTO 05011KT 10SM CLR 14/02 A3028 RMK AO2 RAB08E45
     SLP255 P0000 60000 T01390017 56018=
KMAO 272115Z AUTO 00000KT 10SM CLR 11/00 A3036 RMK AO2=
KMBS 272053Z 23015KT 10SM CLR M08/M17 A3053 RMK AO2 SLP354
     T10831167 55004=
KMCB 272053Z AUTO 05008KT 360V090 10SM CLR 09/M02 A3033 RMK AO2
     SLP272 T00891022 56027=
KMCE 272053Z AUTO VRB04KT 10SM FEW041 SCT049 OVC065 18/08 A2979
     RMK AO2 SLP088 T01830078 58024=
KMCI 272053Z VRB04KT 10SM OVC200 M08/M18 A3055 RMK AO2 SLP366
     T10831178 56027=
KMCK 272053Z AUTO 16010G20KT 10SM BKN040 OVC060 M05/M16 A3029 RMK
     AO2 SLP302 T10501156 56031=
KMCN 272053Z VRB04KT 10SM CLR 14/M01 A3031 RMK AO2 SLP265
     T01391006 56016=
KMCO 272053Z 01011KT 10SM SCT019 OVC026 13/10 A3021 RMK AO2 SLP228
     60000 T01330100 56009=
KMCW 272053Z AUTO 27004KT 10SM CLR M14/M18 A3055 RMK AO2 SLP377
     T11391183 56011=
KMDS 272050Z AUTO 18009KT 10SM CLR M10/M16 A3041 RMK AO2=
KMDW 272053Z 26009KT 230V310 10SM CLR M08/M19 A3060 RMK AO2 SLP385
     T10831189 56006=
KMFE 272053Z 02007KT 10SM OVC030 17/09 A3016 RMK AO2 SLP211
     T01670089 56029=
KMFR 272053Z 23005G16KT 10SM -RA FEW041 SCT050 BKN070 09/05 A2977
     RMK AO2 RAE1955B34 SLP081 P0000 60000 T00890050 58014=
KMGG 272055Z AUTO 24004KT 10SM CLR M09/M17 A3049 RMK AO2
     T10881174=
KMGM 272053Z 32009KT 10SM CLR 11/M02 A3036 RMK AO2 SLP282
     T01111022 56016=
KMGW 272053Z 30005KT 10SM CLR M06/M18 A3050 RMK AO2 SLP351
     T10561183 53002=
KMGY 272053Z AUTO 29003KT 10SM SCT042 M07/M17 A3057 RMK AO2 SLP369
     60000 T10721172 55001=
KMHT 272053Z VRB06KT 10SM CLR M04/M21 A3033 RMK AO2 SLP292
     T10391206 53007=
KMIA 272053Z 36009KT 10SM FEW029 FEW110 FEW250 25/18 A3008 RMK AO2
     SLP187 T02500178 56010=
KMIC 272053Z 21007KT 10SM CLR M09/M17 A3050 RMK AO2 SLP349
     T10891172 56016=
KMIE 272053Z 00000KT 10SM CLR M09/M18 A3058 RMK AO2 SLP373
     T10891178 55002=
KMIW 272053Z AUTO 24004KT 10SM CLR M14/M19 A3058 RMK AO2 SLP386
     T11441189 56012=
KMJQ 272053Z AUTO 25008KT 10SM CLR M11/M17 A3048 RMK AO2=
KMKL 272053Z 02007G16KT 10SM CLR 01/M11 A3050 RMK AO2 SLP334
     T00111111 56020=
KMKO 272053Z AUTO 07007KT 1 1/2SM -SN BKN023 BKN027 OVC033 M06/M11
     A3055 RMK AO2 SNB05 SLP353 P0000 60000 T10611106 58023=
####018003732####
SAUS99 KWBC 272057 RRH
METAR
KMLB 272053Z AUTO 35015G22KT 4SM VCTS -RA BR OVC008 13/12 A3018
     RMK AO2 CIG 007V011 SLP217 P0006 60007 T01280122 56007=
KMLC 272053Z AUTO 05005KT 3/4SM -SN SCT012 OVC017 M06/M09 A3050
     RMK AO2 SLP336 P0001 60004 T10561089 58028=
KMLP 272053Z AUTO VRB03KT 10SM SCT027 BKN033 M04/M09 A2972 RMK AO2
     SLP107 60000 T10391089 56005=
KMLS 272053Z AUTO 18009KT 10SM CLR M04/M13 A2999 RMK AO2 SLP204
     T10441128 58023=
KMLT 272053Z AUTO 29008G18KT 10SM CLR M07/M22 A3025 RMK AO2 SLP257
     T10721222 53010=
KMLU 272053Z 04008KT 360V070 10SM BKN028 BKN095 02/M04 A3049 RMK
     AO2 SLP324 T00221039 56013=
KMMK 272053Z AUTO 32009KT 10SM CLR M03/M18 A3038 RMK AO2 SLP291
     T10281183 53009 TSNO=
KMMV 272053Z AUTO 20007KT 10SM SCT027 BKN033 BKN055 12/06 A2972
     RMK AO2 RAE1956 SLP065 P0000 60000 T01220061 56011=
KMNN 272053Z AUTO 26006KT 10SM CLR M10/M19 A3058 RMK AO2 SLP378
     T11001189 53003 TSNO=
KMOD 272053Z 27012KT 10SM BKN044 BKN065 19/06 A2978 RMK AO2 WSHFT
     2015 SLP083 T01890061 58027=
KMOX 272053Z AUTO 20006KT 10SM CLR M09/M17 A3044 RMK AO2=
KMPO 272053Z AUTO A3030 RMK AO2 SLPNO PWINO FZRANO=
KMQJ 272055Z AUTO 27004KT 10SM CLR M07/M26 A3059 RMK AO1=
KMRB 272053Z 34012G17KT 10SM CLR 00/M14 A3046 RMK AO2 SLP320
     T00001139 53006=
KMRT 272053Z AUTO 34009KT 10SM CLR M08/M19 A3057 RMK AO2
     T10801192=
KMSL 272053Z AUTO VRB03KT 10SM CLR 03/M09 A3048 RMK AO2 SLP325
     T00281094 56016=
KMSN 272053Z VRB06KT 10SM CLR M09/M20 A3053 RMK AO2 SLP361
     T10941200 56013=
KMSO 272053Z 12013KT 10SM BKN080 OVC100 03/M11 A2984 RMK AO2
     SLP129 T00331111 58020=
KMSP 272053Z 21007KT 10SM CLR M09/M18 A3051 RMK AO2 SLP354
     T10941183 56017=
KMSS 272053Z AUTO 24011KT 10SM CLR M09/M22 A3044 RMK AO2 SLP318
     T10941217 53004=
KMSY 272053Z 01010KT 10SM FEW250 11/01 A3032 RMK AO2 SLP268
     T01060011 56021=
KMTH 272053Z AUTO 35005KT 10SM CLR 25/22 A3006 RMK AO2 SLP177
     T02500217 57013=
KMTJ 272053Z AUTO 33010KT 10SM BKN009 OVC090 00/M03 A2978 RMK AO2
     CIG 007V011 SLP085 T00001028 58018=
KMVE 272054Z AUTO 24005KT 10SM CLR M06/M15 A3049 RMK AO2=
KMVY 272053Z 26006KT 10SM CLR M03/M17 A3036 RMK AO2 SLP281
     T10331167 53012=
KMWL 272053Z AUTO 03009KT 3/4SM -SN BR FEW009 BKN025 OVC044
     M05/M07 A3040 RMK AO2 SLP303 P0000 60001 T10501072 56012=
KMWM 272053Z AUTO 25005KT 10SM CLR M11/M17 A3047 RMK AO2=
KMYF 272053Z 18013KT 10SM BKN031 17/11 A2983 RMK AO2 SLP098
     T01720106 58014=
KMYV 272053Z AUTO 15009KT 10SM CLR 18/08 A2975 RMK AO2 SLP077
     T01780083 58026=
KN03 272055Z AUTO 28005KT 10SM CLR M10/M17 A3043 RMK AO2=
KNEW 272053Z 31007KT 10SM CLR 12/01 A3032 RMK AO2 SLP259 T01170011
     56022=
KOAK 272053Z 28021KT 10SM FEW028 SCT140 17/08 A2983 RMK AO2 PK WND
     27027/2037 SLP100 T01670078 58021=
KODO 272053Z AUTO 08010KT 8SM OVC009 M06/M08 A3022 RMK AO2 SLP251
     60000 T10611083 58016=
KODX 272053Z AUTO 18011G17KT 10SM CLR M06/M21 A3035 RMK AO2 SLP324
     T10561211 56032=
KOGB 272053Z AUTO 21003KT 10SM CLR 12/00 A3033 RMK AO2 SLP272
     T01170000 55014=
KOGD 272053Z 21007KT 10SM SCT040 OVC080 06/M04 A2973 RMK AO2
     SLP068 T00561039 58023=
KOJC 272053Z 08004KT 10SM FEW085 M08/M19 A3053 RMK AO2 SLP360
     T10781189 56028=
KOLF 272053Z AUTO 18010KT 10SM CLR M03/M13 A3004 RMK AO2 SLP214
     T10281133 56028=
KOMK 272053Z AUTO 01017G25KT 10SM FEW060 OVC085 06/00 A2986 RMK
     AO2 SLP119 T00610000 56003=
KONA 272056Z AUTO 24004KT 10SM CLR M10/M18 A3057 RMK AO2=
KONO 272053Z AUTO 11006KT 10SM SCT042 BKN050 BKN065 12/01 A2970
     RMK AO2 SLP064 T01220011 58028=
####018003666####
SAUS99 KWBC 272057 RRI
METAR
KONT 272053Z 28006KT 10SM OVC039 16/08 A2980 RMK AO2 SLP087
     T01560078 58022=
KONZ 272054Z AUTO 20010KT 10SM CLR M09/M19 A3056 RMK AO2=
KOPF 272053Z 36011KT 10SM CLR 24/18 A3009 RMK AO2 SLP191 T02390178
     56008=
KORL 272053Z 02008KT 6SM HZ BKN021 OVC032 13/09 A3021 RMK AO2
     SLP235 T01330089 56010=
KOSC 272053Z AUTO 24006G09KT 10SM CLR M07/M17 A3045 RMK AO2
     T10691172=
KOSH 272053Z 26009KT 10SM CLR M08/M19 A3050 RMK AO2 SLP358
     T10831189 56012=
KOSU 272053Z 35008KT 10SM SCT041 M09/M17 A3058 RMK AO2 SLP373
     T10891172 53001=
KOVE 272053Z AUTO 18003KT 10SM SCT042 BKN050 17/06 A2976 RMK AO2
     SLP078 T01670056 58025=
KOVL 272053Z AUTO 26004KT 10SM CLR M10/M17 A3048 RMK AO2=
KOVS 272053Z AUTO 21009KT 10SM CLR M09/M19 A3058 RMK AO2 UPB27E33
     SLP374 P0000 60000 T10941194 55012=
KRSL 272053Z AUTO 14007KT 10SM FEW042 OVC055 M07/M17 A3042 RMK AO2
     SNB10E21 SLP337 P0000 60000 T10721167 56025=
KRSW 272053Z AUTO 04011KT 10SM OVC016 17/12 A3014 RMK AO2 SLP203
     T01670122 56006=
KRTN 272053Z AUTO 20013KT 2SM -SN OVC011 M11/M13 A2993 RMK AO2
     SLP201 P0000 60000 T11061133 58019=
KRUE 272053Z AUTO 00000KT 10SM OVC075 M02/M17 A3056 RMK AO2 SLP349
     T10171167 55003=
KRWF 272053Z AUTO 26006KT 10SM CLR M10/M17 A3049 RMK AO2 SLP354
     T11001167 56020=
KRWI 272053Z AUTO 35008KT 10SM CLR 08/M03 A3039 RMK AO2 SLP293
     T00831033 53002=
KRWL 272053Z AUTO 24012G17KT 10SM CLR M02/M14 A2974 RMK AO2 SLP130
     T10221139 58023=
KRXE 272053Z AUTO 36003KT 10SM BKN020 OVC030 00/M04 A2975 RMK AO2
     SLP106 60000 T00001044 58017=
KRZR 272055Z AUTO 06006KT 10SM CLR 02/M08 A3045 RMK=
KRZT 272055Z AUTO 32007KT 10SM CLR M07/M17 A3060 RMK AO2=
KSAC 272053Z AUTO 20004KT 10SM FEW046 18/07 A2975 RMK AO2 SLP074
     T01830072 58028=
KSAF 272053Z 15014KT 6SM -SN OVC017 M07/M12 A2990 RMK AO2
     UPB27E33SNB12E27B36 SLP158 P0000 60000 T10671117 58022=
KSAV 272053Z 04006KT 10SM FEW060 SCT180 BKN250 11/01 A3034 RMK AO2
     SLP274 T01110006 55010=
KSAZ 272054Z AUTO 28006KT 10SM CLR M09/M21 A3041 RMK AO2=
KSBA 272053Z VRB04KT 10SM FEW048 20/12 A2978 RMK AO2 WSHFT 1941
     SLP083 T02000117 58025=
KSBM 272053Z AUTO 26012KT 10SM CLR M09/M18 A3052 RMK AO2 SLP352
     T10891183 55007=
KSDL 272053Z VRB03KT 10SM CLR 22/M04 A2969 RMK AO2 SLP041
     T02221039 58028=
KSDM 272053Z 19014KT 10SM BKN035 18/09 A2982 RMK AO2 SLP097
     T01830094 58016=
KSEA 272053Z 36008KT 10SM FEW005 OVC060 10/07 A2976 RMK AO2 RAE10
     SLP084 P0000 60002 T01000072 50003=
KSEG 272053Z AUTO 31007KT 10SM CLR M03/M16 A3046 RMK AO2 SLP321
     T10331156 53005=
KSFB 272053Z 03012KT 10SM OVC020 13/08 A3022 RMK AO2 SLP233
     T01280083 55008=
KSFF 272053Z 05009KT 360V080 10SM SCT050 10/M04 A2979 RMK AO2
     SLP097 T01001039 56014=
KSGR 272053Z 05010KT 7SM OVC020 06/01 A3033 RMK AO2 SLP273
     T00560006 56017=
KSGS 272050Z AUTO 22005KT 10SM CLR M09/M17 A3052 RMK AO2
     T10871175=
KSHN 272053Z AUTO 03008KT 10SM -RA SCT011 BKN024 OVC038 08/06
     A2973 RMK AO2 RAB35 SLP071 P0000 60001 T00830061 50000=
KSHR 272053Z AUTO 27004KT 10SM CLR M08/M14 A2989 RMK AO2 SLP206
     T10781144 56018=
KSIY 272053Z AUTO 25005KT 10SM SCT045 BKN075 OVC090 09/02 A2973
     RMK AO2 SLP080 60000 T00940017 58018=
KSJC 272053Z 31011KT 10SM FEW015 BKN040 BKN250 16/08 A2983 RMK AO2
     SLP102 T01560083 58021=
KSLC 272053Z 19004KT 10SM FEW047TCU FEW055 SCT095 SCT180 05/M04
     A2974 RMK AO2 SLP073 VIRGA SE-S AND DSNT NE CB DSNT NE AND W
     TCU SW-NW SH DSNT SE T00501044 58025=
####018003744####
SAUS99 KWBC 272057 RRJ
METAR
KOWD 272053Z 31007KT 10SM CLR M03/M19 A3035 RMK AO2 SLP279
     T10331194 53007=
KOXB 272053Z AUTO 02003KT 5SM HZ SCT027 OVC033 M01/M05 A3046 RMK
     AO2 SLP315 T10111050 53020 TSNO=
KPAE 272053Z 35007G14KT 9SM OVC003 08/07 A2977 RMK AO2 RAE04
     SLP084 P0000 60004 T00830072 50002=
KPAH 272053Z 00000KT 10SM SCT038 M04/M13 A3059 RMK AO2 SLP365
     T10391133 55009=
KPBF 272053Z AUTO 02011KT 10SM BKN028 OVC095 M02/M08 A3056 RMK AO2
     SLP350 T10221078 55007=
KPBG 272053Z AUTO 15005KT 10SM CLR M09/M19 A3040 RMK AO2 SLP300
     60000 T10941194 53005=
KPBI 272053Z 35014KT 10SM OVC007 19/17 A3010 RMK AO2 RAE18 SLP193
     P0000 60000 T01940172 56007=
KPCW 272053Z AUTO 20010KT 10SM CLR M09/M18 A3059 RMK AO2 53002
     T10881177=
KPDK 272053Z 33006KT 10SM CLR 08/M05 A3035 RMK AO2 SLP292
     T00831050 55005=
KPDT 272053Z 27011KT 10SM -RA SCT042 BKN055 OVC070 07/04 A2969 RMK
     AO2 WSHFT 1956 RAB00E11B46 SLP052 P0000 60000 T00720044
     58007=
KPDX 272053Z 00000KT 10SM FEW020 BKN030 BKN080 13/07 A2972 RMK AO2
     SLP064 60000 T01280072 58010=
KPEO 272053Z AUTO 33012KT 10SM CLR M09/M19 A3045 RMK AO2 SLP334
     T10941194 53010=
KPEX 272054Z AUTO 21007KT 10SM CLR M11/M21 A3046 RMK AO2
     T11101214=
KPGA 272053Z AUTO 05008KT 10SM FEW032 FEW043 OVC055 06/01 A2976
     RMK AO2 SLP066 60000 T00610011 58027 TSNO=
KPGD 272053Z AUTO 05012KT 10SM BKN017 OVC037 15/11 A3017 RMK AO2
     SLP218 T01500111 56008=
KPHD 272053Z AUTO 34008KT 10SM CLR M08/M18 A3058 RMK AO2 SLP373
     T10781183 53004=
KPIE 272053Z AUTO 07010KT 10SM OVC027 18/11 A3016 RMK AO2 SLP214
     T01780111 56015=
KPIH 272053Z VRB03KT 10SM FEW028 SCT037 BKN085 03/M03 A2975 RMK
     AO2 SLP087 60000 T00331028 58018=
KPIL 272053Z AUTO 36007KT 5SM HZ SCT031 BKN043 OVC070 16/12 A3013
     RMK AO2 RAB1959E16 SLP202 P0000 60000 T01560122 58027=
KPIR 272053Z AUTO 16014G18KT 10SM CLR M03/M21 A3027 RMK AO2 SLP284
     T10331206 56034=
KPKB 272053Z 35008KT 10SM FEW047 M06/M17 A3058 RMK AO2 SLP372
     60000 T10561167 56001=
KPKD 272053Z AUTO 26008KT 10SM CLR M08/M21 A3036 RMK AO2 SLP322
     T10831211 56014=
KPMD 272053Z AUTO 25022KT 10SM CLR 16/06 A2974 RMK AO2 PK WND
     25027/2038 SLP062 T01560056 58025=
KPMP 272053Z 35008KT 9SM OVC012 21/18 A3010 RMK AO2 SLP194
     T02110178 55006=
KPNC 272053Z AUTO 13006KT 2 1/2SM -SN SCT024 OVC038 M07/M12 A3053
     RMK AO2 SLP353 P0000 60000 T10721122 56018=
KPNM 272054Z AUTO 24005KT 10SM CLR M07/M18 A3046 RMK AO2=
KPNS 272053Z 06009KT 10SM CLR 14/M02 A3028 RMK AO2 SLP256
     T01391017 56020=
KPOF 272053Z AUTO 08009KT 10SM CLR M06/M14 A3058 RMK AO2 SLP367
     T10611139 56018=
KPOU 272053Z AUTO VRB03KT 10SM CLR M03/M17 A3040 RMK AO2 SLP294
     T10281172 53004=
KSLN 272053Z 09007KT 10SM OVC070 M06/M17 A3050 RMK AO2 SLP353
     T10611172 56026=
KSMF 272053Z 00000KT 10SM FEW040 SCT200 18/08 A2974 RMK AO2 SLP072
     T01780078 58027=
KSMQ 272053Z AUTO VRB06KT 10SM CLR M01/M16 A3041 RMK AO2 SLP300
     T10111156 53009 TSNO=
KSNA 272053Z 19010KT 10SM SCT035 BKN050 BKN055 21/09 A2980 RMK AO2
     SLP091 T02060094 58019=
KSNS 272053Z 25016KT 10SM FEW023 18/09 A2984 RMK AO2 SLP114
     T01830094 58020 $=
KSNY 272053Z AUTO 17019G25KT 10SM OVC031 M08/M13 A3004 RMK AO2 PK
     WND 18027/2012 SLP245 60000 T10781133 58028=
KSPB 272053Z AUTO 35004KT 10SM FEW017 BKN042 OVC080 10/08 A2972
     RMK AO2 RAE47 SLP063 P0001 60001 T01000078 58006=
KSPG 272053Z AUTO 08014KT 10SM OVC023 17/12 A3016 RMK AO2 SLP213
     T01670117 56004=
KSRQ 272053Z AUTO 10010KT 10SM BKN021 OVC050 16/11 A3016 RMK AO2
     SLP211 T01560106 55010=
####018003697####
SAUS99 KWBC 272057 RRL
METAR
KRHI 272053Z AUTO 26010G16KT 10SM CLR M09/M20 A3037 RMK AO2 SLP329
     T10891200 55007=
KRIL 272053Z AUTO 20008KT 10SM BKN060 BKN075 03/M08 A2974 RMK AO2
     SLP076 T00331083 58025=
KRIW 272053Z AUTO 04006KT 10SM CLR M10/M15 A2982 RMK AO2 SLP186
     T11001150 58021=
KRKP 272053Z AUTO 06016G23KT 8SM OVC028 12/06 A3022 RMK AO2 SLP234
     T01220061 58024=
KRME 272053Z 31011KT 10SM SCT041 M10/M17 A3048 RMK AO2 SLP332
     60000 T11001167 53013=
KRMG 272053Z AUTO 35007G14KT 10SM CLR 06/M06 A3041 RMK AO2 SLP300
     T00561056 56009=
KRMY 272053Z AUTO 24009KT 10SM OVC042 M09/M17 A3054 RMK AO2
     T10901173=
KRNM 272053Z 23011KT 10SM BKN029 OVC039 17/09 A2981 RMK AO2 SLP090
     T01670089 58018=
KRNT 272053Z 30009KT 10SM SCT015 BKN080 10/M01 A2976 RMK AO2
     SLP081 60000 T01001011 50002=
KROS 272055Z AUTO 22005KT 10SM CLR M09/M19 A3047 RMK AO2
     T10891193=
KROX 272055Z AUTO 10SM CLR M10/M18 A3033 RMK AO2=
KRQE 272053Z AUTO 26008KT 6SM -SN SCT018 BKN026 OVC055 02/M02
     A2978 RMK AO2 SNE34B53 SLP065 P0001 60004 T00221017 56024
     TSNO=
KRRT 272053Z AUTO 23010G16KT 10SM CLR M11/M19 A3033 RMK AO2=
KVPC 272053Z AUTO 35007KT 10SM CLR 05/M07 A3042 RMK AO2 SLP301
     T00501072 55005=
KVRB 272053Z AUTO 35011KT 9SM OVC007 15/13 A3016 RMK AO2 SLP212
     60008 T01500133 56006=
KVUO 272053Z AUTO 00000KT 10SM FEW027 SCT041 BKN050 11/05 A2972
     RMK AO2 SLP064 T01110050 58008=
KVVV 272054Z AUTO 00000KT 10SM CLR M09/M20 A3045 RMK AO2=
KWRL 272053Z AUTO 00000KT 10SM CLR M04/M13 A2986 RMK AO2 SLP172
     T10441128 58022=
KWST 272053Z AUTO VRB06KT 10SM CLR M02/M15 A3037 RMK AO2 SLP285
     T10171150 53011=
KWVI 272053Z AUTO 25013G20KT 10SM CLR 19/08 A2983 RMK AO2 SLP099
     T01940083 58023=
KXNA 272053Z 08005KT 2 1/2SM -SN BKN026 OVC034 M07/M13 A3051 RMK
     AO2 SNB19 SLP350 P0000 60000 T10721128 58007=
KY63 272055Z AUTO 23005KT 10SM CLR M11/M17 A3044 RMK AO2
     T11151175=
KY70 272054Z AUTO 24014KT 10SM OVC041 M07/M14 A3052 RMK AO2
     T10691144=
KYIP 272053Z AUTO 34009KT 10SM SCT049 M06/M18 A3056 RMK AO2 SLP362
     T10611183 53001 TSNO=
KYKM 272053Z 29007KT 10SM -RA SCT027 OVC036 08/04 A2978 RMK AO2
     SLP088 P0001 60009 T00830044 58005=
KZZV 272053Z AUTO 29004KT 10SM OVC039 M08/M18 A3057 RMK AO2 SLP371
     T10831178 53003 TSNO=
KTOI 272053Z AUTO 04009G16KT 10SM CLR 13/M03 A3032 RMK AO2 SLP268
     T01331028 56018=
KTOP 272053Z 11003KT 10SM OVC090 M08/M18 A3056 RMK AO2 SLP367
     T10781178 56028=
KTOR 272053Z AUTO 18020G27KT 10SM SCT034 M03/M14 A2996 RMK AO2 PK
     WND 16029/2026 SLP203 60000 T10331139 58028=
KTPA 272053Z 02010KT 10SM OVC025 18/09 A3017 RMK AO2 SLP216
     T01780094 56015=
KTRI 272053Z 00000KT 10SM BKN039 00/M06 A3043 RMK AO2 SLP309 60001
     T00001061 51005=
KTRL 272053Z AUTO 05011KT 10SM BKN017 OVC070 M01/M04 A3042 RMK AO2
     SNE07 SLP304 P0000 60002 T10061044 58021=
KTTD 272053Z 16005KT 10SM BKN024 BKN032 12/06 A2971 RMK AO2 SLP062
     T01220061 58010=
KTTN 272053Z 33004KT 10SM CLR M02/M15 A3043 RMK AO2 SLP301
     T10221150 53010=
KTUL 272053Z 06009KT 1 1/2SM R36R/6000VP6000FT -SN FEW014 BKN022
     OVC034 M07/M10 A3054 RMK AO2 TWR VIS 2 1/2 SLP351 P0001 60001
     T10721100 58027=
KTUP 272053Z 10007KT 10SM CLR 04/M09 A3046 RMK AO2 SLP318
     T00391089 56021=
KTUS 272053Z 25015G22KT 10SM CLR 23/M04 A2974 RMK AO2 SLP041
     T02331044 58031=
KTVC 272053Z 25009KT 10SM BKN033 M09/M16 A3048 RMK AO2 SLP339
     T10891161 55003=
KTVL 272053Z AUTO 19011KT 10SM SCT050 OVC060 05/M07 A2972 RMK AO2
     SLP041 T00501067 58015=
####018003659####
SAUS99 KWBC 272057 RRK
METAR
KSSF 272053Z 03010KT 10SM OVC018 02/M03 A3027 RMK AO2 SLP257 60000
     T00221028 56021=
KSSI 272053Z AUTO 03014KT 10SM CLR 09/02 A3032 RMK AO2 SLP267
     T00890022 56010=
KSTC 272053Z 21005KT 10SM CLR M09/M19 A3046 RMK AO2 SLP351
     T10891194 56018=
KSTJ 272053Z 10SM FEW120 M07/M18 A3057 RMK AO2 SLP368 T10721178
     56031=
KSTP 272053Z 24009KT 10SM CLR M09/M19 A3053 RMK AO2 SLP353
     T10891189 56017=
KSTS 272053Z 35013G19KT 10SM SCT045 17/06 A2978 RMK AO2 SLP079
     T01670061 58026=
KSWO 272053Z 08006KT 3SM -SN BKN041 OVC050 M07/M14 A3052 RMK AO2
     SFC VIS 5 SLP347 P0000 60000 T10721139 55018=
KSYM 272050Z AUTO VRB04G11KT 10SM FEW037 M06/M15 A3058 RMK AO2=
KSYN 272054Z AUTO 25006KT 10SM CLR M11/M18 A3052 RMK AO2
     T11071185=
KTCC 272053Z AUTO 18011KT 6SM -SN BKN024 OVC037 M08/M12 A3013 RMK
     AO2 SNB40 SLP242 P0000 60000 T10831122 56024=
KTCL 272053Z 03009KT 10SM CLR 08/M06 A3042 RMK AO2 SLP301
     T00831056 56022=
KTCS 272053Z AUTO 15009KT 10SM FEW037 08/M02 A2987 RMK AO2 SLP094
     T00781022 58033 TSNO=
KTDZ 272053Z AUTO 22010KT 10SM CLR M10/M18 A3060 RMK AO2 SLP377
     T11001178 53002 TSNO=
KTEW 272054Z AUTO 26009KT 10SM BKN041 M08/M18 A3053 RMK AO2
     T10801179=
KTHV 272053Z AUTO 31009KT 10SM CLR M03/M13 A3046 RMK AO2 SLP323
     T10331133 53011=
KTIW 272053Z 01009KT 4SM -RA BR FEW005 BKN009 OVC013 08/07 A2975
     RMK AO2 SLP077 P0001 60003 T00830067 50003=
KTKC 272045Z AUTO 23004KT 10SM CLR M09/M16 A3047 RMK AO2
     T10911165=
KTKI 272053Z 06010KT 1SM -SN BKN010 BKN019 OVC023 M03/M06 A3043
     RMK AO2 SLP324 P0000 60003 T10281056 58028=
KTLH 272053Z 03007KT 10SM FEW005 BKN160 BKN250 14/04 A3027 RMK AO2
     SLP249 FU FEW005 FU S T01390039 56015 $=
KTMB 272053Z 01010KT 10SM CLR 25/18 A3008 RMK AO2 SLP185 T02500178
     56010=
KTOB 272053Z AUTO 25007KT 10SM CLR M14/M18 A3050 RMK AO2=
KPOV 272057Z AUTO 33005KT 10SM SCT041 M09/M20 A3053 RMK AO2
     T10911199=
KPQL 272053Z 03011G16KT 10SM CLR 14/M01 A3028 RMK AO2 SLP255
     T01391011 56028=
KPQN 272054Z AUTO 25004KT 10SM CLR M12/M17 A3043 RMK AO2=
KPRB 272053Z AUTO 31013KT 10SM CLR 18/08 A2981 RMK AO2 SLP093
     T01780078 58026 TSNO $=
KPRC 272053Z 22013G20KT 10SM BKN075 12/M06 A2974 RMK AO2 SLP035
     T01171061 58021=
KPSC 272053Z 04006KT 10SM FEW110 12/03 A2974 RMK AO2 SLP070
     T01220028 58016=
KPSP 272053Z 32014G19KT 290V350 10SM SCT070 23/04 A2967 RMK AO2
     SLP045 T02330044 58029=
KPSX 272053Z AUTO 05021KT 8SM -RA BKN050 09/03 A3026 RMK AO2 PK
     WND 06026/2046 RAB48 SLP245 P0000 60000 T00940033 58029=
KPTK 272053Z 27010KT 10SM FEW032 M09/M18 A3051 RMK AO2 SLP358
     T10891183 53003 $=
KPUB 272053Z 10006KT 10SM BKN020 M08/M13 A2998 RMK AO2 SNB1954E27
     SLP210 P0000 60000 T10831128 58023=
KPUW 272053Z AUTO 13009KT 10SM CLR 09/M02 A2973 RMK AO2 SLP078
     T00891022 58016=
KPWA 272053Z 09007KT 1 1/2SM -SN FEW012 BKN044 OVC060 M07/M11
     A3048 RMK AO2 SFC VIS 3 SLP340 P0000 60000 T10721111
     56020=
KPWC 272053Z AUTO 26006KT 10SM CLR M08/M20 A3041 RMK AO2=
KRAC 272053Z AUTO 25010KT 10SM CLR M10/M21 A3058 RMK AO2 SLP373
     T11001206 55005=
KRAL 272053Z 26006KT 10SM OVC042 17/08 A2980 RMK AO2 SLP081
     T01670078 58020=
KRBD 272053Z 05010KT 3SM -SN OVC013 M03/M06 A3040 RMK AO2 SLP299
     P0000 60002 T10281056 56028=
KRBG 272053Z AUTO 25004KT 1SM -RA FEW018 BKN025 OVC038 09/06 A2979
     RMK AO2 RAB20 SLP088 P0008 60008 T00940061 58015=
KRDD 272053Z 16008KT 10SM BKN090 18/06 A2968 RMK AO2 SLP049
     T01830056 58031=
####018003700####
SAUS99 KWBC 272057 RRM
METAR
KTVR 272053Z AUTO 02009KT 10SM CLR 05/M03 A3043 RMK AO2 SLP311
     T00501028 56029=
KTWF 272053Z 04004KT 10SM FEW036 08/M02 A2970 RMK AO2 SLP043
     T00781017 58024=
KTWM 272054Z AUTO 25008G14KT 10SM CLR M06/M18 A3035 RMK AO2=
KTXK 272053Z 06008KT 10SM OVC085 M01/M09 A3048 RMK AO2 SLP323
     T10111094 58016=
KTYR 272053Z 04009KT 10SM OVC075 00/M09 A3042 RMK AO2 SLP305
     T00001089 55017 $=
KTYS 272053Z 02006KT 10SM FEW030 01/M09 A3046 RMK AO2 SLP321
     T00061089 55005=
KUAO 272053Z AUTO 17010KT 10SM FEW024 SCT034 OVC044 11/07 A2973
     RMK AO2 SLP069 60001 T01110072 58009=
KUIL 272053Z AUTO 04011G21KT 9SM FEW025 09/06 A2976 RMK AO2 SLP077
     60000 T00940056 50007=
KULM 272054Z AUTO 00000KT 10SM CLR M12/M19 A3051 RMK AO2=
KUNO 272053Z AUTO 08004KT 10SM OVC080 M07/M19 A3052 RMK AO2 SLP357
     T10671189 55016=
KUTS 272053Z AUTO 34006KT 10SM FEW033 BKN090 OVC110 06/M02 A3035
     RMK AO2 SLP279 T00611022 58016=
KUUU 272053Z AUTO 14007KT 10SM CLR M04/M12 A3035 RMK AO2 SLP280
     T10441117 53012=
KVCB 272053Z AUTO 28011G16KT 10SM OVC055 19/06 A2976 RMK AO2
     SLP077 T01890061 58025=
KVEL 272053Z AUTO 26005KT 10SM FEW038 SCT100 02/M08 A2978 RMK AO2
     SLP100 T00221083 58026=
KVGT 272053Z 17006KT 10SM CLR 16/M07 A2968 RMK AO2 SLP059
     T01611072 58033=
KVIH 272053Z AUTO 06006KT 10SM BKN100 M07/M19 A3051 RMK AO2 SLP354
     T10671189 56023=
KVLD 272053Z 04009KT 10SM SCT040 12/04 A3030 RMK AO2 SLP268
     T01170039 55013=
KGCN 272054Z 23013G19KT 10SM BKN034 OVC040 05/M02 A2975 RMK AO2
     SNB1959E41 SLP068 P0000 60000 T00501022 58027=
KGDV 272055Z AUTO 18009G18KT 10SM CLR M02/M14 A3003 RMK AO1
     57027=
KGED 272054Z AUTO 30007KT 10SM BKN029 BKN070 07/M08 A3047 RMK AO2
     SNB16E25 SLP317 P0000 60000 T00671083 53018=
KGSO 272054Z 32004KT 10SM SCT048 06/M06 A3036 RMK AO2 SLP289
     T00561061 55000 $=
KGUC 272055Z 26014G18KT 10SM CLR 00/M10 A2973 RMK AO1 57030=
KGXY 272055Z AUTO 16009KT 10SM BKN032 OVC038 M05/M14 A2995 RMK AO1
     57027=
KHDN 272055Z AUTO 26006KT 10SM CLR M02/M13 A2977 RMK AO1 57024=
KHEZ 272055Z AUTO 35012KT 10SM CLR 08/M02 A3037 RMK AO1 57020=
KHNB 272055Z AUTO 33006KT 10SM CLR M06/M13 A3061 RMK AO1 57010=
KHVS 272055Z AUTO 00000KT 10SM CLR 12/M01 A3034 RMK AO2=
KHWD 272054Z 28016G27KT 10SM CLR 17/09 A2982 RMK AO2 PK WND
     29027/2051 SLP108 T01720089 58019=
KHYS 272055Z AUTO 13010KT 10SM OVC060 M07/M18 A3040 RMK AO1
     57024=
KHYW 272055Z AUTO 04003KT 5SM HZ CLR 10/00 A3035 RMK AO2=
KI67 272055Z AUTO 05006KT 10SM BKN050 M06/M16 A3060 RMK AO1=
KILE 272055Z AUTO 02009KT 10SM OVC016 M01/M07 A3033 RMK AO1
     57024=
KILN 272054Z AUTO 06005KT 10SM CLR M09/M19 A3056 RMK AO2 UPE03
     SLP396 P0000 60000 T10891189 53000=
KIND 272054Z 28009KT 10SM FEW046 M08/M18 A3059 RMK AO2 SLP375
     T10831183 55007=
KINT 272054Z AUTO 32007KT 10SM FEW055 06/M07 A3038 RMK AO2 SLP290
     T00611072 55001=
KIPT 272054Z 27009KT 10SM CLR M02/M17 A3043 RMK AO2 SLP313 60000
     T10171172 53003=
KIWD 272055Z AUTO 27009G15KT 10SM CLR M09/M19 A3036 RMK AO1
     57007=
KIWI 272053Z AUTO 27007KT 220V320 10SM CLR M04/M23 A3032 RMK AO2
     SLP269 T10391228 53004=
KIZG 272054Z AUTO VRB06KT 10SM CLR M04/M23 A3029 RMK AO2 SLP267
     T10441228 53007=
KJAN 272054Z 35007KT 10SM CLR 08/M04 A3037 RMK AO2 SLP286
     T00781039 56032=
KJHN 272055Z AUTO 15018KT 4SM -SN SCT009 BKN020 OVC049 M10/M14
     A3023 RMK AO2 T10961136=
KJHW 272055Z 29011G14KT 10SM CLR M13/M21 A3044 RMK AO1 52010=
KJKA 272055Z AUTO 04009KT 10SM CLR 13/00 A3028 RMK AO2
     T01341004=
####018003732####
SAUS99 KWBC 272057 RRO
METAR
K1S5 272055Z AUTO 36009KT 10SM SCT035 SCT060 OVC090 08/02 A2975
     RMK AO2 T00800022=
K1V6 272055Z AUTO 11006KT 10SM CLR M07/M12 A2993 RMK AO2=
K20V 272055Z AUTO 00000KT 10SM SCT036 OVC048 M01/M11 A2974 RMK
     AO2=
K2V5 272055Z AUTO 15013G18KT 7SM SCT022 OVC032 M07/M12 A3015 RMK
     AO2 T10661119=
K33V 272055Z AUTO 00000KT 10SM CLR M07/M13 A2971 RMK AO2=
K4BM 272056Z AUTO 21007KT 10SM SCT003 SCT036 BKN048 M08/M12 A2968
     RMK AO2=
K5SM 272055Z AUTO 23003KT 2SM -SN BKN005 OVC011 M07/M08 RMK
     AO2=
K7BM 272054Z AUTO 12003KT 10SM SCT024 BKN041 OVC050 M06/M10 A2967
     RMK AO2=
KAAO 272054Z AUTO 13005KT 2 1/2SM -SN FEW018 BKN023 OVC032 M09/M13
     A3050 RMK AO2 SLP356 P0000 60000 T10891128 56021=
KADH 272055Z AUTO 04003KT 1/2SM -SN VV005 M06/M08 A3048 RMK
     AO2=
KAFJ 272055Z AUTO 30005KT 10SM CLR M08/M19 A3053 RMK AO1 52007=
KAIZ 272055Z AUTO 04004KT 10SM OVC090 M06/M18 A3056 RMK AO1
     57020=
KAKH 272054Z AUTO 36005KT 10SM CLR 10/M03 A3034 RMK AO2 SLP278
     T01001033 55008=
KAKQ 272054Z AUTO 03007KT 10SM BKN025 BKN055 03/M03 A3044 RMK AO2
     SLP312 T00281033 51015 TSNO=
KAKR 272054Z AUTO 31007KT 10SM FEW039 M09/M19 A3054 RMK AO2 SLP365
     T10891189 53005=
KALM 272055Z AUTO 19010KT 10SM FEW031 05/M04 A2996 RMK AO2=
KALO 272054Z AUTO 25007KT 10SM CLR M14/M21 A3060 RMK AO2 UPB17E24
     SLP389 P0000 60000 T11441206 56010=
KAPC 272054Z 27019G23KT 10SM FEW045 16/09 A2978 RMK AO2 SLP075
     T01610089 58025=
KAPN 272054Z AUTO 23007KT 10SM UP CLR M07/M18 A3044 RMK AO2 SLP327
     P0000 60000 T10721183 55003=
KAQP 272054Z AUTO 25003KT 10SM CLR M08/M19 A3047 RMK AO2=
KARG 272055Z AUTO 04008KT 7SM CLR M04/M11 A3060 RMK AO1 57017=
KAUO 272055Z AUTO 02008G14KT 10SM CLR 11/M04 A3035 RMK AO1
     57014=
KAVL 272054Z 35014KT 10SM CLR 03/M06 A3033 RMK AO2 SLP281
     T00281061 55001=
KAVP 272054Z 34009KT 10SM CLR M06/M18 A3040 RMK AO2 SLP308
     T10561178 53010=
KAWO 272055Z AUTO 01008KT 10SM OVC060 09/06 A2980 RMK AO1
     54000=
KBAF 272053Z 30009KT 10SM CLR M04/M19 A3036 RMK AO2 SLP290
     T10391189 53009=
KBCB 272055Z AUTO 31009G14KT 10SM CLR M02/M11 A3039 RMK AO2
     T10201115=
KBDU 272057Z AUTO 02004KT 3SM -SN OVC017 M08/M12 A2992 RMK AO2=
KBFL 272054Z 33007KT 10SM CLR 19/06 A2979 RMK AO2 SLP084 T01890061
     58023=
KBFW 272054Z AUTO 21008KT 180V240 10SM CLR M04/M22 A3033 RMK
     AO2=
KBGF 272055Z AUTO 01008KT 10SM CLR 01/M10 A3046 RMK=
KBHB 272055Z 29005KT 10SM CLR M04/M20 A3029 RMK AO1 52007=
KDWU 272055Z AUTO 27004KT 10SM OVC047 M04/M14 A3058 RMK AO1
     57003=
KDYB 272055Z AUTO 00000KT 10SM CLR 11/01 A3036 RMK AO1=
KDYL 272054Z AUTO 28008KT 10SM CLR M03/M15 A3042 RMK AO2 SLP311
     T10331150 53009=
KDYR 272055Z 05007KT 10SM FEW031 M03/M14 A3058 RMK AO1 57017=
KEAR 272055Z 16010KT 10SM CLR M06/M21 A3036 RMK AO1 57034=
KECG 272054Z 04010KT 10SM OVC041 04/M03 A3041 RMK AO2 SLP298
     T00391028 53010=
KEDC 272055Z AUTO 02012KT 10SM OVC024 02/M04 A3032 RMK AO2=
KEEN 272055Z AUTO 35007KT 10SM CLR M05/M20 A3034 RMK AO1 52010=
KEGE 272055Z 33007KT 10SM VCSH SCT035 OVC050 01/M08 A2974=
KEHR 272055Z AUTO 35006KT 10SM BKN034 M05/M12 A3062 RMK AO1
     57010=
KEIK 272055Z AUTO 00000KT 10SM CLR M09/M13 A2993 RMK AO2
     T10901135=
KESC 272055Z AUTO 18012G16KT 10SM CLR M09/M17 A3044 RMK AO1
     57007=
KETC 272055Z AUTO 34004KT 10SM CLR 09/M04 A3040 RMK AO2
     T00901042=
KEUG 272054Z 23009KT 10SM SCT026 BKN055 OVC080 11/07 A2976 RMK AO2
     RAE03 SLP076 P0000 60003 T01060067 58013=
KEVV 272054Z VRB04KT 10SM FEW031 M06/M13 A3062 RMK AO2 SLP377
     T10561133 55010=
####018003681####
SAUS99 KWBC 272057 RRP
METAR
KEWK 272055Z AUTO 12005KT 3SM OVC018 M09/M15 A3050 RMK AO1
     57020=
KEWN 272054Z 35007KT 320V040 10SM CLR 10/M01 A3039 RMK AO2 SLP290
     6//// T01001011 53003 PNO=
KFAM 272055Z AUTO 02003KT 10SM FEW100 M07/M16 A3058 RMK AO1
     57014=
KFCI 272055Z AUTO 04005KT 10SM BKN028 BKN035 OVC055 03/M08 A3045
     RMK AO1 52010=
KFGX 272055Z AUTO 31004KT 10SM CLR M06/M15 A3059 RMK AO2
     T10631154=
KFIG 272054Z AUTO 27009KT 10SM CLR M08/M19 A3042 RMK AO2
     UPE1956B38E54 SLP333 P0000 60000 T10781189 53011=
KFKL 272055Z AUTO 29008KT 270V350 10SM CLR M11/M20 A3049 RMK AO1
     52010=
KFLP 272055Z 00000KT 10SM BKN060 M05/M17 A3056 RMK AO1 57007=
KFLY 272052Z AUTO 18009KT 2 1/2SM -SN OVC010 M12/M16 A2985 RMK AO2
     VIS 1 1/2V5 T11211165=
KFMH 272055Z AUTO VRB04KT 10SM CLR M04/M14 A3035 RMK AO2
     FZRANO=
KFMM 272055Z AUTO 16018KT 10SM OVC029 M07/M13 A3001 RMK AO2
     T10751133=
KFNL 272055Z AUTO 00000KT 10SM FEW020 M08/M12 A2996 RMK AO1 P0009
     60010 57024=
KFOD 272055Z AUTO 24004KT 10SM CLR M12/M18 A3056 RMK AO1 57017=
KFWA 272054Z 27004KT 10SM BKN044 M09/M17 A3059 RMK AO2 SLP378
     T10891167 55002=
KFYJ 272055Z AUTO 36004KT 10SM CLR 02/M07 A3048 RMK AO2
     T00211068=
KGAD 272055Z 02009KT 10SM CLR 04/M07 A3042 RMK AO1 57014=
KGAI 272055Z AUTO 30007G15KT 10SM CLR M03/M14 A3050 RMK AO1
     52014=
KGBD 272055Z AUTO 14006KT 9SM BKN025 BKN030 OVC037 M08/M14 A3043
     RMK AO1 57020=
KGCK 272054Z 15013KT 4SM HZ SCT023 BKN055 OVC070 M10/M14 A3030 RMK
     AO2 SNE35B36E53 SLP306 P0000 60001 T11001139 56021=
KPHF 272054Z 03009KT 8SM OVC018 02/M03 A3046 RMK AO2 RAE28 SLP315
     P0000 60000 T00171033 53018=
KPHL 272054Z 32008KT 10SM FEW250 M01/M13 A3046 RMK AO2 SLP314
     T10111133 53011=
KPHT 272055Z AUTO 06008KT 10SM CLR M03/M12 A3053 RMK=
KPIA 272054Z 28005KT 10SM CLR M09/M19 A3064 RMK AO2 SLP390
     T10891194 55010=
KPIB 272055Z AUTO 03011G14KT 10SM CLR 09/M02 A3035 RMK AO1
     57030=
KPNE 272054Z 34010KT 10SM CLR M01/M15 A3046 RMK AO2 SLP318
     T10111150 53013=
KPQI 272055Z AUTO 27012G15KT 10SM CLR M08/M26 A3018 RMK AO1
     52014=
KPRX 272055Z 04009KT 1 1/2SM BKN008 OVC017 M03/M07 A3048 RMK AO1
     57027=
KPSF 272054Z AUTO 30009KT 10SM CLR M08/M19 A3031 RMK AO2 SLP295
     T10781189 53012=
KPSO 272055Z AUTO 21005KT 3SM HZ BKN010 BKN019 OVC040 M01/M04
     A2978 RMK AO2 T10121045=
KPTN 272055Z AUTO 06010KT 10SM CLR 12/02 A3031 RMK AO1 57020=
KPTV 272055Z AUTO 29005KT 8SM CLR 18/08 A2980 RMK AO1 57024=
KPTW 272054Z AUTO 29008KT 10SM CLR M03/M15 A3045 RMK AO2 SLP313
     T10281150 53008=
KPVC 272055Z 33008KT 10SM CLR M05/M16 A3037 RMK AO1 60001
     52010=
KPVG 272055Z AUTO 03010KT 10SM CLR 01/M04 A3047 RMK AO1 52024=
KPWG 272055Z AUTO 04009KT 10SM M01/M06 A3039 RMK AO1 57024=
KPWT 272055Z AUTO 01008G15KT 10SM FEW013 BKN029 OVC034 08/07 A2978
     RMK AO1 P0001 60009 52003=
KRBL 272054Z AUTO 15011KT 10SM FEW060 18/05 A2972 RMK AO2 SLP062
     T01780050 58028=
KRCV 272055Z AUTO 05006KT 10SM BKN012 BKN070 BKN110 M06/M10 A2975
     RMK AO2 T10611097=
KRDG 272054Z 30010KT 10SM CLR M04/M16 A3045 RMK AO2 SLP320
     T10391161 53011=
KRFD 272054Z 29007KT 10SM CLR M11/M21 A3061 RMK AO2 SLP386
     T11111206 56007=
KRIC 272054Z 04006KT 10SM SCT060 BKN250 03/M06 A3044 RMK AO2
     SLP316 T00281056 53009=
KRKD 272055Z AUTO 29009KT 10SM CLR M06/M21 A3030 RMK AO1 52007=
KRKR 272055Z AUTO 01005KT 1/2SM -SN OVC012 M06/M08 A3054 RMK AO2
     T10591083=
KROA 272054Z 31009KT 10SM FEW055 01/M11 A3042 RMK AO2 SLP309
     T00111111 53007=
####018003665####
SAUS99 KWBC 272057 RRN
METAR
KJST 272054Z AUTO 25013G17KT 10SM SCT029 M11/M18 A3036 RMK AO2
     SLP334 T11111183 53013=
KJYL 272055Z AUTO 09004KT 10SM CLR 12/04 A3034 RMK AO2
     T01150037=
KKLS 272055Z 19008KT 10SM FEW070 OVC100 13/07 A2975 RMK AO1 60001
     57007=
KLAF 272054Z 01006KT 10SM CLR M09/M19 A3062 RMK AO2 SLP383
     T10941189 55004=
KLBL 272055Z AUTO 13012KT 10SM OVC070 M09/M14 A3031 RMK AO1
     57027=
KLBT 272054Z AUTO 00000KT 10SM CLR 11/M02 A3035 RMK AO2 SLP278
     T01061017 55006=
KLCI 272055Z AUTO 27011KT 10SM CLR M06/M22 A3030 RMK AO1 52007=
KLCK 272055Z AUTO 28008KT 10SM BKN042 M08/M17 A3059 RMK AO2
     T10781170=
KBID 272055Z AUTO 26011KT 10SM CLR M03/M12 A3035 RMK AO1 52010=
KBLM 272055Z AUTO 29010G14KT 10SM CLR M01/M13 A3041 RMK AO1
     52010=
KBMT 272055Z AUTO 06004KT 10SM CLR 11/00 A3032 RMK AO2
     T01120000=
KBNL 272055Z AUTO 02005KT 10SM CLR 13/02 A3034 RMK AO2=
KBOS 272054Z VRB03KT 10SM FEW035 SCT250 M03/M19 A3036 RMK AO2
     SLP279 T10281189 53006=
KBTP 272055Z AUTO 29008G15KT 10SM CLR M09/M19 A3053 RMK AO1
     52010=
KBTV 272054Z 35004KT 10SM FEW250 M07/M20 A3038 RMK AO2 SLP296
     T10671200 53003=
KBUF 272054Z 23018KT 9SM -SN BKN019 BKN025 M12/M17 A3053 RMK AO2
     SLP356 P0000 60000 T11221167 53009=
KBUY 272054Z AUTO 02004KT 10SM SCT050 06/M06 A3038 RMK AO2 SLP292
     T00611061 55002=
KBVU 272055Z AUTO 06009KT 10SM CLR 17/M03 A2970 RMK AO2=
KBVX 272055Z AUTO 10006KT 10SM BKN080 OVC085 M03/M14 A3059 RMK AO1
     57003=
KBWI 272054Z 31013G18KT 10SM FEW050 SCT250 M01/M12 A3048 RMK AO2
     SLP321 T10111122 53019=
KBXA 272055Z AUTO 03008KT 10SM 10/00 A3035 RMK AO2 T01000002=
KCAR 272054Z AUTO 30010KT 10SM CLR M09/M23 A3016 RMK AO2 SLP232
     T10941233 53016=
KCCU 272055Z AUTO 28014KT 1SM -SN OVC006 M10/M14 A2963 RMK AO2=
KCDD 272048Z AUTO 24007KT 203V273 10SM CLR M08/M25 A3034 RMK
     AO2=
KCDN 272055Z AUTO 00000KT 9SM CLR 12/M01 A3034 RMK AO2 TSNO=
KCEU 272054Z AUTO 05006KT 10SM CLR 12/M05 A3032 RMK AO2 SLP269
     T01171050 55008=
KCGZ 272055Z AUTO 22009G19KT 10SM CLR 24/M02 A2968 RMK AO1
     57037=
KCIU 272055Z AUTO 23010G15KT 190V250 10SM CLR M09/M16 A3041 RMK
     AO1 54000=
KCOD 272055Z 00000KT 10SM CLR M07/M12 A2982 RMK AO1 57014=
KCOE 272055Z AUTO 01009G14KT 10SM SCT055 09/M04 A2977 RMK AO1
     57017=
KCOS 272054Z 13005KT 1 1/2SM -SN BR BKN016 OVC021 M12/M16 A2990
     RMK AO2 SFC VIS 2 1/2 SLP221 PCPN VRY LGT P0000 60000
     T11221156 56021=
KCOU 272054Z 35003KT 10SM CLR M06/M17 A3057 RMK AO2 SLP367
     T10561167 56026=
KCPW 272054Z AUTO 20014G23KT 1/2SM SN OVC001 M12/M13 A2973 RMK AO2
     P0001=
KCQW 272055Z AUTO 08005KT 10SM FEW050 11/M04 A3035 RMK AO2=
KCRW 272054Z VRB04KT 10SM BKN037 M06/M15 A3055 RMK AO2 SLP358
     T10611150 53002 $=
KCVN 272055Z AUTO 15010KT 9SM OVC016 M11/M14 A3014 RMK AO1
     57030=
KCVO 272055Z AUTO 21008KT 10SM FEW021 SCT027 BKN032 11/07 A2974
     RMK AO1 P0001 60001 57014=
KCWI 272055Z AUTO 27007KT 10SM CLR M13/M19 A3064 RMK AO1 57010=
KDDH 272054Z AUTO 33007KT 10SM CLR M07/M20 A3036 RMK AO2 SLP296
     T10721200 53008=
KDEC 272054Z 10005KT 10SM CLR M10/M17 A3063 RMK AO2 SLP388 60001
     T11001167 55007=
KDKB 272055Z AUTO 26007KT 10SM CLR M13/M20 A3059 RMK AO2
     T11301200=
KDSV 272054Z AUTO 32008KT 10SM CLR M09/M19 A3050 RMK AO2 SLP352
     T10891194 53014=
K04V 272056Z AUTO 11006KT 5SM HZ OVC018 M03/M08 A2976 RMK AO2=
K0A9 272055Z AUTO VRB03KT 10SM OVC034 M02/M08 A3043 RMK=
K0CO 272055Z AUTO 31013G25KT 1/2SM -SN OVC003 M15/M18 A2962 RMK
     AO2=
####018003734####
SAUS99 KWBC 272057 RRQ
METAR
KROC 272054Z 25013G21KT 10SM FEW035 M11/M18 A3052 RMK AO2 SLP350
     T11061183 53013=
KRQO 272055Z AUTO 06008KT BKN014 BKN020 OVC055 M07/M10 A3046 RMK
     AO2 PWINO=
KRUT 272055Z 03004KT 10SM CLR M08/M24 A3033 RMK AO1 54000=
KSBN 272054Z 26006KT 10SM CLR M08/M18 A3058 RMK AO2 SLP374
     T10781183 56004=
KSBS 272055Z AUTO 00000KT 10SM CLR M02/M13 A2976 RMK AO1
     T10211134=
KSBY 272054Z 31009KT 5SM HZ OVC049 00/M06 A3047 RMK AO2 SNE09
     SLP320 P0000 60000 T00001056 53024=
KSDY 272055Z AUTO 17010KT 9SM CLR M02/M15 A3009 RMK AO1 57034=
KSET 272054Z AUTO VRB04KT 10SM CLR M09/M18 A3065 RMK AO2 SLP386
     T10941178 56011=
KSFM 272055Z AUTO 29009KT 10SM CLR M04/M21 A3032 RMK AO1 52007=
KSFZ 272055Z 31005KT 10SM CLR M04/M17 A3032 RMK AO1 52010=
KLEW 272055Z AUTO 34007KT 10SM CLR M05/M21 A3030 RMK AO1 52007=
KLEX 272054Z VRB05KT 10SM CLR M05/M16 A3057 RMK AO2 SLP368
     T10501156 55004 $=
KLGD 272055Z AUTO 19009KT 10SM BKN033 BKN041 BKN075 08/M01 A2967
     RMK AO1 57020=
KLKV 272055Z 30003KT 10SM FEW012 SCT029 BKN055 06/00 A2967 RMK AO1
     57024=
KLMO 272054Z AUTO 32003KT 7SM -SN BKN019 00/M13 A2996 RMK AO2
     P0006 T10031128=
KLPC 272055Z AUTO 31014G23KT 10SM BKN021 OVC028 17/09 A2986 RMK
     AO1 57010=
KLWM 272054Z 34005KT 10SM CLR M04/M21 A3036 RMK AO2 SLP282
     T10391206 53004=
KLYH 272054Z 26006KT 10SM CLR 03/M12 A3040 RMK AO2 SLP301
     T00281117 53003=
KM91 272055Z AUTO 05008KT 10SM CLR M03/M12 A3055 RMK=
KMBL 272055Z AUTO 26010G18KT 10SM BKN028 M09/M17 A3052 RMK AO1
     57003=
KMEM 272054Z 07010KT 10SM BKN250 01/M11 A3051 RMK AO2 SLP334
     T00111111 56021=
KMEZ 272055Z AUTO 05008KT 1 1/2SM OVC011 M03/M06 A3047 RMK AO2=
KMGJ 272054Z AUTO 30009KT 10SM CLR M03/M17 A3037 RMK AO2 SLP290
     T10281167 53006 TSNO=
KMIV 272054Z AUTO 31009KT 10SM CLR M01/M12 A3044 RMK AO2 SLP309
     T10061117 53015=
KMJX 272055Z AUTO 31013KT 10SM CLR M01/M13 A3043 RMK AO1 52014=
KMKC 272054Z VRB04KT 10SM SCT090 M08/M18 A3058 RMK AO2 SLP369
     T10781178 56026=
KMKY 272055Z AUTO 05009KT 10SM OVC017 19/13 A3011 RMK AO1
     57010=
KMNH 272056Z AUTO 18011KT 10SM CLR M10/M15 A2979 RMK AO2=
KMNM 272055Z AUTO 23009G14KT 10SM CLR M08/M19 A3045 RMK AO1
     57007=
KMRF 272055Z AUTO 06013KT 10SM OVC012 00/M03 A3003 RMK AO1
     57027=
KMRN 272055Z AUTO 00000KT 10SM CLR 08/M09 A3036 RMK AO2
     T00831092=
KMRY 272054Z 28008KT 10SM BKN017 15/10 A2987 RMK AO2 SLP128
     T01500100 58015=
KMSV 272055Z AUTO 33013G18KT 10SM CLR M07/M17 A3033 RMK AO1
     52010=
KMVL 272054Z AUTO 01003KT 10SM CLR M08/M22 A3035 RMK AO2 SLP296
     T10781217 53004 TSNO=
KMVN 272055Z AUTO 34003KT 10SM CLR M06/M15 A3063 RMK AO1 57014=
KMWT 272053Z AUTO VRB03KT 10SM BKN055 OVC070 M02/M12 A3048 RMK AO2
     SLP336 T10171122 58006=
KOAJ 272055Z AUTO 32006KT 10SM CLR 09/M02 A3038 RMK AO1 54000=
KOCH 272055Z AUTO 01008KT 10SM BKN090 04/M05 A3039 RMK AO1
     57020=
KOFP 272054Z AUTO 06004KT 10SM BKN060 02/M08 A3046 RMK AO2 SLP316
     T00171083 53010=
KOKK 272055Z AUTO 30006KT 10SM CLR M08/M13 A3060 RMK AO1 57003=
KOLM 272054Z 04006KT 10SM SCT008 BKN016 OVC037 10/08 A2974 RMK AO2
     SLP071 T01000078 50000=
KOLS 272054Z AUTO 20021G27KT 10SM CLR 21/M06 A2979 RMK AO2 PK WND
     20028/2030 SLP048 T02111056 58022=
KOLU 272055Z AUTO 15007KT 10SM CLR M07/M19 A3047 RMK AO1 57030=
KORH 272054Z VRB05KT 10SM CLR M05/M19 A3028 RMK AO2 SLP275
     T10501194 53012=
KOTH 272055Z 00000KT 7SM SCT014 BKN020 OVC037 10/09 A2981 RMK AO1
     P0005 60006 57014=
KSGT 272055Z AUTO 01013KT 10SM SCT034 OVC100 M02/M09 A3055 RMK AO1
     57010=
####018003328####
SAUS99 KWBC 272057 RRR
METAR
KSJN 272054Z AUTO 25016G25KT 10SM OVC080 11/M07 A2973 RMK AO2
     SLP030 T01061067 58025=
KSKX 272055Z AUTO 23003KT 1/2SM BKN010 OVC016 M07/M10 A2985 RMK
     AO1 57027=
KSLG 272055Z AUTO 08005KT 10SM SCT039 OVC048 M07/M17 A3052 RMK AO1
     57010=
KSOP 272055Z AUTO 07006KT 10SM CLR 09/M04 A3037 RMK AO1 57003=
KSQI 272055Z AUTO 25005KT 10SM CLR M11/M18 A3062 RMK AO1 57014=
KSTK 272050Z AUTO 17017G22KT 10SM BKN028 BKN038 M06/M12 A3006 RMK
     AO2=
KSUE 272055Z AUTO 25011KT 10SM CLR M09/M19 A3049 RMK AO1 57007=
KSUS 272054Z 02005KT 10SM CLR M07/M18 A3062 RMK AO2 SLP386
     T10721183 56013=
KTAD 272054Z AUTO 09003KT 10SM CLR M07/M14 A2990 RMK AO2 SLP180
     T10721139 56021=
KTEX 272055Z AUTO 32003KT 10SM BKN050 BKN055 BKN120 M02/M13 A2973
     RMK AO2 T10241126=
KTGI 272055Z AUTO 36011KT 10SM SCT037 OVC045 00/M05 A3047 RMK
     AO1=
KTHA 272055Z AUTO 03005KT 10SM CLR 01/M12 A3045 RMK=
KTME 272055Z AUTO 06009KT 7SM OVC020 05/00 A3034 RMK AO2=
KTPL 272055Z AUTO 01010KT 10SM OVC019 00/M06 A3034 RMK AO1
     57020=
KTSP 272055Z AUTO 30016G22KT 8SM OVC026 09/04 A2979 RMK AO2=
KUDG 272055Z AUTO 06006KT 10SM CLR 12/M01 A3036 RMK AO1 57010=
KUIN 272054Z AUTO 00000KT 10SM CLR M12/M21 A3063 RMK AO2 SLP389
     T11171206 56013=
KUTA 272055Z AUTO 01007KT 10SM CLR 00/M06 A3051 RMK AO2=
KUYF 272055Z AUTO 33007KT 10SM CLR M09/M17 A3057 RMK AO2=
KUZA 272054Z AUTO 01008KT 10SM CLR 11/M03 A3034 RMK AO2 SLP280
     T01061028 55007=
KVAY 272054Z AUTO 31008KT 270V330 10SM CLR M02/M14 A3045 RMK AO2
     SLP311 T10171139 53013=
KVBT 272055Z AUTO 07007KT 1 3/4SM OVC020 M08/M13 A3051 RMK AO1
     57010=
KVIS 272055Z AUTO 29004KT 8SM BKN085 18/08 A2979 RMK AO1 57027=
KVSF 272054Z AUTO 27011G17KT 10SM CLR M07/M21 A3035 RMK AO2 SLP291
     T10671211 53009 TSNO=
KVTA 272054Z AUTO 34003KT 10SM FEW029 OVC039 M08/M16 A3057 RMK AO2
     SNE19 SLP371 P0000 60000 T10831156 53002=
KVTP 272055Z AUTO 21006G15KT 170V270 3SM -SN BKN002 OVC009 M06/M09
     A2971 RMK AO2=
KW96 272055Z AUTO 36004KT 10SM BKN055 01/M05 A3046 RMK AO1 6////
     T00111050=
KWAL 272054Z 07005KT 4SM -SN OVC020 M01/M04 A3047 RMK AO2 SNB42
     SLP314 P0000 60000 T10111039 52019=
KWDR 272055Z AUTO 33007KT 10SM CLR 11/M04 A3036 RMK AO1=
KWLD 272054Z AUTO 12006KT 6SM HZ OVC042 M08/M14 A3052 RMK AO2
     SNB1959E47 SLP356 P0000 60000 T10781144 56023=
KWVL 272055Z 28008KT CLR M05/M22 A3026 RMK AO1 52007=
KWWD 272055Z AUTO 29007KT 10SM SCT065 BKN075 M02/M10 A3046 RMK AO1
     52017=
KXLL 272055Z AUTO 29006KT 10SM CLR M02/M16 A3044 RMK AO2=
K7N0 272055Z AUTO 02005KT 10SM CLR A3030 RMK AO1 57024=
PADE 272053Z AUTO 16009G15KT 10SM FEW020 SCT025 BKN048 10/M03
     A3010 RMK AO2 SLP193 T01001033 58004 TSNO=
PAEN 272053Z 03008KT 10SM CLR M03/M09 A3046 RMK AO2 SLP319
     T10331094 58004=
PAHN 272054Z AUTO 30016G24KT 10SM CLR 04/M08 A3045 RMK AO2 SLP314
     T00391083 58004 TSNO=
PAKN 272054Z 00000KT 10SM BKN120 M01/M02 A3031 RMK AO2 SLP265
     I1000 I3000 T10111017 58014=
PAOT 272053Z 17017KT 10SM BKN024 OVC039 00/M02 A3010 RMK AO2
     SLP193 T00001017 56008 $=
PAVL 272053Z AUTO 12008KT 1SM -SN BR SCT006 OVC010 M02/M03 A3003
     RMK AO2 SLP170 P0001 60001 T10221028 58018 TSNO $=
####018000117####
SAUS46 KSGX 272056
MTRNJK
METAR KNJK 272056Z 24011KT 10SM FEW050 27/02 A2965 RMK AO2 SLP056 
T02670022 58032
####018000103####
SPCN31 KWBC 272057
SPECI
CYKL 272055Z AUTO 29012G20KT 7SM -SN OVC035 M26/M33 A2966 RMK
SLP117=
####018000084####
SAHA31 MTPP 272100
METAR MTPP 272100Z 08010G22KT 9999 FEW028 32/// Q1014 A2994=
####018000120####
SAUS44 KLIX 272056
MTRNBG
METAR KNBG 272055Z 06011KT 10SM FEW250 12/M01 A3030 RMK AO2 SLP259 
T01221011 56020 $
####018000644####
SACN60 CWAO 272000 RRH
PET SA 2000 AUTO8 M M M M/-09/-12/MMMM/M/     M 73MM=
PHU SA 2000 AUTO8 M M M M/-13/-17/MMMM/M/     M 18MM=
PIA SA 2000 AUTO8 M M M M/-09/-14/MMMM/M/     M 05MM=
PKA SA 2000 AUTO8 M M M M/-12/-15/MMMM/M/     M 82MM=
PKI SA 2000 AUTO8 M M M M/-13/-16/MMMM/M/     M 39MM=
PLA SA 2000 AUTO8 M M M M/-09/-13/MMMM/M/     M 67MM=
PMB SA 2000 AUTO8 M M M M/-11/-14/MMMM/M/     M 86MM=
PMN SA 2000 AUTO8 M M M M/-12/-16/MMMM/M/     M 23MM=
PPL SA 2000 AUTO8 M M M M/-10/-12/MMMM/M/     M 25MM=
PRH SA 2000 AUTO8 M M M M/-08/-12/MMMM/M/     M 75MM=
PRS SA 2000 AUTO8 M M M M/-12/-16/MMMM/M/     M 33MM=

####018000660####
SACN59 CWAO 272000 RRI
PAA SA 2000 AUTO8 M M M M/-11/-14/3315/M/     PK WND 3319 1952Z M 19MM=
PBA SA 2000 AUTO8 M M M M/-07/-10/MMMM/M/     M 79MM=
PBS SA 2000 AUTO8 M M M M/-08/-12/3419/M/     PK WND 3224 1942Z M 33MM=
PBT SA 2000 AUTO8 M M M M/-08/-10/0113/M/     PK WND 0118 1907Z M 61MM=
PEH SA 2000 AUTO8 M M M M/-07/-10/3610/M/     M 33MM=
PGE SA 2000 AUTO8 M M M M/-13/-17/3411/M/     M 37MM=
PIR SA 2000 AUTO8 M M M M/-07/-10/3512/M/     PK WND 3418 1954Z M 73MM=
PRA SA 2000 AUTO8 M M M M/-14/-17/MMMM/M/     M 04MM=
PSD SA 2000 AUTO8 M M M M/-08/-12/MMMM/M/     M 26MM=
PSP SA 2000 AUTO8 M M M M/-11/-14/MMMM/M/     M 81MM=

####018000066####
SAUS54 KWBC 272000 RRH
METAR
KMWS 272045Z 21504G07KT 05/05=
####018002980####
SAUS20 KNKA 272056
METAR KHYX 272055Z AUTO 23010G16KT 10SM CLR M07/M16 A3053 RMK AO2=
METAR KIMT 272054Z AUTO 28005KT 10SM CLR M07/M19 A3036 RMK AO2 
 SLP310 60000 T10671189 56011 TSNO=
METAR KIRS 272055Z AUTO 25004KT 10SM SCT035 OVC044 M09/M17 A3055
 RMK AO2=
METAR KISQ 272054Z AUTO 19007KT 10SM CLR M09/M18 A3043 RMK AO2
 T10911177=
METAR KISW 272054Z AUTO 26010KT 10SM CLR M09/M22 A3049 RMK AO2 
 SLP355 T10891217 56012=
METAR KJYG 272055Z AUTO 21003KT 10SM CLR M10/M17 A3052 RMK AO2=
METAR KJYM 272055Z AUTO 25006KT 10SM SCT042 M09/M19 A3053 RMK AO2
     T10861188=
METAR KLDM 272055Z AUTO 23010KT 10SM SCT029 M09/M16 A3053 RMK AO2
     T10891161=
METAR KLNK 272054Z 12005KT 10SM CLR M07/M18 A3051 RMK AO2 SLP358 
 T10671183 56032=
METAR KLVN 272021Z AUTO 24006KT 10SM CLR M12/M19 A3052 RMK AO2=
METAR KLWA 272055Z AUTO 26007G16KT 10SM BKN036 M08/M16 A3058 RMK
 AO2 T10801159=
METAR KLWT 272054Z AUTO 29011KT 10SM CLR M08/M14 A2994 RMK AO2 
 SLP215 T10831139 51003=
METAR KMER 272050Z 35010KT 10SM SCT039 BKN046 OVC070 18/08 A2980=
METAR KMFI 272054Z AUTO 24009KT 10SM CLR M11/M20 A3046 RMK AO2 
 SLP351 T11061200 56009=
METAR KMGN 272055Z AUTO 26008G16KT 10SM CLR M10/M16 A3046 RMK AO2
 T11051167=
METAR KMKT 272055Z AUTO 23006KT 10SM CLR M12/M20 A3052 RMK AO1 57017=
METAR KMML 272055Z AUTO 24007KT 10SM CLR M11/M17 A3048 RMK AO1 57020=
METAR KMOP 272055Z AUTO 26011G16KT 10SM BKN040 M07/M16 A3050 RMK
 AO2 T10751163=
METAR KMOT 272054Z 17011KT 10SM CLR M09/M17 A3019 RMK AO2 SLP268 
 T10891172 56027=
METAR KMZH 272055Z AUTO 26007KT 10SM CLR M07/M21 A3040 RMK AO2=
METAR KOEB 272054Z AUTO 27008KT 10SM OVC042 M08/M18 A3055 RMK AO2
 T10851177=
METAR KOQU 272050Z 15008KT 15SM SKC M04/M11 A3035=
METAR KOTG 272055Z AUTO 24005KT 10SM CLR M04/M20 A3048 RMK AO1 57017=
METAR KOWA 272055Z AUTO 22005KT 10SM CLR M13/M19 A3052 RMK AO2
 PWINO=
METAR KOZW 272055Z AUTO 25007KT 10SM CLR M09/M18 A3053 RMK AO2
 T10891183=
METAR KPLN 272054Z AUTO 24009G21KT 10SM CLR M11/M17 A3046 RMK AO2 
 SLP340 T11061172 53000=
METAR KPZQ 272054Z AUTO 28008KT 10SM CLR M08/M16 A3045 RMK AO2
 T10761161=
METAR KRGK 272051Z AUTO 28007KT 10SM CLR M09/M19 A3053 RMK AO2=
METAR KRKS 272054Z AUTO 21005KT 10SM FEW075 SCT095 M03/M12 A2974 RMK 
 AO2 SLP136 T10331117 58023=
METAR KRNP 272054Z AUTO 25009KT 10SM CLR M08/M17 A3054 RMK AO2
 T10851170=
METAR KRQB 272054Z AUTO 27008KT 10SM CLR M07/M17 A3048 RMK AO2
 T10741167=
METAR KRST 272054Z 25007KT 10SM CLR M14/M19 A3051 RMK AO2 SLP371 
 T11391189 56011=
METAR KSEM 272055Z AUTO 05010KT 10SM 10/M06 A3036 RMK AO2=
METAR KSGU 272055Z AUTO 27005KT 10SM FEW120 13/M04 A2971 RMK AO1 
 57037=
METAR KSJX 272057Z AUTO 25012G16KT 10SM CLR M11/M16 A3046 RMK AO2
 T11081164=
METAR KSLH 272058Z AUTO 23013G19KT 10SM CLR M10/M17 A3046 RMK AO2
 T11011171=
METAR KSMN 272055Z AUTO 36003KT 10SM FEW070 FEW095 02/M06 A2973 RMK 
 AO1 57027=
####018000497####
SAUS20 KNKA 272056
METAR KTQE 272054Z AUTO 14004KT 10SM CLR M08/M16 A3054 RMK AO2 
 SLP361 T10831156 56025=
METAR KTRK 272050Z 26013G25KT 10SM SCT040 SCT047 BKN070 06/M05
 A2971 RMK NOSPECI=
METAR KTVF 272055Z AUTO 21011KT 10SM CLR M11/M15 A3037 RMK AO1 57017=
METAR KUKT 272055Z AUTO 32008KT 10SM CLR M04/M15 A3043 RMK AO1=
METAR KVLL 272055Z AUTO 25005KT 10SM SCT048 M06/M20 A3056 RMK AO2
     T10581202=
METAR KYKN 272055Z AUTO 15009KT 10SM CLR M07/M17 A3046 RMK AO1 57030=
####018002988####
SAUS20 KNKA 272056
METAR K4I3 272055Z AUTO 27007KT 10SM CLR M08/M19 A3055 RMK AO2=
METAR KACB 272056Z AUTO 21005G14KT 10SM BKN031 M08/M16 A3049 RMK
 AO2 T10821163=
METAR KAID 272049Z 31010KT 10SM CLR M08/M18 A2959=
METAR KAMN 272051Z AUTO 27008G17KT 10SM BKN042 M08/M16 A3053 RMK
 AO2 T10771165=
METAR KAUM 272056Z AUTO 23006KT 10SM CLR M13/M19 A3052 RMK AO2=
METAR KAUW 272054Z AUTO 24011KT 10SM CLR M11/M20 A3044 RMK AO2 
 SLP344 T11111200 56007=
METAR KBAX 272055Z AUTO 25010G15KT 10SM CLR M10/M16 A3052 RMK AO2
 T10971165=
METAR KBDH 272055Z AUTO 25006KT 10SM CLR M11/M18 A3048 RMK AO2=
METAR KBVI 272047Z 34005KT 10SM CLR M09/M19 A3052=
METAR KCAD 272054Z AUTO 23013KT 10SM SCT036 M09/M17 A3041 RMK AO2
 T10951170=
METAR KCFS 272055Z AUTO 23010G15KT 10SM CLR M09/M17 A3052 RMK AO2
 T10901166=
METAR KCKC 272053Z AUTO 21008G14KT 179V249 10SM CLR M08/M26 A3026
 RMK AO2=
METAR KCKN 272055Z AUTO 22013KT 10SM CLR M09/M15 A3041 RMK AO2=
METAR KCNB 272053Z AUTO 22005KT 10SM CLR M09/M17 A3046 RMK AO2
 T10921174=
METAR KCOQ 272057Z AUTO 23010KT 10SM CLR M08/M24 A3037 RMK AO2=
METAR KCQM 272054Z AUTO 24008KT 211V271 10SM CLR M07/M23 A3032 RMK
 AO2=
METAR KCVX 272055Z AUTO 26011G16KT 10SM CLR M10/M16 A3050 RMK AO2
 T11021157=
METAR KDRM 272055Z AUTO 26007KT 10SM CLR M10/M16 A3043 RMK AO2
 T10971165=
METAR KDSM 272054Z 26004KT 10SM FEW030 FEW250 M11/M18 A3059 RMK AO2 
 SLP382 T11111183 56016=
METAR KDTL 272055Z AUTO 25006KT 10SM CLR M09/M18 A3040 RMK AO2=
METAR KDUH 272055Z AUTO 27004KT 10SM CLR M07/M20 A3060 RMK AO2=
METAR KDVL 272055Z AUTO 21010KT 10SM CLR M11/M17 A3029 RMK AO1 57024=
METAR KEDJ 272050Z AUTO 33010KT 10SM FEW037 M10/M18 A3057 RMK AO1=
METAR KEFD 272050Z 36009KT 7SM OVC020 06/01 A3035=
METAR KEKM 272050Z 24007KT 10SM SCT042 M08/M19 A3058 RMK AO2=
METAR KENV 272055Z AUTO 14004KT 10SM OVC100 07/M03 A2971 RMK AO1 
 57034=
METAR KERY 272055Z AUTO 26006KT 10SM CLR M10/M19 A3039 RMK AO2
     T10961189=
METAR KETH 272056Z AUTO 20004KT 10SM CLR M11/M18 A3047 RMK AO2=
METAR KEUL 272055Z AUTO 15010KT 10SM CLR 11/M01 A2969 RMK AO1 57030=
METAR KFFX 272053Z AUTO 27009KT 10SM CLR M08/M18 A3052 RMK AO2
 T10801181=
METAR KFPK 272055Z AUTO 25009KT 10SM BKN044 M07/M18 A3052 RMK AO2
 T10731179=
METAR KFRM 272055Z AUTO 22006KT 10SM CLR M11/M17 A3050 RMK AO1 57017=
METAR KFSE 272055Z AUTO 22010KT 10SM CLR M09/M16 A3039 RMK AO2=
METAR KFTG 272054Z 15013KT 10SM FEW120 M07/M13 A2990=
METAR KGOV 272055Z AUTO 25009G14KT 10SM SCT035 M09/M17 A3043 RMK
 AO2 T10881171=
METAR KGPI 272055Z 04018KT 10SM BKN080 OVC100 03/M12 A2990 RMK AO2 
 SLP152 T00281117 58003=
METAR KGPZ 272055Z AUTO 22009KT 200V260 10SM CLR M08/M21 A3034 RMK 
 AO1 57017=
METAR KHAF 272055Z AUTO 32015KT 7SM FEW016 SCT023 BKN030 14/10
 A2986 RMK AO2=
METAR KHAI 272054Z AUTO 25006KT 10SM OVC041 M08/M17 A3056 RMK AO2
 T10771172=
METAR KHTO 272050Z 30008KT 10SM SKC M03/M13 A3039=
####018000084####
SAMT20 GQNN 272100
METAR GQNN 272100Z 07011KT 2500 BLDU NSC 27/M10 Q1015 NOSIG=
####018000075####
SAGB20 GBYD 272100
METAR GBYD 272100Z 08008KT 4000 HZ SKC 29/M02 Q1009=
####018000074####
SABZ21 SBAR 272100
METAR SBAR 272100Z 12010KT 9999 SCT020 28/22 Q1010=
####018000445####
SAIN31 VABB 272040
METAR VAAH 272040Z VRB03KT 4000 FU FEW080
    17/05 Q1009 NOSIG=                                               
     
METAR VABB 272040Z VRB03KT 3000 HZ NSC 23/20 Q1010 NOSIG=
METAR VOHS 272040Z 12008KT 6000 NSC 22/18 Q1012 NOSIG=
METAR VOMM 272040Z 12006KT 6000 FEW020 27/24 Q1010 NOSIG=
METAR VOTR 272040Z VRB02KT 6000 SCT016 26/23 Q1010 NOSIG=
METAR VOTV 272040Z 06003KT 4000 HZ FEW018 26/23 Q1009 NOSIG=
####018001824####
SAEU KAWN 272100 RRG
METAR EHDL 272055Z AUTO 25003KT 9999 FEW100 M01/M02 Q1021 BLU=
METAR EHGR 272055Z AUTO 21004KT 9999 OVC380 01/M00 Q1021 BLU=
METAR EHLW 272055Z AUTO 23004KT 9999 FEW026 OVC029 02/01 Q1019 BLU=
METAR EHVK 272055Z AUTO 25003KT 9999 NCD 00/M01 Q1021 BLU=
METAR EHVL 272055Z AUTO 25009KT 9999 NCD 04/01 Q1019 BLU=
METAR EHWO 272055Z AUTO 20001KT 9999 NCD M01/M02 Q1022 BLU=
METAR ENBO 272050Z 16017KT CAVOK 05/M03 Q0995 TEMPO 18020G30KT=
METAR ENDU 272050Z 10005KT 9999 -RASN FEW005 SCT025 00/M00 Q0997=
METAR ENGM 272050Z VRB02KT 8000 4000W BCFG BKN002 M01/M01 Q1010 TEMPO
      2000 BCFG=
METAR ENOL 272050Z 14007KT 9999 SCT040 BKN060 04/02 Q1000 NOSIG=
METAR ENRO 272050Z AUTO 17007KT 120V230 9999NDV NCD M01/M07 Q1003=
METAR ENRY 272050Z 20005KT CAVOK 01/M00 Q1012=
METAR ENTC 272050Z 19012KT 9999 -RA FEW007 BKN033 02/M00 Q0997 NOSIG
      RMK WIND 2600FT 18017KT=
METAR ENVA 272050Z 18015KT CAVOK 06/M06 Q1001 RMK WIND 670FT 20023KT=
METAR ENZV 272050Z 17008KT 9999 SCT030 04/03 Q1010=
METAR LEMO 272100Z 21008KT CAVOK 12/10 Q1025 NOSIG=
METAR LGBL 272050Z 27005KT 6000 RA SCT008 BKN020 OVC070 09/09 Q1005=
METAR LGEL 272050Z 00000KT 7000 -RA FEW010 BKN025 OVC070 09/09 Q1005=
METAR LGIR 272050Z 21010KT 9999 -RA FEW018TCU SCT030 13/09 Q1009 NOSIG=
METAR LGKF 272050Z AUTO 33005KT 280V350 //// -RA ////// 12/// Q1007
      RE//=
METAR LGKP 272050Z AUTO 23018KT //// -RA ////// 15/08 Q1011 RE//=
METAR LGKV 272050Z 09008KT 9999 SCT030 BKN080 13/09 Q1006=
METAR LGRX 272050Z 05004KT 8000 -RA FEW020TCU BKN025 OVC080 10/10 Q1007=
METAR LGSA 272050Z 34005KT 9999 FEW018TCU SCT025 11/06 Q1008=
METAR LGSR 272050Z AUTO 24013KT //// -RA ////// 14/08 Q1008 RE//=
METAR LGTS 272050Z 33012KT 9999 DZ FEW012 BKN025 OVC070 11/08 Q1007
      TEMPO RA=
####018001507####
SAXN17 KAWN 272000 RRN
METAR MMAN 272040Z 02002KT 1SM -DZ BR BKN003 OVC005 07/07 A3017 RMK
      SLP212 57024 944 60035 8/7// -DZ INTMT=
METAR COR MMCE 272044Z 36006KT 5SM SCT015 OVC070 26/22 A2993 RMK SLP132
      52027 930 8/21/ HZY LWR SC=
METAR MMCE 272044Z 36006KT 5SM SCT010 OVC070 26/22 A2993 RMK SLP132
      52027 930 8/21/ SC=
METAR MMCL 272043Z 21005KT 10SM FEW025 29/15 A2987 RMK SLP118 57020
      907 8/100=
METAR MMCP 272041Z 33010G20KT 7SM SCT030 27/23 A2988 RMK SLP118 57029
      920 8/100=
METAR MMCU 272040Z 07019KT 10SM SKC 19/M01 A2986 RMK SLP090 57037 967=
METAR MMLM 272040Z 19015KT 10SM SKC 25/10 A2987 RMK SLP115 HZY=
METAR MMLP 272040Z 16006KT 10SM SKC 27/05 A2985 RMK SLP108 57033 961=
METAR MMLT 272042Z 00000KT 8SM SKC 27/17 A2979 RMK SLP088=
METAR MMMA 272044Z 04006KT 6SM SCT025 OVC070 18/14 A3017 RMK SLP200
      57034 931 8/15/ HZ BINOVC ISOL CI=
METAR MMMV 272040Z 05005KT 1 1/2SM BR OVC010 03/02 A3016 RMK 8/5//=
METAR MMNL 272040Z 02008KT 1 1/2SM -DZ BR OVC010 04/02 A3025 RMK SLP300
      57014 945 60035 8/7//=
METAR MMPG 272042Z 06006KT 1/2SM -DZ FG OVC003 02/02 A3027 RMK 8/5//=
METAR MMSD 272042Z 12018KT 12SM SKC 26/13 A2986 RMK SLP099 57020 960=
METAR MMTC 272040Z 09006KT 8SM SKC 23/03 A2994 RMK SLP075 57027 900
      HZY PRESFR=
METAR MMTG 272042Z 31019KT 7SM SCT022 BKN070 OVC100 23/15 A2997 RMK
      SLP120 57021 921 8/77/ FU W SW=
METAR MMTP 272042Z 26010KT 10SM SKC 31/22 A2979 RMK SLP078 57023 953=
####018000087####
SABE31 TXKF 272055
METAR TXKF 272055Z 24017KT 9000 -RA BKN007 OVC017 22/20
Q1022
####018000138####
SAUS42 TJSJ 272057 COR
MTRJNR
METAR TJNR 272053Z AUTO 10011G18KT 10SM FEW047 SCT055 27/20 A3006 
RMK AO2 SLP178 T02670200 56007 $
####018000089####
SAHW31 KMSC 272056
METAR PHJH 272050Z 36010KT 15SM FEW020 FEW035 SCT060 27/19 A3000=
####018000096####
SAAJ31 UBBB 272100
METAR UBBL 272100Z 19004KT 9000 SCT025 03/01 Q1027
R33/CLRD70 RMK MT OP=
####018000600####
SAYE20 OYSC 272100
METAR OYAA 272100Z 10007KT 6000 FEW018 25/19 Q1014=
METAR OYAR 272100Z NIL=
METAR OYAT 272100Z NIL=
METAR OYDM 272100Z 09004KT CAVOK 10/M03 Q////=
METAR OYGD 272100Z NIL=
METAR OYHD 272100Z 19007KT 7000 NSC 26/24 Q1012=
METAR OYHJ 272100Z NIL=
METAR OYIB 272100Z NIL=
METAR OYMB 272100Z NIL=
METAR OYMK 272100Z NIL=
METAR OYMT 272100Z NIL=
METAR OYRN 272100Z 00000KT 6000 NSC 23/19 Q1014=
METAR OYSD 272100Z NIL=
METAR OYSH 272100Z NIL=
METAR OYSN 272100Z NIL=
METAR OYSQ 272100Z 08010KT 9999 FEW018 25/20 Q1013=
METAR OYSY 272100Z NIL=
METAR OYTZ 272100Z NIL=
####018000105####
SATU31 LTAA 272020 CCA
METAR COR LTFJ 272020Z 03012KT 9999 FEW035 SCT100 09/06 Q1007 BECMG
 VRB02KT=
####018000136####
SPNA35 KAWN 272057 RRC
SPECI KCOF 272051Z AUTO 34016G22KT 10SM TS OVC007 13/13 A3017 RMK AO2
      RAE42DZB42E48RAB48E51 TSB48 $=
####018001649####
SAZZ40 KAWN 272100 RRC
METAR BGBW 272050Z 00000KT 9999 SCT070 BKN180 M06/M12 Q0988=
METAR K4MR 272056Z AUTO 12011KT 10SM -SN OVC012 M11/M12 A3012 RMK AO2
      SLP250 T11071125 57024 $=
METAR KBUR 272053Z VRB03KT 10SM BKN033 OVC046 16/09 A2979 RMK AO2 SLP080
      T01610089 58022=
METAR KDTS 272053Z AUTO VRB05KT 10SM CLR 14/01 A3027 RMK AO2 SLP249
      T01440011 56021 TSNO=
METAR KM63 272056Z AUTO 01008G17KT 10SM FEW200 04/M04 A2993 RMK AO2
      SLP132 T00391044 57029=
METAR KNFW 272052Z 01008KT 1/2SM -SN FZFG VV012 M03/M05 A3047 RMK AO2
      SLP300 P0002 60003 T10281050 56023 $=
METAR KNKT 272054Z 33009KT 10SM CLR 10/M02 A3038 RMK AO2 SLP285 T01001017
      53003 $=
METAR KNQX 272053Z 02009KT 10SM BKN008 BKN100 23/19 A3006 RMK AO2 SLP178
      T02330194 58014 $=
METAR KNRB 272052Z 02013G23KT 10SM BKN015 OVC220 10/06 A3029 RMK AO2
      SLP258 T01000061 57008 $=
METAR KSHM 272056Z AUTO 13010KT 1 3/8SM -SHSN BKN010 M13/M14 A2990
      RMK AO2 SNE02SHSNB02 BKN V OVC SLP231 T11301142 57021=
METAR LEMO 272100Z 21008KT CAVOK 12/10 Q1025 NOSIG=
METAR MROC 272100Z 08012KT 9999 FEW040 29/13 A2992 NOSIG=
METAR MUGM 272056Z 17008KT 9999 FEW030 FEW070 29/23 A2999 RMK SLP154
      T02940228 56015=
METAR PAFB 272055Z 27004KT 25SM SCT200 M09/M12 A3045 RMK SLP325 58010=
METAR PHSF 272056Z AUTO 22002G10KT 10SM CLR 19/07 A3028 RMK AO2 SLP144
      T01850073 53004 $=
METAR TJNR 272053Z AUTO 10011G18KT 10SM FEW047 SCT055 27/20 A3006 RMK
      AO2 SLP178 T02670200 56007 $=
METAR TJNR 272053Z AUTO 10011G18KT 10SM FEW047 SCT055 27/20 A3006 RMK
      AO2 SLP178 T02670200 56007 $=
####018000941####
SAMX42 MMGL 272057
METAR MMAS 272046Z 22010G20KT 13SM  SCT220 24/M17 A3005 RMK 8/002=
METAR MMEP 272053Z 24006KT 12SM  BKN250 28/08 A2995 
      RMK SLP143 57018 902 8/008 PRESFR=
METAR MMGL 272054Z 30019KT 10SM  SCT300 27/M14 A3000 
      RMK SLP055 57031 951 8/002 VSBY 3/4 SM W FU=
METAR MMIA 272040Z 24010KT 8SM  BKN200 26/11 A2993 
      RMK SLP/// 5/// 9// 6//// 8/001=
METAR MMLO 272044Z 18009KT 10SM  BKN220 26/M01 A3011 
      RMK SLP074 57022 909 8/008=
METAR MMMM 272042Z 15017KT 8SM  FEW030 BKN230 26/06 A3006 
      RMK SLP042 57020 900 8/102=
METAR MMPN 272051Z 18010KT 15SM  BKN270 23/11 A3006 
      RMK SLP/// 5//// 9// 6//// 8/002 HZY CU=
METAR MMPR 272048Z 22010KT 15SM  SCT250 25/19 A2985 
      RMK SLP106 57015 905 8/001 SC-NW=
METAR MMSP 272044Z 36007KT 15SM  BKN210 16/05 A3007 
      RMK SLP096 57038 923 8/008 SC=
METAR MMZC 272046Z 24012KT 10SM  BKN200 23/M08 A3006 RMK 8/002=
####018000076####
SAAT31 TQPF 272055
METAR TQPF 272100Z 08015KT 9999  SCT020 27/20 Q1017=
####018000120####
SAUS45 KREV 272057
MTRDRA
METAR KDRA 272052Z AUTO 17008KT 10SM CLR 16/M07 A2966 RMK AO2 SLP020 
T01611067 58036
####018000123####
SAUS90 KWBC 272100 CCA
METAR KATT 272051Z AUTO VRB04KT 10SM OVC023 01/M04 A3033 RMK AO2
     SLP281 T00111039 56025=
####018001660####
SAUS90 KWBC 272100
METAR KNAK 272054Z AUTO 32009KT 10SM CLR M01/M11 A3048 RMK AO2
     SLP324 T10111111 53017=
METAR KMTP 272054Z AUTO 25007KT M03/M12 A3039 RMK AO1 SLP291
     T10281122 53013=
METAR KBKB 272054Z AUTO VRB04KT 10SM CLR 11/M03 A3032 RMK AO2
     SLP298 T01061028 56019=
METAR PABI 272053Z 11005KT 10SM FEW200 M07/M11 A3044 RMK AO2
     SLP350 T10721111 58010=
METAR KACY 272054Z 32006KT 10SM CLR 01/M09 A3043 RMK AO2 SLP304
     T00061094 53013=
METAR KVBG 272055Z 32021G28KT 10SM SCT015 BKN020 BKN250 16/12
     A2986 RMK AO2 PK WND 32030/2011 SLP102 T01610117 58012=
METAR KDRA 272052Z AUTO 17008KT 10SM CLR 16/M07 A2966 RMK AO2
     SLP020 T01611067 58036=
METAR KNTU 272056Z 36010KT 10SM BKN048 BKN280 02/M04 A3043 RMK AO2
     SLP307 T00171039 51015 $=
METAR KGNA 272056Z AUTO 23018KT M08/M13 A3036 RMK AO1 SLP307
     T10781128 56009=
METAR KP60 272056Z AUTO 00000KT M08/M13 A2970 RMK AO1 SLP160
     T10831133 57017=
METAR KNXP 272056Z 00000KT 10SM FEW200 21/M01 A2971 RMK AO2 PRESFR
     SLP034 LAST AUGMENTED T02061006 58039=
METAR K8D3 272056Z AUTO 26005KT M09/M18 A3043 RMK AO1 SLP352
     T10941178 56020=
METAR K2WX 272056Z AUTO 14015G22KT M03/M12 A2994 RMK AO1 SLP200
     T10331117 58033=
METAR KGNR 272056Z AUTO VRB04KT M10/M23 A3015 RMK AO1 SLP246
     T11001233 53010=
METAR KP53 272056Z AUTO 02003KT M10/M17 A3040 RMK AO1 SLP314
     T11001167 56012=
METAR KSPD 272056Z AUTO 16020KT M12/M14 A3008 RMK AO1 PK WND
     16026/1957 SLP241 T11171139 58028=
METAR KD07 272056Z AUTO 16021G26KT M03/M18 A3012 RMK AO1 PK WND
     15027/2035 SLP256 T10331178 56031=
####018000054####
SAUS90 KWBC 272058
METAR K8S0 272040Z 35012G25KT=
####018000129####
SAUS45 KSLC 272056
MTRNKX
METAR KNKX 272055Z 20013G21KT 10SM SCT026 BKN035 18/10 A2982 RMK AO2 
SLP094 T01830100 58014 $
####018000127####
SAUS41 KAKQ 272057
MTRNTU
METAR KNTU 272056Z 36010KT 10SM BKN048 BKN280 02/M04 A3043 RMK AO2 
SLP307 T00171039 51015 $
####018000112####
SAUS43 KDLH 272057
MTRGNA
METAR KGNA 272056Z AUTO 23018KT M08/M13 A3036 RMK AO1 SLP307 
T10781128 56009
####018001591####
SANA35 KAWN 272100
METAR KBRO 272053Z 04009KT 10SM FEW032 SCT041 BKN048 18/13 A3013 RMK
      AO2 SLP203 60000 T01780128 58027=
METAR KDAB 272053Z 36013G21KT 9SM OVC014 12/09 A3024 RMK AO2 SLP240
      T01220089 55007=
METAR KFLL 272053Z 35009KT 10SM BKN015 OVC250 22/18 A3009 RMK AO2 SLP188
      T02170183 56003=
METAR KJFK 272051Z 31005KT 10SM SCT250 M01/M15 A3042 RMK AO2 SLP301
      T10061150 53008=
METAR KMCO 272053Z 01011KT 10SM SCT019 OVC026 13/10 A3021 RMK AO2 SLP228
      60000 T01330100 56009=
METAR KNHK 272052Z 04008KT 9SM FEW033 SCT045 SCT250 M01/M07 A3047 RMK
      AO2 SLP318 IR12P 60000 T10111067 53015=
METAR KNIP 272053Z 04015KT 10SM FEW028 SCT150 BKN250 13/04 A3029 RMK
      AO2 SLP253 T01330039 56009=
METAR KNKT 272054Z 33009KT 10SM CLR 10/M02 A3038 RMK AO2 SLP285 T01001017
      53003 $=
METAR KNQX 272053Z 02009KT 10SM BKN008 BKN100 23/19 A3006 RMK AO2 SLP178
      T02330194 58014 $=
METAR KNRB 272052Z 02013G23KT 10SM BKN015 OVC220 10/06 A3029 RMK AO2
      SLP258 T01000061 57008 $=
METAR KPBI 272053Z 35014KT 10SM OVC007 19/17 A3010 RMK AO2 RAE18 SLP193
      P0000 60000 T01940172 56007=
METAR KSAV 272053Z 04006KT 10SM FEW060 SCT180 BKN250 11/01 A3034 RMK
      AO2 SLP274 T01110006 55010=
METAR MUGM 272056Z 17008KT 9999 FEW030 FEW070 29/23 A2999 RMK SLP154
      T02940228 56015=
METAR TJNR 272053Z AUTO 10011G18KT 10SM FEW047 SCT055 27/20 A3006 RMK
      AO2 SLP178 T02670200 56007 $=
METAR TJNR 272053Z AUTO 10011G18KT 10SM FEW047 SCT055 27/20 A3006 RMK
      AO2 SLP178 T02670200 56007 $=
####018000112####
SAUS45 KRIW 272057
MTRP60
METAR KP60 272056Z AUTO 00000KT M08/M13 A2970 RMK AO1 SLP160 
T10831133 57017
####018000112####
SAAK41 KNKA 272056
METAR PFYU 272056Z 24008G15KT 220V280 10SM CLR M02/M06 A3032 RMK AO1 
 SCT CI ABV 120=
####018002978####
SAUS20 KNKA 272056
METAR K19A 272055Z AUTO 31007KT 10SM CLR 11/M06 A3033 RMK AO2=
METAR K1A5 272055Z AUTO 00000KT 10SM 07/M12 A3032 RMK AO2 
 T00661119=
METAR K1A9 272055Z AUTO 03005KT 10SM CLR 09/M03 A3035 RMK AO2 
 T00921027=
METAR K1II 272055Z AUTO 01006KT 10SM CLR M06/M16 A3060 RMK AO2=
METAR K1K1 272055Z AUTO 14004KT 2SM -SN SCT021 OVC035 M09/M13 
 A3051 RMK AO2 T10891129=
METAR K2I0 272055Z AUTO 05007KT 10SM CLR M04/M12 A3060 RMK AO2 
 T10401125=
METAR K36U 272055Z AUTO 25006KT 10SM SCT023 SCT040 BKN046 03/M06 
 A2972 RMK AO2=
METAR K3D2 272055Z AUTO 23008G15KT 10SM CLR M09/M20 A3044 RMK AO2 
 T10931201=
METAR K3I2 272055Z AUTO 00000KT 10SM CLR M03/M14 A3060 RMK AO2=
METAR K3J7 272055Z AUTO 00000KT 10SM CLR 14/00 A3028 RMK AO2=
METAR K40J 272055Z AUTO 04010G16KT 10SM CLR 12/05 A3028 RMK AO2 
 T01160047=
METAR K42J 272055Z AUTO 02009G15KT 10SM CLR 13/03 A3026 RMK AO1 
 TSNO=
METAR K4A9 272055Z AUTO 02007KT 10SM CLR 03/M11 A3041 RMK AO2=
METAR K4M9 272055Z AUTO 06011G16KT 10SM CLR M05/M11 A3059 RMK AO2=
METAR K4O4 272055Z AUTO 05004KT 1 1/4SM OVC006 M02/M06 A3049 RMK 
 AO2=
METAR K5C1 272055Z AUTO 02007KT 3SM OVC006 00/M01 A3026 RMK AO1=
METAR K6A2 272055Z AUTO 34003KT 10SM CLR 11/M03 A3033 RMK AO2=
METAR K6L4 272055Z AUTO 00000KT 10SM OVC050 M06/M14 A3046 RMK AO2=
METAR K7W4 272055Z AUTO 05003KT 10SM BKN050 OVC060 02/M09 A3044 
 RMK AO1 T00151088=
METAR K82C 272055Z AUTO 27006KT 10SM CLR M08/M19 A3051 RMK AO2 
     T10851195=
METAR K82V 272055Z AUTO 18014G20KT 5SM -SN SCT010 OVC026 M08/M13 
 A2995 RMK AO2=
METAR KAAA 272055Z AUTO 01003KT 10SM OVC027 M09/M15 A3066 RMK AO2 
 60001 T10911155=
METAR KAAT 272055Z AUTO 36003KT 10SM BKN030 OVC037 03/01 A2969 RMK 
 AO2 RAB19E50UPB50E52 SLP056 P0007 60007 T00280006 56009=
METAR KAIB 272055Z AUTO 19010G14KT 10SM CLR 02/M06 A2980 RMK AO2=
METAR KAJG 272055Z AUTO 32005KT 10SM CLR M05/M16 A3063 RMK AO2=
METAR KANJ 272055Z AUTO 33004KT 10SM CLR M08/M18 A3040 RMK AO2 
 SLP311 T10831183 56005=
METAR KANW 272055Z AUTO 18013KT 10SM CLR M04/M20 A3024 RMK AO2 
 T10451201=
METAR KAQX 272055Z AUTO 08006KT 10SM CLR 13/01 A3033 RMK AO2=
METAR KASN 272055Z AUTO 02008KT 10SM CLR 07/M04 A3042 RMK AO2 
 T00661039=
METAR KAST 272055Z AUTO 32005KT 1 3/4SM RA BR FEW014 OVC022 10/08 
 A2970 RMK AO2 RAB08 CIG 017 RWY 08 SLP057 P0009 60009 T01000083 
 58006=
METAR KASW 272055Z AUTO 29006KT 10SM OVC036 M08/M16 A3057 RMK AO2=
METAR KATS 272055Z AUTO 14011KT 10SM OVC014 M05/M06 A3016 RMK AO2 
 P0001=
METAR KAUN 272055Z AUTO 25004KT 10SM FEW032 16/07 A2976 RMK AO1=
METAR KAXS 272055Z AUTO 05007KT 2SM -SN OVC007 M07/M10 A3045 RMK 
 AO2 T10691102=
METAR KAZC 272055Z AUTO 24004KT 10SM OVC060 10/M04 A2974 RMK AO2 
 T01011045=
METAR KBCK 272055Z AUTO 23006KT 10SM CLR M09/M22 A3053 RMK AO2 
 T10871220=
METAR KBDN 272055Z AUTO 10003KT 8SM -RA FEW002 SCT022 SCT032 04/02 
 A2965 RMK AO2 P0012=
####018002989####
SAAK41 KNKA 272056
METAR PAAK 272056Z 29020G26KT 10SM FEW017 SCT031 BKN055 03/00 A3000 
 RMK AO1 52027=
METAR PABL 272056Z AUTO 15015G19KT 10SM BKN027 BKN033 BKN045 01/M03 
 A3019 RMK AO1 57014=
METAR PABV 272056Z AUTO 00000KT 10SM CLR M04/M06 A3045 RMK AO1 57017=
METAR PADK 272056Z AUTO 29004KT 10SM SCT035 SCT041 02/M04 A3013 RMK 
 AO1 WSHFT 37 52030=
METAR PAEM 272056Z AUTO 15018G22KT 10SM BKN009 OVC040 M01/M03 A3015 
 RMK AO1 57020=
METAR PAFE 272056Z AUTO 20004KT 10SM CLR 06/M01 A3042 RMK AO1 52003=
METAR PAFM 272056Z AUTO 20009KT 10SM SCT016 OVC023 M01/M02 A3026 RMK 
 AO1 54000=
METAR PAGL 272056Z AUTO 16017KT 10SM OVC024 M01/M03 A3022 RMK AO1 
 57014=
METAR PAGS 272056Z AUTO 00000KT 10SM CLR 05/M03 A3044 RMK AO1 54000 
 PNO=
METAR PAHL 272056Z AUTO 17007KT 10SM OVC024 M01/M04 A3030 RMK AO1 
 57007=
METAR PAHP 272056Z AUTO 17019KT 8SM OVC005 M01/M03 A3013 RMK AO1 
 57014=
METAR PAHY 272056Z AUTO 10SM CLR 09/M07 A3031 RMK AO1 54000=
METAR PAII 272056Z AUTO 13013KT 10SM SCT050 BKN065 OVC075 03/01 
 A3032 RMK AO1 57014=
METAR PAIN 272056Z AUTO 00000KT 10SM CLR M08/M13 A3040 RMK AO1 57014=
METAR PAJC 272056Z AUTO 14007KT 9SM BKN013 OVC019 03/01 A3028 RMK 
 AO1 P0003 60005 57017=
METAR PAJZ 272056Z AUTO 07008KT 10SM CLR M03/M04 A3041 RMK AO2 TSNO 
 58008 T10271044 SLP288 $=
METAR PAKK 272056Z AUTO 19011KT 10SM OVC021 A3022 RMK AO1 57014=
METAR PAKP 272056Z AUTO 22012G15KT 7SM FEW016 FEW028 OVC095 M05/M10 
 A3015 RMK AO1 52010=
METAR PAMD 272056Z 12007KT 10SM OVC013 05/02 A3044 RMK AO1 54000=
METAR PAMH 272056Z AUTO 00000KT 10SM CLR M11/M12 A3036 RMK AO1 57020=
METAR PAMM 272056Z AUTO 35010KT 10SM CLR 08/M03 A3032 RMK AO1 52003=
METAR PANI 272056Z AUTO 12009KT 10SM CLR M05/M08 A3033 RMK AO1 57017=
METAR PANV 272056Z AUTO 16005KT 10SM OVC020 M02/M06 A3027 RMK AO1 
 57014=
METAR PAPH 272056Z AUTO 14020G24KT 10SM FEW065 SCT075 04/M02 A3024 
 RMK AO1 57020=
METAR PARC 272056Z AUTO 00000KT 10SM CLR M19/M32 A3012 RMK AO1 52014=
METAR PASD 272056Z 04006KT 8SM SCT012 BKN016 OVC020 04/04 A3020 RMK 
 AO1 
 WEA: -RA (KH) 60001 57014=
METAR PASK 272056Z AUTO 20013G19KT 10SM OVC060 01/M02 A3020 RMK AO1 
 57010=
METAR PASL 272056Z AUTO 15007KT 10SM OVC009 M04/M11 A3040 RMK AO1 
 57010=
METAR PASM 272056Z AUTO 15013G21KT 10SM BKN014 OVC032 M02/M06 A3021 
 RMK AO1 57014=
METAR PATG 272056Z AUTO 09005KT 10SM OVC014 01/M02 A3031 RMK AO1 
 57010=
METAR PAUN 272056Z AUTO 17010KT 10SM OVC024 M01/M05 A3028 RMK AO1 
 57010=
METAR PAUT 272055Z AUTO 11010KT 5SM BR BKN007 BKN011 OVC016 05/04 
 A3006 RMK AO2 T00450042=
METAR PAVD 272056Z 00000KT 10SM FEW090 BKN250 01/M06 A3046 RMK AO1 
 2047Z WEA: NONE TWR WND 00000KT 52003=
METAR PAWG 272056Z 30006KT 10SM CLR 06/M03 A3038 RMK AO1 
 WEA:NONE (KB) 54000=
METAR PAWS 272056Z AUTO 32004KT 10SM CLR M02/M10 A3042 RMK AO1 57014=
METAR PAZK 272056Z AUTO 07005KT 10SM CLR M12/M13 A3035 RMK AO1 57003=
####018000078####
SAUK36 EGGY 272050 RRA
METAR EGWU 272050Z 21007KT CAVOK 05/01 Q1019 NOSIG=
####018000116####
SAUS46 KLOX 272057
MTRNID
METAR KNID 272056Z AUTO 04008KT CLR 19/02 A2964 RMK AO2 SLP030 
T01890022 58039 $
####018000120####
SAUS44 KMOB 272057
MTRNSE
METAR KNSE 272056Z 03011KT 10SM SCT250 14/M02 A3028 RMK AO2 SLP243 
T01441017 56022 $
####018000116####
SAUS46 KLOX 272057
MTRNTD
METAR KNTD 272056Z 26012KT 10SM CLR 19/12 A2981 RMK AO2 SLP096 
T01940117 58019 $
####018000130####
SAUS46 KLOX 272057
MTRNLC
METAR KNLC 272056Z 36009KT 10SM SCT045 BKN220 20/07 A2979 RMK AO2 
SLP089 RH/44 T02000072 58025
####018000183####
SAUS46 KPQR 272057
MTRNFL
METAR KNFL 272056Z 26030G38KT 7SM -RA SCT035 BKN060 BKN120 08/00 
A2968 RMK AO2 PK WND 25038/2054 RAB53 PRESRR SLP032 P0000 60000 
T00830000 55022
####018000120####
SAUS42 KJAX 272057
MTRNPA
METAR KNPA 272056Z 03011KT 10SM BKN250 14/M01 A3028 RMK AO2 SLP253 
T01391006 56018 $
####018000140####
SAUS46 KLOX 272057
MTRNXP
METAR KNXP 272056Z 00000KT 10SM FEW200 21/M01 A2971 RMK AO2 PRESFR 
SLP034 LAST AUGMENTED T02061006 58039
####018000120####
SAUS44 KMOB 272057
MTRNDZ
METAR KNDZ 272056Z 06010KT 10SM BKN250 16/M02 A3028 RMK AO2 SLP242 
T01561017 56021 $
####018000157####
SAUS46 KPQR 272057
MTRNUW
METAR KNUW 272056Z 01007KT 10SM -RA SCT035 BKN055 OVC070 10/07 A2982 
RMK AO2 SLP100 P0001 60002 T01000067 50004 VISNO E $
####018000140####
SAUS44 KCRP 272057
MTRNOG
METAR KNOG 272056Z AUTO 05009KT OVC023 11/06 A3021 RMK AO2 RAB23E36 
SLP212 P0000 60000 T01060056 57026 $
####018000147####
SAUS44 KCRP 272057
MTRNQI
METAR KNQI 272056Z 05013KT 7SM -DZ FEW011 OVC016 12/08 A3020 RMK AO2 
DZB54 SLP221 P0000 60000 T01220083 58027 $
####018000112####
SAUS43 KABR 272057
MTR8D3
METAR K8D3 272056Z AUTO 26005KT M09/M18 A3043 RMK AO1 SLP352 
T10941178 56020
####018000115####
SAUS43 KUNR 272057
MTR2WX
METAR K2WX 272056Z AUTO 14015G22KT M03/M12 A2994 RMK AO1 SLP200 
T10331117 58033
####018000112####
SAUS41 KCAR 272057
MTRGNR
METAR KGNR 272056Z AUTO VRB04KT M10/M23 A3015 RMK AO1 SLP246 
T11001233 53010
####018000112####
SAUS43 KMQT 272057
MTRP53
METAR KP53 272056Z AUTO 02003KT M10/M17 A3040 RMK AO1 SLP314 
T11001167 56012
####018000130####
SAUS45 KPUB 272057
MTRSPD
METAR KSPD 272056Z AUTO 16020KT M12/M14 A3008 RMK AO1 PK WND 
16026/1957 SLP241 T11171139 58028
####018000133####
SAUS43 KUNR 272057
MTRD07
METAR KD07 272056Z AUTO 16021G26KT M03/M18 A3012 RMK AO1 PK WND 
15027/2035 SLP256 T10331178 56031
####018000125####
SAUS41 KLWX 272057
MTRNYG
METAR KNYG 272056Z 02010KT 10SM FEW160 SCT220 01/M12 A3050 RMK AO2 
SLP328 T00111117 53013
####018000084####
SABZ23 SBSJ 272100
METAR SBSJ 272100Z 16010KT 9999 SCT027 FEW030TCU 27/16 Q1012=
####018000074####
SABZ24 SBPK 272100
METAR SBPK 272100Z 18015KT 9999 SCT020 25/17 Q1012=
####018000087####
SANK31 MNMG 272100
METAR
MNMG 272100Z 09012KT 9999 SCT022 34/19 Q1007 A2976 NOSIG=
####018000081####
SAPM31 MPTO 272100
METAR
MPTO 272100Z 02006KT 9999 SCT020 33/20 Q1007 NOSIG=
####018003687####
SAUS99 KWBC 272058
METAR
K4I3 272055Z AUTO 27007KT 10SM CLR M08/M19 A3055 RMK AO2=
KACB 272056Z AUTO 21005G14KT 10SM BKN031 M08/M16 A3049 RMK AO2
     T10821163=
KAID 272049Z 31010KT 10SM CLR M08/M18 A2959=
KAMN 272051Z AUTO 27008G17KT 10SM BKN042 M08/M16 A3053 RMK AO2
     T10771165=
KAUM 272056Z AUTO 23006KT 10SM CLR M13/M19 A3052 RMK AO2=
KAUW 272054Z AUTO 24011KT 10SM CLR M11/M20 A3044 RMK AO2 SLP344
     T11111200 56007=
KBAX 272055Z AUTO 25010G15KT 10SM CLR M10/M16 A3052 RMK AO2
     T10971165=
KBDH 272055Z AUTO 25006KT 10SM CLR M11/M18 A3048 RMK AO2=
KBVI 272047Z 34005KT 10SM CLR M09/M19 A3052=
KCAD 272054Z AUTO 23013KT 10SM SCT036 M09/M17 A3041 RMK AO2
     T10951170=
KCFS 272055Z AUTO 23010G15KT 10SM CLR M09/M17 A3052 RMK AO2
     T10901166=
KCKC 272053Z AUTO 21008G14KT 179V249 10SM CLR M08/M26 A3026 RMK
     AO2=
KCKN 272055Z AUTO 22013KT 10SM CLR M09/M15 A3041 RMK AO2=
KCNB 272053Z AUTO 22005KT 10SM CLR M09/M17 A3046 RMK AO2
     T10921174=
KCOQ 272057Z AUTO 23010KT 10SM CLR M08/M24 A3037 RMK AO2=
KCQM 272054Z AUTO 24008KT 211V271 10SM CLR M07/M23 A3032 RMK
     AO2=
KCVX 272055Z AUTO 26011G16KT 10SM CLR M10/M16 A3050 RMK AO2
     T11021157=
KDRM 272055Z AUTO 26007KT 10SM CLR M10/M16 A3043 RMK AO2
     T10971165=
KDSM 272054Z 26004KT 10SM FEW030 FEW250 M11/M18 A3059 RMK AO2
     SLP382 T11111183 56016=
KDTL 272055Z AUTO 25006KT 10SM CLR M09/M18 A3040 RMK AO2=
KDUH 272055Z AUTO 27004KT 10SM CLR M07/M20 A3060 RMK AO2=
KDVL 272055Z AUTO 21010KT 10SM CLR M11/M17 A3029 RMK AO1 57024=
KEDJ 272050Z AUTO 33010KT 10SM FEW037 M10/M18 A3057 RMK AO1=
KEFD 272050Z 36009KT 7SM OVC020 06/01 A3035=
KEKM 272050Z 24007KT 10SM SCT042 M08/M19 A3058 RMK AO2=
KENV 272055Z AUTO 14004KT 10SM OVC100 07/M03 A2971 RMK AO1
     57034=
KERY 272055Z AUTO 26006KT 10SM CLR M10/M19 A3039 RMK AO2
     T10961189=
KETH 272056Z AUTO 20004KT 10SM CLR M11/M18 A3047 RMK AO2=
KEUL 272055Z AUTO 15010KT 10SM CLR 11/M01 A2969 RMK AO1 57030=
KFFX 272053Z AUTO 27009KT 10SM CLR M08/M18 A3052 RMK AO2
     T10801181=
KFPK 272055Z AUTO 25009KT 10SM BKN044 M07/M18 A3052 RMK AO2
     T10731179=
KFRM 272055Z AUTO 22006KT 10SM CLR M11/M17 A3050 RMK AO1 57017=
KFSE 272055Z AUTO 22010KT 10SM CLR M09/M16 A3039 RMK AO2=
KFTG 272054Z 15013KT 10SM FEW120 M07/M13 A2990=
KGOV 272055Z AUTO 25009G14KT 10SM SCT035 M09/M17 A3043 RMK AO2
     T10881171=
KGPI 272055Z 04018KT 10SM BKN080 OVC100 03/M12 A2990 RMK AO2
     SLP152 T00281117 58003=
KGPZ 272055Z AUTO 22009KT 200V260 10SM CLR M08/M21 A3034 RMK AO1
     57017=
KHAF 272055Z AUTO 32015KT 7SM FEW016 SCT023 BKN030 14/10 A2986 RMK
     AO2=
KHAI 272054Z AUTO 25006KT 10SM OVC041 M08/M17 A3056 RMK AO2
     T10771172=
KHTO 272050Z 30008KT 10SM SKC M03/M13 A3039=
KHYX 272055Z AUTO 23010G16KT 10SM CLR M07/M16 A3053 RMK AO2=
KIMT 272054Z AUTO 28005KT 10SM CLR M07/M19 A3036 RMK AO2 SLP310
     60000 T10671189 56011 TSNO=
KIRS 272055Z AUTO 25004KT 10SM SCT035 OVC044 M09/M17 A3055 RMK
     AO2=
KISQ 272054Z AUTO 19007KT 10SM CLR M09/M18 A3043 RMK AO2
     T10911177=
KISW 272054Z AUTO 26010KT 10SM CLR M09/M22 A3049 RMK AO2 SLP355
     T10891217 56012=
KJYG 272055Z AUTO 21003KT 10SM CLR M10/M17 A3052 RMK AO2=
KJYM 272055Z AUTO 25006KT 10SM SCT042 M09/M19 A3053 RMK AO2
     T10861188=
KLDM 272055Z AUTO 23010KT 10SM SCT029 M09/M16 A3053 RMK AO2
     T10891161=
KLNK 272054Z 12005KT 10SM CLR M07/M18 A3051 RMK AO2 SLP358
     T10671183 56032=
KLVN 272021Z AUTO 24006KT 10SM CLR M12/M19 A3052 RMK AO2=
KLWA 272055Z AUTO 26007G16KT 10SM BKN036 M08/M16 A3058 RMK AO2
     T10801159=
####018003707####
SAUS99 KWBC 272058 RRB
METAR
PAJZ 272056Z AUTO 07008KT 10SM CLR M03/M04 A3041 RMK AO2 TSNO
     58008 T10271044 SLP288 $=
PAKK 272056Z AUTO 19011KT 10SM OVC021 A3022 RMK AO1 57014=
PAKP 272056Z AUTO 22012G15KT 7SM FEW016 FEW028 OVC095 M05/M10
     A3015 RMK AO1 52010=
PAMD 272056Z 12007KT 10SM OVC013 05/02 A3044 RMK AO1 54000=
PAMH 272056Z AUTO 00000KT 10SM CLR M11/M12 A3036 RMK AO1 57020=
PAMM 272056Z AUTO 35010KT 10SM CLR 08/M03 A3032 RMK AO1 52003=
PANI 272056Z AUTO 12009KT 10SM CLR M05/M08 A3033 RMK AO1 57017=
PANV 272056Z AUTO 16005KT 10SM OVC020 M02/M06 A3027 RMK AO1
     57014=
PAPH 272056Z AUTO 14020G24KT 10SM FEW065 SCT075 04/M02 A3024 RMK
     AO1 57020=
PARC 272056Z AUTO 00000KT 10SM CLR M19/M32 A3012 RMK AO1 52014=
PASD 272056Z 04006KT 8SM SCT012 BKN016 OVC020 04/04 A3020 RMK AO1
     WEA: -RA (KH) 60001 57014=
PASK 272056Z AUTO 20013G19KT 10SM OVC060 01/M02 A3020 RMK AO1
     57010=
PASL 272056Z AUTO 15007KT 10SM OVC009 M04/M11 A3040 RMK AO1
     57010=
PASM 272056Z AUTO 15013G21KT 10SM BKN014 OVC032 M02/M06 A3021 RMK
     AO1 57014=
PATG 272056Z AUTO 09005KT 10SM OVC014 01/M02 A3031 RMK AO1
     57010=
PAUN 272056Z AUTO 17010KT 10SM OVC024 M01/M05 A3028 RMK AO1
     57010=
PAUT 272055Z AUTO 11010KT 5SM BR BKN007 BKN011 OVC016 05/04 A3006
     RMK AO2 T00450042=
PAVD 272056Z 00000KT 10SM FEW090 BKN250 01/M06 A3046 RMK AO1 2047Z
     WEA: NONE TWR WND 00000KT 52003=
PAWG 272056Z 30006KT 10SM CLR 06/M03 A3038 RMK AO1 WEA:NONE (KB)
     54000=
PAWS 272056Z AUTO 32004KT 10SM CLR M02/M10 A3042 RMK AO1 57014=
PAZK 272056Z AUTO 07005KT 10SM CLR M12/M13 A3035 RMK AO1 57003=
K19A 272055Z AUTO 31007KT 10SM CLR 11/M06 A3033 RMK AO2=
K1A5 272055Z AUTO 00000KT 10SM 07/M12 A3032 RMK AO2 T00661119=
K1A9 272055Z AUTO 03005KT 10SM CLR 09/M03 A3035 RMK AO2
     T00921027=
K1II 272055Z AUTO 01006KT 10SM CLR M06/M16 A3060 RMK AO2=
K1K1 272055Z AUTO 14004KT 2SM -SN SCT021 OVC035 M09/M13 A3051 RMK
     AO2 T10891129=
K2I0 272055Z AUTO 05007KT 10SM CLR M04/M12 A3060 RMK AO2
     T10401125=
K36U 272055Z AUTO 25006KT 10SM SCT023 SCT040 BKN046 03/M06 A2972
     RMK AO2=
K3D2 272055Z AUTO 23008G15KT 10SM CLR M09/M20 A3044 RMK AO2
     T10931201=
K3I2 272055Z AUTO 00000KT 10SM CLR M03/M14 A3060 RMK AO2=
K3J7 272055Z AUTO 00000KT 10SM CLR 14/00 A3028 RMK AO2=
K40J 272055Z AUTO 04010G16KT 10SM CLR 12/05 A3028 RMK AO2
     T01160047=
K42J 272055Z AUTO 02009G15KT 10SM CLR 13/03 A3026 RMK AO1 TSNO=
K4A9 272055Z AUTO 02007KT 10SM CLR 03/M11 A3041 RMK AO2=
K4M9 272055Z AUTO 06011G16KT 10SM CLR M05/M11 A3059 RMK AO2=
K4O4 272055Z AUTO 05004KT 1 1/4SM OVC006 M02/M06 A3049 RMK AO2=
K5C1 272055Z AUTO 02007KT 3SM OVC006 00/M01 A3026 RMK AO1=
K6A2 272055Z AUTO 34003KT 10SM CLR 11/M03 A3033 RMK AO2=
K6L4 272055Z AUTO 00000KT 10SM OVC050 M06/M14 A3046 RMK AO2=
K7W4 272055Z AUTO 05003KT 10SM BKN050 OVC060 02/M09 A3044 RMK AO1
     T00151088=
K82C 272055Z AUTO 27006KT 10SM CLR M08/M19 A3051 RMK AO2
     T10851195=
K82V 272055Z AUTO 18014G20KT 5SM -SN SCT010 OVC026 M08/M13 A2995
     RMK AO2=
KAAA 272055Z AUTO 01003KT 10SM OVC027 M09/M15 A3066 RMK AO2 60001
     T10911155=
KAAT 272055Z AUTO 36003KT 10SM BKN030 OVC037 03/01 A2969 RMK AO2
     RAB19E50UPB50E52 SLP056 P0007 60007 T00280006 56009=
KAIB 272055Z AUTO 19010G14KT 10SM CLR 02/M06 A2980 RMK AO2=
KAJG 272055Z AUTO 32005KT 10SM CLR M05/M16 A3063 RMK AO2=
KANJ 272055Z AUTO 33004KT 10SM CLR M08/M18 A3040 RMK AO2 SLP311
     T10831183 56005=
KANW 272055Z AUTO 18013KT 10SM CLR M04/M20 A3024 RMK AO2
     T10451201=
KAQX 272055Z AUTO 08006KT 10SM CLR 13/01 A3033 RMK AO2=
####018003702####
SAUS99 KWBC 272058 RRA
METAR
KLWT 272054Z AUTO 29011KT 10SM CLR M08/M14 A2994 RMK AO2 SLP215
     T10831139 51003=
KMER 272050Z 35010KT 10SM SCT039 BKN046 OVC070 18/08 A2980=
KMFI 272054Z AUTO 24009KT 10SM CLR M11/M20 A3046 RMK AO2 SLP351
     T11061200 56009=
KMGN 272055Z AUTO 26008G16KT 10SM CLR M10/M16 A3046 RMK AO2
     T11051167=
KMKT 272055Z AUTO 23006KT 10SM CLR M12/M20 A3052 RMK AO1 57017=
KMML 272055Z AUTO 24007KT 10SM CLR M11/M17 A3048 RMK AO1 57020=
KMOP 272055Z AUTO 26011G16KT 10SM BKN040 M07/M16 A3050 RMK AO2
     T10751163=
KMOT 272054Z 17011KT 10SM CLR M09/M17 A3019 RMK AO2 SLP268
     T10891172 56027=
KMZH 272055Z AUTO 26007KT 10SM CLR M07/M21 A3040 RMK AO2=
KOEB 272054Z AUTO 27008KT 10SM OVC042 M08/M18 A3055 RMK AO2
     T10851177=
KOQU 272050Z 15008KT 15SM SKC M04/M11 A3035=
KOTG 272055Z AUTO 24005KT 10SM CLR M04/M20 A3048 RMK AO1 57017=
KOWA 272055Z AUTO 22005KT 10SM CLR M13/M19 A3052 RMK AO2 PWINO=
KOZW 272055Z AUTO 25007KT 10SM CLR M09/M18 A3053 RMK AO2
     T10891183=
KPLN 272054Z AUTO 24009G21KT 10SM CLR M11/M17 A3046 RMK AO2 SLP340
     T11061172 53000=
KPZQ 272054Z AUTO 28008KT 10SM CLR M08/M16 A3045 RMK AO2
     T10761161=
KRGK 272051Z AUTO 28007KT 10SM CLR M09/M19 A3053 RMK AO2=
KRKS 272054Z AUTO 21005KT 10SM FEW075 SCT095 M03/M12 A2974 RMK AO2
     SLP136 T10331117 58023=
KRNP 272054Z AUTO 25009KT 10SM CLR M08/M17 A3054 RMK AO2
     T10851170=
KRQB 272054Z AUTO 27008KT 10SM CLR M07/M17 A3048 RMK AO2
     T10741167=
KRST 272054Z 25007KT 10SM CLR M14/M19 A3051 RMK AO2 SLP371
     T11391189 56011=
KSEM 272055Z AUTO 05010KT 10SM 10/M06 A3036 RMK AO2=
KSGU 272055Z AUTO 27005KT 10SM FEW120 13/M04 A2971 RMK AO1
     57037=
KSJX 272057Z AUTO 25012G16KT 10SM CLR M11/M16 A3046 RMK AO2
     T11081164=
KSLH 272058Z AUTO 23013G19KT 10SM CLR M10/M17 A3046 RMK AO2
     T11011171=
KSMN 272055Z AUTO 36003KT 10SM FEW070 FEW095 02/M06 A2973 RMK AO1
     57027=
KTQE 272054Z AUTO 14004KT 10SM CLR M08/M16 A3054 RMK AO2 SLP361
     T10831156 56025=
KTRK 272050Z 26013G25KT 10SM SCT040 SCT047 BKN070 06/M05 A2971 RMK
     NOSPECI=
KTVF 272055Z AUTO 21011KT 10SM CLR M11/M15 A3037 RMK AO1 57017=
KUKT 272055Z AUTO 32008KT 10SM CLR M04/M15 A3043 RMK AO1=
KVLL 272055Z AUTO 25005KT 10SM SCT048 M06/M20 A3056 RMK AO2
     T10581202=
KYKN 272055Z AUTO 15009KT 10SM CLR M07/M17 A3046 RMK AO1 57030=
PFYU 272056Z 24008G15KT 220V280 10SM CLR M02/M06 A3032 RMK AO1 SCT
     CI ABV 120=
PAAK 272056Z 29020G26KT 10SM FEW017 SCT031 BKN055 03/00 A3000 RMK
     AO1 52027=
PABL 272056Z AUTO 15015G19KT 10SM BKN027 BKN033 BKN045 01/M03
     A3019 RMK AO1 57014=
PABV 272056Z AUTO 00000KT 10SM CLR M04/M06 A3045 RMK AO1 57017=
PADK 272056Z AUTO 29004KT 10SM SCT035 SCT041 02/M04 A3013 RMK AO1
     WSHFT 37 52030=
PAEM 272056Z AUTO 15018G22KT 10SM BKN009 OVC040 M01/M03 A3015 RMK
     AO1 57020=
PAFE 272056Z AUTO 20004KT 10SM CLR 06/M01 A3042 RMK AO1 52003=
PAFM 272056Z AUTO 20009KT 10SM SCT016 OVC023 M01/M02 A3026 RMK AO1
     54000=
PAGL 272056Z AUTO 16017KT 10SM OVC024 M01/M03 A3022 RMK AO1
     57014=
PAGS 272056Z AUTO 00000KT 10SM CLR 05/M03 A3044 RMK AO1 54000
     PNO=
PAHL 272056Z AUTO 17007KT 10SM OVC024 M01/M04 A3030 RMK AO1
     57007=
PAHP 272056Z AUTO 17019KT 8SM OVC005 M01/M03 A3013 RMK AO1
     57014=
PAHY 272056Z AUTO 10SM CLR 09/M07 A3031 RMK AO1 54000=
PAII 272056Z AUTO 13013KT 10SM SCT050 BKN065 OVC075 03/01 A3032
     RMK AO1 57014=
PAIN 272056Z AUTO 00000KT 10SM CLR M08/M13 A3040 RMK AO1 57014=
PAJC 272056Z AUTO 14007KT 9SM BKN013 OVC019 03/01 A3028 RMK AO1
     P0003 60005 57017=
####018000786####
SAUS99 KWBC 272058 RRC
METAR
KASN 272055Z AUTO 02008KT 10SM CLR 07/M04 A3042 RMK AO2
     T00661039=
KAST 272055Z AUTO 32005KT 1 3/4SM RA BR FEW014 OVC022 10/08 A2970
     RMK AO2 RAB08 CIG 017 RWY 08 SLP057 P0009 60009 T01000083
     58006=
KASW 272055Z AUTO 29006KT 10SM OVC036 M08/M16 A3057 RMK AO2=
KATS 272055Z AUTO 14011KT 10SM OVC014 M05/M06 A3016 RMK AO2
     P0001=
KAUN 272055Z AUTO 25004KT 10SM FEW032 16/07 A2976 RMK AO1=
KAXS 272055Z AUTO 05007KT 2SM -SN OVC007 M07/M10 A3045 RMK AO2
     T10691102=
KAZC 272055Z AUTO 24004KT 10SM OVC060 10/M04 A2974 RMK AO2
     T01011045=
KBCK 272055Z AUTO 23006KT 10SM CLR M09/M22 A3053 RMK AO2
     T10871220=
KBDN 272055Z AUTO 10003KT 8SM -RA FEW002 SCT022 SCT032 04/02 A2965
     RMK AO2 P0012=
####018002952####
SAUS20 KNKA 272056
METAR KFBR 272100Z AUTO 10006KT 10SM OVC090 M03/M07 A2976 RMK AO2 
 T10321073=
METAR KFEP 272055Z AUTO 21005KT 10SM CLR M12/M19 A3060 RMK AO2 
 T11221191=
METAR KFKR 272055Z AUTO 24006KT 10SM CLR M07/M17 A3061 RMK AO2 
 T10731171=
METAR KFKS 272051Z AUTO 25006KT 10SM OVC026 M09/M14 A3050 RMK AO2
 T10921142=
METAR KFRR 272055Z AUTO 31006KT 10SM SCT060 00/M13 A3043 RMK AO1=
METAR KFVX 272055Z AUTO 26003KT 10SM CLR 09/M11 A3039 RMK AO2 
 T00901107=
METAR KFWZ 272055Z AUTO 21004KT 10SM CLR M06/M11 RMK AO2=
METAR KFYM 272055Z AUTO 04008KT 10SM CLR 00/M11 RMK=
METAR KGCM 272055Z AUTO 04008KT 1 3/4SM -SN SCT005 M08/M11 A3057 
 RMK AO2=
METAR KGEV 272055Z AUTO 31009KT 10SM CLR M01/M13 A3029 RMK AO2 
 T10121129=
METAR KGKT 272055Z AUTO 00000KT 10SM CLR 01/M09 A3045 RMK=
METAR KHAE 272055Z AUTO 00000KT 10SM CLR M08/M22 A3063 RMK AO2=
METAR KHBI 272055Z AUTO 02004KT 10SM SCT049 06/M04 A3041 RMK AO2 
 T00561043=
METAR KHCO 272041Z AUTO 21010KT 10SM CLR M09/M16 A3036 RMK AO2=
METAR KHHF 272055Z AUTO 10009KT 7SM -SN OVC023 M07/M11 A3035 RMK 
 AO2 T10751112=
METAR KHNZ 272055Z AUTO 00000KT 10SM SCT055 05/M09 A3040 RMK AO2 
 T00501086=
METAR KHON 272055Z AUTO 15010KT 10SM CLR M08/M16 A3041 RMK AO2 
 SLP332 T10831161 56030=
METAR KHVE 272055Z AUTO 10003KT 10SM SCT050 BKN060 BKN110 08/M05 
 A2976 RMK AO2=
METAR KHZE 272055Z AUTO 18015KT 10SM CLR M06/M17 A3019 RMK AO2 =
METAR KI39 272055Z AUTO 08005KT 10SM CLR M06/M14 A3056 RMK AO2=
METAR KICL 272055Z AUTO VRB05G12KT 10SM CLR M06/M17 A3057 RMK AO2=
METAR KIDI 272055Z AUTO 28008KT 260V320 10SM CLR M08/M19 A3051 RMK 
 A01=
METAR KIFA 272055Z AUTO 00000KT 3SM HZ CLR M13/M18 A3058 RMK AO2 
 T11291183=
METAR KIGQ 272055Z AUTO 26008KT 10SM CLR M09/M19 A3060 RMK AO2 
 T10921191=
METAR KINL 272055Z AUTO 28011KT 10SM CLR M08/M22 A3031 RMK AO2 
 SLP300 T10781222 56016=
METAR KIPJ 272055Z AUTO 06003KT 10SM BKN050 09/M04 A3034 RMK AO2 
 T00901043=
METAR KIRK 272055Z AUTO 00000KT 10SM CLR M08/M16 A3058 RMK AO2 
 SLP382 T10831161 56021=
METAR KISO 272056Z 01006KT 10SM SCT080 09/M01 A3039 RMK AO2=
METAR KIXA 272055Z AUTO 34007KT 10SM CLR 07/M05 A3040 RMK AO2=
METAR KJFX 272055Z AUTO 05006KT 10SM CLR 06/M05 A3045 RMK A02 P-128
=
METAR KJNX 272055Z AUTO 36007KT 10SM SCT050 09/M02 A3038 RMK AO2=
METAR KJSV 272055Z AUTO 08005KT 3/4SM -SN OVC005 M05/M07 A3055 
 RMK AO2=
METAR KLHB 272055Z AUTO 04007KT 10SM OVC050 03/M03 A3038 RMK AO2 
 T00281027=
METAR KLHM 272055Z AUTO 17010KT 10SM CLR 18/07 A2974 RMK AO1=
METAR KLIC 272055Z AUTO 15019KT 1 1/2SM -SN BR FEW010 OVC018 M13/M15 
 A2997 RMK AO2 PK WND 15027/2031 UPB37E39SNE37B39 SLP221 P0000 
 60000 T11281150 56021=
METAR KLLJ 272055Z AUTO 00000KT 10SM OVC080 03/M07 A2968 RMK AO2 
    SLP057 T00331072 58022=
METAR KLNC 272055Z AUTO 04009KT 10SM BKN016 OVC022 M02/M05 A3043 
 RMK AO2 60001 T10181055=
####018002968####
SAUS20 KNKA 272056
METAR KRCZ 272055Z AUTO 00000KT 10SM 10/M02 A3035 RMK AO2 
 T01011019=
METAR KRNO 272055Z VRB05KT 10SM BKN050 BKN090 11/M02 A2966 RMK AO2 
 SLP024 VIRGA ALQDS VCSH SW MTN TOPS OBSCD SW-W PK WND 2831/2002 
 RAB04E20 P0000 60000 T01061022 58028=
METAR KRPD 272055Z AUTO 26006KT 10SM CLR M10/M20 A3049 RMK AO2 
 T11011197=
METAR KRSN 272055Z AUTO 03007KT 10SM OVC090 03/M06 A3049 RMK AO2 
 T00301056=
METAR KRYW 272055Z AUTO 05009KT 3SM UP OVC016 00/M02 A3030 RMK 
 AO2 T10021021=
METAR KSAA 272055Z AUTO 26003KT 10SM BKN060 M02/M10 A2975 RMK AO2=
METAR KSCD 272055Z AUTO 35004G14KT 10SM CLR 07/M05 A3040 RMK AO2 
     T00691048=
METAR KSCK 272055Z 30013KT 10SM FEW045 19/07 A2977 RMK AO2 SLP079 
 T01940067 58025=
METAR KSEP 272055Z AUTO 01006KT 2 1/2SM OVC010 M04/M06 A3039 RMK 
 AO2 T10451064=
METAR KSIF 272055Z AUTO 00000KT 10SM CLR 07/M08 A3039 RMK AO2 
 T00651084=
METAR KSJS 272055Z AUTO 07003KT 10SM OVC041 M04/M13 A3052 RMK AO2 
 T10371135=
METAR KSMS 272055Z AUTO 00000KT 10SM CLR 12/01 A3035 RMK AO2=
METAR KSNH 272055Z AUTO 05006KT 10SM CLR 03/M13 A3048 RMK=
METAR KSNL 272055Z AUTO 04004KT 1 1/2SM -SN VV007 M05/M07 A3051 
 RMK AO2=
METAR KSOW 272055Z AUTO 21023G30KT 10SM BKN090 10/M09 A2978 RMK AO2
=
METAR KSPL 272055Z AUTO 36007KT 1 1/4SM SCT065 15/13 A3014 RMK AO1 
=
METAR KSRB 272055Z AUTO VRB06KT 10SM CLR M01/M11 A3047 RMK=
METAR KSRC 272056Z AUTO 01008KT 10SM OVC100 M02/M12 A3060 RMK AO2 
    SLP370 T10221117 55003 FZRANO TSNO=
METAR KSTF 272055Z AUTO 05008KT 012V072 10SM CLR 05/M05 A3043 RMK 
     AO2=
METAR KSYI 272055Z AUTO VRB06KT 10SM CLR 01/M11 A3049 RMK=
METAR KSZT 272055Z AUTO 02010KT 10SM BKN065 OVC120 07/M05 A2984 
 RMK AO2=
METAR KTMK 272055Z AUTO 19005KT 7SM -RA SCT016 BKN023 OVC029 
 11/09 A2973 RMK AO2 P0001=
METAR KTPF 272055Z AUTO 06009KT 10SM OVC022 18/12 A3017 RMK AO2=
METAR KTTA 272055Z AUTO 00000KT 10SM CLR 08/M03 A3038 RMK AO2 
 T00801031=
METAR KTTF 272039Z AUTO 00000KT 10SM CLR M09/M18 A3057 RMK AO2=
METAR KTYQ 272055Z AUTO 30004KT 10SM CLR M09/M18 A3060 RMK AO2 
 T10891183=
METAR KUCY 272055Z AUTO 02007KT 10SM CLR M04/M11 A3056 RMK=
METAR KUGN 272055Z VRB06KT 10SM CLR M09/M20 A3057 RMK AO2 SLP381 
 T10941200 55004=
METAR KUVA 272055Z AUTO 06007KT 2 1/2SM BR OVC009 02/01 A3026 RMK 
 AO2 T00160008=
METAR KVBW 272055Z AUTO 05004KT 10SM CLR 00/M11 A3038 RMK AO2 
 T00031113=
METAR KVDI 272055Z AUTO 00000KT 10SM CLR 12/03 A3032 RMK AO2=
METAR KVJI 272055Z AUTO 29005KT 10SM BKN034 00/M09 A3039 RMK AO2 
 T00001094=
METAR KVWU 272049Z AUTO 00000KT 10SM CLR M09/M19 A3035 RMK AO2=
METAR KW31 272055Z AUTO 30005KT 10SM CLR 05/M09 A3039 RMK AO1 
 T00531095=
METAR KW43 272055Z AUTO 21011G17KT 10SM CLR M05/M13 A2992 RMK AO2=
METAR KW63 272055Z AUTO 34006KT 10SM CLR 05/M07 A3040 RMK AO1=
METAR KW81 272055Z AUTO 01005G14KT 10SM CLR 05/M05 A3040 RMK AO1 
 T00461051=
####018002971####
SAUS20 KNKA 272056
METAR KBEA 272055Z AUTO 06011G14KT 10SM OVC020 10/05 A3022 RMK 
 AO2 T00960045=
METAR KBGE 272055Z AUTO 07006KT 10SM CLR 15/05 A3030 RMK AO2=
METAR KBJC 272045Z 31005KT 10SM VCSN BKN015 BKN050 M08/M13 A2990=
METAR KBKS 272055Z AUTO 06010KT 7SM OVC018 12/07 A3018 RMK AO1 
 T01240067=
METAR KBPC 272055Z AUTO 14009KT 10SM -SN BKN023 BKN029 OVC055 
 M07/M12 A3030 RMK AO2=
METAR KBVS 272055Z AUTO 34004KT 8SM BKN036 BKN043 OVC055 08/08 
 A2983 RMK A01 P001=
METAR KBYY 272055Z AUTO 04011KT 7SM OVC017 06/03 A3029 RMK AO2 
 T00680035=
METAR KCAO 272055Z AUTO 17017KT 6SM HZ OVC017 M10/M13 A3005 RMK AO2 
 SNE40 SLP235 P0000 60002 T11001133 56022=
METAR KCEY 272055Z AUTO 02009KT 10SM CLR M03/M13 A3056 RMK AO1 =
METAR KCGC 272055Z AUTO 05009G14KT 10SM CLR 18/06 A3020 RMK AO2=
METAR KCKF 272055Z AUTO 36005KT 10SM CLR 14/01 A3031 RMK AO2 
 T01410010=
METAR KCLI 272055Z AUTO 24009KT 10SM CLR M08/M21 A3048 RMK AO2=
METAR KCLK 272055Z AUTO 7SM -SN OVC018 M07/M12 A3045 RMK AO2 TSNO=
METAR KCLW 272055Z AUTO 07007KT 10SM OVC028 17/10 A3016 RMK AO2=
METAR KCMA 272055Z 25008KT 10SM SCT026 BKN031 OVC039 17/10 A2980 RMK 
 AO2 SLP100 T01720100 58016=
METAR KCNI 272055Z AUTO 29009G15KT 10SM CLR 05/M08 A3036 RMK AO2=
METAR KCNK 272055Z AUTO 15009KT 10SM FEW090 M08/M18 A3048 RMK AO2 
 SLP352 T10781178 56025=
METAR KCVC 272055Z AUTO 01007KT 10SM CLR 12/M05 A3032 RMK AO2=
METAR KCWV 272055Z AUTO 07008KT 10SM CLR 12/03 A3033 RMK AO2=
METAR KCZT 272055Z AUTO 05005KT 2 1/2SM DZ BKN006 OVC012 02/01 
 A3026 RMK AO2=
METAR KD57 272055Z AUTO 17013G20KT 10SM CLR M06/M15 A3016 RMK AO2=
SPECI KDAL 272055Z 05010KT 2SM -SN BR SCT013 BKN018 OVC033 M02/M06 
 A3043 RMK AO2 P0000 T10221056=
METAR KDLH 272055Z 26012KT 10SM CLR M08/M21 A3035 RMK AO2 SLP318 
 T10781211 56013=
METAR KDPL 272055Z AUTO 36005KT 7SM CLR 10/M03 A3038 RMK AO2 
 T00951027=
METAR KDRI 272055Z AUTO 00000KT 10SM CLR 11/M02 A3034 RMK AO2 
 T01071025=
METAR KDUA 272055Z AUTO 05007KT 1 3/4SM -SN BKN008 BKN013 M03/M06 
 A3047 RMK AO2=
METAR KDUX 272055Z AUTO 14009KT 3SM -SN OVC010 M07/M13 A3020 RMK 
 AO2 T10751135=
METAR KDVO 272055Z AUTO 27014G20KT CLR 16/09 A2981 RMK AO2=
METAR KDZB 272055Z AUTO 04003KT 3SM UP OVC010 M01/M02 A3031 RMK 
 AO2 T10061017=
METAR KE80 272055Z AUTO 14008KT 7SM -SN OVC016 00/M04 A2991 RMK AO2
      T10041038=
METAR KEAT 272055Z AUTO 29007KT 10SM FEW022 SCT037 BKN044 07/03 
 A2982 RMK AO2 SLP103 60000 T00670028 58010=
METAR KECS 272055Z AUTO 14017G22KT 10SM BKN029 M06/M14 A2996 RMK 
     AO2=
METAR KEDE 272055Z AUTO 33005KT 10SM SCT047 08/M01 A3040 RMK AO2 
 T00791012=
METAR KEDN 272055Z AUTO 04005KT 10SM CLR 12/M01 A3029 RMK AO2=
METAR KEHO 272055Z AUTO 00000KT 10SM CLR 09/M05 A3033 RMK AO2 
 T00911048=
METAR KEHY 272055Z AUTO 10SM SCT047 M03/M11 A2970 RMK AO2=
METAR KELK 272055Z AUTO 07006KT 3SM -SN OVC016 M08/M12 A3044 RMK 
 AO2=
####018002941####
SAUS20 KNKA 272056
METAR KLOM 272055Z AUTO 31007KT 290V350 10SM CLR M01/M14 A3043 
 RMK AO1=
METAR KLUA 272055Z AUTO 32009KT 10SM CLR 02/M10 A3041 RMK AO2=
METAR KLUM 272055Z AUTO 27007KT 10SM CLR M09/M18 A3051 RMK AO2 
 T10941182=
METAR KLVL 272055Z AUTO 00000KT 10SM SCT055 06/M07 A3039 RMK AO1 
 T00571067=
METAR KMCD 272055Z AUTO 25009G17KT 10SM SCT023 M11/M16 A3045 RMK
 AO2 T11131165=
METAR KMCJ 272055Z AUTO 36008G15KT 7SM OVC018 05/00 A3030 RMK AO1 =
METAR KMCX 272055Z AUTO 28005KT 10SM CLR M10/M17 A3061 RMK AO2 
 T10991175=
METAR KMDQ 272055Z AUTO 35008KT 10SM CLR 02/M11 A3045 RMK AO2=
METAR KMFV 272055Z AUTO 33010G14KT 10SM SCT026 SCT035 OVC040 
 00/M05 A3046 RMK AO2=
METAR KMKG 272055Z 26007KT 230V290 10SM BKN034 M08/M16 A3056 RMK AO2 
 SLP366 T10781156 53001=
METAR KMKN 272055Z AUTO 03009KT 5SM BR OVC009 M05/M05 A3036 RMK 
 AO2 T10461046=
METAR KMMI 272055Z AUTO 03004KT 10SM CLR 01/M08 A3047 RMK=
METAR KMNI 272055Z AUTO 36004KT 10SM CLR 12/00 A3034 RMK AO2=
METAR KMNZ 272055Z AUTO 03006KT 2 1/2SM BR OVC006 M03/M03 A3035 
 RMK AO2 T10351035=
METAR KMQB 272055Z AUTO 33005KT 10SM CLR M12/M18 A3066 RMK AO2 
 T11211179=
METAR KMQS 272055Z AUTO 32009KT 10SM CLR M03/M12 A3043 RMK AO2=
METAR KMRC 272055Z AUTO 04008KT 01/M12 A3048 RMK=
METAR KOBE 272055Z AUTO 01009G18KT 7SM OVC008 13/12 A3017 RMK AO2 
 LTG DSNT NW=
METAR KOKV 272055Z AUTO 28011G16KT 10SM CLR 00/M16 A3044 RMK AO2=
METAR KOLE 272055Z AUTO 31008KT 10SM CLR M12/M21 A3036 RMK AO2=
METAR KONX 272055Z AUTO 04007G15KT 10SM BKN046 03/M05 A3043 RMK 
 AO2 T00321047=
METAR KOWP 272055Z AUTO 09005KT 1SM -SN OVC008 M06/M10 A3053 RMK 
 AO2 T10651105=
METAR KOXI 272055Z AUTO 26006KT 10SM M09/M27 A3060 RMK AO1=
METAR KPAN 272055Z AUTO 20009KT 10SM OVC090 13/M05 A2978 RMK AO2=
METAR KPBH 272055Z AUTO 22008KT 10SM CLR M10/M20 A3039 RMK AO2 
 T10991203=
METAR KPCM 272055Z AUTO 05009KT 10SM OVC022 A3020 RMK AO2=
METAR KPCZ 272055Z AUTO 26009KT 10SM CLR M06/M20 A3050 RMK AO2 
 T10631199=
METAR KPEZ 272055Z AUTO 01006KT 10SM OVC021 04/M02 A3028 RMK AO2 
 T00351022=
METAR KPHN 272059Z AUTO 28004KT 10SM CLR M09/M19 A3055 RMK AO2=
METAR KPHP 272055Z AUTO 16010G19KT 10SM CLR M02/M16 A3017 RMK AO2 
    SLP258 T10171161 56037=
METAR KPRO 272055Z AUTO 00000KT 10SM M11/M16 A3057 RMK AO2 
 T11131165=
METAR KPSN 272055Z AUTO 01007KT 10SM OVC080 01/M06 A3042 RMK AO2 
 T00141061=
METAR KPUJ 272055Z AUTO 35007KT 300V010 10SM CLR 07/M03 A3037 RMK 
 AO2=
METAR KPVE 272055Z AUTO 05006KT 10SM CLR 00/M17 A3049 RMK=
METAR KPVF 272055Z AUTO 23003KT 10SM SCT025 BKN030 OVC070 11/05 
     A2977 RMK AO1 =
METAR KPVJ 272055Z AUTO 05006KT 2SM -SN BKN008 BKN017 OVC032 
 M08/M10 A3048 RMK AO2 P0001 60002 T10761098=
METAR KRBW 272055Z AUTO 00000KT 10SM CLR 11/01 A3035 RMK AO2=
METAR KRCX 272055Z AUTO 26009KT 10SM CLR M09/M21 A3046 RMK AO2 
 T10931209=
####018003677####
SAUS70 KWBC 272100 RRB
METAR
KDHN 272053Z 07007KT 10SM CLR 14/M01 A3032 RMK AO2 SLP265
     T01391011 56015=
KFRG 272053Z 31008KT 10SM CLR M03/M15 A3041 RMK AO2 SLP299
     T10281150 53011=
KFSM 272053Z 10004KT 2SM R25/4500V5500FT -SN OVC016 M06/M09 A3056
     RMK AO2 SNB00 SLP353 P0001 60001 T10611089 58008=
KFST 272053Z AUTO 06010KT 2 1/2SM BR OVC005 M03/M03 A3016 RMK AO2
     SLP222 I1001 I3004 T10331033 56019=
KFTW 272053Z 01007KT 1/4SM R16/4000VP6000FT SN FZFG VV009 M03/M06
     A3042 RMK AO2 SLP306 P0000 60000 T10331056 56023=
KFTY 272053Z 01008KT 10SM CLR 08/M06 A3036 RMK AO2 SLP286
     T00781061 56007=
KFUL 272053Z VRB04KT 10SM OVC037 18/10 A2979 RMK AO2 SLP088
     T01780100 58020=
KFVE 272053Z AUTO 26012KT 10SM CLR M11/M23 A3011 RMK AO2 SLP221
     T11111228 53018=
KFWN 272053Z AUTO 28007KT 10SM CLR M04/M17 A3040 RMK AO2 SLP301
     T10391172 53010=
KFXE 272053Z AUTO 36007KT 10SM OVC011 21/18 A3010 RMK AO2 SLP195
     T02110183 56007 TSNO=
KFYV 272053Z 11005KT 1 1/2SM -SN BKN028 OVC038 M07/M13 A3051 RMK
     AO2 VIS 3/4V2 1/2 SNB40 SLP352 P0000 60000 T10721128
     58005=
KGAG 272053Z AUTO 12007KT 3SM -SN OVC023 M08/M13 A3037 RMK AO2
     SLP316 P0000 60000 T10831128 56026=
KGDB 272052Z AUTO 00000KT 7SM CLR M09/M17 A3050 RMK AO2
     T10951166=
KGEY 272053Z AUTO 00000KT 10SM CLR M03/M14 A2987 RMK AO2 SLP163
     60000 T10281144 58023=
KGEZ 272053Z AUTO 31005KT 10SM CLR M07/M17 A3059 RMK AO2 SLP375
     T10671172 55005=
KGFK 272053Z 22008KT 10SM FEW250 M08/M16 A3038 RMK AO2 SLP314
     T10831161 56018=
KGGG 272053Z 04009KT 10SM FEW032 OVC080 00/M08 A3043 RMK AO2
     SLP311 T00001078 55018=
KGGW 272053Z AUTO 00000KT 10SM CLR M07/M16 A3002 RMK AO2 SLP215
     T10671156 56016=
KGHW 272047Z AUTO 24007KT 10SM CLR M10/M18 A3044 RMK AO2=
KGIF 272053Z AUTO 04011KT 10SM OVC023 14/08 A3020 RMK AO2 SLP226
     T01440083 56010=
KGJT 272053Z 10SM SCT100 05/M05 A2976 RMK AO2 SLP074 T00501050
     58024=
KGKJ 272053Z AUTO 27007KT M12/M21 A3049 RMK AO2 SLP358 T11171206
     53008 TSNO $=
KGKY 272053Z 03008KT 1SM -SN BKN010 BKN017 OVC024 M02/M06 A3042
     RMK AO2 SLP304 P0001 60002 T10221056 56025=
KGLD 272053Z AUTO 17018G25KT 8SM -SN FEW017 OVC028 M09/M13 A3018
     RMK AO2 UPE1954SNB13E41B52 SLP275 P0000 60000 T10891128
     58018=
KGLH 272053Z AUTO 03014G19KT 10SM SCT025 01/M04 A3047 RMK AO2
     SLP328 T00111044 55022=
KGLR 272053Z AUTO 27008G17KT 10SM SCT029 M11/M17 A3040 RMK AO2
     SLP336 T11111172 53003=
KGMU 272053Z 00000KT 10SM CLR 11/M03 A3032 RMK AO2 SLP272
     T01061033 55006=
KEPH 272053Z AUTO 04012KT 10SM SCT110 11/M01 A2978 RMK AO2 SLP089
     T01061011 58012=
KEQY 272053Z AUTO 05008KT 10SM BKN050 10/M02 A3034 RMK AO2 SLP291
     T01001022 55006=
KESF 272053Z AUTO VRB06KT 10SM CLR 08/M03 A3038 RMK AO2 SLP287
     T00831028 56020=
KEST 272052Z AUTO 22007KT 10SM CLR M12/M18 A3050 RMK AO2 SLP366
     T11221178 56014=
KEVM 272051Z AUTO 24006KT 10SM CLR M08/M21 A3034 RMK AO2=
KEVW 272053Z AUTO 20010KT 10SM FEW029 FEW060 OVC085 M02/M07 A2971
     RMK AO2 SLP088 T10171067 58019=
KEWB 272053Z 28005KT 10SM CLR M02/M16 A3035 RMK AO2 SLP277 60000
     T10221161 53012=
KEYE 272053Z AUTO 33006KT 10SM CLR M09/M19 A3059 RMK AO2 SLP377
     T10941189 55004=
KEYW 272053Z 01011KT 10SM OVC009 23/20 A3006 RMK AO2 SLP179
     T02280200 58015=
KFAY 272053Z AUTO 34006KT 10SM CLR 11/M03 A3036 RMK AO2 SLP276
     T01111028 55004=
KFBL 272054Z AUTO 22005KT 10SM CLR M11/M18 A3052 RMK AO2=
KFCM 272053Z 22010KT 10SM CLR M11/M18 A3051 RMK AO2 SLP355
     T11061183 56016=
####018003690####
SAUS70 KWBC 272100
METAR
KBOI 272053Z 15012KT 10SM CLR 11/M02 A2968 RMK AO2 SLP051
     T01061017 58029=
KBPI 272053Z AUTO 10003KT 10SM SCT042 BKN070 M06/M13 A2974 RMK AO2
     SLP115 T10561128 58022=
KBPK 272053Z AUTO 02003KT 10SM OVC065 M06/M17 A3055 RMK AO2 SLP359
     T10561172 55008=
KBPT 272053Z 07009KT 10SM CLR 11/00 A3032 RMK AO2 SLP265 T01110000
     56026=
KBRD 272053Z AUTO 23011KT 10SM CLR M08/M20 A3041 RMK AO2 SLP330
     T10831200 56018=
KBTL 272053Z 28008KT 10SM OVC040 M08/M16 A3054 RMK AO2 SLP365
     T10781161 55002=
KBTM 272053Z AUTO 11010KT 10SM OVC048 M01/M12 A2976 RMK AO2 SLP131
     T10061117 58015=
KBUR 272053Z VRB03KT 10SM BKN033 OVC046 16/09 A2979 RMK AO2 SLP080
     T01610089 58022=
KBVO 272053Z AUTO 06008KT 1SM -SN VV016 M07/M11 A3056 RMK AO2
     SNB12 SLP358 P0000 60000 T10721111 56028=
KBVY 272053Z 32004KT 10SM CLR M03/M22 A3034 RMK AO2 SLP274
     T10331217 53007=
KBWG 272053Z AUTO VRB04KT 10SM CLR M02/M14 A3056 RMK AO2 SLP355
     T10171144 56011=
KBYG 272053Z AUTO 17009KT 10SM CLR M07/M15 A2982 RMK AO2 SLP167
     T10721150 58015=
KBYI 272053Z AUTO VRB04KT 10SM FEW027 BKN085 07/M02 A2970 RMK AO2
     SLP059 T00671017 58023=
KCAG 272053Z AUTO VRB04KT 10SM CLR 00/M08 A2978 RMK AO2 SLP124
     T00001083 58024=
KCCR 272053Z 26013G18KT 10SM FEW045 18/07 A2979 RMK AO2 SLP074
     T01780072 58023=
KCDC 272053Z AUTO 24004KT 10SM CLR 06/M07 A2970 RMK AO2 SLP050
     T00561067 58025=
KCDS 272053Z AUTO 09006KT 2SM -SN SCT014 BKN022 OVC027 M08/M11
     A3038 RMK AO2 SLP312 P0000 60001 T10781111 58020=
KCDW 272053Z AUTO 33009KT 10SM CLR M02/M17 A3041 RMK AO2 SLP306
     60000 T10221167 53008 TSNO=
KCEW 272053Z AUTO VRB05KT 10SM CLR 14/M01 A3030 RMK AO2 SLP259
     T01441006 56018=
KCEZ 272053Z AUTO 23003KT 4SM -SN BR SCT012 OVC036 00/M01 A2980
     RMK AO2 SLP090 P0000 60000 T00001011 58021=
KCGI 272053Z 05007KT 10SM CLR M05/M14 A3060 RMK AO2 SLP369
     T10501139 58010=
KCHO 272053Z 19006KT 10SM BKN065 03/M11 A3040 RMK AO2 SLP297
     T00281106 53007=
KCKB 272053Z 29006KT 10SM BKN075 M06/M17 A3051 RMK AO2 UPE1955
     SLP346 P0000 60000 T10611167 53008=
KCLM 272053Z AUTO 07007KT 7SM -RA SCT007 BKN015 OVC023 08/06 A2982
     RMK AO2 SLP097 P0002 60012 T00780061 51006=
KCMI 272053Z 26006KT 10SM CLR M11/M17 A3061 RMK AO2 SLP385
     T11061172 56008=
KCNM 272053Z AUTO 13009KT 10SM OVC013 M04/M08 A3016 RMK AO2 SLP224
     T10391078 56027=
KASE 272053Z 36006KT 3SM -SN BKN022 BKN028 OVC035 M03/M08 A2970
     RMK AO2 SLP058 P0000 60000 T10331078 58017=
KASX 272053Z AUTO 22010G14KT 10SM CLR M08/M21 A3043 RMK AO2 SLP326
     T10781206 56014=
KATY 272053Z AUTO 19007KT 10SM CLR M12/M18 A3039 RMK AO2 SLP339
     T11171178 56023=
KAUG 272053Z AUTO 29007KT 10SM CLR M06/M23 A3029 RMK AO2 SLP265
     T10561228 53005=
KAUS 272053Z 02012KT 10SM OVC023 02/M04 A3032 RMK AO2 SLP275
     T00221039 56026=
KAWM 272053Z AUTO 03011KT 10SM FEW037 00/M06 A3051 RMK AO2 SLP335
     T00001061 56025=
KAXN 272053Z AUTO 22006KT 10SM CLR A3042 RMK AO2 SLPNO 58016 $=
KAXV 272050Z AUTO 28006KT 10SM SCT044 M07/M17 A3059 RMK AO2=
KAZO 272053Z 26012KT 10SM BKN042 M08/M16 A3055 RMK AO2 SLP368
     T10831161 55002=
KBBB 272054Z AUTO 25003KT 10SM CLR M09/M19 A3047 RMK AO2=
KBBP 272055Z AUTO 34004KT 10SM CLR 12/M02 A3035 RMK AO2=
KBBW 272053Z AUTO 18009G21KT 10SM CLR M05/M19 A3029 RMK AO2 SLP311
     T10501189 56032=
KBCE 272053Z AUTO 14007KT 10SM OVC060 M01/M07 A2971 RMK AO2 SLP063
     T10061067 58023=
KBDE 272053Z AUTO 27010KT 10SM CLR M08/M21 A3030 RMK AO2 SLP293
     T10781206 56013 TSNO=
####018003718####
SAUS70 KWBC 272100 RRD
METAR
KBYS 272055Z AUTO 28012KT 10SM CLR 18/02 A2965 RMK AO2 SLP035
     T01780018 58033 $=
KEFD 272050Z 36009KT 7SM OVC020 06/01 A3035=
KIWA 272047Z 24007G16KT 45SM SCT250 23/M02 A2970=
KGNV 272053Z 04009KT 10SM CLR 14/04 A3025 RMK AO2 SLP243 T01440044
     56014=
KGOK 272053Z AUTO 10007KT 2SM -SN SCT019 BKN038 OVC070 M07/M12
     A3050 RMK AO2 SLP348 P0000 60000 T10721117 56018=
KGPT 272053Z 02007KT 340V060 10SM CLR 13/M01 A3029 RMK AO2 SLP255
     T01281011 56026=
KGRB 272053Z AUTO 24012KT 10SM CLR M08/M17 A3049 RMK AO2 SLP342
     T10781172 56010=
KGSH 272053Z AUTO 24007KT 10SM BKN033 M09/M16 A3057 RMK AO2 SLP375
     T10891161 56003 $=
KGSP 272053Z 05005KT 10SM CLR 12/M03 A3031 RMK AO2 SLP264
     T01171033 55007=
KGTF 272053Z 34009KT 8SM OVC019 M08/M12 A3000 RMK AO2 SNE53 SLP232
     P0000 60000 T10781117 50001=
KGUP 272053Z AUTO 26008KT 7SM -SN FEW009 BKN040 OVC060 02/M01
     A2979 RMK AO2 SNE24B45 SLP094 P0000 60002 T00221006 58019=
KGUY 272053Z AUTO 14010KT 4SM -SN OVC024 M09/M13 A3025 RMK AO2
     SLP278 P0000 60001 T10891133 58027=
KGVL 272053Z AUTO 26010KT 10SM CLR 08/M10 A3034 RMK AO2 SLP278
     T00831100 55007=
KGWO 272053Z AUTO A3044 RMK AO2 SLPNO 57030 PWINO=
KGYL 272054Z AUTO 25005KT 10SM CLR M10/M16 A3050 RMK AO2
     T11031161=
KGZH 272053Z AUTO 04006G18KT 10SM CLR 13/M02 A3032 RMK AO2 SLP266
     T01281017 56022=
KHAO 272053Z AUTO 31007KT 10SM CLR M07/M17 A3062 RMK AO2 SLP380
     T10721167 55003=
KHBG 272053Z AUTO 01008KT 10SM CLR 09/M01 A3035 RMK AO2 SLP277
     T00941011 56033=
KHBR 272053Z AUTO 08012KT 6SM HZ OVC040 M08/M11 A3043 RMK AO2
     SLP326 60000 T10781111 56014=
KHCD 272053Z AUTO 21006KT 10SM CLR M10/M17 A3050 RMK AO2
     T11021175=
KHEI 272053Z AUTO 17015G22KT 10SM CLR M04/M16 A3008 RMK AO2 SLP240
     T10391156 56032=
KHFD 272053Z 27007KT 10SM CLR M03/M19 A3038 RMK AO2 SLP288 60000
     T10281194 53006=
KHGR 272053Z AUTO 33010KT 10SM FEW050 M02/M14 A3045 RMK AO2 SLP331
     T10171144 53010=
KHHR 272053Z 20007KT 10SM BKN023 BKN031 OVC045 18/12 A2981 RMK AO2
     SLP093 T01780117 58020=
KHIB 272053Z AUTO 27008KT 10SM CLR M07/M23 A3034 RMK AO2 SLP314
     60000 T10721228 56016=
KHIO 272053Z 04003KT 10SM BKN027 OVC042 11/06 A2971 RMK AO2 SLP061
     T01060061 58008=
KHJO 272053Z AUTO 29005KT 7SM SCT075 19/07 A2979 RMK AO2 SLP090
     T01940072 58024=
KHKA 272053Z AUTO 02010KT 10SM FEW028 M03/M08 A3058 RMK AO2 SLP358
     T10281083 55018=
KHKS 272053Z VRB06KT 10SM CLR 07/M04 A3037 RMK AO2 SLP281 60000
     T00721044 56033=
KHKY 272053Z AUTO 00000KT 10SM CLR 09/M07 A3032 RMK AO2 SLP265
     T00891067 55005=
KHLG 272053Z 26012KT 10SM CLR M08/M19 A3052 RMK AO2 SLP363
     T10831194 53005=
KHLN 272053Z 35015KT 10SM SCT029 M04/M12 A2994 RMK AO2 SLP212
     T10391117 58012=
KJEF 272053Z AUTO 33003KT 10SM CLR M05/M19 A3060 RMK AO2 SLP361
     T10501189 56027=
KJER 272053Z AUTO 12005KT 10SM BKN035 OVC095 07/M03 A2971 RMK AO2
     SLP069 T00671028 58023=
KJKJ 272051Z AUTO 24006KT 10SM CLR M08/M22 A3043 RMK AO2=
KJKL 272053Z AUTO 31003KT 10SM CLR M03/M16 A3050 RMK AO2 SLP347
     T10331161 55001=
KJMR 272055Z AUTO 22009KT 10SM CLR M08/M18 A3047 RMK AO2=
KLAA 272053Z AUTO 16016G24KT 3SM -SN BKN018 OVC030 M08/M13 A3012
     RMK AO2 SLP245 P0000 60000 T10831128 58020=
KLAR 272053Z AUTO 00000KT 10SM CLR M06/M14 A2973 RMK AO2 SLP135
     T10561139 58015 $=
KLAW 272053Z 07010KT 8SM FEW017 BKN041 OVC048 M07/M11 A3046 RMK
     AO2 SNE06 SLP330 P0000 60001 T10721111 56018=
KLBF 272053Z AUTO 16011KT 10SM CLR M04/M17 A3024 RMK AO2 SLP295
     T10441172 56033=
####018003654####
SAUS80 KWBC 272100
METAR
KBTR 272053Z 06007KT 10SM CLR 11/01 A3033 RMK AO2 SLP269 T01110006
     56023=
KCDR 272053Z AUTO 19019G28KT 10SM OVC037 M04/M12 A3006 RMK AO2 PK
     WND 18028/2050 SLP254 T10441122 58029=
KCHA 272053Z 01007KT 10SM FEW250 04/M08 A3045 RMK AO2 SLP314
     T00441083 56011=
KCLL 272053Z 04011KT 10SM OVC032 06/M03 A3034 RMK AO2 SLP276
     T00561028 56025=
KBFF 272053Z AUTO 17020KT 6SM -SN SCT030 OVC037 M05/M13 A3002 RMK
     AO2 PK WND 16026/2010 SNB18E27B45 SLP222 P0000 60000
     T10501128 58028=
KNAK 272054Z AUTO 32009KT 10SM CLR M01/M11 A3048 RMK AO2 SLP324
     T10111111 53017=
KMTP 272054Z AUTO 25007KT M03/M12 A3039 RMK AO1 SLP291 T10281122
     53013=
KCNY 272053Z AUTO 00000KT 10SM OVC065 07/M05 A2974 RMK AO2 SLP070
     T00671050 58027=
KCRQ 272053Z 20012KT 10SM FEW022 BKN027 OVC033 17/11 A2981 RMK AO2
     SLP092 T01720106 58012=
KCUT 272053Z AUTO VRB06KT 2SM -SN OVC015 M12/M16 A2988 RMK AO2
     SLP232 P0000 60000 T11171156 58019=
KDAB 272053Z 36013G21KT 9SM OVC014 12/09 A3024 RMK AO2 SLP240
     T01220089 55007=
KDAL 272053Z 07009KT 2SM -SN BR BKN013 OVC042 M02/M06 A3043 RMK
     AO2 SLP308 P0000 60008 T10221056 56027=
KDBQ 272053Z AUTO 27006KT 10SM CLR M13/M21 A3056 RMK AO2 SLP382
     T11281206 56009=
KGCC 272053Z AUTO 17015KT 10SM CLR M06/M12 A2987 RMK AO2 PK WND
     15027/1955 SLP181 T10561122 57022 TSNO=
KGEG 272053Z 06010KT 10SM SCT050 SCT120 BKN200 08/M03 A2977 RMK
     AO2 SLP093 T00831033 58013=
KFAR 272053Z 22011KT 10SM CLR M09/M18 A3043 RMK AO2 SLP328
     T10891178 58020=
KFAT 272053Z 30007KT 10SM SCT037 BKN085 17/08 A2979 RMK AO2 SLP087
     T01720078 58024=
KFMN 272053Z 11008KT 3/4SM -SN BR BKN006 OVC015 00/M01 A2980 RMK
     AO2 SLP106 P0002 60009 T00001011 58021=
KFNT 272053Z 26010KT 10SM FEW037 M08/M17 A3054 RMK AO2 SLP362
     T10781167 55002=
KDMN 272053Z AUTO VRB06G14KT 10SM CLR 11/M03 A2987 RMK AO2 SLP095
     T01111033 58030=
KDRT 272053Z AUTO 08006KT 10SM OVC017 03/M01 A3024 RMK AO2 SLP241
     T00331006 58025=
KELY 272053Z AUTO 20004KT 10SM OVC075 05/M11 A2966 RMK AO2 SLP046
     T00501111 58030=
KEMP 272053Z AUTO VRB04KT 10SM OVC075 M08/M18 A3052 RMK AO2 SLP362
     T10781178 55025=
KGRR 272053Z 26008KT 2SM R26L/5500VP6000FT -SN FEW012 BKN018
     BKN031 M08/M12 A3054 RMK AO2 SNB06 SLP362 P0000 60000
     T10831122 55004=
KJLN 272053Z 04005KT 10SM OVC080 M06/M17 A3054 RMK AO2 SLP356
     T10611172 56020=
KLAN 272053Z 28011KT 10SM SCT039 M08/M17 A3054 RMK AO2 SLP364
     60000 T10781172 55001=
KLAX 272053Z 20009KT 10SM FEW020 BKN035 BKN044 17/12 A2980 RMK AO2
     SLP092 T01670122 58020=
KLBB 272053Z 09008KT 2SM -SN FEW000 OVC014 M08/M12 A3022 RMK AO2
     SLP266 SN FEW000 P0000 60000 T10831117 56015=
KLIT 272053Z 35008KT 10SM BKN090 OVC150 M01/M15 A3058 RMK AO2
     SLP360 T10061150 55006=
KLND 272053Z AUTO 00000KT 10SM FEW013 M11/M14 A2980 RMK AO2 SLP179
     T11111144 58022=
KHSI 272053Z AUTO 15007KT 10SM FEW110 M06/M21 A3039 RMK AO2 SLP332
     T10611206 56031=
KHSV 272053Z 01008KT 10SM CLR 02/M08 A3046 RMK AO2 SLP317
     T00221078 56017=
KHTL 272053Z AUTO 24006KT 10SM FEW040 M09/M17 A3044 RMK AO2 SLP340
     T10891172 55003=
KHVR 272053Z AUTO 27009KT 10SM BKN029 M05/M13 A3004 RMK AO2 SLP223
     60000 T10501128 57008=
KIKW 272053Z AUTO 25010KT 10SM SCT039 M07/M16 A3051 RMK AO2
     T10701161=
KJBR 272053Z AUTO 05010KT 10SM FEW024 FEW110 M04/M09 A3057 RMK AO2
     SLP356 T10441089 55012=
KLWD 272053Z AUTO 00000KT 10SM CLR M11/M18 A3056 RMK AO2 SLP377
     T11111178 58020=
####018003665####
SAUS70 KWBC 272100 RRF
METAR
KLOZ 272053Z AUTO 05007KT 10SM CLR M03/M14 A3050 RMK AO2 SLP344
     T10281144 55006=
KLPR 272053Z AUTO 24005KT 10SM FEW038 M11/M18 A3058 RMK AO2 SLP377
     T11061183 53004 TSNO=
KLSE 272053Z 34005KT 10SM CLR M08/M20 A3056 RMK AO2 SLP375
     T10831200 58015=
KLUK 272053Z 02004KT 10SM FEW050 M06/M17 A3062 RMK AO2 UPB1958E07
     SLP378 P0000 60000 T10561172 55003=
KLVJ 272053Z AUTO 03010KT 8SM OVC020 06/01 A3035 RMK AO2 SLP276
     T00610006 56017=
KLVK 272053Z 24015G22KT 10SM SCT032 17/08 A2980 RMK AO2 SLP090
     T01720083 58021=
KLVM 272053Z AUTO 32003KT 10SM OVC070 M02/M12 A2983 RMK AO2 SLP158
     T10221117 58011=
KLVS 272053Z AUTO 18018KT 3/4SM -SN BR OVC006 M12/M14 A2989 RMK
     AO2 UPB1954E08SNE1954B08 SLP180 P0000 60000 T11171139
     57023=
KLWV 272053Z AUTO 36008KT 10SM CLR M06/M16 A3064 RMK AO2 SNE1958
     SLP382 P0000 60000 T10611161 56011=
KLXL 272054Z AUTO 22007KT 10SM CLR M08/M21 A3044 RMK AO2=
KLXT 272053Z AUTO 03004KT 10SM BKN090 M08/M18 A3056 RMK AO2 SLP368
     T10781178 56026=
KMAE 272053Z AUTO 30009KT 10SM FEW040 SCT065 18/07 A2980 RMK AO2
     SLP089 T01830067 58022=
KMAF 272053Z 07013KT 3SM BR OVC010 M06/M08 A3022 RMK AO2 SLP252
     60000 T10611083 58020 $=
KMAI 272053Z AUTO 05011KT 10SM CLR 14/02 A3028 RMK AO2 RAB08E45
     SLP255 P0000 60000 T01390017 56018=
KMBS 272053Z 23015KT 10SM CLR M08/M17 A3053 RMK AO2 SLP354
     T10831167 55004=
KMCB 272053Z AUTO 05008KT 360V090 10SM CLR 09/M02 A3033 RMK AO2
     SLP272 T00891022 56027=
KMCE 272053Z AUTO VRB04KT 10SM FEW041 SCT049 OVC065 18/08 A2979
     RMK AO2 SLP088 T01830078 58024=
KMCI 272053Z VRB04KT 10SM OVC200 M08/M18 A3055 RMK AO2 SLP366
     T10831178 56027=
KMCK 272053Z AUTO 16010G20KT 10SM BKN040 OVC060 M05/M16 A3029 RMK
     AO2 SLP302 T10501156 56031=
KMCO 272053Z 01011KT 10SM SCT019 OVC026 13/10 A3021 RMK AO2 SLP228
     60000 T01330100 56009=
KMCW 272053Z AUTO 27004KT 10SM CLR M14/M18 A3055 RMK AO2 SLP377
     T11391183 56011=
KMDS 272050Z AUTO 18009KT 10SM CLR M10/M16 A3041 RMK AO2=
KMDW 272053Z 26009KT 230V310 10SM CLR M08/M19 A3060 RMK AO2 SLP385
     T10831189 56006=
KMFE 272053Z 02007KT 10SM OVC030 17/09 A3016 RMK AO2 SLP211
     T01670089 56029=
KMFR 272053Z 23005G16KT 10SM -RA FEW041 SCT050 BKN070 09/05 A2977
     RMK AO2 RAE1955B34 SLP081 P0000 60000 T00890050 58014=
KMGG 272055Z AUTO 24004KT 10SM CLR M09/M17 A3049 RMK AO2
     T10881174=
KMGW 272053Z 30005KT 10SM CLR M06/M18 A3050 RMK AO2 SLP351
     T10561183 53002=
KMGY 272053Z AUTO 29003KT 10SM SCT042 M07/M17 A3057 RMK AO2 SLP369
     60000 T10721172 55001=
KMHT 272053Z VRB06KT 10SM CLR M04/M21 A3033 RMK AO2 SLP292
     T10391206 53007=
KMIA 272053Z 36009KT 10SM FEW029 FEW110 FEW250 25/18 A3008 RMK AO2
     SLP187 T02500178 56010=
KMIC 272053Z 21007KT 10SM CLR M09/M17 A3050 RMK AO2 SLP349
     T10891172 56016=
KMIE 272053Z 00000KT 10SM CLR M09/M18 A3058 RMK AO2 SLP373
     T10891178 55002=
KMIW 272053Z AUTO 24004KT 10SM CLR M14/M19 A3058 RMK AO2 SLP386
     T11441189 56012=
KMJQ 272053Z AUTO 25008KT 10SM CLR M11/M17 A3048 RMK AO2=
KMKL 272053Z 02007G16KT 10SM CLR 01/M11 A3050 RMK AO2 SLP334
     T00111111 56020=
KMKO 272053Z AUTO 07007KT 1 1/2SM -SN BKN023 BKN027 OVC033 M06/M11
     A3055 RMK AO2 SNB05 SLP353 P0000 60000 T10611106 58023=
KMLB 272053Z AUTO 35015G22KT 4SM VCTS -RA BR OVC008 13/12 A3018
     RMK AO2 CIG 007V011 SLP217 P0006 60007 T01280122 56007=
KMLC 272053Z AUTO 05005KT 3/4SM -SN SCT012 OVC017 M06/M09 A3050
     RMK AO2 SLP336 P0001 60004 T10561089 58028=
####018003692####
SAUS70 KWBC 272100 RRA
METAR
KBEH 272053Z AUTO 22012KT 10SM CLR M09/M16 A3059 RMK AO2 SLP375
     T10941161 53002=
KBFD 272053Z AUTO 33012KT 10SM CLR M12/M21 A3037 RMK AO2 SLP331
     60000 T11171211 53015=
KBFI 272053Z 02005KT 10SM OVC075 12/06 A2976 RMK AO2 SLP078 60000
     T01170061 50002=
KBFM 272053Z 36011KT 10SM CLR 13/01 A3030 RMK AO2 SLP260 T01330006
     56027=
KBGM 272053Z 36011KT 10SM CLR M10/M19 A3036 RMK AO2 SLP317 60000
     T11001189 53015=
KBGR 272053Z 27005KT 10SM CLR M06/M22 A3028 RMK AO2 SLP259
     T10611222 52004=
KBHM 272053Z 03007KT 10SM CLR 06/M07 A3043 RMK AO2 SLP310
     T00561072 55015=
KBIV 272053Z AUTO 26008KT 10SM OVC035 M07/M15 A3056 RMK AO2 SLP368
     60000 T10721150 55002 $=
KBJI 272052Z AUTO 26007KT 10SM CLR M09/M20 A3036 RMK AO2
     T10911205=
KBKE 272053Z AUTO 08009KT 10SM OVC024 06/01 A2968 RMK AO2
     RAB1956E38 SLP063 P0000 60001 T00560011 58019 TSNO=
KBKL 272053Z 26005KT 10SM BKN030 M10/M16 A3059 RMK AO2 SLP373
     T11001161 53003=
KBKV 272053Z AUTO 05009KT 10SM OVC028 17/08 A3019 RMK AO2 SLP222
     T01720083 56016=
KBLI 272053Z 02009G16KT 10SM -RA OVC070 11/02 A2981 RMK AO2 SLP103
     P0000 60001 T01060022 50005=
KBMG 272053Z AUTO 05006KT 10SM SCT046 M06/M18 A3057 RMK AO2 SLP371
     60000 T10611178 55007=
KBMQ 272053Z AUTO 03009KT 2 1/2SM BR BKN012 OVC016 M02/M03 A3032
     RMK AO2 SLP274 I1000 I3000 T10171033 56016=
KBNA 272053Z 03008KT 10SM SCT250 01/M12 A3054 RMK AO2 SLP347
     T00061122 55010=
KCNO 272053Z 31006KT 10SM BKN034 OVC045 17/09 A2981 RMK AO2 SLP091
     T01720094 58023=
KCOT 272053Z AUTO 02009KT 6SM BR FEW009 OVC015 03/01 A3026 RMK AO2
     SLP246 60001 T00330011 58024=
KCPR 272053Z 21012KT 10SM CLR M04/M13 A2981 RMK AO2 SLP160
     T10391128 58025=
KCRE 272053Z 02005KT 10SM CLR 11/M01 A3035 RMK AO1 SLP279
     T01111011 56005=
KCRG 272053Z 03013G18KT 10SM FEW019 11/05 A3030 RMK AO2 SLP259
     T01060050 55005=
KCRS 272053Z AUTO 07010KT 10SM SCT060 OVC085 01/M07 A3040 RMK AO2
     SLP296 60000 T00111067 58025=
KCSM 272053Z 07010KT 2 1/2SM -SN OVC016 M08/M12 A3042 RMK AO2
     SLP326 P0000 60000 T10781122 56018=
KCSV 272053Z AUTO 03009KT 10SM CLR M02/M13 A3042 RMK AO2 SLP322
     T10171133 55005=
KCUB 272053Z AUTO VRB03KT 10SM CLR 13/M01 A3034 RMK AO2 SLP274
     T01281006 55014=
KCVH 272050Z AUTO 30003KT 10SM SCT028 BKN048 OVC050 17/11 A2983
     RMK AO1=
KCXO 272053Z 03005KT 10SM SCT038 OVC100 08/M02 A3034 RMK AO2
     SLP275 T00831022 58017=
KCYS 272053Z 19015KT 4SM -SN OVC016 M11/M15 A2985 RMK AO2 SNB50
     SLP203 P0000 60000 T11111150 58019=
KD39 272052Z AUTO 23008KT 10SM CLR M10/M19 A3044 RMK AO2
     T10971190=
KD95 272052Z AUTO 27008G11KT 10SM SCT038 M09/M18 A3053 RMK AO2
     T10881181=
KDAN 272053Z AUTO 33005KT 10SM CLR 05/M08 A3040 RMK AO2 SLP294
     T00501078 53002=
KDCU 272053Z AUTO 10SM CLR 01/M08 A3047 RMK AO2 SLP324 T00111078
     56017=
KDEN 272053Z 16003KT 10SM FEW060 FEW110 M08/M15 A2990 RMK AO2
     SLP189 T10831150 58022=
KDEQ 272053Z AUTO 08008KT 8SM BKN041 OVC055 M01/M11 A3049 RMK AO2
     SLP327 T10061106 58018=
KDET 272053Z 24007KT 10SM CLR M07/M20 A3055 RMK AO2 SLPNO
     T10671200 55000=
KDEW 272053Z AUTO 05012G20KT 10SM FEW050 08/M04 A2980 RMK AO2
     SLP105 T00831039 58010=
KDFI 272053Z AUTO 23005KT 10SM CLR M08/M18 A3059 RMK AO2 SLP378
     T10781183 55002=
KDFW 272053Z 04007KT 1/2SM R17C/3000V6000FT SN BKN010 OVC015
     M03/M05 A3042 RMK AO2 SLP307 P0002 60007 T10331050 55024
     $=
KDGW 272053Z AUTO 15013KT 10SM CLR M06/M12 A2986 RMK AO2 SLP181
     T10561122 58025=
####018003710####
SAUS70 KWBC 272100 RRG
METAR
KMLP 272053Z AUTO VRB03KT 10SM SCT027 BKN033 M04/M09 A2972 RMK AO2
     SLP107 60000 T10391089 56005=
KMLS 272053Z AUTO 18009KT 10SM CLR M04/M13 A2999 RMK AO2 SLP204
     T10441128 58023=
KMLT 272053Z AUTO 29008G18KT 10SM CLR M07/M22 A3025 RMK AO2 SLP257
     T10721222 53010=
KMMK 272053Z AUTO 32009KT 10SM CLR M03/M18 A3038 RMK AO2 SLP291
     T10281183 53009 TSNO=
KMMV 272053Z AUTO 20007KT 10SM SCT027 BKN033 BKN055 12/06 A2972
     RMK AO2 RAE1956 SLP065 P0000 60000 T01220061 56011=
KMNN 272053Z AUTO 26006KT 10SM CLR M10/M19 A3058 RMK AO2 SLP378
     T11001189 53003 TSNO=
KMOD 272053Z 27012KT 10SM BKN044 BKN065 19/06 A2978 RMK AO2 WSHFT
     2015 SLP083 T01890061 58027=
KMOX 272053Z AUTO 20006KT 10SM CLR M09/M17 A3044 RMK AO2=
KMPO 272053Z AUTO A3030 RMK AO2 SLPNO PWINO FZRANO=
KMQJ 272055Z AUTO 27004KT 10SM CLR M07/M26 A3059 RMK AO1=
KMRB 272053Z 34012G17KT 10SM CLR 00/M14 A3046 RMK AO2 SLP320
     T00001139 53006=
KMSL 272053Z AUTO VRB03KT 10SM CLR 03/M09 A3048 RMK AO2 SLP325
     T00281094 56016=
KMSP 272053Z 21007KT 10SM CLR M09/M18 A3051 RMK AO2 SLP354
     T10941183 56017=
KMSS 272053Z AUTO 24011KT 10SM CLR M09/M22 A3044 RMK AO2 SLP318
     T10941217 53004=
KMSY 272053Z 01010KT 10SM FEW250 11/01 A3032 RMK AO2 SLP268
     T01060011 56021=
KMTH 272053Z AUTO 35005KT 10SM CLR 25/22 A3006 RMK AO2 SLP177
     T02500217 57013=
KMTJ 272053Z AUTO 33010KT 10SM BKN009 OVC090 00/M03 A2978 RMK AO2
     CIG 007V011 SLP085 T00001028 58018=
KMVE 272054Z AUTO 24005KT 10SM CLR M06/M15 A3049 RMK AO2=
KMVY 272053Z 26006KT 10SM CLR M03/M17 A3036 RMK AO2 SLP281
     T10331167 53012=
KMWL 272053Z AUTO 03009KT 3/4SM -SN BR FEW009 BKN025 OVC044
     M05/M07 A3040 RMK AO2 SLP303 P0000 60001 T10501072 56012=
KMWM 272053Z AUTO 25005KT 10SM CLR M11/M17 A3047 RMK AO2=
KMYF 272053Z 18013KT 10SM BKN031 17/11 A2983 RMK AO2 SLP098
     T01720106 58014=
KMYV 272053Z AUTO 15009KT 10SM CLR 18/08 A2975 RMK AO2 SLP077
     T01780083 58026=
KN03 272055Z AUTO 28005KT 10SM CLR M10/M17 A3043 RMK AO2=
KNEW 272053Z 31007KT 10SM CLR 12/01 A3032 RMK AO2 SLP259 T01170011
     56022=
KOAK 272053Z 28021KT 10SM FEW028 SCT140 17/08 A2983 RMK AO2 PK WND
     27027/2037 SLP100 T01670078 58021=
KODO 272053Z AUTO 08010KT 8SM OVC009 M06/M08 A3022 RMK AO2 SLP251
     60000 T10611083 58016=
KOGB 272053Z AUTO 21003KT 10SM CLR 12/00 A3033 RMK AO2 SLP272
     T01170000 55014=
KOGD 272053Z 21007KT 10SM SCT040 OVC080 06/M04 A2973 RMK AO2
     SLP068 T00561039 58023=
KOJC 272053Z 08004KT 10SM FEW085 M08/M19 A3053 RMK AO2 SLP360
     T10781189 56028=
KOLF 272053Z AUTO 18010KT 10SM CLR M03/M13 A3004 RMK AO2 SLP214
     T10281133 56028=
KOMK 272053Z AUTO 01017G25KT 10SM FEW060 OVC085 06/00 A2986 RMK
     AO2 SLP119 T00610000 56003=
KONA 272056Z AUTO 24004KT 10SM CLR M10/M18 A3057 RMK AO2=
KONO 272053Z AUTO 11006KT 10SM SCT042 BKN050 BKN065 12/01 A2970
     RMK AO2 SLP064 T01220011 58028=
KONT 272053Z 28006KT 10SM OVC039 16/08 A2980 RMK AO2 SLP087
     T01560078 58022=
KONZ 272054Z AUTO 20010KT 10SM CLR M09/M19 A3056 RMK AO2=
KOPF 272053Z 36011KT 10SM CLR 24/18 A3009 RMK AO2 SLP191 T02390178
     56008=
KORL 272053Z 02008KT 6SM HZ BKN021 OVC032 13/09 A3021 RMK AO2
     SLP235 T01330089 56010=
KOSC 272053Z AUTO 24006G09KT 10SM CLR M07/M17 A3045 RMK AO2
     T10691172=
KOSH 272053Z 26009KT 10SM CLR M08/M19 A3050 RMK AO2 SLP358
     T10831189 56012=
KOSU 272053Z 35008KT 10SM SCT041 M09/M17 A3058 RMK AO2 SLP373
     T10891172 53001=
KOVE 272053Z AUTO 18003KT 10SM SCT042 BKN050 17/06 A2976 RMK AO2
     SLP078 T01670056 58025=
####018003642####
SAUS70 KWBC 272100 RRI
METAR
KPEO 272053Z AUTO 33012KT 10SM CLR M09/M19 A3045 RMK AO2 SLP334
     T10941194 53010=
KPEX 272054Z AUTO 21007KT 10SM CLR M11/M21 A3046 RMK AO2
     T11101214=
KPGD 272053Z AUTO 05012KT 10SM BKN017 OVC037 15/11 A3017 RMK AO2
     SLP218 T01500111 56008=
KPHD 272053Z AUTO 34008KT 10SM CLR M08/M18 A3058 RMK AO2 SLP373
     T10781183 53004=
KPIE 272053Z AUTO 07010KT 10SM OVC027 18/11 A3016 RMK AO2 SLP214
     T01780111 56015=
KPIH 272053Z VRB03KT 10SM FEW028 SCT037 BKN085 03/M03 A2975 RMK
     AO2 SLP087 60000 T00331028 58018=
KPIL 272053Z AUTO 36007KT 5SM HZ SCT031 BKN043 OVC070 16/12 A3013
     RMK AO2 RAB1959E16 SLP202 P0000 60000 T01560122 58027=
KPIR 272053Z AUTO 16014G18KT 10SM CLR M03/M21 A3027 RMK AO2 SLP284
     T10331206 56034=
KPKB 272053Z 35008KT 10SM FEW047 M06/M17 A3058 RMK AO2 SLP372
     60000 T10561167 56001=
KPKD 272053Z AUTO 26008KT 10SM CLR M08/M21 A3036 RMK AO2 SLP322
     T10831211 56014=
KPMD 272053Z AUTO 25022KT 10SM CLR 16/06 A2974 RMK AO2 PK WND
     25027/2038 SLP062 T01560056 58025=
KPMP 272053Z 35008KT 9SM OVC012 21/18 A3010 RMK AO2 SLP194
     T02110178 55006=
KPNC 272053Z AUTO 13006KT 2 1/2SM -SN SCT024 OVC038 M07/M12 A3053
     RMK AO2 SLP353 P0000 60000 T10721122 56018=
KPNM 272054Z AUTO 24005KT 10SM CLR M07/M18 A3046 RMK AO2=
KPNS 272053Z 06009KT 10SM CLR 14/M02 A3028 RMK AO2 SLP256
     T01391017 56020=
KPOU 272053Z AUTO VRB03KT 10SM CLR M03/M17 A3040 RMK AO2 SLP294
     T10281172 53004=
KSLN 272053Z 09007KT 10SM OVC070 M06/M17 A3050 RMK AO2 SLP353
     T10611172 56026=
KSMF 272053Z 00000KT 10SM FEW040 SCT200 18/08 A2974 RMK AO2 SLP072
     T01780078 58027=
KSMQ 272053Z AUTO VRB06KT 10SM CLR M01/M16 A3041 RMK AO2 SLP300
     T10111156 53009 TSNO=
KSNA 272053Z 19010KT 10SM SCT035 BKN050 BKN055 21/09 A2980 RMK AO2
     SLP091 T02060094 58019=
KSNS 272053Z 25016KT 10SM FEW023 18/09 A2984 RMK AO2 SLP114
     T01830094 58020 $=
KSNY 272053Z AUTO 17019G25KT 10SM OVC031 M08/M13 A3004 RMK AO2 PK
     WND 18027/2012 SLP245 60000 T10781133 58028=
KSPB 272053Z AUTO 35004KT 10SM FEW017 BKN042 OVC080 10/08 A2972
     RMK AO2 RAE47 SLP063 P0001 60001 T01000078 58006=
KSPG 272053Z AUTO 08014KT 10SM OVC023 17/12 A3016 RMK AO2 SLP213
     T01670117 56004=
KSRQ 272053Z AUTO 10010KT 10SM BKN021 OVC050 16/11 A3016 RMK AO2
     SLP211 T01560106 55010=
KSSF 272053Z 03010KT 10SM OVC018 02/M03 A3027 RMK AO2 SLP257 60000
     T00221028 56021=
KSSI 272053Z AUTO 03014KT 10SM CLR 09/02 A3032 RMK AO2 SLP267
     T00890022 56010=
KSTJ 272053Z 10SM FEW120 M07/M18 A3057 RMK AO2 SLP368 T10721178
     56031=
KSTP 272053Z 24009KT 10SM CLR M09/M19 A3053 RMK AO2 SLP353
     T10891189 56017=
KSTS 272053Z 35013G19KT 10SM SCT045 17/06 A2978 RMK AO2 SLP079
     T01670061 58026=
KSWO 272053Z 08006KT 3SM -SN BKN041 OVC050 M07/M14 A3052 RMK AO2
     SFC VIS 5 SLP347 P0000 60000 T10721139 55018=
KSYM 272050Z AUTO VRB04G11KT 10SM FEW037 M06/M15 A3058 RMK AO2=
KTCC 272053Z AUTO 18011KT 6SM -SN BKN024 OVC037 M08/M12 A3013 RMK
     AO2 SNB40 SLP242 P0000 60000 T10831122 56024=
KTCL 272053Z 03009KT 10SM CLR 08/M06 A3042 RMK AO2 SLP301
     T00831056 56022=
KTDZ 272053Z AUTO 22010KT 10SM CLR M10/M18 A3060 RMK AO2 SLP377
     T11001178 53002 TSNO=
KTEW 272054Z AUTO 26009KT 10SM BKN041 M08/M18 A3053 RMK AO2
     T10801179=
KTHV 272053Z AUTO 31009KT 10SM CLR M03/M13 A3046 RMK AO2 SLP323
     T10331133 53011=
KTIW 272053Z 01009KT 4SM -RA BR FEW005 BKN009 OVC013 08/07 A2975
     RMK AO2 SLP077 P0001 60003 T00830067 50003=
####018003706####
SAUS70 KWBC 272100 RRE
METAR
KLBX 272053Z AUTO 02014KT 7SM OVC016 04/02 A3031 RMK AO2 SLP264
     T00440017 56017=
KLCH 272053Z 08010KT 10SM CLR 10/00 A3033 RMK AO2 SLP277 T01000000
     56024=
KLEB 272053Z 36003KT 10SM CLR M06/M22 A3033 RMK AO2 SLP288
     T10561217 53005=
KLEE 272053Z AUTO 04012KT 10SM OVC027 15/07 A3022 RMK AO2 SLP232
     T01500072 56011=
KLFK 272053Z AUTO 01006KT 10SM OVC090 07/M03 A3037 RMK AO2 SLP284
     T00721033 56020=
KLFT 272053Z 06009G14KT 030V090 10SM CLR 11/01 A3033 RMK AO2
     SLP268 T01060011 56023=
KLGB 272053Z 18009KT 10SM OVC039 17/11 A2981 RMK AO2 SLP093
     T01720111 58018=
KLHQ 272053Z AUTO VRB04KT 8SM OVC039 M08/M16 A3058 RMK AO2 SLP376
     60000 T10831156 55000=
KLHX 272053Z AUTO 13016KT 10SM CLR M07/M12 A3003 RMK AO2 SLP210
     T10671122=
KLJF 272053Z AUTO 24004KT 10SM CLR M11/M18 A3048 RMK AO2=
KLKR 272055Z AUTO 00000KT 10SM CLR 12/M03 A3034 RMK AO2=
KLLQ 272053Z AUTO 02006KT 10SM FEW031 BKN110 01/M07 A3051 RMK AO2
     SLP333 T00111072 55008=
KLMT 272053Z 29015G20KT 10SM FEW027 OVC070 07/00 A2969 RMK AO2
     WSHFT 1958 RAB07E18 SLP049 P0000 60000 T00720000 58015=
KLNS 272053Z 31006KT 10SM CLR M04/M14 A3045 RMK AO2 SLP318
     T10391144 53012=
KLOL 272053Z AUTO 19010KT 3SM -RA BKN040 OVC055 06/02 A2966 RMK
     AO2 PK WND 24027/2025 RAB00 SLP041 P0002 60002 T00560022
     56026=
KLOU 272053Z VRB04KT 10SM CLR M03/M16 A3060 RMK AO2 SLP371
     T10331161 55004=
KHOT 272053Z AUTO 06010KT 10SM OVC085 M01/M13 A3053 RMK AO2 SLP343
     T10111128 58001=
KHOU 272053Z 03010KT 10SM OVC021 06/01 A3034 RMK AO2 SLP279
     T00560006 56016=
KHQM 272053Z AUTO 05014G19KT 8SM SCT015 BKN022 OVC029 12/08 A2972
     RMK AO2 SLP066 60000 T01170078 58001=
KHRI 272053Z AUTO 02006KT 10SM BKN055 OVC070 10/03 A2972 RMK AO2
     RAE42 SLP063 P0000 60000 T01000028 58005=
KHRO 272053Z AUTO 10003KT 10SM OVC055 M07/M17 A3052 RMK AO2 SLP358
     T10721167 55004=
KHUF 272053Z 31007KT 10SM CLR M08/M18 A3062 RMK AO2 SLP379
     T10831183 56008=
KHUL 272053Z AUTO 27012G19KT 10SM CLR M08/M23 A3019 RMK AO2 SLP238
     T10831228 53014=
KHVN 272053Z 34009KT 10SM CLR M03/M18 A3039 RMK AO2 SLP290
     T10281178 53010=
KHWO 272053Z 35012KT 10SM SCT013 22/17 A3011 RMK AO2 SLP194
     T02220172 56002=
KHYR 272053Z AUTO 24007KT 10SM CLR M09/M22 A3043 RMK AO2 SLP340
     60000 T10941217 56013=
KHZX 272048Z AUTO 23006KT 10SM CLR M07/M21 A3040 RMK AO2=
KHZY 272053Z AUTO 27009KT 10SM CLR M11/M20 A3056 RMK AO2 SLP374
     T11111200 53007=
KI69 272055Z AUTO 31003KT 10SM CLR M06/M17 A3059 RMK AO1=
KIAH 272053Z 04005KT 8SM OVC022 06/00 A3035 RMK AO2 SLP277
     T00610000 56019=
KICR 272053Z AUTO 17015G19KT 10SM CLR M03/M21 A3028 RMK AO2 SLP291
     T10331206 56035=
KICT 272053Z 10003KT 1 1/4SM -SN SCT024 OVC036 M09/M13 A3050 RMK
     AO2 SFC VIS 1 1/2 SLP353 P0000 60002 T10891133 56009=
KIDA 272053Z 00000KT 10SM SCT019 BKN024 OVC034 00/M04 A2976 RMK
     AO2 SNE08 SLP103 P0000 60000 T00001039 56013=
KILM 272053Z 03006KT 10SM CLR 11/00 A3036 RMK AO2 SLP279 T01060000
     58004=
KIML 272053Z AUTO 16016G22KT 6SM -SN M07/M13 A3019 RMK AO2 SNB47
     SLP277 P0000 60000 T10671128 56029 $=
KINK 272053Z AUTO 08011KT 10SM OVC012 M04/M08 A3019 RMK AO2 SLP239
     T10391078 56027=
KIPL 272053Z AUTO VRB04KT 10SM CLR 25/04 A2965 RMK AO2 SLP041
     T02500039 58028=
KITR 272053Z AUTO 16019KT 5SM HZ SCT017 SCT026 OVC047 M10/M14
     A3011 RMK AO2 PK WND 16027/2006 SNE45 SLP254 P0000 60000
     T11001139 56017=
KIXD 272053Z 05004KT 10SM BKN075 OVC090 M07/M18 A3054 RMK AO2
     SLP364 60000 T10721183 56028=
####018003687####
SAUS70 KWBC 272100 RRK
METAR
KYIP 272053Z AUTO 34009KT 10SM SCT049 M06/M18 A3056 RMK AO2 SLP362
     T10611183 53001 TSNO=
KZZV 272053Z AUTO 29004KT 10SM OVC039 M08/M18 A3057 RMK AO2 SLP371
     T10831178 53003 TSNO=
KTOI 272053Z AUTO 04009G16KT 10SM CLR 13/M03 A3032 RMK AO2 SLP268
     T01331028 56018=
KTOP 272053Z 11003KT 10SM OVC090 M08/M18 A3056 RMK AO2 SLP367
     T10781178 56028=
KTOR 272053Z AUTO 18020G27KT 10SM SCT034 M03/M14 A2996 RMK AO2 PK
     WND 16029/2026 SLP203 60000 T10331139 58028=
KTPA 272053Z 02010KT 10SM OVC025 18/09 A3017 RMK AO2 SLP216
     T01780094 56015=
KTRL 272053Z AUTO 05011KT 10SM BKN017 OVC070 M01/M04 A3042 RMK AO2
     SNE07 SLP304 P0000 60002 T10061044 58021=
KTTD 272053Z 16005KT 10SM BKN024 BKN032 12/06 A2971 RMK AO2 SLP062
     T01220061 58010=
KTTN 272053Z 33004KT 10SM CLR M02/M15 A3043 RMK AO2 SLP301
     T10221150 53010=
KTUL 272053Z 06009KT 1 1/2SM R36R/6000VP6000FT -SN FEW014 BKN022
     OVC034 M07/M10 A3054 RMK AO2 TWR VIS 2 1/2 SLP351 P0001 60001
     T10721100 58027=
KTVC 272053Z 25009KT 10SM BKN033 M09/M16 A3048 RMK AO2 SLP339
     T10891161 55003=
KTVL 272053Z AUTO 19011KT 10SM SCT050 OVC060 05/M07 A2972 RMK AO2
     SLP041 T00501067 58015=
KTVR 272053Z AUTO 02009KT 10SM CLR 05/M03 A3043 RMK AO2 SLP311
     T00501028 56029=
KTWF 272053Z 04004KT 10SM FEW036 08/M02 A2970 RMK AO2 SLP043
     T00781017 58024=
KTWM 272054Z AUTO 25008G14KT 10SM CLR M06/M18 A3035 RMK AO2=
KTXK 272053Z 06008KT 10SM OVC085 M01/M09 A3048 RMK AO2 SLP323
     T10111094 58016=
KTYR 272053Z 04009KT 10SM OVC075 00/M09 A3042 RMK AO2 SLP305
     T00001089 55017 $=
KUAO 272053Z AUTO 17010KT 10SM FEW024 SCT034 OVC044 11/07 A2973
     RMK AO2 SLP069 60001 T01110072 58009=
KULM 272054Z AUTO 00000KT 10SM CLR M12/M19 A3051 RMK AO2=
KUNO 272053Z AUTO 08004KT 10SM OVC080 M07/M19 A3052 RMK AO2 SLP357
     T10671189 55016=
KUTS 272053Z AUTO 34006KT 10SM FEW033 BKN090 OVC110 06/M02 A3035
     RMK AO2 SLP279 T00611022 58016=
KUUU 272053Z AUTO 14007KT 10SM CLR M04/M12 A3035 RMK AO2 SLP280
     T10441117 53012=
KVCB 272053Z AUTO 28011G16KT 10SM OVC055 19/06 A2976 RMK AO2
     SLP077 T01890061 58025=
KVEL 272053Z AUTO 26005KT 10SM FEW038 SCT100 02/M08 A2978 RMK AO2
     SLP100 T00221083 58026=
KVGT 272053Z 17006KT 10SM CLR 16/M07 A2968 RMK AO2 SLP059
     T01611072 58033=
KVIH 272053Z AUTO 06006KT 10SM BKN100 M07/M19 A3051 RMK AO2 SLP354
     T10671189 56023=
KVLD 272053Z 04009KT 10SM SCT040 12/04 A3030 RMK AO2 SLP268
     T01170039 55013=
KGCN 272054Z 23013G19KT 10SM BKN034 OVC040 05/M02 A2975 RMK AO2
     SNB1959E41 SLP068 P0000 60000 T00501022 58027=
KGDV 272055Z AUTO 18009G18KT 10SM CLR M02/M14 A3003 RMK AO1
     57027=
KGED 272054Z AUTO 30007KT 10SM BKN029 BKN070 07/M08 A3047 RMK AO2
     SNB16E25 SLP317 P0000 60000 T00671083 53018=
KGUC 272055Z 26014G18KT 10SM CLR 00/M10 A2973 RMK AO1 57030=
KGXY 272055Z AUTO 16009KT 10SM BKN032 OVC038 M05/M14 A2995 RMK AO1
     57027=
KHDN 272055Z AUTO 26006KT 10SM CLR M02/M13 A2977 RMK AO1 57024=
KHEZ 272055Z AUTO 35012KT 10SM CLR 08/M02 A3037 RMK AO1 57020=
KHNB 272055Z AUTO 33006KT 10SM CLR M06/M13 A3061 RMK AO1 57010=
KHVS 272055Z AUTO 00000KT 10SM CLR 12/M01 A3034 RMK AO2=
KHWD 272054Z 28016G27KT 10SM CLR 17/09 A2982 RMK AO2 PK WND
     29027/2051 SLP108 T01720089 58019=
KHYS 272055Z AUTO 13010KT 10SM OVC060 M07/M18 A3040 RMK AO1
     57024=
KHYW 272055Z AUTO 04003KT 5SM HZ CLR 10/00 A3035 RMK AO2=
KI67 272055Z AUTO 05006KT 10SM BKN050 M06/M16 A3060 RMK AO1=
KILE 272055Z AUTO 02009KT 10SM OVC016 M01/M07 A3033 RMK AO1
     57024=
####018003730####
SAUS70 KWBC 272100 RRC
METAR
KFDR 272053Z AUTO 07010KT 2 1/2SM HZ BKN013 BKN018 OVC036 M07/M11
     A3042 RMK AO2 SNE1959 SLP314 P0000 60001 T10721106 56021
     $=
KFDY 272053Z AUTO 28007KT 10SM CLR M09/M18 A3058 RMK AO2 SLP370
     T10941183 53001=
KFFC 272053Z AUTO 33007KT 10SM CLR 10/M07 A3035 RMK AO2 SLP284
     T01001067 56009=
KFFM 272054Z AUTO 00000KT 10SM CLR M10/M20 A3047 RMK AO2=
KFFT 272053Z AUTO 03005KT 10SM CLR M04/M18 A3057 RMK AO2 SLP365
     T10441178 55004=
KFGN 272054Z AUTO 24009G22KT 10SM CLR M08/M23 A3028 RMK AO2=
KFHR 272053Z AUTO 01007KT 10SM -RA OVC040 08/06 A2982 RMK AO2
     SLP100 P0000 60000 T00830056 50005=
KFKA 272055Z AUTO 26006KT 10SM CLR M14/M20 A3053 RMK AO2
     T11431202=
KFLD 272053Z AUTO 26008KT 10SM CLR M08/M19 A3051 RMK AO2 SLP354
     T10831189 56010=
KFLL 272053Z 35009KT 10SM BKN015 OVC250 22/18 A3009 RMK AO2 SLP188
     T02170183 56003=
KFLO 272053Z VRB06KT 10SM CLR 12/M02 A3034 RMK AO2 SLP273
     T01221017 56009=
KFMY 272053Z 06010KT 10SM OVC017 17/13 A3013 RMK AO2 SLP205
     T01720128 56005=
KFOE 272053Z VRB05KT 10SM OVC075 M07/M17 A3054 RMK AO2 SLP362
     T10721172 56026=
KFOK 272053Z 32012G15KT 10SM CLR M03/M16 A3041 RMK AO2 SLP298
     T10281156 53012=
KFOZ 272053Z AUTO 23005G08KT 10SM CLR M06/M22 A3033 RMK AO2=
KFPR 272053Z 35008G16KT 6SM OVC007 15/14 A3015 RMK AO2 RAB15E51
     SLP208 P0002 60003 T01500144 55005=
KDHT 272053Z AUTO 16014KT 4SM -SN SCT017 OVC023 M08/M12 A3017 RMK
     AO2 SLP256 P0000 60000 T10831122 58019=
KDKK 272053Z AUTO 25009KT 10SM SCT021 M12/M17 A3057 RMK AO2 SLP369
     T11221172 53009=
KDLN 272053Z AUTO 10SM OVC070 M01/M11 A2976 RMK AO2 SLP125
     T10111111 58019=
KDLS 272053Z AUTO 06004KT 10SM -RA OVC031 08/06 A2975 RMK AO2
     SLP075 P0003 60010 T00830061 50000=
KDMO 272053Z AUTO 09004KT 10SM CLR M06/M18 A3058 RMK AO2 SLP373
     60000 T10611178 56026=
KDNL 272053Z AUTO 00000KT 10SM CLR 14/00 A3032 RMK AO2 SLP267
     T01440000 55015=
KDRO 272053Z AUTO 19005KT 6SM BR SCT010 BKN014 OVC027 M02/M04
     A2979 RMK AO2 SNE07B35E50 SLP114 P0000 60001 T10171039
     56018=
KDTN 272053Z 04010KT 10SM OVC080 01/M08 A3044 RMK AO2 SLP310
     T00061078 58016=
KDTO 272053Z 03011KT 1/4SM -SN FZFG VV013 M04/M07 A3044 RMK AO2
     SLP314 P0001 60002 T10441067 56024=
KDTW 272053Z 21008KT 10SM FEW050 M07/M18 A3057 RMK AO2 SLP366
     T10721183 53001=
KDUJ 272053Z AUTO 27013KT 10SM CLR M10/M19 A3040 RMK AO2 SLP333
     T11001194 53011=
KDVP 272053Z AUTO 00000KT 10SM CLR M11/M18 A3045 RMK AO2
     T11101181=
KDVT 272053Z VRB05G17KT 10SM CLR 21/M06 A2968 RMK AO2 SLP037 6////
     T02111061 58027 $=
KDWH 272053Z 01006KT 10SM OVC023 07/00 A3034 RMK AO2 SLP274
     T00670000 58020=
KDXR 272053Z 30006KT 10SM CLR M04/M19 A3038 RMK AO2 SLP296
     T10441189 53008=
KDXX 272054Z AUTO 27003KT 10SM CLR M09/M18 A3047 RMK AO2=
KDYT 272053Z AUTO 22012G17KT 10SM CLR M07/M20 A3043 RMK AO2=
KECP 272053Z 01008G16KT 10SM CLR 13/01 A3026 RMK AO2 SLP260
     T01330006 56019=
KEEO 272053Z AUTO 00000KT 10SM CLR M02/M07 A2977 RMK AO2 SLP104
     T10221072 58022=
KEET 272053Z AUTO 01008KT 10SM CLR 08/M04 A3040 RMK AO2 SLP296
     T00781044 56016=
KELD 272053Z AUTO 02006KT 10SM OVC090 01/M08 A3049 RMK AO2 SLP327
     T00061078 56006=
KELM 272053Z AUTO 29005KT 10SM CLR M07/M19 A3043 RMK AO2 SLP326
     60000 T10721194 53009=
KELN 272053Z AUTO 30008KT 10SM FEW009 OVC075 07/03 A2977 RMK AO2
     RAE00 SLP088 P0000 60002 T00670028 58003=
KELO 272053Z AUTO 29006KT 10SM CLR M07/M24 A3030 RMK AO2=
KENW 272053Z 25011KT 10SM CLR M11/M19 A3057 RMK AO2 SLP372
     T11061189 55005=
####018003693####
SAUS70 KWBC 272100 RRH
METAR
KOVL 272053Z AUTO 26004KT 10SM CLR M10/M17 A3048 RMK AO2=
KOVS 272053Z AUTO 21009KT 10SM CLR M09/M19 A3058 RMK AO2 UPB27E33
     SLP374 P0000 60000 T10941194 55012=
KRSL 272053Z AUTO 14007KT 10SM FEW042 OVC055 M07/M17 A3042 RMK AO2
     SNB10E21 SLP337 P0000 60000 T10721167 56025=
KRSW 272053Z AUTO 04011KT 10SM OVC016 17/12 A3014 RMK AO2 SLP203
     T01670122 56006=
KRTN 272053Z AUTO 20013KT 2SM -SN OVC011 M11/M13 A2993 RMK AO2
     SLP201 P0000 60000 T11061133 58019=
KRUE 272053Z AUTO 00000KT 10SM OVC075 M02/M17 A3056 RMK AO2 SLP349
     T10171167 55003=
KRWF 272053Z AUTO 26006KT 10SM CLR M10/M17 A3049 RMK AO2 SLP354
     T11001167 56020=
KRWI 272053Z AUTO 35008KT 10SM CLR 08/M03 A3039 RMK AO2 SLP293
     T00831033 53002=
KRWL 272053Z AUTO 24012G17KT 10SM CLR M02/M14 A2974 RMK AO2 SLP130
     T10221139 58023=
KRXE 272053Z AUTO 36003KT 10SM BKN020 OVC030 00/M04 A2975 RMK AO2
     SLP106 60000 T00001044 58017=
KRZR 272055Z AUTO 06006KT 10SM CLR 02/M08 A3045 RMK=
KRZT 272055Z AUTO 32007KT 10SM CLR M07/M17 A3060 RMK AO2=
KSAC 272053Z AUTO 20004KT 10SM FEW046 18/07 A2975 RMK AO2 SLP074
     T01830072 58028=
KSAF 272053Z 15014KT 6SM -SN OVC017 M07/M12 A2990 RMK AO2
     UPB27E33SNB12E27B36 SLP158 P0000 60000 T10671117 58022=
KSAZ 272054Z AUTO 28006KT 10SM CLR M09/M21 A3041 RMK AO2=
KSBA 272053Z VRB04KT 10SM FEW048 20/12 A2978 RMK AO2 WSHFT 1941
     SLP083 T02000117 58025=
KSBM 272053Z AUTO 26012KT 10SM CLR M09/M18 A3052 RMK AO2 SLP352
     T10891183 55007=
KSDL 272053Z VRB03KT 10SM CLR 22/M04 A2969 RMK AO2 SLP041
     T02221039 58028=
KSEG 272053Z AUTO 31007KT 10SM CLR M03/M16 A3046 RMK AO2 SLP321
     T10331156 53005=
KSFB 272053Z 03012KT 10SM OVC020 13/08 A3022 RMK AO2 SLP233
     T01280083 55008=
KSFF 272053Z 05009KT 360V080 10SM SCT050 10/M04 A2979 RMK AO2
     SLP097 T01001039 56014=
KSGR 272053Z 05010KT 7SM OVC020 06/01 A3033 RMK AO2 SLP273
     T00560006 56017=
KSGS 272050Z AUTO 22005KT 10SM CLR M09/M17 A3052 RMK AO2
     T10871175=
KSHN 272053Z AUTO 03008KT 10SM -RA SCT011 BKN024 OVC038 08/06
     A2973 RMK AO2 RAB35 SLP071 P0000 60001 T00830061 50000=
KSHR 272053Z AUTO 27004KT 10SM CLR M08/M14 A2989 RMK AO2 SLP206
     T10781144 56018=
KSIY 272053Z AUTO 25005KT 10SM SCT045 BKN075 OVC090 09/02 A2973
     RMK AO2 SLP080 60000 T00940017 58018=
KSJC 272053Z 31011KT 10SM FEW015 BKN040 BKN250 16/08 A2983 RMK AO2
     SLP102 T01560083 58021=
KSLC 272053Z 19004KT 10SM FEW047TCU FEW055 SCT095 SCT180 05/M04
     A2974 RMK AO2 SLP073 VIRGA SE-S AND DSNT NE CB DSNT NE AND W
     TCU SW-NW SH DSNT SE T00501044 58025=
KOWD 272053Z 31007KT 10SM CLR M03/M19 A3035 RMK AO2 SLP279
     T10331194 53007=
KOXB 272053Z AUTO 02003KT 5SM HZ SCT027 OVC033 M01/M05 A3046 RMK
     AO2 SLP315 T10111050 53020 TSNO=
KPAE 272053Z 35007G14KT 9SM OVC003 08/07 A2977 RMK AO2 RAE04
     SLP084 P0000 60004 T00830072 50002=
KPAH 272053Z 00000KT 10SM SCT038 M04/M13 A3059 RMK AO2 SLP365
     T10391133 55009=
KPBF 272053Z AUTO 02011KT 10SM BKN028 OVC095 M02/M08 A3056 RMK AO2
     SLP350 T10221078 55007=
KPBG 272053Z AUTO 15005KT 10SM CLR M09/M19 A3040 RMK AO2 SLP300
     60000 T10941194 53005=
KPBI 272053Z 35014KT 10SM OVC007 19/17 A3010 RMK AO2 RAE18 SLP193
     P0000 60000 T01940172 56007=
KPCW 272053Z AUTO 20010KT 10SM CLR M09/M18 A3059 RMK AO2 53002
     T10881177=
KPDK 272053Z 33006KT 10SM CLR 08/M05 A3035 RMK AO2 SLP292
     T00831050 55005=
KPDT 272053Z 27011KT 10SM -RA SCT042 BKN055 OVC070 07/04 A2969 RMK
     AO2 WSHFT 1956 RAB00E11B46 SLP052 P0000 60000 T00720044
     58007=
####018003738####
SAUS80 KWBC 272100 RRA
METAR
KLXV 272053Z AUTO 17007KT 1 1/2SM -SN BR BKN019 OVC026 M09/M12
     A2965 RMK AO2 SNB00 SLP080 P0000 60000 T10941117 58016=
KLYV 272055Z AUTO 20007KT 10SM CLR M10/M16 A3048 RMK AO2=
KMCN 272053Z VRB04KT 10SM CLR 14/M01 A3031 RMK AO2 SLP265
     T01391006 56016=
KMGM 272053Z 32009KT 10SM CLR 11/M02 A3036 RMK AO2 SLP282
     T01111022 56016=
KMLU 272053Z 04008KT 360V070 10SM BKN028 BKN095 02/M04 A3049 RMK
     AO2 SLP324 T00221039 56013=
KMSN 272053Z VRB06KT 10SM CLR M09/M20 A3053 RMK AO2 SLP361
     T10941200 56013=
KMSO 272053Z 12013KT 10SM BKN080 OVC100 03/M11 A2984 RMK AO2
     SLP129 T00331111 58020=
KODX 272053Z AUTO 18011G17KT 10SM CLR M06/M21 A3035 RMK AO2 SLP324
     T10561211 56032=
KSAV 272053Z 04006KT 10SM FEW060 SCT180 BKN250 11/01 A3034 RMK AO2
     SLP274 T01110006 55010=
KSDM 272053Z 19014KT 10SM BKN035 18/09 A2982 RMK AO2 SLP097
     T01830094 58016=
KSEA 272053Z 36008KT 10SM FEW005 OVC060 10/07 A2976 RMK AO2 RAE10
     SLP084 P0000 60002 T01000072 50003=
KPDX 272053Z 00000KT 10SM FEW020 BKN030 BKN080 13/07 A2972 RMK AO2
     SLP064 60000 T01280072 58010=
KPGA 272053Z AUTO 05008KT 10SM FEW032 FEW043 OVC055 06/01 A2976
     RMK AO2 SLP066 60000 T00610011 58027 TSNO=
KPOF 272053Z AUTO 08009KT 10SM CLR M06/M14 A3058 RMK AO2 SLP367
     T10611139 56018=
KSTC 272053Z 21005KT 10SM CLR M09/M19 A3046 RMK AO2 SLP351
     T10891194 56018=
KSYN 272054Z AUTO 25006KT 10SM CLR M11/M18 A3052 RMK AO2
     T11071185=
KTCS 272053Z AUTO 15009KT 10SM FEW037 08/M02 A2987 RMK AO2 SLP094
     T00781022 58033 TSNO=
KTKC 272045Z AUTO 23004KT 10SM CLR M09/M16 A3047 RMK AO2
     T10911165=
KTLH 272053Z 03007KT 10SM FEW005 BKN160 BKN250 14/04 A3027 RMK AO2
     SLP249 FU FEW005 FU S T01390039 56015 $=
KPOV 272057Z AUTO 33005KT 10SM SCT041 M09/M20 A3053 RMK AO2
     T10911199=
KRIW 272053Z AUTO 04006KT 10SM CLR M10/M15 A2982 RMK AO2 SLP186
     T11001150 58021=
KRMG 272053Z AUTO 35007G14KT 10SM CLR 06/M06 A3041 RMK AO2 SLP300
     T00561056 56009=
KRNM 272053Z 23011KT 10SM BKN029 OVC039 17/09 A2981 RMK AO2 SLP090
     T01670089 58018=
KROS 272055Z AUTO 22005KT 10SM CLR M09/M19 A3047 RMK AO2
     T10891193=
KRQE 272053Z AUTO 26008KT 6SM -SN SCT018 BKN026 OVC055 02/M02
     A2978 RMK AO2 SNE34B53 SLP065 P0001 60004 T00221017 56024
     TSNO=
PHJR 272053Z 27007KT 10SM CLR 28/18 A3000 RMK AO2 SLP164 T02780183
     51004=
KYKM 272053Z 29007KT 10SM -RA SCT027 OVC036 08/04 A2978 RMK AO2
     SLP088 P0001 60009 T00830044 58005=
KTRI 272053Z 00000KT 10SM BKN039 00/M06 A3043 RMK AO2 SLP309 60001
     T00001061 51005=
KTUP 272053Z 10007KT 10SM CLR 04/M09 A3046 RMK AO2 SLP318
     T00391089 56021=
KTUS 272053Z 25015G22KT 10SM CLR 23/M04 A2974 RMK AO2 SLP041
     T02331044 58031=
KTYS 272053Z 02006KT 10SM FEW030 01/M09 A3046 RMK AO2 SLP321
     T00061089 55005=
KUIL 272053Z AUTO 04011G21KT 9SM FEW025 09/06 A2976 RMK AO2 SLP077
     60000 T00940056 50007=
KGSO 272054Z 32004KT 10SM SCT048 06/M06 A3036 RMK AO2 SLP289
     T00561061 55000 $=
KJAN 272054Z 35007KT 10SM CLR 08/M04 A3037 RMK AO2 SLP286
     T00781039 56032=
KBTV 272054Z 35004KT 10SM FEW250 M07/M20 A3038 RMK AO2 SLP296
     T10671200 53003=
KBUF 272054Z 23018KT 9SM -SN BKN019 BKN025 M12/M17 A3053 RMK AO2
     SLP356 P0000 60000 T11221167 53009=
KCAR 272054Z AUTO 30010KT 10SM CLR M09/M23 A3016 RMK AO2 SLP232
     T10941233 53016=
KCOS 272054Z 13005KT 1 1/2SM -SN BR BKN016 OVC021 M12/M16 A2990
     RMK AO2 SFC VIS 2 1/2 SLP221 PCPN VRY LGT P0000 60000
     T11221156 56021=
KCOU 272054Z 35003KT 10SM CLR M06/M17 A3057 RMK AO2 SLP367
     T10561167 56026=
####018003722####
SAUS70 KWBC 272100 RRJ
METAR
KTKI 272053Z 06010KT 1SM -SN BKN010 BKN019 OVC023 M03/M06 A3043
     RMK AO2 SLP324 P0000 60003 T10281056 58028=
KTMB 272053Z 01010KT 10SM CLR 25/18 A3008 RMK AO2 SLP185 T02500178
     56010=
KTOB 272053Z AUTO 25007KT 10SM CLR M14/M18 A3050 RMK AO2=
KPQL 272053Z 03011G16KT 10SM CLR 14/M01 A3028 RMK AO2 SLP255
     T01391011 56028=
KPQN 272054Z AUTO 25004KT 10SM CLR M12/M17 A3043 RMK AO2=
KPRB 272053Z AUTO 31013KT 10SM CLR 18/08 A2981 RMK AO2 SLP093
     T01780078 58026 TSNO $=
KPRC 272053Z 22013G20KT 10SM BKN075 12/M06 A2974 RMK AO2 SLP035
     T01171061 58021=
KPSC 272053Z 04006KT 10SM FEW110 12/03 A2974 RMK AO2 SLP070
     T01220028 58016=
KPSP 272053Z 32014G19KT 290V350 10SM SCT070 23/04 A2967 RMK AO2
     SLP045 T02330044 58029=
KPSX 272053Z AUTO 05021KT 8SM -RA BKN050 09/03 A3026 RMK AO2 PK
     WND 06026/2046 RAB48 SLP245 P0000 60000 T00940033 58029=
KPTK 272053Z 27010KT 10SM FEW032 M09/M18 A3051 RMK AO2 SLP358
     T10891183 53003 $=
KPUB 272053Z 10006KT 10SM BKN020 M08/M13 A2998 RMK AO2 SNB1954E27
     SLP210 P0000 60000 T10831128 58023=
KPUW 272053Z AUTO 13009KT 10SM CLR 09/M02 A2973 RMK AO2 SLP078
     T00891022 58016=
KPWA 272053Z 09007KT 1 1/2SM -SN FEW012 BKN044 OVC060 M07/M11
     A3048 RMK AO2 SFC VIS 3 SLP340 P0000 60000 T10721111
     56020=
KPWC 272053Z AUTO 26006KT 10SM CLR M08/M20 A3041 RMK AO2=
KRAC 272053Z AUTO 25010KT 10SM CLR M10/M21 A3058 RMK AO2 SLP373
     T11001206 55005=
KRAL 272053Z 26006KT 10SM OVC042 17/08 A2980 RMK AO2 SLP081
     T01670078 58020=
KRBD 272053Z 05010KT 3SM -SN OVC013 M03/M06 A3040 RMK AO2 SLP299
     P0000 60002 T10281056 56028=
KRBG 272053Z AUTO 25004KT 1SM -RA FEW018 BKN025 OVC038 09/06 A2979
     RMK AO2 RAB20 SLP088 P0008 60008 T00940061 58015=
KRDD 272053Z 16008KT 10SM BKN090 18/06 A2968 RMK AO2 SLP049
     T01830056 58031=
KRHI 272053Z AUTO 26010G16KT 10SM CLR M09/M20 A3037 RMK AO2 SLP329
     T10891200 55007=
KRIL 272053Z AUTO 20008KT 10SM BKN060 BKN075 03/M08 A2974 RMK AO2
     SLP076 T00331083 58025=
KRKP 272053Z AUTO 06016G23KT 8SM OVC028 12/06 A3022 RMK AO2 SLP234
     T01220061 58024=
KRME 272053Z 31011KT 10SM SCT041 M10/M17 A3048 RMK AO2 SLP332
     60000 T11001167 53013=
KRMY 272053Z AUTO 24009KT 10SM OVC042 M09/M17 A3054 RMK AO2
     T10901173=
KRNT 272053Z 30009KT 10SM SCT015 BKN080 10/M01 A2976 RMK AO2
     SLP081 60000 T01001011 50002=
KROX 272055Z AUTO 10SM CLR M10/M18 A3033 RMK AO2=
KRRT 272053Z AUTO 23010G16KT 10SM CLR M11/M19 A3033 RMK AO2=
KBYS 272055Z AUTO 28012KT 10SM CLR 18/02 A2965 RMK AO2 SLP035
     T01780018 58033 $=
PASC 272053Z 25021G29KT 5SM -SN BLSN BKN029 OVC120 M08/M11 A3015
     RMK AO2 PK WND 28032/2027 SLP212 P0000 60000 T10831111
     53030=
KVPC 272053Z AUTO 35007KT 10SM CLR 05/M07 A3042 RMK AO2 SLP301
     T00501072 55005=
KVRB 272053Z AUTO 35011KT 9SM OVC007 15/13 A3016 RMK AO2 SLP212
     60008 T01500133 56006=
KVUO 272053Z AUTO 00000KT 10SM FEW027 SCT041 BKN050 11/05 A2972
     RMK AO2 SLP064 T01110050 58008=
KVVV 272054Z AUTO 00000KT 10SM CLR M09/M20 A3045 RMK AO2=
KWRL 272053Z AUTO 00000KT 10SM CLR M04/M13 A2986 RMK AO2 SLP172
     T10441128 58022=
KWST 272053Z AUTO VRB06KT 10SM CLR M02/M15 A3037 RMK AO2 SLP285
     T10171150 53011=
KWVI 272053Z AUTO 25013G20KT 10SM CLR 19/08 A2983 RMK AO2 SLP099
     T01940083 58023=
KXNA 272053Z 08005KT 2 1/2SM -SN BKN026 OVC034 M07/M13 A3051 RMK
     AO2 SNB19 SLP350 P0000 60000 T10721128 58007=
KY63 272055Z AUTO 23005KT 10SM CLR M11/M17 A3044 RMK AO2
     T11151175=
KY70 272054Z AUTO 24014KT 10SM OVC041 M07/M14 A3052 RMK AO2
     T10691144=
####018003667####
SAUS70 KWBC 272100 RRN
METAR
KFGX 272055Z AUTO 31004KT 10SM CLR M06/M15 A3059 RMK AO2
     T10631154=
KFIG 272054Z AUTO 27009KT 10SM CLR M08/M19 A3042 RMK AO2
     UPE1956B38E54 SLP333 P0000 60000 T10781189 53011=
KFKL 272055Z AUTO 29008KT 270V350 10SM CLR M11/M20 A3049 RMK AO1
     52010=
KFLP 272055Z 00000KT 10SM BKN060 M05/M17 A3056 RMK AO1 57007=
KFLY 272052Z AUTO 18009KT 2 1/2SM -SN OVC010 M12/M16 A2985 RMK AO2
     VIS 1 1/2V5 T11211165=
KFMH 272055Z AUTO VRB04KT 10SM CLR M04/M14 A3035 RMK AO2
     FZRANO=
KFMM 272055Z AUTO 16018KT 10SM OVC029 M07/M13 A3001 RMK AO2
     T10751133=
KFNL 272055Z AUTO 00000KT 10SM FEW020 M08/M12 A2996 RMK AO1 P0009
     60010 57024=
KFOD 272055Z AUTO 24004KT 10SM CLR M12/M18 A3056 RMK AO1 57017=
KFYJ 272055Z AUTO 36004KT 10SM CLR 02/M07 A3048 RMK AO2
     T00211068=
KGAD 272055Z 02009KT 10SM CLR 04/M07 A3042 RMK AO1 57014=
KGAI 272055Z AUTO 30007G15KT 10SM CLR M03/M14 A3050 RMK AO1
     52014=
KGBD 272055Z AUTO 14006KT 9SM BKN025 BKN030 OVC037 M08/M14 A3043
     RMK AO1 57020=
KGCK 272054Z 15013KT 4SM HZ SCT023 BKN055 OVC070 M10/M14 A3030 RMK
     AO2 SNE35B36E53 SLP306 P0000 60001 T11001139 56021=
KPHF 272054Z 03009KT 8SM OVC018 02/M03 A3046 RMK AO2 RAE28 SLP315
     P0000 60000 T00171033 53018=
KPHL 272054Z 32008KT 10SM FEW250 M01/M13 A3046 RMK AO2 SLP314
     T10111133 53011=
KPHT 272055Z AUTO 06008KT 10SM CLR M03/M12 A3053 RMK=
KPIB 272055Z AUTO 03011G14KT 10SM CLR 09/M02 A3035 RMK AO1
     57030=
KPNE 272054Z 34010KT 10SM CLR M01/M15 A3046 RMK AO2 SLP318
     T10111150 53013=
KPQI 272055Z AUTO 27012G15KT 10SM CLR M08/M26 A3018 RMK AO1
     52014=
KPRX 272055Z 04009KT 1 1/2SM BKN008 OVC017 M03/M07 A3048 RMK AO1
     57027=
KPSF 272054Z AUTO 30009KT 10SM CLR M08/M19 A3031 RMK AO2 SLP295
     T10781189 53012=
KPSO 272055Z AUTO 21005KT 3SM HZ BKN010 BKN019 OVC040 M01/M04
     A2978 RMK AO2 T10121045=
KPTN 272055Z AUTO 06010KT 10SM CLR 12/02 A3031 RMK AO1 57020=
KPTV 272055Z AUTO 29005KT 8SM CLR 18/08 A2980 RMK AO1 57024=
KPTW 272054Z AUTO 29008KT 10SM CLR M03/M15 A3045 RMK AO2 SLP313
     T10281150 53008=
KPVC 272055Z 33008KT 10SM CLR M05/M16 A3037 RMK AO1 60001
     52010=
KPVG 272055Z AUTO 03010KT 10SM CLR 01/M04 A3047 RMK AO1 52024=
KPWG 272055Z AUTO 04009KT 10SM M01/M06 A3039 RMK AO1 57024=
KPWT 272055Z AUTO 01008G15KT 10SM FEW013 BKN029 OVC034 08/07 A2978
     RMK AO1 P0001 60009 52003=
KRBL 272054Z AUTO 15011KT 10SM FEW060 18/05 A2972 RMK AO2 SLP062
     T01780050 58028=
KRCV 272055Z AUTO 05006KT 10SM BKN012 BKN070 BKN110 M06/M10 A2975
     RMK AO2 T10611097=
KRDG 272054Z 30010KT 10SM CLR M04/M16 A3045 RMK AO2 SLP320
     T10391161 53011=
KRKD 272055Z AUTO 29009KT 10SM CLR M06/M21 A3030 RMK AO1 52007=
KRKR 272055Z AUTO 01005KT 1/2SM -SN OVC012 M06/M08 A3054 RMK AO2
     T10591083=
KRQO 272055Z AUTO 06008KT BKN014 BKN020 OVC055 M07/M10 A3046 RMK
     AO2 PWINO=
KRUT 272055Z 03004KT 10SM CLR M08/M24 A3033 RMK AO1 54000=
KSBS 272055Z AUTO 00000KT 10SM CLR M02/M13 A2976 RMK AO1
     T10211134=
KSBY 272054Z 31009KT 5SM HZ OVC049 00/M06 A3047 RMK AO2 SNE09
     SLP320 P0000 60000 T00001056 53024=
KSDY 272055Z AUTO 17010KT 9SM CLR M02/M15 A3009 RMK AO1 57034=
KSET 272054Z AUTO VRB04KT 10SM CLR M09/M18 A3065 RMK AO2 SLP386
     T10941178 56011=
KSFM 272055Z AUTO 29009KT 10SM CLR M04/M21 A3032 RMK AO1 52007=
KSFZ 272055Z 31005KT 10SM CLR M04/M17 A3032 RMK AO1 52010=
KLEW 272055Z AUTO 34007KT 10SM CLR M05/M21 A3030 RMK AO1 52007=
KLGD 272055Z AUTO 19009KT 10SM BKN033 BKN041 BKN075 08/M01 A2967
     RMK AO1 57020=
####018003696####
SAUS70 KWBC 272100 RRL
METAR
KILN 272054Z AUTO 06005KT 10SM CLR M09/M19 A3056 RMK AO2 UPE03
     SLP396 P0000 60000 T10891189 53000=
KIND 272054Z 28009KT 10SM FEW046 M08/M18 A3059 RMK AO2 SLP375
     T10831183 55007=
KINT 272054Z AUTO 32007KT 10SM FEW055 06/M07 A3038 RMK AO2 SLP290
     T00611072 55001=
KIPT 272054Z 27009KT 10SM CLR M02/M17 A3043 RMK AO2 SLP313 60000
     T10171172 53003=
KIWD 272055Z AUTO 27009G15KT 10SM CLR M09/M19 A3036 RMK AO1
     57007=
KIWI 272053Z AUTO 27007KT 220V320 10SM CLR M04/M23 A3032 RMK AO2
     SLP269 T10391228 53004=
KIZG 272054Z AUTO VRB06KT 10SM CLR M04/M23 A3029 RMK AO2 SLP267
     T10441228 53007=
KJHW 272055Z 29011G14KT 10SM CLR M13/M21 A3044 RMK AO1 52010=
KJKA 272055Z AUTO 04009KT 10SM CLR 13/00 A3028 RMK AO2
     T01341004=
KJST 272054Z AUTO 25013G17KT 10SM SCT029 M11/M18 A3036 RMK AO2
     SLP334 T11111183 53013=
KJYL 272055Z AUTO 09004KT 10SM CLR 12/04 A3034 RMK AO2
     T01150037=
KKLS 272055Z 19008KT 10SM FEW070 OVC100 13/07 A2975 RMK AO1 60001
     57007=
KLAF 272054Z 01006KT 10SM CLR M09/M19 A3062 RMK AO2 SLP383
     T10941189 55004=
KLBL 272055Z AUTO 13012KT 10SM OVC070 M09/M14 A3031 RMK AO1
     57027=
KLBT 272054Z AUTO 00000KT 10SM CLR 11/M02 A3035 RMK AO2 SLP278
     T01061017 55006=
KLCI 272055Z AUTO 27011KT 10SM CLR M06/M22 A3030 RMK AO1 52007=
KLCK 272055Z AUTO 28008KT 10SM BKN042 M08/M17 A3059 RMK AO2
     T10781170=
KBID 272055Z AUTO 26011KT 10SM CLR M03/M12 A3035 RMK AO1 52010=
KBLM 272055Z AUTO 29010G14KT 10SM CLR M01/M13 A3041 RMK AO1
     52010=
KBMT 272055Z AUTO 06004KT 10SM CLR 11/00 A3032 RMK AO2
     T01120000=
KBNL 272055Z AUTO 02005KT 10SM CLR 13/02 A3034 RMK AO2=
KBOS 272054Z VRB03KT 10SM FEW035 SCT250 M03/M19 A3036 RMK AO2
     SLP279 T10281189 53006=
KBTP 272055Z AUTO 29008G15KT 10SM CLR M09/M19 A3053 RMK AO1
     52010=
KBUY 272054Z AUTO 02004KT 10SM SCT050 06/M06 A3038 RMK AO2 SLP292
     T00611061 55002=
KBVU 272055Z AUTO 06009KT 10SM CLR 17/M03 A2970 RMK AO2=
KBVX 272055Z AUTO 10006KT 10SM BKN080 OVC085 M03/M14 A3059 RMK AO1
     57003=
KBWI 272054Z 31013G18KT 10SM FEW050 SCT250 M01/M12 A3048 RMK AO2
     SLP321 T10111122 53019=
KBXA 272055Z AUTO 03008KT 10SM 10/00 A3035 RMK AO2 T01000002=
KCCU 272055Z AUTO 28014KT 1SM -SN OVC006 M10/M14 A2963 RMK AO2=
KCDD 272048Z AUTO 24007KT 203V273 10SM CLR M08/M25 A3034 RMK
     AO2=
KCDN 272055Z AUTO 00000KT 9SM CLR 12/M01 A3034 RMK AO2 TSNO=
KCEU 272054Z AUTO 05006KT 10SM CLR 12/M05 A3032 RMK AO2 SLP269
     T01171050 55008=
KCGZ 272055Z AUTO 22009G19KT 10SM CLR 24/M02 A2968 RMK AO1
     57037=
KCIU 272055Z AUTO 23010G15KT 190V250 10SM CLR M09/M16 A3041 RMK
     AO1 54000=
KCOD 272055Z 00000KT 10SM CLR M07/M12 A2982 RMK AO1 57014=
KCOE 272055Z AUTO 01009G14KT 10SM SCT055 09/M04 A2977 RMK AO1
     57017=
KCPW 272054Z AUTO 20014G23KT 1/2SM SN OVC001 M12/M13 A2973 RMK AO2
     P0001=
KCQW 272055Z AUTO 08005KT 10SM FEW050 11/M04 A3035 RMK AO2=
KCVN 272055Z AUTO 15010KT 9SM OVC016 M11/M14 A3014 RMK AO1
     57030=
KCVO 272055Z AUTO 21008KT 10SM FEW021 SCT027 BKN032 11/07 A2974
     RMK AO1 P0001 60001 57014=
KCWI 272055Z AUTO 27007KT 10SM CLR M13/M19 A3064 RMK AO1 57010=
KDDH 272054Z AUTO 33007KT 10SM CLR M07/M20 A3036 RMK AO2 SLP296
     T10721200 53008=
KDEC 272054Z 10005KT 10SM CLR M10/M17 A3063 RMK AO2 SLP388 60001
     T11001167 55007=
KDKB 272055Z AUTO 26007KT 10SM CLR M13/M20 A3059 RMK AO2
     T11301200=
KDSV 272054Z AUTO 32008KT 10SM CLR M09/M19 A3050 RMK AO2 SLP352
     T10891194 53014=
K04V 272056Z AUTO 11006KT 5SM HZ OVC018 M03/M08 A2976 RMK AO2=
####018000121####
SAPQ50 KWBC 272100
METAR
PGSN 272054Z 06014KT 10SM SCT016 24/23 A2992 RMK AO2 SLP154 60000
     T02440228 53016=
####018003679####
SAUS70 KWBC 272100 RRO
METAR
KLKV 272055Z 30003KT 10SM FEW012 SCT029 BKN055 06/00 A2967 RMK AO1
     57024=
KLMO 272054Z AUTO 32003KT 7SM -SN BKN019 00/M13 A2996 RMK AO2
     P0006 T10031128=
KLPC 272055Z AUTO 31014G23KT 10SM BKN021 OVC028 17/09 A2986 RMK
     AO1 57010=
KLWM 272054Z 34005KT 10SM CLR M04/M21 A3036 RMK AO2 SLP282
     T10391206 53004=
KM91 272055Z AUTO 05008KT 10SM CLR M03/M12 A3055 RMK=
KMBL 272055Z AUTO 26010G18KT 10SM BKN028 M09/M17 A3052 RMK AO1
     57003=
KMEM 272054Z 07010KT 10SM BKN250 01/M11 A3051 RMK AO2 SLP334
     T00111111 56021=
KMEZ 272055Z AUTO 05008KT 1 1/2SM OVC011 M03/M06 A3047 RMK AO2=
KMGJ 272054Z AUTO 30009KT 10SM CLR M03/M17 A3037 RMK AO2 SLP290
     T10281167 53006 TSNO=
KMIV 272054Z AUTO 31009KT 10SM CLR M01/M12 A3044 RMK AO2 SLP309
     T10061117 53015=
KMJX 272055Z AUTO 31013KT 10SM CLR M01/M13 A3043 RMK AO1 52014=
KMKC 272054Z VRB04KT 10SM SCT090 M08/M18 A3058 RMK AO2 SLP369
     T10781178 56026=
KMKY 272055Z AUTO 05009KT 10SM OVC017 19/13 A3011 RMK AO1
     57010=
KMNH 272056Z AUTO 18011KT 10SM CLR M10/M15 A2979 RMK AO2=
KMNM 272055Z AUTO 23009G14KT 10SM CLR M08/M19 A3045 RMK AO1
     57007=
KMRF 272055Z AUTO 06013KT 10SM OVC012 00/M03 A3003 RMK AO1
     57027=
KMRN 272055Z AUTO 00000KT 10SM CLR 08/M09 A3036 RMK AO2
     T00831092=
KMRY 272054Z 28008KT 10SM BKN017 15/10 A2987 RMK AO2 SLP128
     T01500100 58015=
KMSV 272055Z AUTO 33013G18KT 10SM CLR M07/M17 A3033 RMK AO1
     52010=
KMVN 272055Z AUTO 34003KT 10SM CLR M06/M15 A3063 RMK AO1 57014=
KOAJ 272055Z AUTO 32006KT 10SM CLR 09/M02 A3038 RMK AO1 54000=
KOCH 272055Z AUTO 01008KT 10SM BKN090 04/M05 A3039 RMK AO1
     57020=
KOFP 272054Z AUTO 06004KT 10SM BKN060 02/M08 A3046 RMK AO2 SLP316
     T00171083 53010=
KOKK 272055Z AUTO 30006KT 10SM CLR M08/M13 A3060 RMK AO1 57003=
KOLM 272054Z 04006KT 10SM SCT008 BKN016 OVC037 10/08 A2974 RMK AO2
     SLP071 T01000078 50000=
KOLS 272054Z AUTO 20021G27KT 10SM CLR 21/M06 A2979 RMK AO2 PK WND
     20028/2030 SLP048 T02111056 58022=
KOLU 272055Z AUTO 15007KT 10SM CLR M07/M19 A3047 RMK AO1 57030=
KOTH 272055Z 00000KT 7SM SCT014 BKN020 OVC037 10/09 A2981 RMK AO1
     P0005 60006 57014=
KSGT 272055Z AUTO 01013KT 10SM SCT034 OVC100 M02/M09 A3055 RMK AO1
     57010=
KSJN 272054Z AUTO 25016G25KT 10SM OVC080 11/M07 A2973 RMK AO2
     SLP030 T01061067 58025=
KSKX 272055Z AUTO 23003KT 1/2SM BKN010 OVC016 M07/M10 A2985 RMK
     AO1 57027=
KSLG 272055Z AUTO 08005KT 10SM SCT039 OVC048 M07/M17 A3052 RMK AO1
     57010=
KSOP 272055Z AUTO 07006KT 10SM CLR 09/M04 A3037 RMK AO1 57003=
KSQI 272055Z AUTO 25005KT 10SM CLR M11/M18 A3062 RMK AO1 57014=
KSTK 272050Z AUTO 17017G22KT 10SM BKN028 BKN038 M06/M12 A3006 RMK
     AO2=
KSUE 272055Z AUTO 25011KT 10SM CLR M09/M19 A3049 RMK AO1 57007=
KTAD 272054Z AUTO 09003KT 10SM CLR M07/M14 A2990 RMK AO2 SLP180
     T10721139 56021=
KTEX 272055Z AUTO 32003KT 10SM BKN050 BKN055 BKN120 M02/M13 A2973
     RMK AO2 T10241126=
KTHA 272055Z AUTO 03005KT 10SM CLR 01/M12 A3045 RMK=
KTME 272055Z AUTO 06009KT 7SM OVC020 05/00 A3034 RMK AO2=
KTPL 272055Z AUTO 01010KT 10SM OVC019 00/M06 A3034 RMK AO1
     57020=
KTSP 272055Z AUTO 30016G22KT 8SM OVC026 09/04 A2979 RMK AO2=
KUDG 272055Z AUTO 06006KT 10SM CLR 12/M01 A3036 RMK AO1 57010=
KUIN 272054Z AUTO 00000KT 10SM CLR M12/M21 A3063 RMK AO2 SLP389
     T11171206 56013=
KUTA 272055Z AUTO 01007KT 10SM CLR 00/M06 A3051 RMK AO2=
KUYF 272055Z AUTO 33007KT 10SM CLR M09/M17 A3057 RMK AO2=
KUZA 272054Z AUTO 01008KT 10SM CLR 11/M03 A3034 RMK AO2 SLP280
     T01061028 55007=
####018003710####
SAXX60 KWBC 272100
METAR
KBKB 272054Z AUTO VRB04KT 10SM CLR 11/M03 A3032 RMK AO2 SLP298
     T01061028 56019=
KFZY 272054Z AUTO 26012G18KT 10SM BKN031 M09/M17 A3050 RMK AO2
     SLP338 60000 T10941167 52011=
KDTS 272053Z AUTO VRB05KT 10SM CLR 14/01 A3027 RMK AO2 SLP249
     T01440011 56021 TSNO=
KMTC 272055Z 15010KT 10SM FEW035 M09/M16 A3053 RMK SLP361
     T10931160 55002=
KNFW 272052Z 01008KT 1/2SM -SN FZFG VV012 M03/M05 A3047 RMK AO2
     SLP300 P0002 60003 T10281050 56023 $=
KMRT 272053Z AUTO 34009KT 10SM CLR M08/M19 A3057 RMK AO2
     T10801192=
KMTC 272055Z 15010KT 10SM FEW035 M09/M16 A3053 RMK SLP361
     T10931160 55002=
KNFG 272054Z 21008KT 7SM FEW027 BKN040 18/11 A2981 RMK AO2 SLP094
     T01780106 58021=
KNFW 272052Z 01008KT 1/2SM -SN FZFG VV012 M03/M05 A3047 RMK AO2
     SLP300 P0002 60003 T10281050 56023 $=
KNHK 272052Z 04008KT 9SM FEW033 SCT045 SCT250 M01/M07 A3047 RMK
     AO2 SLP318 IR12P 60000 T10111067 53015=
KNIP 272053Z 04015KT 10SM FEW028 SCT150 BKN250 13/04 A3029 RMK AO2
     SLP253 T01330039 56009=
KNZY 272052Z 19013KT 10SM FEW028 BKN037 17/12 A2983 RMK AO2 SLP099
     T01720122 58012 $=
PABI 272053Z 11005KT 10SM FEW200 M07/M11 A3044 RMK AO2 SLP350
     T10721111 58010=
KVBG 272055Z 32021G28KT 10SM SCT015 BKN020 BKN250 16/12 A2986 RMK
     AO2 PK WND 32030/2011 SLP102 T01610117 58012=
KNJK 272056Z 24011KT 10SM FEW050 27/02 A2965 RMK AO2 SLP056
     T02670022 58032=
KNBG 272055Z 06011KT 10SM FEW250 12/M01 A3030 RMK AO2 SLP259
     T01221011 56020 $=
KDTS 272053Z AUTO VRB05KT 10SM CLR 14/01 A3027 RMK AO2 SLP249
     T01440011 56021 TSNO=
KNFW 272052Z 01008KT 1/2SM -SN FZFG VV012 M03/M05 A3047 RMK AO2
     SLP300 P0002 60003 T10281050 56023 $=
KNKT 272054Z 33009KT 10SM CLR 10/M02 A3038 RMK AO2 SLP285
     T01001017 53003 $=
KNQX 272053Z 02009KT 10SM BKN008 BKN100 23/19 A3006 RMK AO2 SLP178
     T02330194 58014 $=
KNRB 272052Z 02013G23KT 10SM BKN015 OVC220 10/06 A3029 RMK AO2
     SLP258 T01000061 57008 $=
KSHM 272056Z AUTO 13010KT 1 3/8SM -SHSN BKN010 M13/M14 A2990 RMK
     AO2 SNE02SHSNB02 BKN V OVC SLP231 T11301142 57021=
PAFB 272055Z 27004KT 25SM SCT200 M09/M12 A3045 RMK SLP325
     58010=
PHSF 272056Z AUTO 22002G10KT 10SM CLR 19/07 A3028 RMK AO2 SLP144
     T01850073 53004 $=
TJNR 272053Z AUTO 10011G18KT 10SM FEW047 SCT055 27/20 A3006 RMK
     AO2 SLP178 T02670200 56007 $=
TJNR 272053Z AUTO 10011G18KT 10SM FEW047 SCT055 27/20 A3006 RMK
     AO2 SLP178 T02670200 56007 $=
KNKX 272055Z 20013G21KT 10SM SCT026 BKN035 18/10 A2982 RMK AO2
     SLP094 T01830100 58014 $=
KNTU 272056Z 36010KT 10SM BKN048 BKN280 02/M04 A3043 RMK AO2
     SLP307 T00171039 51015 $=
KNHK 272052Z 04008KT 9SM FEW033 SCT045 SCT250 M01/M07 A3047 RMK
     AO2 SLP318 IR12P 60000 T10111067 53015=
KNIP 272053Z 04015KT 10SM FEW028 SCT150 BKN250 13/04 A3029 RMK AO2
     SLP253 T01330039 56009=
KNKT 272054Z 33009KT 10SM CLR 10/M02 A3038 RMK AO2 SLP285
     T01001017 53003 $=
KNQX 272053Z 02009KT 10SM BKN008 BKN100 23/19 A3006 RMK AO2 SLP178
     T02330194 58014 $=
KNRB 272052Z 02013G23KT 10SM BKN015 OVC220 10/06 A3029 RMK AO2
     SLP258 T01000061 57008 $=
TJNR 272053Z AUTO 10011G18KT 10SM FEW047 SCT055 27/20 A3006 RMK
     AO2 SLP178 T02670200 56007 $=
TJNR 272053Z AUTO 10011G18KT 10SM FEW047 SCT055 27/20 A3006 RMK
     AO2 SLP178 T02670200 56007 $=
KNLC 272056Z 36009KT 10SM SCT045 BKN220 20/07 A2979 RMK AO2 SLP089
     RH/44 T02000072 58025=
KNID 272056Z AUTO 04008KT CLR 19/02 A2964 RMK AO2 SLP030 T01890022
     58039 $=
KNDZ 272056Z 06010KT 10SM BKN250 16/M02 A3028 RMK AO2 SLP242
     T01561017 56021 $=
####018000917####
SAXX60 KWBC 272100 RRA
METAR
KNPA 272056Z 03011KT 10SM BKN250 14/M01 A3028 RMK AO2 SLP253
     T01391006 56018 $=
KNFL 272056Z 26030G38KT 7SM -RA SCT035 BKN060 BKN120 08/00 A2968
     RMK AO2 PK WND 25038/2054 RAB53 PRESRR SLP032 P0000 60000
     T00830000 55022=
KNTD 272056Z 26012KT 10SM CLR 19/12 A2981 RMK AO2 SLP096 T01940117
     58019 $=
KNXP 272056Z 00000KT 10SM FEW200 21/M01 A2971 RMK AO2 PRESFR
     SLP034 LAST AUGMENTED T02061006 58039=
KNUW 272056Z 01007KT 10SM -RA SCT035 BKN055 OVC070 10/07 A2982 RMK
     AO2 SLP100 P0001 60002 T01000067 50004 VISNO E $=
KNOG 272056Z AUTO 05009KT OVC023 11/06 A3021 RMK AO2 RAB23E36
     SLP212 P0000 60000 T01060056 57026 $=
KNQI 272056Z 05013KT 7SM -DZ FEW011 OVC016 12/08 A3020 RMK AO2
     DZB54 SLP221 P0000 60000 T01220083 58027 $=
KNYG 272056Z 02010KT 10SM FEW160 SCT220 01/M12 A3050 RMK AO2
     SLP328 T00111117 53013=
####018003636####
SAUS80 KWBC 272100 RRB
METAR
KCRW 272054Z VRB04KT 10SM BKN037 M06/M15 A3055 RMK AO2 SLP358
     T10611150 53002 $=
K4BM 272056Z AUTO 21007KT 10SM SCT003 SCT036 BKN048 M08/M12 A2968
     RMK AO2=
KAKQ 272054Z AUTO 03007KT 10SM BKN025 BKN055 03/M03 A3044 RMK AO2
     SLP312 T00281033 51015 TSNO=
KAPN 272054Z AUTO 23007KT 10SM UP CLR M07/M18 A3044 RMK AO2 SLP327
     P0000 60000 T10721183 55003=
KAVP 272054Z 34009KT 10SM CLR M06/M18 A3040 RMK AO2 SLP308
     T10561178 53010=
KDWU 272055Z AUTO 27004KT 10SM OVC047 M04/M14 A3058 RMK AO1
     57003=
KEAR 272055Z 16010KT 10SM CLR M06/M21 A3036 RMK AO1 57034=
KFWA 272054Z 27004KT 10SM BKN044 M09/M17 A3059 RMK AO2 SLP378
     T10891167 55002=
KPIA 272054Z 28005KT 10SM CLR M09/M19 A3064 RMK AO2 SLP390
     T10891194 55010=
KRFD 272054Z 29007KT 10SM CLR M11/M21 A3061 RMK AO2 SLP386
     T11111206 56007=
KRIC 272054Z 04006KT 10SM SCT060 BKN250 03/M06 A3044 RMK AO2
     SLP316 T00281056 53009=
KROA 272054Z 31009KT 10SM FEW055 01/M11 A3042 RMK AO2 SLP309
     T00111111 53007=
KROC 272054Z 25013G21KT 10SM FEW035 M11/M18 A3052 RMK AO2 SLP350
     T11061183 53013=
KSBN 272054Z 26006KT 10SM CLR M08/M18 A3058 RMK AO2 SLP374
     T10781183 56004=
KLEX 272054Z VRB05KT 10SM CLR M05/M16 A3057 RMK AO2 SLP368
     T10501156 55004 $=
KLYH 272054Z 26006KT 10SM CLR 03/M12 A3040 RMK AO2 SLP301
     T00281117 53003=
KMVL 272054Z AUTO 01003KT 10SM CLR M08/M22 A3035 RMK AO2 SLP296
     T10781217 53004 TSNO=
KMWT 272053Z AUTO VRB03KT 10SM BKN055 OVC070 M02/M12 A3048 RMK AO2
     SLP336 T10171122 58006=
KORH 272054Z VRB05KT 10SM CLR M05/M19 A3028 RMK AO2 SLP275
     T10501194 53012=
PHMK 272054Z 36011G15KT 10SM FEW020 26/21 A3001 RMK AO2 SLP164
     P0001 60001 T02610206 50006=
PHOG 272054Z 35007KT 10SM FEW025 SCT050 28/18 A2999 RMK AO2 SLP161
     T02830183 50007 $=
KSUS 272054Z 02005KT 10SM CLR M07/M18 A3062 RMK AO2 SLP386
     T10721183 56013=
KWAL 272054Z 07005KT 4SM -SN OVC020 M01/M04 A3047 RMK AO2 SNB42
     SLP314 P0000 60000 T10111039 52019=
PAOT 272053Z 17017KT 10SM BKN024 OVC039 00/M02 A3010 RMK AO2
     SLP193 T00001017 56008 $=
KACY 272054Z 32006KT 10SM CLR 01/M09 A3043 RMK AO2 SLP304
     T00061094 53013=
KAID 272049Z 31010KT 10SM CLR M08/M18 A2959=
KDSM 272054Z 26004KT 10SM FEW030 FEW250 M11/M18 A3059 RMK AO2
     SLP382 T11111183 56016=
KDVL 272055Z AUTO 21010KT 10SM CLR M11/M17 A3029 RMK AO1 57024=
KGPI 272055Z 04018KT 10SM BKN080 OVC100 03/M12 A2990 RMK AO2
     SLP152 T00281117 58003=
KGPZ 272055Z AUTO 22009KT 200V260 10SM CLR M08/M21 A3034 RMK AO1
     57017=
KPZQ 272054Z AUTO 28008KT 10SM CLR M08/M16 A3045 RMK AO2
     T10761161=
KDRA 272052Z AUTO 17008KT 10SM CLR 16/M07 A2966 RMK AO2 SLP020
     T01611067 58036=
KDAB 272053Z 36013G21KT 9SM OVC014 12/09 A3024 RMK AO2 SLP240
     T01220089 55007=
KSAV 272053Z 04006KT 10SM FEW060 SCT180 BKN250 11/01 A3034 RMK AO2
     SLP274 T01110006 55010=
KGNA 272056Z AUTO 23018KT M08/M13 A3036 RMK AO1 SLP307 T10781128
     56009=
KP60 272056Z AUTO 00000KT M08/M13 A2970 RMK AO1 SLP160 T10831133
     57017=
PADK 272056Z AUTO 29004KT 10SM SCT035 SCT041 02/M04 A3013 RMK AO1
     WSHFT 37 52030=
K2I0 272055Z AUTO 05007KT 10SM CLR M04/M12 A3060 RMK AO2
     T10401125=
K40J 272055Z AUTO 04010G16KT 10SM CLR 12/05 A3028 RMK AO2
     T01160047=
KAAT 272055Z AUTO 36003KT 10SM BKN030 OVC037 03/01 A2969 RMK AO2
     RAB19E50UPB50E52 SLP056 P0007 60007 T00280006 56009=
KANJ 272055Z AUTO 33004KT 10SM CLR M08/M18 A3040 RMK AO2 SLP311
     T10831183 56005=
####018003696####
SAUS70 KWBC 272100 RRM
METAR
K0A9 272055Z AUTO VRB03KT 10SM OVC034 M02/M08 A3043 RMK=
K0CO 272055Z AUTO 31013G25KT 1/2SM -SN OVC003 M15/M18 A2962 RMK
     AO2=
K1S5 272055Z AUTO 36009KT 10SM SCT035 SCT060 OVC090 08/02 A2975
     RMK AO2 T00800022=
K1V6 272055Z AUTO 11006KT 10SM CLR M07/M12 A2993 RMK AO2=
K20V 272055Z AUTO 00000KT 10SM SCT036 OVC048 M01/M11 A2974 RMK
     AO2=
K2V5 272055Z AUTO 15013G18KT 7SM SCT022 OVC032 M07/M12 A3015 RMK
     AO2 T10661119=
K33V 272055Z AUTO 00000KT 10SM CLR M07/M13 A2971 RMK AO2=
K5SM 272055Z AUTO 23003KT 2SM -SN BKN005 OVC011 M07/M08 RMK
     AO2=
K7BM 272054Z AUTO 12003KT 10SM SCT024 BKN041 OVC050 M06/M10 A2967
     RMK AO2=
KAAO 272054Z AUTO 13005KT 2 1/2SM -SN FEW018 BKN023 OVC032 M09/M13
     A3050 RMK AO2 SLP356 P0000 60000 T10891128 56021=
KADH 272055Z AUTO 04003KT 1/2SM -SN VV005 M06/M08 A3048 RMK
     AO2=
KAFJ 272055Z AUTO 30005KT 10SM CLR M08/M19 A3053 RMK AO1 52007=
KAIZ 272055Z AUTO 04004KT 10SM OVC090 M06/M18 A3056 RMK AO1
     57020=
KAKH 272054Z AUTO 36005KT 10SM CLR 10/M03 A3034 RMK AO2 SLP278
     T01001033 55008=
KAKR 272054Z AUTO 31007KT 10SM FEW039 M09/M19 A3054 RMK AO2 SLP365
     T10891189 53005=
KALM 272055Z AUTO 19010KT 10SM FEW031 05/M04 A2996 RMK AO2=
KALO 272054Z AUTO 25007KT 10SM CLR M14/M21 A3060 RMK AO2 UPB17E24
     SLP389 P0000 60000 T11441206 56010=
KAPC 272054Z 27019G23KT 10SM FEW045 16/09 A2978 RMK AO2 SLP075
     T01610089 58025=
KAQP 272054Z AUTO 25003KT 10SM CLR M08/M19 A3047 RMK AO2=
KARG 272055Z AUTO 04008KT 7SM CLR M04/M11 A3060 RMK AO1 57017=
KAUO 272055Z AUTO 02008G14KT 10SM CLR 11/M04 A3035 RMK AO1
     57014=
KAVL 272054Z 35014KT 10SM CLR 03/M06 A3033 RMK AO2 SLP281
     T00281061 55001=
KAWO 272055Z AUTO 01008KT 10SM OVC060 09/06 A2980 RMK AO1
     54000=
KBAF 272053Z 30009KT 10SM CLR M04/M19 A3036 RMK AO2 SLP290
     T10391189 53009=
KBCB 272055Z AUTO 31009G14KT 10SM CLR M02/M11 A3039 RMK AO2
     T10201115=
KBDU 272057Z AUTO 02004KT 3SM -SN OVC017 M08/M12 A2992 RMK AO2=
KBFL 272054Z 33007KT 10SM CLR 19/06 A2979 RMK AO2 SLP084 T01890061
     58023=
KBFW 272054Z AUTO 21008KT 180V240 10SM CLR M04/M22 A3033 RMK
     AO2=
KBGF 272055Z AUTO 01008KT 10SM CLR 01/M10 A3046 RMK=
KBHB 272055Z 29005KT 10SM CLR M04/M20 A3029 RMK AO1 52007=
KDYB 272055Z AUTO 00000KT 10SM CLR 11/01 A3036 RMK AO1=
KDYL 272054Z AUTO 28008KT 10SM CLR M03/M15 A3042 RMK AO2 SLP311
     T10331150 53009=
KDYR 272055Z 05007KT 10SM FEW031 M03/M14 A3058 RMK AO1 57017=
KECG 272054Z 04010KT 10SM OVC041 04/M03 A3041 RMK AO2 SLP298
     T00391028 53010=
KEDC 272055Z AUTO 02012KT 10SM OVC024 02/M04 A3032 RMK AO2=
KEEN 272055Z AUTO 35007KT 10SM CLR M05/M20 A3034 RMK AO1 52010=
KEGE 272055Z 33007KT 10SM VCSH SCT035 OVC050 01/M08 A2974=
KEHR 272055Z AUTO 35006KT 10SM BKN034 M05/M12 A3062 RMK AO1
     57010=
KEIK 272055Z AUTO 00000KT 10SM CLR M09/M13 A2993 RMK AO2
     T10901135=
KESC 272055Z AUTO 18012G16KT 10SM CLR M09/M17 A3044 RMK AO1
     57007=
KETC 272055Z AUTO 34004KT 10SM CLR 09/M04 A3040 RMK AO2
     T00901042=
KEUG 272054Z 23009KT 10SM SCT026 BKN055 OVC080 11/07 A2976 RMK AO2
     RAE03 SLP076 P0000 60003 T01060067 58013=
KEVV 272054Z VRB04KT 10SM FEW031 M06/M13 A3062 RMK AO2 SLP377
     T10561133 55010=
KEWK 272055Z AUTO 12005KT 3SM OVC018 M09/M15 A3050 RMK AO1
     57020=
KEWN 272054Z 35007KT 320V040 10SM CLR 10/M01 A3039 RMK AO2 SLP290
     6//// T01001011 53003 PNO=
KFAM 272055Z AUTO 02003KT 10SM FEW100 M07/M16 A3058 RMK AO1
     57014=
KFCI 272055Z AUTO 04005KT 10SM BKN028 BKN035 OVC055 03/M08 A3045
     RMK AO1 52010=
####018003701####
SAUS70 KWBC 272100 RRP
METAR
KVAY 272054Z AUTO 31008KT 270V330 10SM CLR M02/M14 A3045 RMK AO2
     SLP311 T10171139 53013=
KVBT 272055Z AUTO 07007KT 1 3/4SM OVC020 M08/M13 A3051 RMK AO1
     57010=
KVIS 272055Z AUTO 29004KT 8SM BKN085 18/08 A2979 RMK AO1 57027=
KVSF 272054Z AUTO 27011G17KT 10SM CLR M07/M21 A3035 RMK AO2 SLP291
     T10671211 53009 TSNO=
KVTA 272054Z AUTO 34003KT 10SM FEW029 OVC039 M08/M16 A3057 RMK AO2
     SNE19 SLP371 P0000 60000 T10831156 53002=
KVTP 272055Z AUTO 21006G15KT 170V270 3SM -SN BKN002 OVC009 M06/M09
     A2971 RMK AO2=
KW96 272055Z AUTO 36004KT 10SM BKN055 01/M05 A3046 RMK AO1 6////
     T00111050=
KWDR 272055Z AUTO 33007KT 10SM CLR 11/M04 A3036 RMK AO1=
KWLD 272054Z AUTO 12006KT 6SM HZ OVC042 M08/M14 A3052 RMK AO2
     SNB1959E47 SLP356 P0000 60000 T10781144 56023=
KWVL 272055Z 28008KT CLR M05/M22 A3026 RMK AO1 52007=
KWWD 272055Z AUTO 29007KT 10SM SCT065 BKN075 M02/M10 A3046 RMK AO1
     52017=
KXLL 272055Z AUTO 29006KT 10SM CLR M02/M16 A3044 RMK AO2=
K7N0 272055Z AUTO 02005KT 10SM CLR A3030 RMK AO1 57024=
PADE 272053Z AUTO 16009G15KT 10SM FEW020 SCT025 BKN048 10/M03
     A3010 RMK AO2 SLP193 T01001033 58004 TSNO=
PAEN 272053Z 03008KT 10SM CLR M03/M09 A3046 RMK AO2 SLP319
     T10331094 58004=
PAHN 272054Z AUTO 30016G24KT 10SM CLR 04/M08 A3045 RMK AO2 SLP314
     T00391083 58004 TSNO=
PAKN 272054Z 00000KT 10SM BKN120 M01/M02 A3031 RMK AO2 SLP265
     I1000 I3000 T10111017 58014=
PAVL 272053Z AUTO 12008KT 1SM -SN BR SCT006 OVC010 M02/M03 A3003
     RMK AO2 SLP170 P0001 60001 T10221028 58018 TSNO $=
K4I3 272055Z AUTO 27007KT 10SM CLR M08/M19 A3055 RMK AO2=
KACB 272056Z AUTO 21005G14KT 10SM BKN031 M08/M16 A3049 RMK AO2
     T10821163=
KAMN 272051Z AUTO 27008G17KT 10SM BKN042 M08/M16 A3053 RMK AO2
     T10771165=
KAUM 272056Z AUTO 23006KT 10SM CLR M13/M19 A3052 RMK AO2=
KAUW 272054Z AUTO 24011KT 10SM CLR M11/M20 A3044 RMK AO2 SLP344
     T11111200 56007=
KBAX 272055Z AUTO 25010G15KT 10SM CLR M10/M16 A3052 RMK AO2
     T10971165=
KBDH 272055Z AUTO 25006KT 10SM CLR M11/M18 A3048 RMK AO2=
KBVI 272047Z 34005KT 10SM CLR M09/M19 A3052=
KCAD 272054Z AUTO 23013KT 10SM SCT036 M09/M17 A3041 RMK AO2
     T10951170=
KCFS 272055Z AUTO 23010G15KT 10SM CLR M09/M17 A3052 RMK AO2
     T10901166=
KCKC 272053Z AUTO 21008G14KT 179V249 10SM CLR M08/M26 A3026 RMK
     AO2=
KCKN 272055Z AUTO 22013KT 10SM CLR M09/M15 A3041 RMK AO2=
KCNB 272053Z AUTO 22005KT 10SM CLR M09/M17 A3046 RMK AO2
     T10921174=
KCOQ 272057Z AUTO 23010KT 10SM CLR M08/M24 A3037 RMK AO2=
KCQM 272054Z AUTO 24008KT 211V271 10SM CLR M07/M23 A3032 RMK
     AO2=
KCVX 272055Z AUTO 26011G16KT 10SM CLR M10/M16 A3050 RMK AO2
     T11021157=
KDRM 272055Z AUTO 26007KT 10SM CLR M10/M16 A3043 RMK AO2
     T10971165=
KDTL 272055Z AUTO 25006KT 10SM CLR M09/M18 A3040 RMK AO2=
KDUH 272055Z AUTO 27004KT 10SM CLR M07/M20 A3060 RMK AO2=
KEDJ 272050Z AUTO 33010KT 10SM FEW037 M10/M18 A3057 RMK AO1=
KEFD 272050Z 36009KT 7SM OVC020 06/01 A3035=
KEKM 272050Z 24007KT 10SM SCT042 M08/M19 A3058 RMK AO2=
KENV 272055Z AUTO 14004KT 10SM OVC100 07/M03 A2971 RMK AO1
     57034=
KERY 272055Z AUTO 26006KT 10SM CLR M10/M19 A3039 RMK AO2
     T10961189=
KETH 272056Z AUTO 20004KT 10SM CLR M11/M18 A3047 RMK AO2=
KEUL 272055Z AUTO 15010KT 10SM CLR 11/M01 A2969 RMK AO1 57030=
KFFX 272053Z AUTO 27009KT 10SM CLR M08/M18 A3052 RMK AO2
     T10801181=
KFPK 272055Z AUTO 25009KT 10SM BKN044 M07/M18 A3052 RMK AO2
     T10731179=
KFRM 272055Z AUTO 22006KT 10SM CLR M11/M17 A3050 RMK AO1 57017=
KFSE 272055Z AUTO 22010KT 10SM CLR M09/M16 A3039 RMK AO2=
####018003654####
SAUS70 KWBC 272100 RRQ
METAR
KFTG 272054Z 15013KT 10SM FEW120 M07/M13 A2990=
KGOV 272055Z AUTO 25009G14KT 10SM SCT035 M09/M17 A3043 RMK AO2
     T10881171=
KHAF 272055Z AUTO 32015KT 7SM FEW016 SCT023 BKN030 14/10 A2986 RMK
     AO2=
KHAI 272054Z AUTO 25006KT 10SM OVC041 M08/M17 A3056 RMK AO2
     T10771172=
KHTO 272050Z 30008KT 10SM SKC M03/M13 A3039=
KHYX 272055Z AUTO 23010G16KT 10SM CLR M07/M16 A3053 RMK AO2=
KIMT 272054Z AUTO 28005KT 10SM CLR M07/M19 A3036 RMK AO2 SLP310
     60000 T10671189 56011 TSNO=
KIRS 272055Z AUTO 25004KT 10SM SCT035 OVC044 M09/M17 A3055 RMK
     AO2=
KISQ 272054Z AUTO 19007KT 10SM CLR M09/M18 A3043 RMK AO2
     T10911177=
KISW 272054Z AUTO 26010KT 10SM CLR M09/M22 A3049 RMK AO2 SLP355
     T10891217 56012=
KJYG 272055Z AUTO 21003KT 10SM CLR M10/M17 A3052 RMK AO2=
KJYM 272055Z AUTO 25006KT 10SM SCT042 M09/M19 A3053 RMK AO2
     T10861188=
KLDM 272055Z AUTO 23010KT 10SM SCT029 M09/M16 A3053 RMK AO2
     T10891161=
KLNK 272054Z 12005KT 10SM CLR M07/M18 A3051 RMK AO2 SLP358
     T10671183 56032=
KLWA 272055Z AUTO 26007G16KT 10SM BKN036 M08/M16 A3058 RMK AO2
     T10801159=
KLWT 272054Z AUTO 29011KT 10SM CLR M08/M14 A2994 RMK AO2 SLP215
     T10831139 51003=
KMER 272050Z 35010KT 10SM SCT039 BKN046 OVC070 18/08 A2980=
KMFI 272054Z AUTO 24009KT 10SM CLR M11/M20 A3046 RMK AO2 SLP351
     T11061200 56009=
KMGN 272055Z AUTO 26008G16KT 10SM CLR M10/M16 A3046 RMK AO2
     T11051167=
KMKT 272055Z AUTO 23006KT 10SM CLR M12/M20 A3052 RMK AO1 57017=
KMML 272055Z AUTO 24007KT 10SM CLR M11/M17 A3048 RMK AO1 57020=
KMOP 272055Z AUTO 26011G16KT 10SM BKN040 M07/M16 A3050 RMK AO2
     T10751163=
KMOT 272054Z 17011KT 10SM CLR M09/M17 A3019 RMK AO2 SLP268
     T10891172 56027=
KMZH 272055Z AUTO 26007KT 10SM CLR M07/M21 A3040 RMK AO2=
KOEB 272054Z AUTO 27008KT 10SM OVC042 M08/M18 A3055 RMK AO2
     T10851177=
KOQU 272050Z 15008KT 15SM SKC M04/M11 A3035=
KOTG 272055Z AUTO 24005KT 10SM CLR M04/M20 A3048 RMK AO1 57017=
KOWA 272055Z AUTO 22005KT 10SM CLR M13/M19 A3052 RMK AO2 PWINO=
KOZW 272055Z AUTO 25007KT 10SM CLR M09/M18 A3053 RMK AO2
     T10891183=
KPLN 272054Z AUTO 24009G21KT 10SM CLR M11/M17 A3046 RMK AO2 SLP340
     T11061172 53000=
KRGK 272051Z AUTO 28007KT 10SM CLR M09/M19 A3053 RMK AO2=
KRKS 272054Z AUTO 21005KT 10SM FEW075 SCT095 M03/M12 A2974 RMK AO2
     SLP136 T10331117 58023=
KRNP 272054Z AUTO 25009KT 10SM CLR M08/M17 A3054 RMK AO2
     T10851170=
KRQB 272054Z AUTO 27008KT 10SM CLR M07/M17 A3048 RMK AO2
     T10741167=
KRST 272054Z 25007KT 10SM CLR M14/M19 A3051 RMK AO2 SLP371
     T11391189 56011=
KSEM 272055Z AUTO 05010KT 10SM 10/M06 A3036 RMK AO2=
KSGU 272055Z AUTO 27005KT 10SM FEW120 13/M04 A2971 RMK AO1
     57037=
KSJX 272057Z AUTO 25012G16KT 10SM CLR M11/M16 A3046 RMK AO2
     T11081164=
KSLH 272058Z AUTO 23013G19KT 10SM CLR M10/M17 A3046 RMK AO2
     T11011171=
KSMN 272055Z AUTO 36003KT 10SM FEW070 FEW095 02/M06 A2973 RMK AO1
     57027=
KTQE 272054Z AUTO 14004KT 10SM CLR M08/M16 A3054 RMK AO2 SLP361
     T10831156 56025=
KTRK 272050Z 26013G25KT 10SM SCT040 SCT047 BKN070 06/M05 A2971 RMK
     NOSPECI=
KTVF 272055Z AUTO 21011KT 10SM CLR M11/M15 A3037 RMK AO1 57017=
KUKT 272055Z AUTO 32008KT 10SM CLR M04/M15 A3043 RMK AO1=
KVLL 272055Z AUTO 25005KT 10SM SCT048 M06/M20 A3056 RMK AO2
     T10581202=
KYKN 272055Z AUTO 15009KT 10SM CLR M07/M17 A3046 RMK AO1 57030=
PHJH 272050Z 36010KT 15SM FEW020 FEW035 SCT060 27/19 A3000=
KBUR 272053Z VRB03KT 10SM BKN033 OVC046 16/09 A2979 RMK AO2 SLP080
     T01610089 58022=
####018003690####
SAUS70 KWBC 272100 RRR
METAR
KBRO 272053Z 04009KT 10SM FEW032 SCT041 BKN048 18/13 A3013 RMK AO2
     SLP203 60000 T01780128 58027=
KFLL 272053Z 35009KT 10SM BKN015 OVC250 22/18 A3009 RMK AO2 SLP188
     T02170183 56003=
KJFK 272051Z 31005KT 10SM SCT250 M01/M15 A3042 RMK AO2 SLP301
     T10061150 53008=
KMCO 272053Z 01011KT 10SM SCT019 OVC026 13/10 A3021 RMK AO2 SLP228
     60000 T01330100 56009=
KPBI 272053Z 35014KT 10SM OVC007 19/17 A3010 RMK AO2 RAE18 SLP193
     P0000 60000 T01940172 56007=
PFYU 272056Z 24008G15KT 220V280 10SM CLR M02/M06 A3032 RMK AO1 SCT
     CI ABV 120=
PAAK 272056Z 29020G26KT 10SM FEW017 SCT031 BKN055 03/00 A3000 RMK
     AO1 52027=
PABL 272056Z AUTO 15015G19KT 10SM BKN027 BKN033 BKN045 01/M03
     A3019 RMK AO1 57014=
PABV 272056Z AUTO 00000KT 10SM CLR M04/M06 A3045 RMK AO1 57017=
PAEM 272056Z AUTO 15018G22KT 10SM BKN009 OVC040 M01/M03 A3015 RMK
     AO1 57020=
PAFE 272056Z AUTO 20004KT 10SM CLR 06/M01 A3042 RMK AO1 52003=
PAFM 272056Z AUTO 20009KT 10SM SCT016 OVC023 M01/M02 A3026 RMK AO1
     54000=
PAGL 272056Z AUTO 16017KT 10SM OVC024 M01/M03 A3022 RMK AO1
     57014=
PAGS 272056Z AUTO 00000KT 10SM CLR 05/M03 A3044 RMK AO1 54000
     PNO=
PAHL 272056Z AUTO 17007KT 10SM OVC024 M01/M04 A3030 RMK AO1
     57007=
PAHP 272056Z AUTO 17019KT 8SM OVC005 M01/M03 A3013 RMK AO1
     57014=
PAHY 272056Z AUTO 10SM CLR 09/M07 A3031 RMK AO1 54000=
PAII 272056Z AUTO 13013KT 10SM SCT050 BKN065 OVC075 03/01 A3032
     RMK AO1 57014=
PAIN 272056Z AUTO 00000KT 10SM CLR M08/M13 A3040 RMK AO1 57014=
PAJC 272056Z AUTO 14007KT 9SM BKN013 OVC019 03/01 A3028 RMK AO1
     P0003 60005 57017=
PAJZ 272056Z AUTO 07008KT 10SM CLR M03/M04 A3041 RMK AO2 TSNO
     58008 T10271044 SLP288 $=
PAKK 272056Z AUTO 19011KT 10SM OVC021 A3022 RMK AO1 57014=
PAKP 272056Z AUTO 22012G15KT 7SM FEW016 FEW028 OVC095 M05/M10
     A3015 RMK AO1 52010=
PAMD 272056Z 12007KT 10SM OVC013 05/02 A3044 RMK AO1 54000=
PAMH 272056Z AUTO 00000KT 10SM CLR M11/M12 A3036 RMK AO1 57020=
PAMM 272056Z AUTO 35010KT 10SM CLR 08/M03 A3032 RMK AO1 52003=
PANI 272056Z AUTO 12009KT 10SM CLR M05/M08 A3033 RMK AO1 57017=
PANV 272056Z AUTO 16005KT 10SM OVC020 M02/M06 A3027 RMK AO1
     57014=
PAPH 272056Z AUTO 14020G24KT 10SM FEW065 SCT075 04/M02 A3024 RMK
     AO1 57020=
PARC 272056Z AUTO 00000KT 10SM CLR M19/M32 A3012 RMK AO1 52014=
PASD 272056Z 04006KT 8SM SCT012 BKN016 OVC020 04/04 A3020 RMK AO1
     WEA: -RA (KH) 60001 57014=
PASK 272056Z AUTO 20013G19KT 10SM OVC060 01/M02 A3020 RMK AO1
     57010=
PASL 272056Z AUTO 15007KT 10SM OVC009 M04/M11 A3040 RMK AO1
     57010=
PASM 272056Z AUTO 15013G21KT 10SM BKN014 OVC032 M02/M06 A3021 RMK
     AO1 57014=
PATG 272056Z AUTO 09005KT 10SM OVC014 01/M02 A3031 RMK AO1
     57010=
PAUN 272056Z AUTO 17010KT 10SM OVC024 M01/M05 A3028 RMK AO1
     57010=
PAUT 272055Z AUTO 11010KT 5SM BR BKN007 BKN011 OVC016 05/04 A3006
     RMK AO2 T00450042=
PAVD 272056Z 00000KT 10SM FEW090 BKN250 01/M06 A3046 RMK AO1 2047Z
     WEA: NONE TWR WND 00000KT 52003=
PAWG 272056Z 30006KT 10SM CLR 06/M03 A3038 RMK AO1 WEA:NONE (KB)
     54000=
PAWS 272056Z AUTO 32004KT 10SM CLR M02/M10 A3042 RMK AO1 57014=
PAZK 272056Z AUTO 07005KT 10SM CLR M12/M13 A3035 RMK AO1 57003=
K19A 272055Z AUTO 31007KT 10SM CLR 11/M06 A3033 RMK AO2=
K1A5 272055Z AUTO 00000KT 10SM 07/M12 A3032 RMK AO2 T00661119=
K1A9 272055Z AUTO 03005KT 10SM CLR 09/M03 A3035 RMK AO2
     T00921027=
K1II 272055Z AUTO 01006KT 10SM CLR M06/M16 A3060 RMK AO2=
K1K1 272055Z AUTO 14004KT 2SM -SN SCT021 OVC035 M09/M13 A3051 RMK
     AO2 T10891129=
####018000708####
SAUS80 KWBC 272100 RRC
METAR
KAST 272055Z AUTO 32005KT 1 3/4SM RA BR FEW014 OVC022 10/08 A2970
     RMK AO2 RAB08 CIG 017 RWY 08 SLP057 P0009 60009 T01000083
     58006=
K8D3 272056Z AUTO 26005KT M09/M18 A3043 RMK AO1 SLP352 T10941178
     56020=
K2WX 272056Z AUTO 14015G22KT M03/M12 A2994 RMK AO1 SLP200
     T10331117 58033=
KGNR 272056Z AUTO VRB04KT M10/M23 A3015 RMK AO1 SLP246 T11001233
     53010=
KP53 272056Z AUTO 02003KT M10/M17 A3040 RMK AO1 SLP314 T11001167
     56012=
KSPD 272056Z AUTO 16020KT M12/M14 A3008 RMK AO1 PK WND 16026/1957
     SLP241 T11171139 58028=
KD07 272056Z AUTO 16021G26KT M03/M18 A3012 RMK AO1 PK WND
     15027/2035 SLP256 T10331178 56031=
####018000207####
SAUS70 KWBC 272058
METAR
KDLZ 272107Z AUTO 32006KT 10SM CLR M09/M19 A3059 RMK AO2=
KMAO 272115Z AUTO 00000KT 10SM CLR 11/00 A3036 RMK AO2=
KLVN 272021Z AUTO 24006KT 10SM CLR M12/M19 A3052 RMK AO2=
####018000125####
SAUS80 KWBC 272100 CCA
METAR
KATT 272051Z AUTO VRB04KT 10SM OVC023 01/M04 A3033 RMK AO2 SLP281
     T00111039 56025=
####018001878####
SAUS70 KWBC 272100 RRS
METAR
K36U 272055Z AUTO 25006KT 10SM SCT023 SCT040 BKN046 03/M06 A2972
     RMK AO2=
K3I2 272055Z AUTO 00000KT 10SM CLR M03/M14 A3060 RMK AO2=
K3J7 272055Z AUTO 00000KT 10SM CLR 14/00 A3028 RMK AO2=
K42J 272055Z AUTO 02009G15KT 10SM CLR 13/03 A3026 RMK AO1 TSNO=
K4A9 272055Z AUTO 02007KT 10SM CLR 03/M11 A3041 RMK AO2=
K4M9 272055Z AUTO 06011G16KT 10SM CLR M05/M11 A3059 RMK AO2=
K4O4 272055Z AUTO 05004KT 1 1/4SM OVC006 M02/M06 A3049 RMK AO2=
K5C1 272055Z AUTO 02007KT 3SM OVC006 00/M01 A3026 RMK AO1=
K6A2 272055Z AUTO 34003KT 10SM CLR 11/M03 A3033 RMK AO2=
K6L4 272055Z AUTO 00000KT 10SM OVC050 M06/M14 A3046 RMK AO2=
K7W4 272055Z AUTO 05003KT 10SM BKN050 OVC060 02/M09 A3044 RMK AO1
     T00151088=
K82V 272055Z AUTO 18014G20KT 5SM -SN SCT010 OVC026 M08/M13 A2995
     RMK AO2=
KAAA 272055Z AUTO 01003KT 10SM OVC027 M09/M15 A3066 RMK AO2 60001
     T10911155=
KAIB 272055Z AUTO 19010G14KT 10SM CLR 02/M06 A2980 RMK AO2=
KAJG 272055Z AUTO 32005KT 10SM CLR M05/M16 A3063 RMK AO2=
KANW 272055Z AUTO 18013KT 10SM CLR M04/M20 A3024 RMK AO2
     T10451201=
KAQX 272055Z AUTO 08006KT 10SM CLR 13/01 A3033 RMK AO2=
KASN 272055Z AUTO 02008KT 10SM CLR 07/M04 A3042 RMK AO2
     T00661039=
KASW 272055Z AUTO 29006KT 10SM OVC036 M08/M16 A3057 RMK AO2=
KATS 272055Z AUTO 14011KT 10SM OVC014 M05/M06 A3016 RMK AO2
     P0001=
KAUN 272055Z AUTO 25004KT 10SM FEW032 16/07 A2976 RMK AO1=
KAXS 272055Z AUTO 05007KT 2SM -SN OVC007 M07/M10 A3045 RMK AO2
     T10691102=
KAZC 272055Z AUTO 24004KT 10SM OVC060 10/M04 A2974 RMK AO2
     T01011045=
KBCK 272055Z AUTO 23006KT 10SM CLR M09/M22 A3053 RMK AO2
     T10871220=
KBDN 272055Z AUTO 10003KT 8SM -RA FEW002 SCT022 SCT032 04/02 A2965
     RMK AO2 P0012=
KNSE 272056Z 03011KT 10SM SCT250 14/M02 A3028 RMK AO2 SLP243
     T01441017 56022 $=
####018000309####
SAAS31 KWBC 272030 RRD
METAR
VAAH 272040Z VRB03KT 4000 FU FEW080 17/05 Q1009 NOSIG=
VABB 272040Z VRB03KT 3000 HZ NSC 23/20 Q1010 NOSIG=
VOMM 272040Z 12006KT 6000 FEW020 27/24 Q1010 NOSIG=
VOTR 272040Z VRB02KT 6000 SCT016 26/23 Q1010 NOSIG=
VOTV 272040Z 06003KT 4000 HZ FEW018 26/23 Q1009 NOSIG=
####018000169####
SAUS44 KCRP 272057
MTRNGP
METAR KNGP 272056Z 05022G27KT 5SM -RA BR BKN010 OVC020 11/08 A3019 
RMK AO2 PK WND 06028/2034 RAB56 SLP223 P0000 60000 T01060083 58023
####018000157####
SAUS46 KPDT 272056
MTRMEH
METAR KMEH 272056Z AUTO 09003KT 4SM -RA SCT014 BKN027 OVC037 04/01 
A2966 RMK AO2 RAB34 SLP058 P0000 60000 T00440011 58010
####018000118####
SAUS43 KDDC 272057
MTRP28
METAR KP28 272056Z AUTO 10004KT M10/M13 A3047 RMK AO1 SLP346 60002 
T11001133 58016
####018000129####
SAUS46 KSGX 272057
MTRNRS
METAR KNRS 272056Z 18011G19KT 10SM FEW025 BKN035 18/11 A2984 RMK AO2 
SLP104 T01830111 58012 $
####018000141####
SAUS45 KPSR 272057
MTRALK
METAR KALK 272056Z AUTO 26021G29KT 10SM CLR 18/M08 A2980 RMK AO2 PK 
WND 22032/2044 SLP028 T01831083 58025
####018000118####
SAUS46 KSGX 272056
MTRNXF
METAR KNXF 272056Z AUTO 19010KT 7SM CLR 18/11 A2981 RMK AO2 SLP179 
T01830106 58019
####018000584####
SAUK39 EGRR 272050
METAR EGDR 272050Z 19015G27KT 4000 -DZ SCT007 BKN010 OVC024 07/06 Q1016 GRN=
METAR EGQM 272050Z AUTO 17013KT 9999 FEW041/// BKN100/// 05/02 Q1010=
METAR EGVN 272050Z 19005KT CAVOK 05/01 Q1017 BLU NOSIG=
METAR EGVO 272050Z 18009KT CAVOK 05/01 Q1018 BLU=
METAR EGWU 272050Z 21007KT CAVOK 05/01 Q1019 BLU NOSIG=
METAR EGXC 272050Z 20009KT CAVOK 05/00 Q1016 BLU=
METAR EGXE 272050Z 17009KT 9999 BKN047 05/M00 Q1013 BLU BECMG BKN020 WHT=
METAR EGXV 272050Z AUTO 20007KT 9999 BKN150/// 04/M00 Q1014=
METAR EGXW 272050Z 20013KT CAVOK 05/M00 Q1015 BLU=
####018000124####
SAUS46 KLOX 272056
MTR9L2
METAR K9L2 272055Z AUTO 27015G23KT 10SM CLR 18/03 A2969 RMK AO2 
SLP049 T01780028 57029 $
####018000075####
SAIQ01 ORBI 272100
METAR ORBI 272100Z 31003KT CAVOK 10/02 Q1018 NOSIG=
####018000150####
SADN31 KWBC 272050 RRA
METAR
EKVG 272050Z AUTO 15023G35KT 8000NDV -RA OVC007/// 06/05 Q0980 RMK
     BKN008/// WIND 850FT 15036G55KT 110V170=
####018000168####
SAEN31 KWBC 272050 RRA
METAR
EFIV 272050Z AUTO 18011KT 140V230 5000 -SN OVC018 M01/M03
     Q1004=
EFKE 272050Z AUTO 18019G29KT 2300 -SN OVC016 00/M02 Q1009=
####018000122####
SAZS31 NSTU 272057
MTRPPG
METAR NSTU 272055Z 10013KT 12SM SCT022 BKN110 31/26 A2978 RMK SLP085
8/170 T03110261 52005=####018000778####
SAGR31 KWBC 272050 RRA
METAR
LGAD 272050Z 00000KT 9999 FEW018TCU SCT025 OVC080 09/08 Q1007=
LGAL 272050Z 04009KT 9999 FEW030 BKN080 13/06 Q1006=
LGEL 272050Z 00000KT 7000 -RA FEW010 BKN025 OVC070 09/09 Q1005=
LGKF 272050Z AUTO 33005KT 280V350 //// -RA ////// 12/// Q1007
     RE//=
LGKL 272050Z 00000KT 9999 -RA SCT020TCU SCT030 OVC080 10/09
     Q1007=
LGKO 272050Z 13003KT 9999 SCT018 10/08 Q1009=
LGKV 272050Z 09008KT 9999 SCT030 BKN080 13/09 Q1006=
LGLM 272050Z AUTO 13008KT //// -RA ////// 11/10 Q1006 RE//=
LGMT 272050Z NIL=
LGSA 272050Z 34005KT 9999 FEW018TCU SCT025 11/06 Q1008=
LGSM 272050Z NIL=
LGSR 272050Z AUTO 24013KT //// -RA ////// 14/08 Q1008 RE//=
LGTS 272050Z 33012KT 9999 DZ FEW012 BKN025 OVC070 11/08 Q1007
     TEMPO RA=
####018000413####
SAGR41 KWBC 272050 RRA
METAR
LGKP 272050Z AUTO 23018KT //// -RA ////// 15/08 Q1011 RE//=
LGKZ 272050Z AUTO 32006KT //// -RA ////// 07/05 Q1007 RE//=
LGMK 272050Z NIL=
LGPZ 272050Z 00000KT 9999 FEW012 FEW020TCU SCT025 OVC080 10/08
     Q1008=
LGRX 272050Z 05004KT 8000 -RA FEW020TCU BKN025 OVC080 10/10
     Q1007=
LGSK 272050Z NIL=
LGZA 272050Z AUTO 33004KT //// // ////// 10/// Q1007 RERA=
####018000608####
SAMX31 KWBC 272045 RRC
METAR
MMAA 272044Z 21005KT 8SM FEW010 SCT300 28/22 A2984 RMK SLP114
     57001 926 8/102 HZY=
MMMX 272048Z 15010KT 12SM FEW025 BKN200 23/00 A3012 NOSIG RMK
     SLP023 57021 912 8/108 HZY=
MMMY 272048Z 12004KT 1 1/2SM -DZ BR BKN004 OVC006 08/06 A3014 RMK
     SLP229 55020 944 60025 8/7//=
MMMZ 272045Z 23009KT 15SM FEW230 24/14 A2985 RMK SLP108 57020 903
     8/005=
MMTM 272055Z 36010KT 7SM SCT030 BKN050 OVC070 20/14 A3008 RMK
     8/57/=
MMTM 272055Z NIL=
MMVR 272044Z 03012KT 6SM FEW015 SCT030 BKN045 22/15 A3005 RMK
     SLP154 57025 939 8/800 HZY=
####018000089####
SAMX31 KWBC 272145
METAR
MNMG 272100Z 09012KT 9999 SCT022 34/19 Q1007 A2976 NOSIG=
####018001137####
SAMX41 KWBC 272045 RRC
METAR
MMBT 272040Z 00000KT 7SM FEW040 29/24 A2987 RMK 8/100 HZY=
MMCL 272043Z 21005KT 10SM FEW025 29/15 A2987 RMK SLP118 57020 907
     8/100=
MMCN 272045Z 16012KT 10SM FEW025 25/13 A2981 RMK SLP095 8/100
     HZY=
MMCS 272046Z 10013KT 10SM SCT250 06/M03 A2992 RMK SLP133 57041 974
     8/002=
MMCU 272040Z 07019KT 10SM SKC 19/M01 A2986 RMK SLP090 57037
     967=
MMCV 272046Z 08006KT 10SM SCT020TCU BKN070 20/09 A3009 RMK SLP194
     57037 940 8/270=
MMGM 272056Z NIL=
MMHO 272045Z 17015KT 10SM SKC 28/09 A2980 RMK SLP084 57023 966
     ISOL CU HZY=
MMLP 272040Z 16006KT 10SM SKC 27/05 A2985 RMK SLP108 57033 961=
MMMA 272044Z 04006KT 6SM SCT025 OVC070 18/14 A3017 RMK SLP200
     57034 931 8/15/ HZ BINOVC ISOL CI=
MMML 272048Z 21008KT 10SM SKC 25/03 A2968 RMK SLP051 57027 990
     HZY=
MMMT 272054Z 36015KT 10SM OVC020 23/20 A2996 RMK SLP221 55001 940
     8/5//=
MMNL 272040Z 02008KT 1 1/2SM -DZ BR OVC010 04/02 A3025 RMK SLP300
     57014 945 60035 8/7//=
MMRX 272045Z 03008KT 7SM SCT030 BKN050 OVC080 15/07 A3015 RMK
     SLP208 57029 942 8/53/ HZY FU=
####018000376####
SAMX42 KWBC 272045 RRA
METAR
MMSD 272042Z 12018KT 12SM SKC 26/13 A2986 RMK SLP099 57020 960=
MMTC 272040Z 09006KT 8SM SKC 23/03 A2994 RMK SLP075 57027 900 HZY
     PRESFR=
MMTJ 272056Z NIL=
MMTO 272046Z 20005KT 7SM SCT015 BKN200 21/M02 A3021 RMK SLP059
     57003 910 8/108 HZY=
MMZH 272040Z 22005KT 7SM SCT250 31/22 A2986 RMK SLP/// 5//// 9//
     8/002=
####018000379####
SANL31 KWBC 272050 RRA
METAR
EHDL 272055Z AUTO 25003KT 9999 FEW100 M01/M02 Q1021 BLU=
EHGR 272055Z AUTO 21004KT 9999 OVC380 01/M00 Q1021 BLU=
EHLW 272055Z AUTO 23004KT 9999 FEW026 OVC029 02/01 Q1019 BLU=
EHVK 272055Z AUTO 25003KT 9999 NCD 00/M01 Q1021 BLU=
EHVL 272055Z AUTO 25009KT 9999 NCD 04/01 Q1019 BLU=
EHWO 272055Z AUTO 20001KT 9999 NCD M01/M02 Q1022 BLU=
####018000087####
SAUK32 KWBC 272050 RRA
METAR
EGNS 272050Z 21025KT 9999 BKN015 08/05 Q1009 NOSIG=
####018000109####
SAXX99 KWBC 272000 CCC
METAR
LTFJ 272020Z 03012KT 9999 FEW035 SCT100 09/06 Q1007 BECMG
     VRB02KT=
####018000797####
SAXX99 KWBC 272000 RRX
METAR
K8S0 272040Z 35012G25KT=
MMAN 272040Z 02002KT 1SM -DZ BR BKN003 OVC005 07/07 A3017 RMK
     SLP212 57024 944 60035 8/7// -DZ INTMT=
MMCB 272044Z 00000KT 10SM FEW020 SCT200 29/02 A2997 RMK 8/102=
MMLM 272040Z 19015KT 10SM SKC 25/10 A2987 RMK SLP115 HZY=
MMLT 272042Z 00000KT 8SM SKC 27/17 A2979 RMK SLP088=
MMMV 272040Z 05005KT 1 1/2SM BR OVC010 03/02 A3016 RMK 8/5//=
MMOX 272045Z 09007KT 10SM SCT025 SCT200 26/03 A3007 RMK SLP048
     57048 920 8/108 HZY=
MMPB 272044Z 19014KT 11SM BKN220 22/02 A3015 RMK 8/002 ISOL CU=
MMPG 272042Z 06006KT 1/2SM -DZ FG OVC003 02/02 A3027 RMK 8/5//=
MMPS 272041Z 23006KT 13SM SKC 26/22 A3000 RMK SLP134 57020 957 CU
     N HZY=
MMQT 272045Z 30005KT 7SM SCT025 BKN250 24/05 A3010 RMK 8/102
     HZY=
####018001697####
SAZZ40 KAWN 272100 RRD
METAR EFKI 272050Z AUTO 18008KT 070V220 9999 SCT018 M01/M04 Q1015=
METAR K1QW 272056Z AUTO 01024G32KT M /// /// M 03/01 A2969 RMK AO2
      PK WND 36030/15 SLP072 60001 T00250007 50005 $=
METAR K1YT 272056Z AUTO 07015G22KT 10SM BKN032 07/03 A2976 RMK AO2
      SLPNO 60009 T00730028 58007=
METAR K2DP 272056Z AUTO 01007G14KT 10SM CLR 07/M03 A3040 RMK AO2 SLPNO
      T00701026 52014=
METAR KBAF 272053Z 30009KT 10SM CLR M04/M19 A3036 RMK AO2 SLP290 T10391189
      53009=
METAR KCWN 272056Z AUTO 12006KT 3/4SM -SN OVC006 M14/M15 A2952 RMK
      AO2 SLP100 T11401149 57019 $=
METAR KFEW 272056Z AUTO 20012G19KT 6SM -SN BKN013 M12/M15 A2981 RMK
      AO2 SLP196 T11181152 57017 $=
METAR KFHU 272055Z 23020G26KT 10SM FEW090 FEW160 FEW240 19/M08 A2979
      RMK PK WND 24031/27 ACSL SE SLP053 58024=
METAR KFMH 272055Z AUTO VRB04KT 10SM CLR M04/M14 A3035 RMK AO2 FZRANO=
METAR KNBC 272057Z 09007KT 7SM FEW060 SCT150 BKN200 10/02 A3034 RMK
      SLP275 T01000022 55010=
METAR KSXS 272056Z AUTO 05008KT 10SM CLR 14/M02 A3030 RMK AO2 SLP264
      T01361019 57018=
METAR KTDR 272056Z AUTO 02010G17KT 10SM CLR 13/04 A3026 RMK AO2 SLP251
      T01290038 56016=
METAR KTOI 272053Z AUTO 04009G16KT 10SM CLR 13/M03 A3032 RMK AO2 SLP268
      T01331028 56018=
METAR KVBG 272055Z 32021G28KT 10SM SCT015 BKN020 BKN250 16/12 A2986
      RMK AO2A PK WND 32030/2011 BKN020 V SCT SLP102 T01610117 58012=
METAR MTPP 272100Z 08010G22KT 9999 FEW028 32/// Q1014 A2994=
METAR OAHR 272055Z AUTO 25003KT CAVOK 00/M05 Q1023=
METAR OKBK 272100Z 27003KT CAVOK 12/00 Q1017 NOSIG=
METAR TXKF 272055Z 24017KT 9000 -RA BKN007 OVC017 22/20 Q1022=
####018000115####
SAUS44 KMRX 272057
MTRNMM
METAR KNMM 272056Z 06009KT 10SM CLR 08/M06 A3039 RMK AO2 SLP302 
T00831056 56024
####018000129####
SAUS44 KSHV 272057
MTRAQV
METAR KAQV 272056Z AUTO 03005G14KT 10SM CLR 08/M03 A3034 RMK AO2 
SLP275 6//// T00781028 57019
####018000120####
SAUS44 KBMX 272057
MTRPRN
METAR KPRN 272056Z AUTO 03007KT 10SM CLR 11/M03 A3032 RMK AO2 SLP267 
T01111033 56017
####018000120####
SAUS41 KAKQ 272058
MTRNFE
METAR KNFE 272056Z AUTO 36010KT 10SM CLR 04/M03 A3043 RMK AO2 SLP307 
T00391033 51015
####018000101####
SAUS42 KMHX 272058
MTRNBT
METAR KNBT 272056Z AUTO A3038 RMK AO2 SLP293 6//// 53007 PWINO PNO $
####018000131####
SAUS44 KMOB 272058
MTR79J
METAR K79J 272056Z AUTO 06007G15KT 010V100 10SM CLR 16/M02 A3030 RMK 
AO2 SLP260 T01561022 56018
####018000795####
SAUS20 KNKA 272056
METAR KXBP 272055Z AUTO 05007KT 2SM -SN OVC008 M05/M06 A3045 RMK 
 AO2 60001 T10521060=
METAR KZPH 272055Z AUTO 04010G14KT 10SM OVC023 15/07 A3020 RMK AO2=
METAR PAAK 272056Z 29020G26KT 10SM FEW017 SCT031 BKN055 03/00 A3000 
 RMK AO1 52027=
METAR PADK 272056Z AUTO 29004KT 10SM SCT035 SCT041 02/M04 A3013 RMK 
 AO1 WSHFT 37 52030=
METAR PAGL 272056Z AUTO 16017KT 10SM OVC024 M01/M03 A3022 RMK AO1 
 57014=
METAR PAHP 272056Z AUTO 17019KT 8SM OVC005 M01/M03 A3013 RMK AO1 
 57014=
METAR PAUT 272055Z AUTO 11010KT 5SM BR BKN007 BKN011 OVC016 05/04 
 A3006 RMK AO2 T00450042=
METAR KCFJ 272055Z AUTO 36006KT 10SM CLR M10/M22 A3060 RMK AO2 
     T11011222=
METAR K5A6 272100Z AUTO 07008KT 040V100 10SM CLR 03/M04 A3042 RMK 
     AO2 T00311042=
####018000081####
SAFJ31 NFNA 272100
METAR NFNA 272100Z 00000KT 9999 FEW020 BKN280 27/25 Q1008=
####018000160####
SAMH31 PKMR 272100
METAR PKMR 272054Z 07013KT 5SM SHRA SCT014TCU BKN050 BKN120 OVC300
26/24 A2980 RMK SHRAB44 TCU ALQDS SLP093 60007 8/878 T02620244 52022
####018000515####
SADR31 MDSD 272100
METAR
METAR MDPP 272100Z 09017KT 9999 FEW022 28/22 Q1015=
METAR MDST 272100Z 12012KT 9999 FEW028 30/19 Q1015=
METAR MDPC 272100Z 11008KT 9999 FEW027 28/22 Q1016=
METAR MDBH 272100Z 13018KT 9999 FEW020 28/22 Q1015
METAR MDJB 272100Z 18005KT 9999 FEW022 29/21 Q1015=	
METAR MDSD 272100Z 14010KT 9999 FEW022 28/21 Q1016=
METAR MDLR 272100Z 10012KT 9999 SCT022 30/20 Q1015= 
METAR MDCY 272100Z 11010KT 9999 FEW022 30/23 Q1015 =
METAR MDAB 272100Z09010KT 9999 FEW022 30/24 Q1016=
####018000119####
SAHW40 PHFO 272057
MTRBKH
METAR PHBK 272056Z AUTO 36020KT 10SM CLR 26/18 A3000 RMK AO2 SLP160 
T02560178 50007
####018000156####
SAUS46 KMFR 272058
MTRSXT
METAR KSXT 272056Z AUTO 25005KT 2 1/2SM BR BKN003 BKN007 OVC016 
04/03 A2973 RMK AO2 VIS 1V5 SLP073 60000 T00390033 58015
####018000137####
SAAK48 PANC 272058
MTRASY
METAR PASY 272056Z 33013KT 9SM -SN SCT030 OVC037 M03/M10 A3029 RMK 
AO2 SNB17 SLP259 T10281100 53024 $
####018000089####
SPAU32 AMMC 272058
SPECI YWLM 272058Z AUTO 00000KT 1000 // OVC001 18/18 Q1011=


####018000089####
SPAU69 AMMC 272058
SPECI YWLM 272058Z AUTO 00000KT 1000 // OVC001 18/18 Q1011=


####018000091####
SAFJ31 NFFN 272100
METAR NFFN 272100Z 00000KT 9999 FEW025TCU BKN300 28/25 Q1008 NOSIG=
####018000071####
SANL32 EHDB 272055
METAR EHEH 272055Z NIL=
METAR EHKD 272055Z NIL=
####018000091####
SABZ22 SBBR 272100
METAR SBBR 272100Z 26003KT 9999 FEW040 FEW045TCU BKN100 25/17 Q1016=
####018001542####
SAXN17 KAWN 272100 RRC
METAR MMEP 272053Z 24006KT 12SM BKN250 28/08 A2995 RMK SLP143 57018
      902 8/008 PRESFR=
METAR MMHO 272045Z 17015KT 10SM SKC 28/09 A2980 RMK SLP084 57023 966
      ISOL CU HZY=
METAR MMMT 272054Z 36015KT 10SM OVC020 23/20 A2996 RMK SLP221 55001
      940 8/5//=
METAR MMMX 272048Z 15010KT 12SM FEW025 BKN200 23/00 A3012 NOSIG RMK
      SLP023 57021 912 8/108 HZY=
METAR MMOX 272045Z 09007KT 10SM SCT025 SCT200 26/03 A3007 RMK SLP048
      57048 920 8/108 HZY=
METAR MMQT 272045Z 30005KT 7SM SCT025 BKN250 24/05 A3010 RMK 8/102
      HZY=
METAR MMTM 272055Z 36010KT 7SM SCT030 BKN050 OVC070 20/14 A3008 RMK
      8/57/=
METAR MMTO 272046Z 20005KT 7SM SCT015 BKN200 21/M02 A3021 RMK SLP059
      57003 910 8/108 HZY=
METAR MROC 272100Z 08012KT 9999 FEW040 29/13 A2992 NOSIG=
METAR MTPP 272100Z 08010G22KT 9999 FEW028 32/// Q1014 A2994=
METAR MUGM 272056Z 17008KT 9999 FEW030 FEW070 29/23 A2999 RMK SLP154
      T02940228 56015=
METAR NFTF 272100Z 00000KT 9999 FEW017 SCT120 29/27 Q1011=
METAR NFTV 272100Z 07007KT 9999 FEW009 SCT017TCU BKN120 29/25 Q1010=
METAR PAEH 272055Z AUTO 13013G22KT 10SM CLR 01/M01 A3023 RMK AO2 SLP247
      T00091012 57008 TSNO $=
METAR PAFB 272055Z 27004KT 25SM SCT200 M09/M12 A3045 RMK SLP325 58010=
METAR PAIM 272055Z AUTO 18004KT 10SM OVC019 M02/M04 A3029 RMK AO2 SLP280
      P0002 60005 T10221041 57002=
METAR SVMI 272100Z 05003KT 9999 FEW023 31/24 Q1012 NOSIG=
METAR TXKF 272055Z 24017KT 9000 -RA BKN007 OVC017 22/20 Q1022=
####018000847####
SPZZ40 KAWN 272058 RRN
SPECI CYDC 272052Z 36011G17KT 310V040 15SM BKN040 OVC100 05/M03 A2989
      RMK SC5AC3 WSHFT 2035 SLP138=
SPECI CYKL 272055Z AUTO 29012G20KT 7SM -SN OVC035 M26/M33 A2966 RMK
      SLP117=
SPECI CYUS 272052Z AUTO 21021KT 1/4SM OVC011 M20/ A2928=
SPECI ETEB 272053Z AUTO 28006KT 8000 -RA BR OVC004 00/00 A3003 RMK
      AO2=
SPECI ETIK 272056Z AUTO 25006KT 9999 UP OVC006 01/01 A3006 RMK AO2=
SPECI KCOF 272055Z AUTO 34018G22KT 330V060 10SM -TSRA OVC007 13/13
      A3017 RMK AO2 LTG DSNT E RAE42DZB42E48RAB48E51RAB55 TSB48 $=
SPECI KEND 272053Z AUTO 06007KT 8SM BKN005 OVC043 M09/M13 A3048 RMK
      AO2 SNB45E49 CIG 005V007 $=
SPECI LBPD 272053Z 25003KT 4700 BR NSC 07/06 Q1010 TEMPO 3000 BR=
SPECI RODN 272054Z AUTO 08014KT 7SM R05/5500FT BKN004 OVC027 17/16
      A3006 RMK AO2 DZB33E49 $=
####018000997####
SAXX70 KAWN 272100 RRC
METAR KQFG 272055Z AUTO 00000KT 9999 BKN100 10/04 A3013 RMK AO2 SLP203
      T00960040 57002=
METAR KQGV 272055Z 27007KT 9999 CLR 12/01 A3007 RMK SLPNO QNH1018 PA
      +327 50000=
METAR KQQY 272055Z AUTO 35006KT 9999 FEW050 31/19 A2987 RMK AO2 SLP090
      T03130187 56033 $=
METAR KQTF 272055Z AUTO 14001KT 7SM CLR 13/11 A3010 RMK AO2 SLP194
      T01260107 52009 $=
METAR KQVF 272055Z AUTO 11002KT 9999 CLR 26/23 A2987 RMK AO2 SLP113
      T02610226 50005 $=
METAR KQXT 272055Z 26008KT 6000 DU CLR 06/M01 A3008 RMK SLP198 WND
      DATA ESTMD ALSTG/SLP ESTMD Q1018 56007=
METAR KQBL 272056Z AUTO 35005G12KT 10SM CLR 14/00 A3028 RMK AO2 SLP259
      T01380002 57020=
METAR KQHY 272056Z AUTO 02007G13KT 10SM FEW220 14/00 A3028 RMK AO2
      SLP261 T01360000 57020=
METAR KQRH 272056Z AUTO 19002KT 9000 CLR 24/19 A2998 RMK AO2 SLP145
      T02400186 402950225 50002=
METAR KQWM 272056Z 27006KT 9999 CLR 14/02 A3008 RMK SLPNO QNH1018=
####018002954####
SAUS20 KNKA 272057
METAR K1M4 272056Z AUTO 06007KT 010V070 10SM 01/M09 A3046 RMK AO2 
    56014 T00111088 SLP321 $=
METAR K1P1 272055Z AUTO 27007KT 10SM CLR M06/M19 A3033 RMK AO2 
 T10581188=
METAR K2D5 272055Z AUTO 20011G15KT 10SM M10/M16 A3038 RMK AO2 =
METAR K46D 272055Z AUTO 10SM CLR M11/M16 A3030 RMK AO2=
METAR KADM 272055Z 04006KT 3/4SM -SN OVC005 M06/M07 A3048 RMK RWY 31 
 ILS - ATIS A PLOWS RWY 13/31, 1" SN ALL ARPT SFCS BAAIE, BRKG 
 ACTN NIL VEH @ 1912Z=
METAR KAEJ 272055Z AUTO 00000KT 10SM SCT019 BKN046 OVC049 M09/M13 
 A2974 RMK AO2 T10901134=
METAR KAJZ 272055Z AUTO 00000KT 10SM SCT037 BKN050 OVC065 03/00 
 A2978 RMK AO2 P0001 60001 T00290002=
METAR KAND 272056Z AUTO 30005KT 10SM CLR 12/M04 A3032 RMK AO2 SLP268 
 T01171039 55006=
METAR KBAC 272055Z AUTO 21009KT 10SM CLR M11/M17 A3036 RMK AO2 =
METAR KBJJ 272056Z AUTO 33006KT 10SM SCT037 M10/M18 A3055 RMK AO2 
 SLP374 60000 T11001183 53003 TSNO=
METAR KBOK 272056Z AUTO 29008KT 9SM SCT008 SCT013 BKN070 11/10 A2985 
 RMK AO2 58013 60000 T01110100 BKN V SCT SLP109=
METAR KBXK 272055Z AUTO 21010G15KT 10SM CLR 23/M02 A2968 RMK AO1=
METAR KCAE 272056Z 00000KT 10SM FEW050 SCT220 13/M01 A3033 RMK AO2 
 SLP270 T01281006 55014=
METAR KCHS 272056Z 11009KT 10SM BKN200 10/01 A3035 RMK AO2 SLP277 
 T01000011 55007=
METAR KCTB 272056Z AUTO 35018KT 3SM -SN OVC017 M08/M12 A3002 RMK AO2 
 SLP232 P0000 60000 T10831122 51001=
METAR KCXP 272055Z AUTO 24016G26KT 10SM CLR 10/M06 A2968 RMK AO2=
METAR KCXY 272056Z 29009KT 10SM FEW050 M03/M14 A3047 RMK AO2 SLP324 
 T10281144 53012=
METAR KD50 272055Z AUTO 18010KT 10SM CLR M09/M16 A3012 RMK AO2 =
METAR KDIJ 272056Z AUTO 00000KT 2SM -SN FEW001 SCT019 BKN033 M03/M06 
 A2973 RMK AO2 58014 60000 T10271061 BKN V OVC P0000 SLP082=
METAR KDIK 272056Z AUTO 17018KT 10SM CLR M04/M15 A3005 RMK AO2 
 SLP231 T10391150 58030=
SPECI KDRO 272056Z AUTO 00000KT 1 3/4SM -SN BR FEW010 BKN016 OVC025 
 M02/M04 A2979 RMK AO2 SNB54 P0000 T10171039=
METAR KDUG 272056Z AUTO 22024G30KT 10SM CLR 20/M05 A2979 RMK AO2 PK 
 WND 24030/1957 SLP046 T02001050 58024=
METAR KEAU 272056Z 22009KT 10SM CLR M11/M18 A3051 RMK AO2 SLP356 
 T11111183 56013=
METAR KELZ 272056Z AUTO 31010KT 10SM CLR M11/M21 A3036 RMK AO2 
    SLP332 60000 T11061211 53014=
METAR KEQA 272055Z AUTO 11005KT 1 3/4SM -SN OVC020 M07/M12 A3050 
 RMK AO2=
METAR KFSD 272056Z 22007KT 10SM CLR M11/M18 A3045 RMK AO2 SLP351 
 T11061183 56022=
METAR KGRD 272056Z AUTO 18003KT 10SM CLR 12/M02 A3033 RMK AO2 SLP273 
 T01221022 55010=
METAR KGZL 272055Z AUTO 08006KT 1SM -SN BKN003 M06/M10 A3054 RMK 
 AO2=
METAR KHPN 272056Z 33011KT 10SM CLR M03/M17 A3037 RMK AO2 SLP296 
 T10331167 53007=
METAR KHWV 272056Z AUTO 30006KT 10SM CLR M03/M16 A3041 RMK AO2 
 SLP298 6//// T10281156 53013 TSNO=
METAR KIGX 272056Z AUTO 28005KT 10SM SCT049 06/M06 A3039 RMK AO2 
    SLP294 T00611056 53001 TSNO=
####018002473####
SAUS20 KNKA 272057
METAR KINW 272056Z AUTO 35007KT 10SM OVC090 10/M02 A2974 RMK AO2 
 SLP057 T01001022 58025=
METAR KISP 272056Z 31006KT 10SM FEW250 M02/M16 A3039 RMK AO2 SLP293 
 T10221156 53012=
METAR KITH 272056Z 33008KT 10SM CLR M11/M18 A3045 RMK AO2 53013 
 T11111183 SLP339=
METAR KJAX 272056Z 04015KT 10SM FEW025 FEW150 OVC200 11/03 A3030 RMK 
 AO2 SLP259 T01060028 56009=
METAR KJXN 272056Z 28008KT 10SM CLR M09/M19 A3054 RMK AO2 SLP367 
 T10941194 53002=
METAR KLRD 272056Z 02008KT 5SM -RA BR OVC009 03/02 A3025 RMK AO2 
 58026 60001 T00330022 CIG 006V012 P0001 SLP240=
METAR KLWS 272056Z 00000KT 10SM CLR 11/03 A2972 RMK AO2 SLP070 
 T01060033 58023=
METAR KLZZ 272055Z AUTO 04008KT 3SM BR OVC010 M01/M02 A3032 RMK AO2
 T10141024=
METAR KM19 272056Z AUTO 01008KT 10SM OVC100 M04/M10 A3061 RMK AO2 
    55008 T10381100 PRESRR SLP369=
METAR KMDT 272056Z 34008KT 10SM SCT045 M03/M12 A3047 RMK AO2 SLP322 
 T10281122 53011 $=
METAR KMKS 272115Z AUTO 00000KT 7SM CLR 11/00 A3035 RMK AO2=
METAR KMOB 272056Z 06011KT 10SM SCT200 12/M02 A3029 RMK AO2 SLP256 
 T01171017 56026=
METAR KMOR 272055Z AUTO 30006KT 10SM CLR 00/M09 A3045 RMK=
METAR KMQY 272056Z 36007KT 330V080 10SM CLR 01/M12 A3054 RMK AO2 
 55013 T00111116 SLP356=
METAR KOFK 272056Z AUTO 10SM CLR M06/M18 A3043 RMK AO2 SLP340 
 T10611178 56027=
METAR KOLV 272050Z 02010KT 10SM BKN250 00/M07 A3050=
METAR KRCE 272055Z AUTO 08008KT 6SM -SN FEW015 M08/M10 A3048 RMK 
 AO2 P0008=
METAR KRDM 272056Z 32007KT 10SM FEW035 BKN065 BKN085 07/03 A2965 RMK 
 AO2 RAE09 SLP045 P0000 60002 T00670028 58012=
METAR KRNC 272055Z AUTO VRB04KT 10SM CLR 00/M12 A3047 RMK=
METAR KRNV 272055Z AUTO 03013KT 10SM CLR 01/M03 A3048 RMK AO2 
 T00121034=
METAR KRZL 272055Z AUTO 28003KT 10SM CLR M08/M17 A3061 RMK AO2=
METAR KSEE 272047Z 23015KT 20SM BKN035 19/09 A2983=
METAR KSHV 272056Z 02013KT 10SM OVC080 01/M06 A3043 RMK AO2 SLP304 
 T00111061 58019=
METAR KSLE 272056Z 18012KT 10SM SCT019 BKN044 OVC055 12/07 A2972 RMK 
 AO2 RAB36E46 SLP063 P0000 60000 T01170072 58014=
METAR KSVC 272055Z AUTO 17010G15KT 10SM CLR 08/M04 A2988 RMK AO2=
METAR KSYR 272054Z 30011KT 10SM BKN031 BKN035 M08/M17 A3049 RMK 
 SLP329 T10781167 53012=
METAR KUCP 272056Z AUTO 27003KT 10SM FEW043 M10/M20 A3055 RMK AO2 
    53005 T11001200 SLP386=
METAR KWMC 272056Z AUTO 12003KT 5SM -RA BR OVC024 02/01 A2967 RMK 
 AO2 SLP055 P0005 60010 T00220011 58023=
####018000102####
SAGR34 LGAT 272050 RRA
METAR LGKR 272050Z 27003KT 9999 FEW018TCU BKN035 OVC080 11/09 Q1007
NOSIG=
####018000091####
SAPR01 SPIM 272100
METAR SPIM 272100Z 17013KT CAVOK 27/19 Q1010 NOSIG RMK BKN230 PP000=
####018000068####
SABZ21 SBGL 272100
METAR SBGL 272100Z 13009KT CAVOK 28/22 Q1007=
####018001545####
SAEU KAWN 272100 RRH
METAR EGNS 272050Z 21025KT 9999 BKN015 08/05 Q1009 NOSIG=
METAR EGXE 272050Z 17009KT 9999 BKN047 05/M00 Q1013 BLU BECMG BKN020
      WHT=
METAR EGXW 272050Z 20013KT CAVOK 05/M00 Q1015 BLU=
METAR EHAM 272055Z 22008KT 9999 FEW020 02/M00 Q1021 NOSIG=
METAR EHBK 272055Z AUTO 27003KT 240V300 9999 NCD 02/M01 Q1021 NOSIG=
METAR EHGG 272055Z AUTO 24004KT 9999 NSC 00/M00 Q1019 NOSIG=
METAR EHRD 272055Z AUTO 22004KT 9999 NCD 01/M00 Q1021 NOSIG=
METAR EKVG 272050Z AUTO 15023G35KT 8000NDV -RA OVC007/// 06/05 Q0980
      RMK BKN008/// WIND 850FT 15036G55KT 110V170=
METAR LEJR 272100Z 22005KT CAVOK 12/11 Q1025=
METAR LGAD 272050Z 00000KT 9999 FEW018TCU SCT025 OVC080 09/08 Q1007=
METAR LGAL 272050Z 04009KT 9999 FEW030 BKN080 13/06 Q1006=
METAR LGBL 272050Z 27005KT 6000 RA SCT008 BKN020 OVC070 09/09 Q1005
      WHT=
METAR LGKL 272050Z 00000KT 9999 -RA SCT020TCU SCT030 OVC080 10/09 Q1007=
METAR LGKO 272050Z 13003KT 9999 SCT018 10/08 Q1009=
METAR LGKZ 272050Z AUTO 32006KT //// -RA ////// 07/05 Q1007 RE//=
METAR LGLM 272050Z AUTO 13008KT //// -RA ////// 11/10 Q1006 RE//=
METAR LGPZ 272050Z 00000KT 9999 FEW012 FEW020TCU SCT025 OVC080 10/08
      Q1008 BLU=
METAR LGRX 272050Z 05004KT 8000 -RA FEW020TCU BKN025 OVC080 10/10 Q1007
      BLU=
METAR LGSO 272050Z AUTO 21017G33KT 190V280 //// -RA ////// 12/09 Q1006
      RE//=
METAR LGTG 272050Z 00000KT 6000 -RA FEW010 BKN030 OVC080 08/08 Q1005
      WHT=
METAR LGZA 272050Z AUTO 33004KT //// // ////// 10/// Q1007 RERA=
####018000075####
SAAH39 OAHR 272055
METAR OAHR 272055Z AUTO 25003KT CAVOK 00/M05 Q1023=
####018000095####
SABZ20 SBCZ 272100
METAR SBCZ 272100Z 24003KT 9999 FEW008 SCT030 BKN100 26/25 Q1009 RETS
=
####018000074####
SACY42 EGRR 272050
METAR LCRA 272050Z 30002KT CAVOK 13/11 Q1012 NOSIG=
####018000144####
SAMX51 MMMX 272100
METAR COR MMTM 272055Z 36010KT 7SM  SCT030 BKN050 OVC070 20/14 A3008 
      RMK SLP184 52030 930 8/57/=





TX_OPMET
####018000091####
SABR31 TBPB 272100
METAR TBPB 272100Z 06018KT 9999 BKN018 SCT300 27/20 Q1014 NOSIG=
####018000230####
SAHW31 KMSC 272057
METAR PHNY 272056Z AUTO 32008KT 10SM BKN015 27/19 A3005 RMK AO2 TSNO 
 51010 T02660194 SLP156 $=
METAR PMDY 272056Z AUTO 36007KT 10SM SCT025 BKN032 16/13 A3035 RMK 
 AO2 TSNO 53014 T01610133 SLP591 $=
####018002958####
SAAK41 KNKA 272057
METAR PAAD 272055Z AUTO 26019KT 10SM OVC029 M04/M05 A3015 RMK AO2=
METAR PACM 272056Z AUTO 18018G27KT 1 1/2SM BR SCT007 BKN012 OVC110 
 M01/M01 A3015 RMK AO2 PWINO FZRANO TSNO 58019 T10051011 PK WND 
 18027/2049 SLP206 $=
METAR PADM 272056Z AUTO 13016KT 10SM OVC031 M01/M05 A3030 RMK AO2 
    TSNO 58016 T10111050 SLP248 $=
METAR PADU 272056Z 10005KT 10SM SCT008 SCT014 OVC033 06/03 A3007 RMK 
 AO2 SLP186 CS 60000 T00610028 51001=
METAR PAFS 272056Z AUTO 00000KT 10SM CLR M08/M13 A3037 RMK AO2 TSNO 
 56020 60000 T10831127 SLP299 $=
METAR PAGN 272056Z AUTO 00000KT 10SM CLR 04/01 A3040 RMK AO2 TSNO 
 58003 T00440005 SLP299 $=
METAR PAHC 272056Z AUTO 14004KT 10SM UP FEW015 OVC024 M04/M08 A3032 
 RMK AO2 TSNO 58009 60000 T10441077 P0000 SLP271 $=
METAR PAIG 272056Z AUTO 00000KT CLR M05/M06 A3036 RMK AO2 TSNO 56009 
 T10501061 SLP285 $=
SPECI PAKF 272056Z AUTO 13008G15KT 9SM -RA BKN006 OVC011 05/04 A3012 
 RMK AO2 CIG 004V009 P0000 $=
METAR PAKH 272056Z AUTO 09015G22KT 10SM -RA 03/00 A3039 RMK AO2 TSNO 
 56017 60000 T00330000 RAB48 P0000 SLP293 $=
METAR PAKI 272056Z AUTO 13018KT 10SM OVC043 M01/M03 A3020 RMK AO2 
 TSNO 56014 60000 T10051027 SLP230 $=
METAR PALG 272056Z AUTO 10005KT 10SM BKN031 M04/M08 A3030 RMK AO2 
 TSNO 58016 T10381077 BKN V SCT SLP265 $=
METAR PAMB 272056Z AUTO 05010KT 10SM OVC009 M02/M02 A3029 RMK AO2 
 TSNO 58011 T10161022 SLP260 $=
METAR PAMK 272056Z AUTO 17010KT 10SM OVC027 M01/M04 A3024 RMK AO2 
    TSNO 58015 T10111044 SLP245 $=
METAR PAMO 272056Z AUTO 15019KT 10SM OVC008 M02/M04 A3022 RMK AO2 
 TSNO 58013 T10221038 CIG 007V013 SLP117 $=
METAR PANA 272056Z AUTO 12008KT 10SM OVC032 M01/M04 A3026 RMK AO2 
 SLP247 T10111039 58018 FZRANO=
METAR PAOH 272056Z AUTO 00000KT 10SM CLR 06/01 A3045 RMK AO2 TSNO 
 58003 T00550005 SLP314 $=
METAR PAOO 272056Z AUTO 14018KT 7SM FEW015 OVC037 M01/M02 A3018 RMK 
 AO2 TSNO 56014 60000 T10111016 UPB41E55 P0000 SLP220 $=
METAR PAOU 272056Z AUTO 13016KT 10SM SCT065 SCT085 04/02 A3019 RMK 
 AO2 TSNO 56010 T00380016 SLP225 $=
METAR PAPM 272056Z AUTO 08016KT 10SM BKN035 01/M02 A3028 RMK AO2 
 TSNO 58010 T00051016 BKN V SCT SLP253 $=
METAR PAQH 272056Z AUTO 10012KT 10SM OVC033 01/M03 A3026 RMK AO2 
 SLP249 T00061028 56014 FZRANO=
METAR PARS 272056Z AUTO 16004KT 10SM BKN029 OVC033 M02/M06 A3030 RMK 
 AO2 TSNO 58014 T10221055 BKN V SCT SLP264 $=
METAR PASI 272053Z COR 21003KT 10SM SKC 07/M03 A3038 RMK AO2 SLP288 
 T00671028 53001=
METAR PATQ 272056Z AUTO 26012KT 10SM CLR M16/M18 A3015 RMK AO2 TSNO 
 51024 60000 T11611177 SLP215 $=
METAR PAVC 272056Z AUTO 06017G22KT 10SM -RA OVC020 04/02 A3015 RMK 
 AO2 TSNO 56010 60004 T00380016 P0001 SLP213 $=
METAR PFCL 272056Z AUTO 07007KT 10SM OVC008 M01/M02 A3033 RMK AO2 
 SLP274 T10061017 58009 FZRANO=
METAR PFKW 272056Z AUTO 13007KT 10SM OVC033 M01/M04 A3027 RMK AO2 
 SLP252 T10111044 58018 FZRANO=
####018000211####
SAAK41 KNKA 272057
METAR PPIT 272056Z AUTO 14012KT 10SM OVC033 M01/M04 A3025 RMK AO2 
 SLP243 T10111039 58016 FZRANO=
METAR PPIZ 272056Z AUTO CLR M16/M19 A3016 RMK AO2 TSNO 52009 
 T11611188 SLP218 $=
####018000094####
SAPH41 RPLC 272100
METAR RPLC 272100Z
28004KT 9999 FEW020 OVC100 24/19 Q1014 N6SIG A2996=
####018000098####
SABZ24 SBFI 272100
METAR SBFI 272100Z 14003KT 9999 SCT030 FEW040TCU BKN100 26/23 Q1010 R
ETS=
####018000078####
SAUK36 EGGY 272050 RRB
METAR EGVN 272050Z 19005KT CAVOK 05/01 Q1017 NOSIG=
####018000074####
SABZ21 SBRF 272100
METAR SBRF 272100Z 09007KT 9999 FEW023 28/22 Q1010=
####018000221####
SAPM31 MPTO 272100
METAR  
MPBO 272000Z 03008KT  350V090 9999 FEW020 Q1013=
MPDA 272100Z 20010KT 9999 FEW020 ///// Q1007=
MPMG 272100Z 02010KT 9999 FEW020 32/20 Q1008 NOSIG=
MPPA 272100Z 35010KT 9000 SCT020 Q1008=
####018000095####
SPCN43 CWAO 272058
SPECI CYET 272058Z AUTO 33009KT 9SM SCT029 M08/M14 A3016 RMK SLP272=

####018000089####
SPAU65 AMMC 272058
SPECI YMER 272058Z AUTO 29003KT 9999 // BKN018 20/18 Q1009=


####018001579####
SANA14 KAWN 272100
METAR KNFG 272054Z 21008KT 7SM FEW027 BKN040 18/11 A2981 RMK AO2 SLP094
      T01780106 58021=
METAR KNHK 272052Z 04008KT 9SM FEW033 SCT045 SCT250 M01/M07 A3047 RMK
      AO2 SLP318 IR12P 60000 T10111067 53015=
METAR KNIP 272053Z 04015KT 10SM FEW028 SCT150 BKN250 13/04 A3029 RMK
      AO2 SLP253 T01330039 56009=
METAR KNKT 272054Z 33009KT 10SM CLR 10/M02 A3038 RMK AO2 SLP285 T01001017
      53003 $=
METAR KNPA 272056Z 03011KT 10SM BKN250 14/M01 A3028 RMK AO2 SLP253
      T01391006 56018 $=
METAR KNQX 272053Z 02009KT 10SM BKN008 BKN100 23/19 A3006 RMK AO2 SLP178
      T02330194 58014 $=
METAR KNRB 272052Z 02013G23KT 10SM BKN015 OVC220 10/06 A3029 RMK AO2
      SLP258 T01000061 57008 $=
METAR KNTD 272056Z 26012KT 10SM CLR 19/12 A2981 RMK AO2 SLP096 T01940117
      58019 $=
METAR KNXP 272056Z 00000KT 10SM FEW200 21/M01 A2971 RMK AO2 PRESFR
      SLP034 LAST AUGMENTED T02061006 58039=
METAR KNYG 272056Z 02010KT 10SM FEW160 SCT220 01/M12 A3050 RMK AO2
      SLP328 T00111117 53013=
METAR KNZY 272052Z 19013KT 10SM FEW028 BKN037 17/12 A2983 RMK AO2 SLP099
      T01720122 58012 $=
METAR KOSC 272053Z AUTO 24006G09KT 10SM CLR M07/M17 A3045 RMK AO2 T10691172=
METAR KVBG 272055Z 32021G28KT 10SM SCT015 BKN020 BKN250 16/12 A2986
      RMK AO2A PK WND 32030/2011 BKN020 V SCT SLP102 T01610117 58012=
METAR KVPS 272056Z 05009KT 10SM SCT140 BKN250 15/M00 A3026 RMK AO2A
      SLP254 T01461003 57019 $=
METAR PHSF 272056Z AUTO 22002G10KT 10SM CLR 19/07 A3028 RMK AO2 SLP144
      T01850073 53004 $=
####018001574####
SAZZ40 KAWN 272100 RRE
METAR KNDZ 272056Z 06010KT 10SM BKN250 16/M02 A3028 RMK AO2 SLP242
      T01561017 56021 $=
METAR KNFL 272056Z 26030G38KT 7SM -RA SCT035 BKN060 BKN120 08/00 A2968
      RMK AO2 PK WND 25038/2054 RAB53 PRESRR SLP032 P0000 60000
      T00830000 55022=
METAR KNJK 272056Z 24011KT 10SM FEW050 27/02 A2965 RMK AO2 SLP056 T02670022
      58032=
METAR KNLC 272056Z 36009KT 10SM SCT045 BKN220 20/07 A2979 RMK AO2 SLP089
      RH/44 T02000072 58025=
METAR KNPA 272056Z 03011KT 10SM BKN250 14/M01 A3028 RMK AO2 SLP253
      T01391006 56018 $=
METAR KNQI 272056Z 05013KT 7SM -DZ FEW011 OVC016 12/08 A3020 RMK AO2
      DZB54 SLP221 P0000 60000 T01220083 58027 $=
METAR KNSE 272056Z 03011KT 10SM SCT250 14/M02 A3028 RMK AO2 SLP243
      T01441017 56022 $=
METAR KNTD 272056Z 26012KT 10SM CLR 19/12 A2981 RMK AO2 SLP096 T01940117
      58019 $=
METAR KNTU 272056Z 36010KT 10SM BKN048 BKN280 02/M04 A3043 RMK AO2
      SLP307 T00171039 51015 $=
METAR KNUW 272056Z 01007KT 10SM -RA SCT035 BKN055 OVC070 10/07 A2982
      RMK AO2 SLP100 P0001 60002 T01000067 50004 VISNO E $=
METAR KNXP 272056Z 00000KT 10SM FEW200 21/M01 A2971 RMK AO2 PRESFR
      SLP034 LAST AUGMENTED T02061006 58039=
METAR KNYG 272056Z 02010KT 10SM FEW160 SCT220 01/M12 A3050 RMK AO2
      SLP328 T00111117 53013=
METAR KVPS 272056Z 05009KT 10SM SCT140 BKN250 15/M00 A3026 RMK AO2A
      SLP254 T01461003 57019 $=
METAR MNMG 272100Z 09012KT 9999 SCT022 34/19 Q1007 A2976 NOSIG=
METAR MPTO 272100Z 02006KT 9999 SCT020 33/20 Q1007 NOSIG=
####018000091####
SAPH RPLC 272100
METAR RPLC 272100Z
28004KT 9999 FEW020 OVC100 24/19 Q1014 N6SIG A2996
####018000075####
SAYE20 OYSN 272100
METAR OYSN 272100Z 23003KT CAVOK 13/M08 Q1028 NOSIG=
####018000082####
SAAG SAWH 272100
METAR SAWH 272100Z  09004KT 9999  BKN045 BKN100
10/07 Q0993=
####018000074####
SABZ21 SBFZ 272100
METAR SBFZ 272100Z 07006KT 9999 FEW020 27/22 Q1010=
####018000079####
SAAG SAWG 272100
METAR SAWG 272100Z  27025G38KT 9999  FEW035  28/07
Q0999=
####018000128####
SAUS46 KLOX 272058
MTRNSI
METAR KNSI 272057Z AUTO 31022G36KT 10SM OVC013 A2983 RMK AO2 PK WND 
31036/2050 SLPNO 58009 $
####018000187####
SAUS46 KPQR 272058 COR
MTRNFL
METAR KNFL 272056Z 26030G38KT 7SM -RA SCT035 BKN060 BKN120 08/00 
A2968 RMK AO2 PK WND 25038/2054 RAB53 PRESRR SLP032 P0000 60000 
T00830000 55022
####018000082####
SPAU32 YBBN 272058
SPECI YWLM 272058Z AUTO 00000KT 1000 // OVC001 18/18 Q1011=
####018003741####
SAUS99 KWBC 272059 RRA
METAR
KMQB 272055Z AUTO 33005KT 10SM CLR M12/M18 A3066 RMK AO2
     T11211179=
KMQS 272055Z AUTO 32009KT 10SM CLR M03/M12 A3043 RMK AO2=
KMRC 272055Z AUTO 04008KT 01/M12 A3048 RMK=
KOBE 272055Z AUTO 01009G18KT 7SM OVC008 13/12 A3017 RMK AO2 LTG
     DSNT NW=
KOKV 272055Z AUTO 28011G16KT 10SM CLR 00/M16 A3044 RMK AO2=
KOLE 272055Z AUTO 31008KT 10SM CLR M12/M21 A3036 RMK AO2=
KONX 272055Z AUTO 04007G15KT 10SM BKN046 03/M05 A3043 RMK AO2
     T00321047=
KOWP 272055Z AUTO 09005KT 1SM -SN OVC008 M06/M10 A3053 RMK AO2
     T10651105=
KOXI 272055Z AUTO 26006KT 10SM M09/M27 A3060 RMK AO1=
KPAN 272055Z AUTO 20009KT 10SM OVC090 13/M05 A2978 RMK AO2=
KPBH 272055Z AUTO 22008KT 10SM CLR M10/M20 A3039 RMK AO2
     T10991203=
KPCM 272055Z AUTO 05009KT 10SM OVC022 A3020 RMK AO2=
KPCZ 272055Z AUTO 26009KT 10SM CLR M06/M20 A3050 RMK AO2
     T10631199=
KPEZ 272055Z AUTO 01006KT 10SM OVC021 04/M02 A3028 RMK AO2
     T00351022=
KPHN 272059Z AUTO 28004KT 10SM CLR M09/M19 A3055 RMK AO2=
KPHP 272055Z AUTO 16010G19KT 10SM CLR M02/M16 A3017 RMK AO2 SLP258
     T10171161 56037=
KPRO 272055Z AUTO 00000KT 10SM M11/M16 A3057 RMK AO2 T11131165=
KPSN 272055Z AUTO 01007KT 10SM OVC080 01/M06 A3042 RMK AO2
     T00141061=
KPUJ 272055Z AUTO 35007KT 300V010 10SM CLR 07/M03 A3037 RMK
     AO2=
KPVE 272055Z AUTO 05006KT 10SM CLR 00/M17 A3049 RMK=
KPVF 272055Z AUTO 23003KT 10SM SCT025 BKN030 OVC070 11/05 A2977
     RMK AO1=
KPVJ 272055Z AUTO 05006KT 2SM -SN BKN008 BKN017 OVC032 M08/M10
     A3048 RMK AO2 P0001 60002 T10761098=
KRBW 272055Z AUTO 00000KT 10SM CLR 11/01 A3035 RMK AO2=
KRCX 272055Z AUTO 26009KT 10SM CLR M09/M21 A3046 RMK AO2
     T10931209=
KRCZ 272055Z AUTO 00000KT 10SM 10/M02 A3035 RMK AO2 T01011019=
KRNO 272055Z VRB05KT 10SM BKN050 BKN090 11/M02 A2966 RMK AO2
     SLP024 VIRGA ALQDS VCSH SW MTN TOPS OBSCD SW-W PK WND
     2831/2002 RAB04E20 P0000 60000 T01061022 58028=
KRPD 272055Z AUTO 26006KT 10SM CLR M10/M20 A3049 RMK AO2
     T11011197=
KRSN 272055Z AUTO 03007KT 10SM OVC090 03/M06 A3049 RMK AO2
     T00301056=
KRYW 272055Z AUTO 05009KT 3SM UP OVC016 00/M02 A3030 RMK AO2
     T10021021=
KSAA 272055Z AUTO 26003KT 10SM BKN060 M02/M10 A2975 RMK AO2=
KSCD 272055Z AUTO 35004G14KT 10SM CLR 07/M05 A3040 RMK AO2
     T00691048=
KSCK 272055Z 30013KT 10SM FEW045 19/07 A2977 RMK AO2 SLP079
     T01940067 58025=
KSEP 272055Z AUTO 01006KT 2 1/2SM OVC010 M04/M06 A3039 RMK AO2
     T10451064=
KSIF 272055Z AUTO 00000KT 10SM CLR 07/M08 A3039 RMK AO2
     T00651084=
KSJS 272055Z AUTO 07003KT 10SM OVC041 M04/M13 A3052 RMK AO2
     T10371135=
KSMS 272055Z AUTO 00000KT 10SM CLR 12/01 A3035 RMK AO2=
KSNH 272055Z AUTO 05006KT 10SM CLR 03/M13 A3048 RMK=
KSNL 272055Z AUTO 04004KT 1 1/2SM -SN VV007 M05/M07 A3051 RMK
     AO2=
KSOW 272055Z AUTO 21023G30KT 10SM BKN090 10/M09 A2978 RMK AO2=
KSPL 272055Z AUTO 36007KT 1 1/4SM SCT065 15/13 A3014 RMK AO1=
KSRB 272055Z AUTO VRB06KT 10SM CLR M01/M11 A3047 RMK=
KSRC 272056Z AUTO 01008KT 10SM OVC100 M02/M12 A3060 RMK AO2 SLP370
     T10221117 55003 FZRANO TSNO=
KSTF 272055Z AUTO 05008KT 012V072 10SM CLR 05/M05 A3043 RMK
     AO2=
KSYI 272055Z AUTO VRB06KT 10SM CLR 01/M11 A3049 RMK=
KSZT 272055Z AUTO 02010KT 10SM BKN065 OVC120 07/M05 A2984 RMK
     AO2=
KTMK 272055Z AUTO 19005KT 7SM -RA SCT016 BKN023 OVC029 11/09 A2973
     RMK AO2 P0001=
KTPF 272055Z AUTO 06009KT 10SM OVC022 18/12 A3017 RMK AO2=
KTTA 272055Z AUTO 00000KT 10SM CLR 08/M03 A3038 RMK AO2
     T00801031=
KTTF 272039Z AUTO 00000KT 10SM CLR M09/M18 A3057 RMK AO2=
KTYQ 272055Z AUTO 30004KT 10SM CLR M09/M18 A3060 RMK AO2
     T10891183=
####018003737####
SAUS99 KWBC 272059
METAR
KBEA 272055Z AUTO 06011G14KT 10SM OVC020 10/05 A3022 RMK AO2
     T00960045=
KBGE 272055Z AUTO 07006KT 10SM CLR 15/05 A3030 RMK AO2=
KBJC 272045Z 31005KT 10SM VCSN BKN015 BKN050 M08/M13 A2990=
KBKS 272055Z AUTO 06010KT 7SM OVC018 12/07 A3018 RMK AO1
     T01240067=
KBPC 272055Z AUTO 14009KT 10SM -SN BKN023 BKN029 OVC055 M07/M12
     A3030 RMK AO2=
KBVS 272055Z AUTO 34004KT 8SM BKN036 BKN043 OVC055 08/08 A2983 RMK
     A01 P001=
KBYY 272055Z AUTO 04011KT 7SM OVC017 06/03 A3029 RMK AO2
     T00680035=
KCAO 272055Z AUTO 17017KT 6SM HZ OVC017 M10/M13 A3005 RMK AO2
     SNE40 SLP235 P0000 60002 T11001133 56022=
KCEY 272055Z AUTO 02009KT 10SM CLR M03/M13 A3056 RMK AO1=
KCGC 272055Z AUTO 05009G14KT 10SM CLR 18/06 A3020 RMK AO2=
KCKF 272055Z AUTO 36005KT 10SM CLR 14/01 A3031 RMK AO2
     T01410010=
KCLI 272055Z AUTO 24009KT 10SM CLR M08/M21 A3048 RMK AO2=
KCLK 272055Z AUTO 7SM -SN OVC018 M07/M12 A3045 RMK AO2 TSNO=
KCLW 272055Z AUTO 07007KT 10SM OVC028 17/10 A3016 RMK AO2=
KCMA 272055Z 25008KT 10SM SCT026 BKN031 OVC039 17/10 A2980 RMK AO2
     SLP100 T01720100 58016=
KCNI 272055Z AUTO 29009G15KT 10SM CLR 05/M08 A3036 RMK AO2=
KCNK 272055Z AUTO 15009KT 10SM FEW090 M08/M18 A3048 RMK AO2 SLP352
     T10781178 56025=
KCVC 272055Z AUTO 01007KT 10SM CLR 12/M05 A3032 RMK AO2=
KCWV 272055Z AUTO 07008KT 10SM CLR 12/03 A3033 RMK AO2=
KCZT 272055Z AUTO 05005KT 2 1/2SM DZ BKN006 OVC012 02/01 A3026 RMK
     AO2=
KD57 272055Z AUTO 17013G20KT 10SM CLR M06/M15 A3016 RMK AO2=
KDLH 272055Z 26012KT 10SM CLR M08/M21 A3035 RMK AO2 SLP318
     T10781211 56013=
KDPL 272055Z AUTO 36005KT 7SM CLR 10/M03 A3038 RMK AO2
     T00951027=
KDRI 272055Z AUTO 00000KT 10SM CLR 11/M02 A3034 RMK AO2
     T01071025=
KDUA 272055Z AUTO 05007KT 1 3/4SM -SN BKN008 BKN013 M03/M06 A3047
     RMK AO2=
KDUX 272055Z AUTO 14009KT 3SM -SN OVC010 M07/M13 A3020 RMK AO2
     T10751135=
KDVO 272055Z AUTO 27014G20KT CLR 16/09 A2981 RMK AO2=
KDZB 272055Z AUTO 04003KT 3SM UP OVC010 M01/M02 A3031 RMK AO2
     T10061017=
KE80 272055Z AUTO 14008KT 7SM -SN OVC016 00/M04 A2991 RMK AO2
     T10041038=
KEAT 272055Z AUTO 29007KT 10SM FEW022 SCT037 BKN044 07/03 A2982
     RMK AO2 SLP103 60000 T00670028 58010=
KECS 272055Z AUTO 14017G22KT 10SM BKN029 M06/M14 A2996 RMK AO2=
KEDE 272055Z AUTO 33005KT 10SM SCT047 08/M01 A3040 RMK AO2
     T00791012=
KEDN 272055Z AUTO 04005KT 10SM CLR 12/M01 A3029 RMK AO2=
KEHO 272055Z AUTO 00000KT 10SM CLR 09/M05 A3033 RMK AO2
     T00911048=
KEHY 272055Z AUTO 10SM SCT047 M03/M11 A2970 RMK AO2=
KELK 272055Z AUTO 07006KT 3SM -SN OVC016 M08/M12 A3044 RMK AO2=
KLOM 272055Z AUTO 31007KT 290V350 10SM CLR M01/M14 A3043 RMK
     AO1=
KLUA 272055Z AUTO 32009KT 10SM CLR 02/M10 A3041 RMK AO2=
KLUM 272055Z AUTO 27007KT 10SM CLR M09/M18 A3051 RMK AO2
     T10941182=
KLVL 272055Z AUTO 00000KT 10SM SCT055 06/M07 A3039 RMK AO1
     T00571067=
KMCD 272055Z AUTO 25009G17KT 10SM SCT023 M11/M16 A3045 RMK AO2
     T11131165=
KMCJ 272055Z AUTO 36008G15KT 7SM OVC018 05/00 A3030 RMK AO1=
KMCX 272055Z AUTO 28005KT 10SM CLR M10/M17 A3061 RMK AO2
     T10991175=
KMDQ 272055Z AUTO 35008KT 10SM CLR 02/M11 A3045 RMK AO2=
KMFV 272055Z AUTO 33010G14KT 10SM SCT026 SCT035 OVC040 00/M05
     A3046 RMK AO2=
KMKG 272055Z 26007KT 230V290 10SM BKN034 M08/M16 A3056 RMK AO2
     SLP366 T10781156 53001=
KMKN 272055Z AUTO 03009KT 5SM BR OVC009 M05/M05 A3036 RMK AO2
     T10461046=
KMMI 272055Z AUTO 03004KT 10SM CLR 01/M08 A3047 RMK=
KMNI 272055Z AUTO 36004KT 10SM CLR 12/00 A3034 RMK AO2=
KMNZ 272055Z AUTO 03006KT 2 1/2SM BR OVC006 M03/M03 A3035 RMK AO2
     T10351035=
####018003678####
SAUS99 KWBC 272059 RRC
METAR
PAAK 272056Z 29020G26KT 10SM FEW017 SCT031 BKN055 03/00 A3000 RMK
     AO1 52027=
PADK 272056Z AUTO 29004KT 10SM SCT035 SCT041 02/M04 A3013 RMK AO1
     WSHFT 37 52030=
PAGL 272056Z AUTO 16017KT 10SM OVC024 M01/M03 A3022 RMK AO1
     57014=
PAHP 272056Z AUTO 17019KT 8SM OVC005 M01/M03 A3013 RMK AO1
     57014=
PAUT 272055Z AUTO 11010KT 5SM BR BKN007 BKN011 OVC016 05/04 A3006
     RMK AO2 T00450042=
KCFJ 272055Z AUTO 36006KT 10SM CLR M10/M22 A3060 RMK AO2
     T11011222=
K5A6 272100Z AUTO 07008KT 040V100 10SM CLR 03/M04 A3042 RMK AO2
     T00311042=
K1M4 272056Z AUTO 06007KT 010V070 10SM 01/M09 A3046 RMK AO2 56014
     T00111088 SLP321 $=
K1P1 272055Z AUTO 27007KT 10SM CLR M06/M19 A3033 RMK AO2
     T10581188=
K2D5 272055Z AUTO 20011G15KT 10SM M10/M16 A3038 RMK AO2=
K46D 272055Z AUTO 10SM CLR M11/M16 A3030 RMK AO2=
KADM 272055Z 04006KT 3/4SM -SN OVC005 M06/M07 A3048 RMK RWY 31 ILS
     - ATIS A PLOWS RWY 13/31, 1" SN ALL ARPT SFCS BAAIE, BRKG
     ACTN NIL VEH @ 1912Z=
KAEJ 272055Z AUTO 00000KT 10SM SCT019 BKN046 OVC049 M09/M13 A2974
     RMK AO2 T10901134=
KAJZ 272055Z AUTO 00000KT 10SM SCT037 BKN050 OVC065 03/00 A2978
     RMK AO2 P0001 60001 T00290002=
KAND 272056Z AUTO 30005KT 10SM CLR 12/M04 A3032 RMK AO2 SLP268
     T01171039 55006=
KBAC 272055Z AUTO 21009KT 10SM CLR M11/M17 A3036 RMK AO2=
KBJJ 272056Z AUTO 33006KT 10SM SCT037 M10/M18 A3055 RMK AO2 SLP374
     60000 T11001183 53003 TSNO=
KBOK 272056Z AUTO 29008KT 9SM SCT008 SCT013 BKN070 11/10 A2985 RMK
     AO2 58013 60000 T01110100 BKN V SCT SLP109=
KBXK 272055Z AUTO 21010G15KT 10SM CLR 23/M02 A2968 RMK AO1=
KCAE 272056Z 00000KT 10SM FEW050 SCT220 13/M01 A3033 RMK AO2
     SLP270 T01281006 55014=
KCHS 272056Z 11009KT 10SM BKN200 10/01 A3035 RMK AO2 SLP277
     T01000011 55007=
KCTB 272056Z AUTO 35018KT 3SM -SN OVC017 M08/M12 A3002 RMK AO2
     SLP232 P0000 60000 T10831122 51001=
KCXP 272055Z AUTO 24016G26KT 10SM CLR 10/M06 A2968 RMK AO2=
KCXY 272056Z 29009KT 10SM FEW050 M03/M14 A3047 RMK AO2 SLP324
     T10281144 53012=
KD50 272055Z AUTO 18010KT 10SM CLR M09/M16 A3012 RMK AO2=
KDIJ 272056Z AUTO 00000KT 2SM -SN FEW001 SCT019 BKN033 M03/M06
     A2973 RMK AO2 58014 60000 T10271061 BKN V OVC P0000
     SLP082=
KDIK 272056Z AUTO 17018KT 10SM CLR M04/M15 A3005 RMK AO2 SLP231
     T10391150 58030=
KDUG 272056Z AUTO 22024G30KT 10SM CLR 20/M05 A2979 RMK AO2 PK WND
     24030/1957 SLP046 T02001050 58024=
KEAU 272056Z 22009KT 10SM CLR M11/M18 A3051 RMK AO2 SLP356
     T11111183 56013=
KELZ 272056Z AUTO 31010KT 10SM CLR M11/M21 A3036 RMK AO2 SLP332
     60000 T11061211 53014=
KEQA 272055Z AUTO 11005KT 1 3/4SM -SN OVC020 M07/M12 A3050 RMK
     AO2=
KFSD 272056Z 22007KT 10SM CLR M11/M18 A3045 RMK AO2 SLP351
     T11061183 56022=
KGRD 272056Z AUTO 18003KT 10SM CLR 12/M02 A3033 RMK AO2 SLP273
     T01221022 55010=
KGZL 272055Z AUTO 08006KT 1SM -SN BKN003 M06/M10 A3054 RMK AO2=
KHPN 272056Z 33011KT 10SM CLR M03/M17 A3037 RMK AO2 SLP296
     T10331167 53007=
KHWV 272056Z AUTO 30006KT 10SM CLR M03/M16 A3041 RMK AO2 SLP298
     6//// T10281156 53013 TSNO=
KIGX 272056Z AUTO 28005KT 10SM SCT049 06/M06 A3039 RMK AO2 SLP294
     T00611056 53001 TSNO=
KINW 272056Z AUTO 35007KT 10SM OVC090 10/M02 A2974 RMK AO2 SLP057
     T01001022 58025=
KISP 272056Z 31006KT 10SM FEW250 M02/M16 A3039 RMK AO2 SLP293
     T10221156 53012=
KITH 272056Z 33008KT 10SM CLR M11/M18 A3045 RMK AO2 53013
     T11111183 SLP339=
KJAX 272056Z 04015KT 10SM FEW025 FEW150 OVC200 11/03 A3030 RMK AO2
     SLP259 T01060028 56009=
####018003683####
SAUS99 KWBC 272059 RRD
METAR
KJXN 272056Z 28008KT 10SM CLR M09/M19 A3054 RMK AO2 SLP367
     T10941194 53002=
KLRD 272056Z 02008KT 5SM -RA BR OVC009 03/02 A3025 RMK AO2 58026
     60001 T00330022 CIG 006V012 P0001 SLP240=
KLWS 272056Z 00000KT 10SM CLR 11/03 A2972 RMK AO2 SLP070 T01060033
     58023=
KLZZ 272055Z AUTO 04008KT 3SM BR OVC010 M01/M02 A3032 RMK AO2
     T10141024=
KM19 272056Z AUTO 01008KT 10SM OVC100 M04/M10 A3061 RMK AO2 55008
     T10381100 PRESRR SLP369=
KMDT 272056Z 34008KT 10SM SCT045 M03/M12 A3047 RMK AO2 SLP322
     T10281122 53011 $=
KMKS 272115Z AUTO 00000KT 7SM CLR 11/00 A3035 RMK AO2=
KMOB 272056Z 06011KT 10SM SCT200 12/M02 A3029 RMK AO2 SLP256
     T01171017 56026=
KMOR 272055Z AUTO 30006KT 10SM CLR 00/M09 A3045 RMK=
KMQY 272056Z 36007KT 330V080 10SM CLR 01/M12 A3054 RMK AO2 55013
     T00111116 SLP356=
KOFK 272056Z AUTO 10SM CLR M06/M18 A3043 RMK AO2 SLP340 T10611178
     56027=
KOLV 272050Z 02010KT 10SM BKN250 00/M07 A3050=
KRCE 272055Z AUTO 08008KT 6SM -SN FEW015 M08/M10 A3048 RMK AO2
     P0008=
KRDM 272056Z 32007KT 10SM FEW035 BKN065 BKN085 07/03 A2965 RMK AO2
     RAE09 SLP045 P0000 60002 T00670028 58012=
KRNC 272055Z AUTO VRB04KT 10SM CLR 00/M12 A3047 RMK=
KRNV 272055Z AUTO 03013KT 10SM CLR 01/M03 A3048 RMK AO2
     T00121034=
KRZL 272055Z AUTO 28003KT 10SM CLR M08/M17 A3061 RMK AO2=
KSEE 272047Z 23015KT 20SM BKN035 19/09 A2983=
KSHV 272056Z 02013KT 10SM OVC080 01/M06 A3043 RMK AO2 SLP304
     T00111061 58019=
KSLE 272056Z 18012KT 10SM SCT019 BKN044 OVC055 12/07 A2972 RMK AO2
     RAB36E46 SLP063 P0000 60000 T01170072 58014=
KSVC 272055Z AUTO 17010G15KT 10SM CLR 08/M04 A2988 RMK AO2=
KSYR 272054Z 30011KT 10SM BKN031 BKN035 M08/M17 A3049 RMK SLP329
     T10781167 53012=
KUCP 272056Z AUTO 27003KT 10SM FEW043 M10/M20 A3055 RMK AO2 53005
     T11001200 SLP386=
KWMC 272056Z AUTO 12003KT 5SM -RA BR OVC024 02/01 A2967 RMK AO2
     SLP055 P0005 60010 T00220011 58023=
PPIT 272056Z AUTO 14012KT 10SM OVC033 M01/M04 A3025 RMK AO2 SLP243
     T10111039 58016 FZRANO=
PPIZ 272056Z AUTO CLR M16/M19 A3016 RMK AO2 TSNO 52009 T11611188
     SLP218 $=
PAAD 272055Z AUTO 26019KT 10SM OVC029 M04/M05 A3015 RMK AO2=
PACM 272056Z AUTO 18018G27KT 1 1/2SM BR SCT007 BKN012 OVC110
     M01/M01 A3015 RMK AO2 PWINO FZRANO TSNO 58019 T10051011 PK
     WND 18027/2049 SLP206 $=
PADM 272056Z AUTO 13016KT 10SM OVC031 M01/M05 A3030 RMK AO2 TSNO
     58016 T10111050 SLP248 $=
PADU 272056Z 10005KT 10SM SCT008 SCT014 OVC033 06/03 A3007 RMK AO2
     SLP186 CS 60000 T00610028 51001=
PAFS 272056Z AUTO 00000KT 10SM CLR M08/M13 A3037 RMK AO2 TSNO
     56020 60000 T10831127 SLP299 $=
PAGN 272056Z AUTO 00000KT 10SM CLR 04/01 A3040 RMK AO2 TSNO 58003
     T00440005 SLP299 $=
PAHC 272056Z AUTO 14004KT 10SM UP FEW015 OVC024 M04/M08 A3032 RMK
     AO2 TSNO 58009 60000 T10441077 P0000 SLP271 $=
PAIG 272056Z AUTO 00000KT CLR M05/M06 A3036 RMK AO2 TSNO 56009
     T10501061 SLP285 $=
PAKH 272056Z AUTO 09015G22KT 10SM -RA 03/00 A3039 RMK AO2 TSNO
     56017 60000 T00330000 RAB48 P0000 SLP293 $=
PAKI 272056Z AUTO 13018KT 10SM OVC043 M01/M03 A3020 RMK AO2 TSNO
     56014 60000 T10051027 SLP230 $=
PALG 272056Z AUTO 10005KT 10SM BKN031 M04/M08 A3030 RMK AO2 TSNO
     58016 T10381077 BKN V SCT SLP265 $=
PAMB 272056Z AUTO 05010KT 10SM OVC009 M02/M02 A3029 RMK AO2 TSNO
     58011 T10161022 SLP260 $=
PAMK 272056Z AUTO 17010KT 10SM OVC027 M01/M04 A3024 RMK AO2 TSNO
     58015 T10111044 SLP245 $=
PAMO 272056Z AUTO 15019KT 10SM OVC008 M02/M04 A3022 RMK AO2 TSNO
     58013 T10221038 CIG 007V013 SLP117 $=
####018003736####
SAUS99 KWBC 272059 RRB
METAR
KUCY 272055Z AUTO 02007KT 10SM CLR M04/M11 A3056 RMK=
KUGN 272055Z VRB06KT 10SM CLR M09/M20 A3057 RMK AO2 SLP381
     T10941200 55004=
KUVA 272055Z AUTO 06007KT 2 1/2SM BR OVC009 02/01 A3026 RMK AO2
     T00160008=
KVBW 272055Z AUTO 05004KT 10SM CLR 00/M11 A3038 RMK AO2
     T00031113=
KVDI 272055Z AUTO 00000KT 10SM CLR 12/03 A3032 RMK AO2=
KVJI 272055Z AUTO 29005KT 10SM BKN034 00/M09 A3039 RMK AO2
     T00001094=
KVWU 272049Z AUTO 00000KT 10SM CLR M09/M19 A3035 RMK AO2=
KW31 272055Z AUTO 30005KT 10SM CLR 05/M09 A3039 RMK AO1
     T00531095=
KW43 272055Z AUTO 21011G17KT 10SM CLR M05/M13 A2992 RMK AO2=
KW63 272055Z AUTO 34006KT 10SM CLR 05/M07 A3040 RMK AO1=
KW81 272055Z AUTO 01005G14KT 10SM CLR 05/M05 A3040 RMK AO1
     T00461051=
KFBR 272100Z AUTO 10006KT 10SM OVC090 M03/M07 A2976 RMK AO2
     T10321073=
KFEP 272055Z AUTO 21005KT 10SM CLR M12/M19 A3060 RMK AO2
     T11221191=
KFKR 272055Z AUTO 24006KT 10SM CLR M07/M17 A3061 RMK AO2
     T10731171=
KFKS 272051Z AUTO 25006KT 10SM OVC026 M09/M14 A3050 RMK AO2
     T10921142=
KFRR 272055Z AUTO 31006KT 10SM SCT060 00/M13 A3043 RMK AO1=
KFVX 272055Z AUTO 26003KT 10SM CLR 09/M11 A3039 RMK AO2
     T00901107=
KFWZ 272055Z AUTO 21004KT 10SM CLR M06/M11 RMK AO2=
KFYM 272055Z AUTO 04008KT 10SM CLR 00/M11 RMK=
KGCM 272055Z AUTO 04008KT 1 3/4SM -SN SCT005 M08/M11 A3057 RMK
     AO2=
KGEV 272055Z AUTO 31009KT 10SM CLR M01/M13 A3029 RMK AO2
     T10121129=
KGKT 272055Z AUTO 00000KT 10SM CLR 01/M09 A3045 RMK=
KHAE 272055Z AUTO 00000KT 10SM CLR M08/M22 A3063 RMK AO2=
KHBI 272055Z AUTO 02004KT 10SM SCT049 06/M04 A3041 RMK AO2
     T00561043=
KHCO 272041Z AUTO 21010KT 10SM CLR M09/M16 A3036 RMK AO2=
KHHF 272055Z AUTO 10009KT 7SM -SN OVC023 M07/M11 A3035 RMK AO2
     T10751112=
KHNZ 272055Z AUTO 00000KT 10SM SCT055 05/M09 A3040 RMK AO2
     T00501086=
KHON 272055Z AUTO 15010KT 10SM CLR M08/M16 A3041 RMK AO2 SLP332
     T10831161 56030=
KHVE 272055Z AUTO 10003KT 10SM SCT050 BKN060 BKN110 08/M05 A2976
     RMK AO2=
KHZE 272055Z AUTO 18015KT 10SM CLR M06/M17 A3019 RMK AO2=
KI39 272055Z AUTO 08005KT 10SM CLR M06/M14 A3056 RMK AO2=
KICL 272055Z AUTO VRB05G12KT 10SM CLR M06/M17 A3057 RMK AO2=
KIDI 272055Z AUTO 28008KT 260V320 10SM CLR M08/M19 A3051 RMK
     A01=
KIFA 272055Z AUTO 00000KT 3SM HZ CLR M13/M18 A3058 RMK AO2
     T11291183=
KIGQ 272055Z AUTO 26008KT 10SM CLR M09/M19 A3060 RMK AO2
     T10921191=
KINL 272055Z AUTO 28011KT 10SM CLR M08/M22 A3031 RMK AO2 SLP300
     T10781222 56016=
KIPJ 272055Z AUTO 06003KT 10SM BKN050 09/M04 A3034 RMK AO2
     T00901043=
KIRK 272055Z AUTO 00000KT 10SM CLR M08/M16 A3058 RMK AO2 SLP382
     T10831161 56021=
KISO 272056Z 01006KT 10SM SCT080 09/M01 A3039 RMK AO2=
KIXA 272055Z AUTO 34007KT 10SM CLR 07/M05 A3040 RMK AO2=
KJFX 272055Z AUTO 05006KT 10SM CLR 06/M05 A3045 RMK A02 P-128=
KJNX 272055Z AUTO 36007KT 10SM SCT050 09/M02 A3038 RMK AO2=
KJSV 272055Z AUTO 08005KT 3/4SM -SN OVC005 M05/M07 A3055 RMK
     AO2=
KLHB 272055Z AUTO 04007KT 10SM OVC050 03/M03 A3038 RMK AO2
     T00281027=
KLHM 272055Z AUTO 17010KT 10SM CLR 18/07 A2974 RMK AO1=
KLIC 272055Z AUTO 15019KT 1 1/2SM -SN BR FEW010 OVC018 M13/M15
     A2997 RMK AO2 PK WND 15027/2031 UPB37E39SNE37B39 SLP221 P0000
     60000 T11281150 56021=
KLLJ 272055Z AUTO 00000KT 10SM OVC080 03/M07 A2968 RMK AO2 SLP057
     T00331072 58022=
KLNC 272055Z AUTO 04009KT 10SM BKN016 OVC022 M02/M05 A3043 RMK AO2
     60001 T10181055=
KXBP 272055Z AUTO 05007KT 2SM -SN OVC008 M05/M06 A3045 RMK AO2
     60001 T10521060=
KZPH 272055Z AUTO 04010G14KT 10SM OVC023 15/07 A3020 RMK AO2=
####018001293####
SAUS99 KWBC 272059 RRE
METAR
PANA 272056Z AUTO 12008KT 10SM OVC032 M01/M04 A3026 RMK AO2 SLP247
     T10111039 58018 FZRANO=
PAOH 272056Z AUTO 00000KT 10SM CLR 06/01 A3045 RMK AO2 TSNO 58003
     T00550005 SLP314 $=
PAOO 272056Z AUTO 14018KT 7SM FEW015 OVC037 M01/M02 A3018 RMK AO2
     TSNO 56014 60000 T10111016 UPB41E55 P0000 SLP220 $=
PAOU 272056Z AUTO 13016KT 10SM SCT065 SCT085 04/02 A3019 RMK AO2
     TSNO 56010 T00380016 SLP225 $=
PAPM 272056Z AUTO 08016KT 10SM BKN035 01/M02 A3028 RMK AO2 TSNO
     58010 T00051016 BKN V SCT SLP253 $=
PAQH 272056Z AUTO 10012KT 10SM OVC033 01/M03 A3026 RMK AO2 SLP249
     T00061028 56014 FZRANO=
PARS 272056Z AUTO 16004KT 10SM BKN029 OVC033 M02/M06 A3030 RMK AO2
     TSNO 58014 T10221055 BKN V SCT SLP264 $=
PASI 272053Z COR 21003KT 10SM SKC 07/M03 A3038 RMK AO2 SLP288
     T00671028 53001=
PATQ 272056Z AUTO 26012KT 10SM CLR M16/M18 A3015 RMK AO2 TSNO
     51024 60000 T11611177 SLP215 $=
PAVC 272056Z AUTO 06017G22KT 10SM -RA OVC020 04/02 A3015 RMK AO2
     TSNO 56010 60004 T00380016 P0001 SLP213 $=
PFCL 272056Z AUTO 07007KT 10SM OVC008 M01/M02 A3033 RMK AO2 SLP274
     T10061017 58009 FZRANO=
PFKW 272056Z AUTO 13007KT 10SM OVC033 M01/M04 A3027 RMK AO2 SLP252
     T10111044 58018 FZRANO=
####018000347####
SPUS99 KWBC 272059
SPECI
KDAL 272055Z 05010KT 2SM -SN BR SCT013 BKN018 OVC033 M02/M06 A3043
     RMK AO2 P0000 T10221056=
KDRO 272056Z AUTO 00000KT 1 3/4SM -SN BR FEW010 BKN016 OVC025
     M02/M04 A2979 RMK AO2 SNB54 P0000 T10171039=
PAKF 272056Z AUTO 13008G15KT 9SM -RA BKN006 OVC011 05/04 A3012 RMK
     AO2 CIG 004V009 P0000 $=
####018000120####
SPJP31 KWBC 272059
SPECI
RODN 272054Z AUTO 08014KT 7SM R05/5500FT BKN004 OVC027 17/16 A3006
RMK AO2 DZB33E49 $=
####018000120####
SPXX62 KWBC 272059
SPECI
RODN 272054Z AUTO 08014KT 7SM R05/5500FT BKN004 OVC027 17/16 A3006
RMK AO2 DZB33E49 $=
####018000070####
SPCN51 CWAO 272058
SPECI CWOB 272058Z AUTO 03011KT M23/ A2937=

####018000101####
SPCN46 CWAO 272058
SPECI CYKL 272058Z AUTO 28012G19KT 9SM OVC035 M26/M34 A2967 RMK
 SLP118=

####018000108####
SPCN48 CWAO 272058
SPECI CYAH 272058Z AUTO 25008KT 4SM HZ BKN024 OVC036 M22/M26 A2986
 RMK SLP153=

####018000081####
SASG20 GOOY 272100
METAR GOOY 272100Z 02006KT 2100 DU NSC 23/09 Q1012 NOSIG=
####018000075####
SAMZ40 FQMA 272100
METAR FQQL 272100Z 14002KT 9999 FEW020 25/23 Q1011=
####018000088####
SABR31 TBPB 272100
METAR TBPB 272100Z 06018KT 9999 BKN018 SCT300 27/20 Q1014 NOSIG=
####018001620####
SAXN17 KAWN 272100 RRD
METAR MDSD 272100Z 14010KT 9999 FEW022 28/21 Q1016=
METAR MMAS 272046Z 22010G20KT 13SM SCT220 24/M17 A3005 RMK 8/002=
METAR MMGL 272054Z 30019KT 10SM SCT300 27/M14 A3000 RMK SLP055 57031
      951 8/002 VSBY 3/4 SM W FU=
METAR MMPN 272051Z 18010KT 15SM BKN270 23/11 A3006 RMK SLP/// 5////
      9// 6//// 8/002 HZY CU=
METAR MMPR 272048Z 22010KT 15SM SCT250 25/19 A2985 RMK SLP106 57015
      905 8/001 SC-NW=
METAR COR MMTM 272055Z 36010KT 7SM SCT030 BKN050 OVC070 20/14 A3008
      RMK SLP184 52030 930 8/57/=
METAR MMZC 272046Z 24012KT 10SM BKN200 23/M08 A3006 RMK 8/002=
METAR MNMG 272100Z 09012KT 9999 SCT022 34/19 Q1007 A2976 NOSIG=
METAR MPTO 272100Z 02006KT 9999 SCT020 33/20 Q1007 NOSIG=
METAR NFFN 272100Z 00000KT 9999 FEW025TCU BKN300 28/25 Q1008 NOSIG=
METAR NSTU 272055Z 10013KT 12SM SCT022 BKN110 31/26 A2978 RMK SLP085
      8/170 T03110261 52005=
METAR PAED 272058Z AUTO 27001KT 10SM CLR M05/M09 A3045 RMK AO2 SLP310
      T10481089 55007=
METAR PAEI 272058Z AUTO 00000KT 10SM CLR M10/M12 A3044 RMK AO2 SLP324
      T11021121 58011 $=
METAR PASY 272056Z 33013KT 9SM -SN SCT030 OVC037 M03/M10 A3029 RMK
      AO2 SNB17 SLP259 T10281100 53024 $=
METAR PGUA 272058Z AUTO 08012KT 10SM FEW014 BKN049 25/22 A2992 RMK
      AO2 SLP122 T02490223 53014 $=
METAR PHHI 272058Z AUTO 34010KT 10SM CLR 25/20 A3000 RMK AO2 SLP150
      T02480201 51007 $=
METAR PWAK 272058Z AUTO 08022G26KT 9000 HZ FEW028 25/19 A3002 RMK AO2
      PK WND 08027/38 SLP172 T02470186 52015=
METAR TBPB 272100Z 06018KT 9999 BKN018 SCT300 27/20 Q1014 NOSIG=
####018001491####
SAXX60 KAWN 272100
METAR NSTU 272055Z 10013KT 12SM SCT022 BKN110 31/26 A2978 RMK SLP085
      8/170 T03110261 52005=
METAR PGSN 272054Z 06014KT 10SM SCT016 24/23 A2992 RMK AO2 SLP154 60000
      T02440228 53016=
METAR PGUA 272058Z AUTO 08012KT 10SM FEW014 BKN049 25/22 A2992 RMK
      AO2 SLP122 T02490223 53014 $=
METAR PGUM 272054Z 07008KT 5SM -RA FEW031 SCT055 BKN070 26/23 A2991
      RMK AO2 RAB46 SLP122 P0001 60001 T02560228 53014=
METAR PHHI 272058Z AUTO 34010KT 10SM CLR 25/20 A3000 RMK AO2 SLP150
      T02480201 51007 $=
METAR PHJR 272053Z 27007KT 10SM CLR 28/18 A3000 RMK AO2 SLP164 T02780183
      51004=
METAR PHKO 272053Z 29008KT 10SM CLR 27/19 A2996 RMK AO2 SLP147 T02720194
      50005=
METAR PHMK 272054Z 36011G15KT 10SM FEW020 26/21 A3001 RMK AO2 SLP164
      P0001 60001 T02610206 50006=
METAR PHNL 272053Z 05003KT 10SM FEW030 SCT038 SCT050 SCT140 BKN240
      28/18 A2998 RMK AO2 SLP150 T02830183 50001=
METAR PHOG 272054Z 35007KT 10SM FEW025 SCT050 28/18 A2999 RMK AO2 SLP161
      T02830183 50007 $=
METAR PHSF 272056Z AUTO 22002G10KT 10SM CLR 19/07 A3028 RMK AO2 SLP144
      T01850073 53004 $=
METAR PHTO 272053Z 12011KT 10SM FEW030 SCT100 SCT200 28/20 A2997 RMK
      AO2 SLP147 T02830200 50000=
METAR PWAK 272058Z AUTO 08022G26KT 9000 HZ FEW028 25/19 A3002 RMK AO2
      PK WND 08027/38 SLP172 T02470186 52015=
METAR RJTY 272058Z AUTO 31016G21KT 10SM CLR 03/M09 A3017 RMK AO2 SLP226
      T00331091 50012=
####018001607####
SAZZ40 KAWN 272100 RRG
METAR ETAR 272058Z AUTO 27002KT 9999 OVC100 02/00 A3014 RMK AO2 SLP220
      T00240001 52019 $=
METAR ETOU 272058Z AUTO 31007KT 9999 OVC065 05/01 A3012 RMK AO2 SLP207
      60000 T00480005 52021 $=
METAR KAFF 272058Z AUTO 15007KT 6SM HZ OVC016 M12/M16 A2985 RMK AO2
      SNE31SNB37E48 SLP202 P0000 60000 T11211163 57020=
METAR KBAB 272058Z AUTO 20011KT 10SM CLR 18/09 A2973 RMK AO2 SLP143
      T01840085 57025 $=
METAR KGXF 272056Z 22010G18KT 10SM CLR 25/M03 A2967 RMK AO2A SLP039
      T02471027 57027=
METAR KHMN 272058Z AUTO 14010KT 10SM CLR 05/M04 A2994 RMK AO2 SLP130
      T00521045 57028 $=
METAR KLSV 272058Z AUTO VRB05KT 10SM CLR 17/M04 A2967 RMK AO2 SLP038
      T01661038 57035=
METAR KMUO 272058Z AUTO 10015KT 10SM FEW090 09/M01 A2968 RMK AO2 SLP056
      T00931014 57028 $=
METAR KSKA 272058Z AUTO 05011KT 10SM CLR 08/M04 A2977 RMK AO2 SLP097
      60000 T00761038 57012=
METAR KSUU 272058Z AUTO 25017G22KT 10SM BKN050 18/10 A2974 RMK AO2
      SLP078 T01820102 58023 $=
METAR KTCM 272058Z AUTO 02005KT 10SM -RA BKN007 OVC025 09/09 A2974
      RMK AO2 SLP076 P0003 60008 T00880086 50001 $=
METAR PGUA 272058Z AUTO 08012KT 10SM FEW014 BKN049 25/22 A2992 RMK
      AO2 SLP122 T02490223 53014 $=
METAR PHHI 272058Z AUTO 34010KT 10SM CLR 25/20 A3000 RMK AO2 SLP150
      T02480201 51007 $=
METAR PWAK 272058Z AUTO 08022G26KT 9000 HZ FEW028 25/19 A3002 RMK AO2
      PK WND 08027/38 SLP172 T02470186 52015=
METAR RKJK 272058Z AUTO 11003KT 10SM SCT160 SCT190 M02/M09 A3039 RMK
      AO2 SLP296 T10161086 55004 $=
####018001541####
SAZZ40 KAWN 272100 RRF
METAR KDMA 272058Z AUTO 21011G21KT 170V240 10SM CLR 22/M04 A2972 RMK
      AO2 SLP040 T02241036 57031 $=
METAR KINS 272058Z AUTO 00000KT 10SM CLR 14/M07 A2967 RMK AO2 SLP025
      T01441069 57037=
METAR KNBG 272055Z 06011KT 10SM FEW250 12/M01 A3030 RMK AO2 SLP259
      T01221011 56020 $=
METAR KNID 272056Z AUTO 04008KT CLR 19/02 A2964 RMK AO2 SLP030 T01890022
      58039 $=
METAR KNKX 272055Z 20013G21KT 10SM SCT026 BKN035 18/10 A2982 RMK AO2
      SLP094 T01830100 58014 $=
METAR KRIV 272058Z AUTO 24002KT 10SM BKN036 15/08 A2979 RMK AO2 SLP086
      T01500077 58019=
METAR MDPC 272100Z 11008KT 9999 FEW027 28/22 Q1016=
METAR MDPP 272100Z 09017KT 9999 FEW022 28/22 Q1015=
METAR MDSD 272100Z 14010KT 9999 FEW022 28/21 Q1016=
METAR MDST 272100Z 12012KT 9999 FEW028 30/19 Q1015=
METAR NFFN 272100Z 00000KT 9999 FEW025TCU BKN300 28/25 Q1008 NOSIG=
METAR NSTU 272055Z 10013KT 12SM SCT022 BKN110 31/26 A2978 RMK SLP085
      8/170 T03110261 52005=
METAR ORBI 272100Z 31003KT CAVOK 10/02 Q1018 NOSIG=
METAR PAED 272058Z AUTO 27001KT 10SM CLR M05/M09 A3045 RMK AO2 SLP310
      T10481089 55007=
METAR PAEI 272058Z AUTO 00000KT 10SM CLR M10/M12 A3044 RMK AO2 SLP324
      T11021121 58011 $=
METAR PASY 272056Z 33013KT 9SM -SN SCT030 OVC037 M03/M10 A3029 RMK
      AO2 SNB17 SLP259 T10281100 53024 $=
METAR RKSG 272058Z AUTO 12003KT 10SM FEW160 M04/M07 A3041 RMK AO2 SLP302
      T10371074 55000 $=
METAR TBPB 272100Z 06018KT 9999 BKN018 SCT300 27/20 Q1014 NOSIG=
####018000093####
SAMN31 TNCM 272100
METAR TNCM 272100Z 09014KT 9999 
SCT024 27/20 Q1017 A3004 NOSIG=
####018000081####
SAMA20 FIMP 272100
METAR FIMP 272100Z 16007KT 6000 -SHRA BKN015 26/25 Q1008=
####018000099####
SAFP20 LFVP 272100
METAR LFVP 272100Z 28019KT 9999 FEW018 BKN024 BKN031 M06/M10 Q1017
NOSIG=
####018000105####
SAUS41 KLWX 272059
MTRRSP
METAR KRSP 272054Z AUTO 10SM FEW039 M05/M16 RMK AO2 SLPNO T10501156 
$
####018002982####
SAUS20 KNKA 272057
METAR K05U 272055Z AUTO 00000KT 10SM SCT024 04/M03 A2969 RMK AO1=
METAR K0E0 272055Z AUTO 14007KT 10SM OVC009 M08/M10 A2994 RMK AO2 
 T10781105=
METAR K0F2 272055Z AUTO 04005KT 1 1/4SM -SN SCT008 BKN011 OVC017 
 M06/M07 A3043 RMK AO2 P0001 60003 T10591074=
METAR K0V4 272055Z AUTO 30005KT 10SM CLR 05/M07 A3040 RMK AO1 
 T00531071=
METAR K11R 272055Z AUTO 05008KT 10SM BKN024 06/00 A3033 RMK AO2 
 T00640000=
METAR K1A6 272055Z AUTO 36003KT 10SM CLR M01/M13 A3048 RMK AO2 
 T10141131=
METAR K1H2 272055Z AUTO 31004KT 10SM CLR M09/M19 A3064 RMK AO2 
 T10871190=
METAR K1L0 272055Z AUTO 01007KT 10SM CLR 12/02 A3032 RMK AO2 
 T01210018=
METAR K2G9 272055Z AUTO 29010KT 10SM SCT032 M11/M18 A3039 RMK AO2=
METAR K3LF 272055Z AUTO 36003KT 10SM CLR M11/M20 A3063 RMK AO2 
 T11151203=
METAR K3R7 272055Z AUTO 05009KT 10SM CLR 10/01 A3033 RMK AO2 
 T00950007=
METAR K54J 272055Z AUTO 01009KT 10SM CLR 13/00 A3028 RMK AO2 
 T01311003=
METAR K5T9 272055Z AUTO 04007KT 1 1/2SM BR SCT006 BKN015 02/01
 A3025 RMK A01=
METAR K65S 272055Z AUTO 05004KT 10SM OVC050 04/M08 A2988 RMK AO2=
METAR K66R 272055Z AUTO 05009G16KT 7SM OVC020 06/01 A3029 RMK AO2 
     T00620014=
METAR K6B0 272055Z AUTO 25003KT 10SM CLR M07/M22 A3036 RMK AO2 
 T10681223=
METAR K6I2 272050Z AUTO 36005KT 10SM CLR M04/M15 A3056 RMK AO2=
METAR K6R3 272053Z AUTO 35004KT 10SM SCT100 09/01 A3035 RMK AO2=
METAR K8W2 272055Z AUTO 34005KT 10SM OVC065 00/M13 A3041 RMK AO1 
 T10011135=
METAR KACQ 272039Z AUTO 23007KT 10SM CLR M11/M17 A3054 RMK AO2=
METAR KACY 272054Z 32006KT 10SM CLR 01/M09 A3043 RMK AO2 SLP304
 T00061094 53013=
METAR KADU 272055Z AUTO 21003KT 10SM CLR M11/M18 A3054 RMK AO2=
METAR KAFK 272055Z AUTO 08004KT 10SM CLR M07/M20 A3052 RMK AO2 
 T10661200=
METAR KAFP 272055Z AUTO 31005KT 10SM CLR 10/M02 A3036 RMK AO2 
 T01021025=
METAR KAHQ 272055Z AUTO 11005KT 10SM CLR M07/M18 A3050 RMK AO2 
 T10711178=
METAR KAIO 272055Z AUTO 21004KT 10SM CLR M10/M18 A3055 RMK AO2=
METAR KAJO 272056Z AUTO 00000KT 10SM BKN037 17/09 A2980 RMK AO2 
 58023 T01660094 SLP088 $=
METAR KALX 272055Z AUTO 01008KT 10SM CLR 11/M06 A3036 RMK AO2 
 T01091065=
METAR KAPY 272055Z AUTO 35008KT 10SM OVC013 05/01 A3021 RMK AO2 
 T00520016=
METAR KAQO 272055Z AUTO 08007KT 3SM HZ OVC017 00/M03 A3035 RMK 
 AO2=
METAR KARM 272055Z AUTO 04012KT 7SM OVC017 06/02 A3031 RMK AO2 
 T00550016=
METAR KART 272056Z AUTO 25008KT 1SM -SN VV016 M09/M14 A3048 RMK AO2 
 SNB47 SLP335 P0000 60000 T10941139 53007=
METAR KASL 272055Z AUTO 03006KT 360V070 10SM BKN080 01/M06 A3045 
 RMK AO1 T00061065=
METAR KAUH 272055Z AUTO 18007KT 10SM CLR M06/M20 A3041 RMK AO2 
 T10601204=
METAR KAVC 272056Z AUTO 30007KT 10SM CLR 05/M08 A3045 RMK AO2 
 T00461082=
METAR KAVK 272055Z AUTO 09007KT 3SM -SN CLR M09/M12 A3048 RMK AO2
 P0001=
METAR KAVQ 272055Z AUTO 22011G19KT 10SM CLR 24/M04 A2970 RMK AO2 
 T02401038=
####018002961####
SAUS20 KNKA 272057
METAR KEYF 272055Z AUTO 00000KT 10SM CLR 11/M01 A3036 RMK AO2 
 T01121012=
METAR KEZM 272055Z AUTO 04004KT 10SM CLR 14/03 A3033 RMK AO2 
 T01420034=
METAR KEZS 272055Z AUTO 25011G14KT 10SM CLR M07/M21 A3048 RMK AO2 
 T10701208=
METAR KF05 272055Z AUTO 06009KT 7SM OVC012 M06/M11 A3045 RMK AO1 
 T10631114=
METAR KF44 272055Z AUTO 06008KT 10SM OVC080 00/M08 A3042 RMK AO2=
METAR KF46 272055Z AUTO 03014G19KT 10SM BKN010 BKN032 OVC055 
 M02/M05 A3041 RMK AO2 T10241047=
METAR KFHB 272055Z AUTO 04011G19KT 10SM SCT016 SCT095 12/06 A3029 
     RMK AO1=
METAR KFOT 272055Z AUTO 36009KT 4SM SCT014 SCT021 BKN040 10/09
 A2987 RMK AO1 P0006=
METAR KFSO 272055Z AUTO 01004KT 10SM CLR M09/M21 A3040 RMK AO2 
 T10891215=
METAR KFTN 272150Z AUTO 02008KT 02/02 A3025 RMK AO1=
METAR KGAO 272055Z AUTO 02008KT 10SM CLR 12/02 A3030 RMK AO2 
 T01170017=
METAR KGDJ 272055Z AUTO 35006KT 10SM -DZ OVC014 M03/M05 A3043 RMK 
 AO2 60001 T10301055=
METAR KGGI 272055Z AUTO 00000KT 10SM CLR M13/M19 A3059 RMK AO2 
 T11271188=
METAR KGIC 272055Z AUTO 06005KT 10SM SCT032 07/M01 A2973 RMK AO1 
 T00681007=
METAR KGMJ 272055Z AUTO 06003KT 1 1/2SM -SN OVC010 M06/M10 A3056 
 RMK AO2=
METAR KGNC 272055Z AUTO 11010KT 7SM -SN OVC012 M07/M09 A3021 RMK 
 AO2 T10661092=
METAR KGON 272056Z AUTO 33009KT 10SM CLR M03/M14 A3037 RMK AO2 
 SLP284 T10281139 53012=
METAR KGOO 272100Z AUTO 29008G14KT 10SM FEW031 SCT044 BKN060 10/02
 A2976 RMK AO1=
METAR KGWB 272055Z AUTO 28006KT 10SM CLR M07/M18 A3058 RMK AO2=
METAR KGYB 272055Z AUTO 03007KT 10SM OVC021 04/M01 A3035 RMK AO2 
 T00351014=
METAR KGYI 272055Z AUTO 05012KT 2SM -SN OVC008 M04/M05 A3045 RMK 
 AO2 60001 T10421052=
METAR KHJH 272055Z AUTO 15004KT 10SM CLR M06/M19 A3047 RMK AO2 
 T10611188=
METAR KHLX 272055Z AUTO 33013KT 10SM CLR M01/M09 A3032 RMK AO2 
 T10151092=
METAR KHND 272056Z VRB04KT 10SM CLR 16/M04 A2970 RMK AO2 SLP051 
 T01611044 58035=
METAR KHRJ 272055Z AUTO 33006KT 10SM SCT050 10/M03 A3038 RMK AO2 
 T00981026=
METAR KHSB 272055Z AUTO 36005KT 10SM BKN029 BKN080 M06/M13 A3064 
 RMK AO2 T10581135=
METAR KHYA 272056Z 03006KT 10SM CLR M04/M14 A3035 RMK AO2 SLP279 
 T10441139 53016=
METAR KHZL 272055Z AUTO 28006KT 10SM CLR M06/M16 A3037 RMK AO2=
METAR KI16 272055Z AUTO 10SM SCT037 M02/M10 A3051 RMK AO2 
 T10211104=
METAR KIBM 272055Z AUTO 17019G24KT 4SM -SN SCT008 BKN016 OVC031 
 M08/M12 A2995 RMK AO2 T10831124=
METAR KIER 272055Z AUTO 05008G14KT 10SM CLR 07/M03 A3040 RMK AO2 
 T00651030=
METAR KIFP 272055Z AUTO 36006KT 10SM CLR 20/M03 A2966 RMK AO2
 PWINO=
METAR KIIY 272055Z AUTO 20003KT 10SM CLR 14/03 A3032 RMK AO2=
METAR KJAS 272055Z AUTO 00000KT 10SM BKN100 09/M02 A3036 RMK AO2 
 T00871016=
METAR KJDD 272055Z AUTO 04003KT 10SM SCT050 BKN060 BKN075 00/M10 
 A3045 RMK AO2=
METAR KJFZ 272055Z AUTO 34004KT 10SM BKN027 M04/M12 A3038 RMK AO2 
 T10411125=
####018002974####
SAUS20 KNKA 272057
METAR KJSO 272055Z AUTO 05006KT 10SM OVC080 00/M06 A3041 RMK AO2 
 T00061061=
METAR KJTC 272055Z AUTO 21017G30KT 10SM FEW040 BKN070 BKN090
     10/M09 A2978 RMK AO2=
METAR KJWG 272055Z AUTO 07009KT 10SM SCT026 SCT037 OVC065 M08/M12 
 A3045 RMK AO2 T10791118=
METAR KJWY 272055Z AUTO 05009KT 7SM OVC014 M02/M04 A3041 RMK AO2 
 T10211041=
METAR KJXI 272055Z AUTO 04009KT 10SM SCT050 OVC080 M01/M09 A3044 
 RMK AO2 T10121088=
METAR KLAS 272056Z 00000KT 10SM FEW100 FEW250 17/M07 A2965 RMK AO2 
 SLP029 T01671067 58034=
METAR KLNN 272055Z AUTO 29007KT 10SM CLR M11/M17 A3059 RMK AO1 
 T11071170=
METAR KLNR 272056Z AUTO 26006KT 10SM CLR M09/M20 A3056 RMK AO2 
 SLP363 T10891200 56014=
METAR KLUD 272055Z AUTO 03005KT 1SM -SN OVC006 M05/M07 A3041 RMK 
 AO2 P0001 60002 T10521071=
METAR KM30 272055Z AUTO 04003KT 10SM CLR M03/M13 A3059 RMK AO2 
 T10351127=
METAR KMCC 272055Z AUTO 15009KT 10SM SCT039 18/08 A2976 RMK AO2=
METAR KMEV 272055Z AUTO 24010G27KT 10SM BKN070 BKN085 09/M07 A2970
 RMK AO2=
METAR KMGR 272055Z AUTO 05007KT 10SM CLR 12/05 A3030 RMK AO2=
METAR KMHV 272055Z AUTO 23019G24KT 10SM SCT040 OVC047 14/04 A2975
 RMK AO1=
METAR KMTW 272056Z AUTO 28012G17KT 10SM CLR M08/M17 RMK AO2 SLPNO 
    6//// T10781172 FZRANO $=
METAR KMVH 272055Z AUTO 32014KT 10SM CLR M06/M15 A2988 RMK A01=
METAR KMWO 272055Z AUTO 10SM SCT045 M06/M19 A3062 RMK AO2 
 T10631190=
METAR KN38 272055Z AUTO 30006G14KT 10SM SCT049 M08/M20 A3035 RMK
 AO2=
METAR KNTU 272056Z 36010KT 10SM BKN048 BKN280 02/M04 A3043 RMK AO2
 SLP307 T00171039 51015 $=
METAR KNUQ 272056Z 30007KT 10SM SCT037 SCT044 17/08 A2984 RMK AO2 
 SLP106 T01670078 58020=
METAR KO69 272055Z AUTO 27014G21KT 10SM CLR 16/09 A2982 RMK AO1=
METAR KO86 272050Z AUTO 16008KT 10SM SCT048 BKN050 BKN070 12/03
 A2972 RMK AO1=
METAR KOCW 272055Z AUTO 34005KT 10SM CLR 08/M01 A3039 RMK AO2 
 T00761014=
METAR KOJA 272055Z AUTO 07007KT 7SM -SN BKN017 OVC050 M08/M12 
 A3043 RMK AO2=
METAR KONM 272055Z AUTO 15008KT 10SM 03/00 A2990 RMK AO2 T00271001=
METAR KONP 272055Z AUTO 26007KT 7SM -RA SCT010 BKN014 10/08 A2976 
 RMK AO2 P0001=
METAR KOPN 272055Z AUTO 01007KT 10SM CLR 13/M01 A3033 RMK AO2=
METAR KORG 272055Z AUTO 07005KT 10SM CLR 11/00 A3033 RMK AO2 
 T01140002=
METAR KOWB 272056Z 07007KT 10SM FEW036 M04/M13 A3061 RMK AO2 56010 
 T10441133 SLP372=
METAR KP08 272055Z AUTO 22012G18KT 10SM CLR 23/M03 A2970 RMK AO2=
METAR KPBX 272055Z AUTO 04004KT 10SM OVC037 M06/M13 A3049 RMK AO2 
 T10561135=
METAR KPDC 272055Z AUTO 25008KT 10SM CLR M11/M21 A3059 RMK AO2 
     T11101209=
METAR KPEQ 272055Z AUTO 06008KT 5SM BR OVC008 M04/M05 A3021 RMK 
 AO2 T10371048=
METAR KPGV 272055Z AUTO 36004KT 10SM CLR 09/M02 A3039 RMK AO2=
METAR KPPQ 272055Z AUTO 00000KT 10SM CLR M10/M19 A3064 RMK AO2 
 T10981187=
METAR KPTS 272055Z AUTO 10007KT 10SM BKN038 OVC044 M06/M16 A3053 
 RMK AO2 T10611159=
####018002931####
SAUS20 KNKA 272057
METAR KAWG 272055Z AUTO 25005KT 10SM CLR M12/M18 A3063 RMK AO2=
METAR KAXA 272055Z AUTO 23007KT 10SM BKN014 M12/M17 A3054 RMK AO2=
METAR KAXX 272055Z AUTO 26007KT 1/2SM SN OVC004 M05/M07 A2980 RMK 
 AO2 T10471070=
METAR KAYS 272055Z AUTO 06007KT 10SM CLR 13/04 A3031 RMK AO2 
 T01310042=
METAR KBBD 272055Z AUTO 06007KT 3SM -SN BR BKN007 OVC011 M04/M04 
 A3027 RMK=
METAR KBDG 272055Z AUTO 14004KT 10SM OVC016 00/M02 A2987 RMK AO1 
 T10011025=
METAR KBED 272056Z AUTO 25005KT 10SM CLR M04/M21 A3034 RMK AO2 
 SLP291 T10391211 53006 TSNO=
METAR KBHC 272055Z AUTO 08007KT 10SM CLR 12/03 A3031 RMK AO2=
METAR KBIH 272056Z AUTO VRB03KT 10SM CLR 16/M08 A2961 RMK AO2 SLP003 
 T01561078 58035=
METAR KBMI 272056Z 08004KT 10SM CLR M09/M17 A3062 RMK AO2 55005 
 T10881172 SLP403=
METAR KBTA 272055Z AUTO 19003KT 10SM CLR M08/M16 A3050 RMK AO2 
 T10821160=
METAR KBYH 272055Z 03010KT 10SM BKN028 M04/M09 A3058=
METAR KCCO 272055Z AUTO 35008KT 10SM CLR 10/M02 A3034 RMK AO2 
 T00981021=
METAR KCDA 272055Z AUTO 26008KT 10SM CLR M09/M26 A3031 RMK AO2 
 T10901257=
METAR KCEC 272056Z AUTO 33006KT 10SM FEW015 FEW090 12/09 A2987 RMK 
 AO2 SLP114 60002 T01170094 58014=
METAR KCIR 272055Z AUTO 05007KT 10SM CLR M03/M12 A3061 RMK AO2 
 T10311117=
METAR KCJR 272055Z AUTO 05005KT 10SM CLR 02/M12 A3046 RMK AO2=
METAR KCMD 272055Z AUTO 36003KT 10SM CLR 01/M08 A3045 RMK AO2 
 T00121082=
METAR KCPK 272055Z AUTO 02007G14KT 10SM SCT050 03/M02 A3044 RMK 
 AO2=
METAR KCRX 272055Z AUTO 02006G13KT 10SM CLR 03/M11 A3047 RMK AO2=
METAR KCUH 272055Z AUTO 08005KT 1 1/2SM -SN OVC007 M07/M10 A3052 
 RMK AO2=
METAR KCUL 272055Z AUTO 32005KT 10SM CLR M04/M10 A3063 RMK AO2 
 T10451104=
METAR KCWC 272055Z AUTO 05008G14KT 5SM HZ OVC017 M05/M08 A3046 
 RMK AO2 T10541084=
METAR KDAY 272056Z 31006KT 10SM FEW026 BKN034 BKN039 M08/M15 A3058 
 RMK AO2 SLP375 SNB25E43 P0000 60000 T10781150 55000=
METAR KDNS 272055Z AUTO 18004KT 10SM CLR M12/M20 A3051 RMK AO2=
METAR KDNV 272055Z AUTO 00000KT 10SM CLR M09/M18 A3059 RMK AO2 
 T10891176=
METAR KDQH 272055Z AUTO 05007KT 10SM SCT033 12/03 A3032 RMK AO2=
METAR KDUC 272055Z AUTO 09008KT 7SM BKN014 BKN027 OVC035 M06/M08 
 A3045 RMK AO2=
METAR KDVK 272055Z AUTO 04008KT 10SM CLR M06/M14 A3057 RMK AO2=
METAR KE16 272055Z AUTO 32011G18KT 10SM BKN035 OVC065 16/09 A2984
 RMK AO2=
METAR KEBG 272055Z AUTO 35006KT 10SM OVC027 16/09 A3016 RMK AO2 
 T01580086=
METAR KEDU 272055Z AUTO 00000KT 10SM FEW070 18/06 A2975 RMK AO1=
METAR KEED 272056Z AUTO 00000KT 10SM CLR 21/M04 A2965 RMK AO2 SLP023 
 T02111044 58034=
METAR KEKO 272056Z AUTO 21008KT 10SM OVC055 07/M05 A2965 RMK AO2 
 SLP041 T00671050 58032=
METAR KEKQ 272056Z AUTO 01005KT 10SM CLR M03/M13 A3056 RMK AO2 56007 
 T10271127 SLP363=
METAR KERV 272055Z AUTO 03006KT 2 1/2SM UP OVC011 00/M02 A3025 
 RMK AO2 T10051016=
####018002974####
SAUS20 KNKA 272057
METAR KPTT 272055Z AUTO 12007KT 2SM -SN SCT009 OVC017 M08/M13 
     A3044 RMK AO2 VIS 1 1/2V3=
METAR KRHP 272055Z AUTO 25008KT 10SM CLR 03/M03 A3034 RMK AO2 
 T00341029=
METAR KRPH 272055Z AUTO 04005KT 10SM SCT014 BKN020 OVC035 M05/M07 
 A3040 RMK AO2 T10501073=
METAR KRPJ 272055Z AUTO 23009KT 10SM CLR M13/M18 A3061 RMK AO2 
 T11281181=
METAR KRSV 272055Z AUTO 32004KT 10SM CLR M07/M17 A3065 RMK AO2 
 T10751166=
METAR KRTS 272055Z AUTO 27012KT 10SM FEW070 SCT090 09/M05 A2966
 RMK AO2=
METAR KS39 272100Z AUTO 26005KT 10SM FEW017 FEW022 SCT049 05/01
 A2966 RMK AO2=
METAR KSBP 272056Z 29016G20KT 10SM SCT017 BKN035 17/11 A2983 RMK AO2 
 SLP100 T01720111 58017=
METAR KSDF 272056Z 01005KT 10SM SCT049 M03/M16 A3060 RMK AO2 SLP369 
 T10331161 55005=
METAR KSFO 272056Z 29019G25KT 10SM FEW013 SCT025 BKN029 16/09 A2984 
 RMK AO2 PK WND 27029/2024 SLP105 60000 T01610094 58016=
METAR KSFY 272055Z AUTO 25007KT 10SM CLR M11/M20 A3062 RMK AO2 
 T11081205=
METAR KSGH 272056Z AUTO 33008KT 8SM BKN041 M08/M17 A3058 RMK AO2 
 55001 T10771166 BKN V SCT SLP378=
METAR KSHD 272055Z AUTO 03004KT 10SM CLR 01/M11 A3039 RMK AO2 
 T00101110=
METAR KSLO 272055Z AUTO 35005KT 10SM CLR M08/M16 A3063 RMK AO2 
 T10771165=
METAR KSLR 272055Z AUTO 04012G15KT 7SM SCT013 SCT018 OVC065 
 M02/M05 A3048 RMK AO2 T10251052=
METAR KSUT 272055Z AUTO 02003KT 10SM CLR 09/01 A3037 RMK AO2 
     T00880011=
METAR KT20 272055Z AUTO 02008KT 10SM OVC016 05/01 A3028 RMK AO2 
 T00470007=
METAR KTIP 272055Z AUTO 00000KT 10SM CLR M09/M17 A3061 RMK AO2 
 T10861169=
METAR KTKV 272055Z AUTO 00000KT 10SM CLR M08/M21 A3040 RMK AO2 
 T10851215=
METAR KTNB 272055Z AUTO 28009KT 230V310 10SM CLR M02/M09 A3030 
 RMK AO2 T10161091=
METAR KTOC 272055Z AUTO 28003KT 10SM CLR 11/M08 A3032 RMK AO2 
 T01101080=
METAR KTPH 272056Z AUTO 00000KT 10SM SCT060 10/M06 A2967 RMK AO2 
 SLP028 T01001061 58036=
METAR KTQH 272055Z AUTO 10008KT 1 1/2SM -SN OVC007 M07/M10 A3052 
 RMK AO2=
METAR KTVK 272055Z AUTO 36003KT 10SM CLR M11/M18 A3059 RMK AO2=
METAR KUKI 272056Z AUTO 29015G21KT 10SM CLR 14/06 A2981 RMK AO2 
 SLP091 T01440056 58017=
METAR KUSE 272055Z AUTO 23009KT 10SM CLR M09/M20 A3058 RMK AO2=
METAR KVCV 272055Z AUTO 26016G22KT 10SM CLR 18/00 A2972 RMK AO2=
METAR KVKS 272055Z AUTO 35008KT 10SM CLR 06/M03 A3040 RMK A01=
METAR KVPZ 272056Z AUTO 21009KT 10SM CLR M09/M19 A3058 RMK AO2 
 UPE02B35E51 SLP375 P0000 60000 T10941189 56004 TSNO=
METAR KW75 272055Z AUTO 35005KT 10SM SCT033 OVC042 00/M06 A3047 
 RMK AO1 T10051064=
METAR KWJF 272056Z 22018G27KT 10SM FEW040 16/06 A2974 RMK AO2 PK WND 
 25029/2007 SLP066 T01560061 58022=
METAR KXSA 272055Z AUTO 32004KT 10SM CLR 02/M11 A3047 RMK AO2 
 T00151114=
METAR KY50 272056Z AUTO 25007G16KT 10SM CLR M08/M19 A3051 RMK AO2 
 TSNO 56013 T10771194 SLP349=
METAR PAAD 272055Z AUTO 26019KT 10SM OVC029 M04/M05 A3015 RMK AO2=
####018001263####
SAUS20 KNKA 272057
METAR PACM 272056Z AUTO 18018G27KT 1 1/2SM BR SCT007 BKN012 OVC110 
 M01/M01 A3015 RMK AO2 PWINO FZRANO TSNO 58019 T10051011 PK WND 
 18027/2049 SLP206 $=
METAR PAGN 272056Z AUTO 00000KT 10SM CLR 04/01 A3040 RMK AO2 TSNO 
 58003 T00440005 SLP299 $=
METAR PAHX 272056Z AUTO 16007KT 10SM OVC023 M04/M06 A3032 RMK AO2 
 SLP269 T10391061 58011 FZRANO=
METAR PANA 272056Z AUTO 12008KT 10SM OVC032 M01/M04 A3026 RMK AO2 
 SLP247 T10111039 58018 FZRANO=
METAR PAQH 272056Z AUTO 10012KT 10SM OVC033 01/M03 A3026 RMK AO2 
 SLP249 T00061028 56014 FZRANO=
METAR PATQ 272056Z AUTO 26012KT 10SM CLR M16/M18 A3015 RMK AO2 TSNO 
 51024 60000 T11611177 SLP215 $=
METAR PFCL 272056Z AUTO 07007KT 10SM OVC008 M01/M02 A3033 RMK AO2 
 SLP274 T10061017 58009 FZRANO=
METAR PFKW 272056Z AUTO 13007KT 10SM OVC033 M01/M04 A3027 RMK AO2 
 SLP252 T10111044 58018 FZRANO=
METAR PFWS 272056Z AUTO 05003KT 10SM BKN110 M03/M03 A3035 RMK AO2 
 SLP285 T10281033 55010 FZRANO=
METAR PPIT 272056Z AUTO 14012KT 10SM OVC033 M01/M04 A3025 RMK AO2 
 SLP243 T10111039 58016 FZRANO=
METAR TJSJ 272056Z 09009KT 10SM FEW022 SCT033 BKN055 25/22 A3004 RMK 
 AO2 PK WND 09032/2015 RAB15E33 SLP171 VCSH SW-NW P0000 60000 
 T02500217 55003=
####018000404####
SAMX34 MMMD 272100
METAR MMCZ 272045Z 12008KT 8SM  SCT015TCU 28/22 A2996 
      RMK SLP153 57002 940 8/200 CC RTS=
METAR MMMD 272045Z 36008KT 7SM  BKN025 BKN300 29/21 A2993 
      RMK SLP132 56030 927 8/108 HZY=
METAR MMTP 272042Z 26010KT 10SM  SKC 31/22 A2979 RMK SLP078 57023 953=
METAR MMUN 272046Z 13010KT 7SM  SCT015TCU SCT080 28/23 A2997 
      RMK SLP138 57020 938 8/270 CB 4 QUAD=
####018000743####
SANL33 EHDB 272055
METAR EHAK 272055Z AUTO 21019KT 9999 FEW008/// 06/03 Q1015=
METAR EHDV 272055Z AUTO 23020KT 200V290 9999 FEW033/// 06/03 Q1016=
METAR EHFD 272055Z AUTO 23016KT 9999 FEW013/// OVC016/// 05/02 Q1016=
METAR EHFZ 272055Z AUTO 22014KT 9999 FEW008/// 05/03 Q1017=
METAR EHJA 272055Z AUTO 21019KT 9999 NCD 06/02 Q1017=
METAR EHJR 272055Z NIL=
METAR EHKV 272055Z AUTO 21015KT 9999 SCT033/// 06/02 Q1018=
METAR EHMA 272055Z AUTO 26010KT 9999 FEW024/// 05/01 Q1019=
METAR EHMG 272055Z AUTO 24012KT 9999 SCT017/// BKN020/// BKN024///
05/01 Q1018=
METAR EHPG 272055Z AUTO 21015KT 9999 NSC 06/02 Q1019=
METAR EHQE 272055Z AUTO 23012KT 9999 FEW016/// SCT035/// 06/01 Q////=
METAR EHSA 272055Z NIL=
METAR EHSC 272055Z NIL=
####018000132####
SASW39 LSSW 272050 RRA
METAR LSMM 272050Z AUTO 28005KT 230V330 9999NDV -RA FEW012 BKN015
           OVC020 02/00 Q1020 RMK GRN=
####018000092####
SAMX53 MMMZ 272100
METAR MMGM 272058Z RTD 15008KT 10SM  SKC 23/14 A2976=





TX_OPMET
####018000377####
SAPK31 OPKC 272100
METAR OPGD 272100Z NIL=
METAR OPKC 272055Z 16005KT 5000 TSRA FEW020CB BKN025 OVC090 16/10
Q1013 TEMPO
TSRA SCT020CB=
METAR OPLA 272055Z 00000KT 4000 FU NSC 14/10 Q1016 NOSIG=
METAR OPNH 272100Z 36004KT 3000M FU SCT035 BKN100 15/09 Q1011=
METAR OPPS 272100Z NIL=
METAR OPRN 272100Z 00000KT 6000 FEW100 10/05 Q1017.2/30.03 =
METAR OPSK 272100Z NIL=
####018001515####
SAEU KAWN 272100 RRI
METAR EGDR 272050Z 19015G27KT 4000 -DZ SCT007 BKN010 OVC024 07/06 Q1016
      GRN=
METAR EGQM 272050Z AUTO 17013KT 9999 FEW041/// BKN100/// 05/02 Q1010=
METAR EGUL 272058Z AUTO 19007KT 9999 DZ OVC160 05/00 A3004 RMK AO2
      SLP176 P0000 60000 T00471004 57015=
METAR EGUN 272058Z AUTO 20008KT 9999 OVC160 05/00 A3005 RMK AO2 SLP180
      T00461001 57015=
METAR EGVA 272058Z AUTO 20009KT 9999 BKN110 05/02 A3003 RMK AO2 SLP176
      T00480018 57018 $=
METAR EGVN 272050Z 19005KT CAVOK 05/01 Q1017 BLU NOSIG=
METAR EGVO 272050Z 18009KT CAVOK 05/01 Q1018 BLU=
METAR EGWU 272050Z 21007KT CAVOK 05/01 Q1019 BLU NOSIG=
METAR EGXC 272050Z 20009KT CAVOK 05/00 Q1016 BLU=
METAR ETAR 272058Z AUTO 27002KT 9999 OVC100 02/00 A3014 RMK AO2 SLP220
      T00240001 52019 $=
METAR ETEB 272058Z AUTO 28005KT 8000 -RA BR OVC004 01/01 A3003 RMK
      AO2 UPE2019RAB2032DZB2019E2032 SLP205 P0000 60000 T00090009
      52020=
METAR ETIC 272058Z AUTO 00000KT 9999 CLR M02/M05 A2999 RMK AO2 SLP180
      52021=
METAR ETIH 272058Z AUTO 00000KT 9999 CLR M04/M06 A2985 RMK AO2 SLP144=
METAR ETIK 272058Z AUTO 25006KT 9999 UP OVC006 01/01 A3006 RMK AO2
      UPB2057 SLP196 52020=
METAR ETOU 272058Z AUTO 31007KT 9999 OVC065 05/01 A3012 RMK AO2 SLP207
      60000 T00480005 52021 $=
METAR LGKR 272050Z 27003KT 9999 FEW018TCU BKN035 OVC080 11/09 Q1007
      NOSIG=
METAR LIYW 272058Z AUTO 06004KT 9999 OVC120 07/07 A2991 RMK AO2 SLP134
      T00650065 52020 $=
####018001556####
SAUS17 KAWN 272100 RRA
METAR KAFF 272058Z AUTO 15007KT 6SM HZ OVC016 M12/M16 A2985 RMK AO2
      SNE31SNB37E48 SLP202 P0000 60000 T11211163 57020=
METAR KBAB 272058Z AUTO 20011KT 10SM CLR 18/09 A2973 RMK AO2 SLP143
      T01840085 57025 $=
METAR KDMA 272058Z AUTO 21011G21KT 170V240 10SM CLR 22/M04 A2972 RMK
      AO2 SLP040 T02241036 57031 $=
METAR KFEW 272056Z AUTO 20012G19KT 6SM -SN BKN013 M12/M15 A2981 RMK
      AO2 SLP196 T11181152 57017 $=
METAR KFHU 272055Z 23020G26KT 10SM FEW090 FEW160 FEW240 19/M08 A2979
      RMK PK WND 24031/27 ACSL SE SLP053 58024=
METAR KFMH 272055Z AUTO VRB04KT 10SM CLR M04/M14 A3035 RMK AO2 FZRANO=
METAR KGXF 272056Z 22010G18KT 10SM CLR 25/M03 A2967 RMK AO2A SLP039
      T02471027 57027=
METAR KHFF 272056Z AUTO 36007KT 10SM CLR 10/M02 A3039 RMK AO2 SLP296
      T01001022 55005=
METAR KHMN 272058Z AUTO 14010KT 10SM CLR 05/M04 A2994 RMK AO2 SLP130
      T00521045 57028 $=
METAR KLSV 272058Z AUTO VRB05KT 10SM CLR 17/M04 A2967 RMK AO2 SLP038
      T01661038 57035=
METAR KMUO 272058Z AUTO 10015KT 10SM FEW090 09/M01 A2968 RMK AO2 SLP056
      T00931014 57028 $=
METAR KNBC 272057Z 09007KT 7SM FEW060 SCT150 BKN200 10/02 A3034 RMK
      SLP275 T01000022 55010=
METAR KNBG 272055Z 06011KT 10SM FEW250 12/M01 A3030 RMK AO2 SLP259
      T01221011 56020 $=
METAR KNFW 272052Z 01008KT 1/2SM -SN FZFG VV012 M03/M05 A3047 RMK AO2
      SLP300 P0002 60003 T10281050 56023 $=
METAR KNJK 272056Z 24011KT 10SM FEW050 27/02 A2965 RMK AO2 SLP056 T02670022
      58032=
####018000079####
SAPK31 OPPS 272058
METAR OPPS 272100Z 23006KT 4000 HZ FEW250 10/03 Q1016.7=
####018000074####
SABZ22 SBGO 272100
METAR SBGO 272100Z 35006KT 9999 SCT025 28/16 Q1013=
####018000091####
SAGU31 MGGT 272100
METAR 
MGGT 272100Z 36012KT 9999 FEW020 26/11 Q1021 A3015 FEW080=  
####018000077####
SABZ19 SBSN 272100
METAR SBSN 272100Z 30001KT 9999 FEW030TCU 30/25 Q1008=
####018000224####
SAVN27 SVBM 272100
METAR SVBM 272100Z 11013KT 9999 FEW016 31/17 Q1013=
METAR SVAC 272100Z NIL=
METAR SVBI 272100Z NIL=
METAR SVGU 272100Z NIL=
METAR SVSP 272100Z NIL=
METAR SVSO 272100Z NIL=
METAR SVVL 272100Z NIL=
####018000117####
SAUS45 KPSR 272057
MTRNYL
METAR KNYL 272057Z 24004KT 10SM FEW100 24/06 A2968 RMK AO2 SLP047 
T02390056 58024
####018001208####
SASA KAWN 272100 RRB
METAR SBAR 272100Z 12010KT 9999 SCT020 28/22 Q1010=
METAR SBBE 272100Z 09002KT 9999 4000S -TSRA FEW015 BKN025 FEW030CB
      BKN N100 23/22 Q1010=
METAR SBBR 272100Z 26003KT 9999 FEW040 FEW045TCU BKN100 25/17 Q1016=
METAR SBCG 272100Z 27006KT 9999 FEW030 FEW035TCU 27/21 Q1012=
METAR SBCR 272100Z 31002KT 9999 FEW020 33/23 Q1007=
METAR SBCY 272100Z 35003KT 9999 FEW020 32/20 Q1009=
METAR SBCZ 272100Z 24003KT 9999 FEW008 SCT030 BKN100 26/25 Q1009 RETS=
METAR SBEG 272100Z 02004KT 9999 SCT020 SCT100 31/22 Q1008=
METAR SBFL 272100Z 14007KT 9999 SCT030 FEW035TCU SCT100 27/22 Q1008=
METAR SBFN 272100Z 18005KT 9999 SCT011 27/24 Q1011=
METAR SBGL 272100Z 13009KT CAVOK 28/22 Q1007=
METAR SBMN 272100Z 13004KT 9999 SCT025 29/23 Q1008=
METAR SBPK 272100Z 18015KT 9999 SCT020 25/17 Q1012=
METAR SBRB 272100Z 36005KT 9999 SCT030 31/24 Q1007=
METAR SBSJ 272100Z 16010KT 9999 SCT027 FEW030TCU 27/16 Q1012=
METAR SBSL 272100Z 03009KT 9999 SCT020 28/22 Q1009=
METAR SBUG 272100Z 30005KT 9999 FEW030 FEW040TCU BKN080 28/21 Q1011=
METAR SPIM 272100Z 17013KT CAVOK 27/19 Q1010 NOSIG RMK BKN230 PP000=
METAR SVMI 272100Z 05003KT 9999 FEW023 31/24 Q1012 NOSIG=
####018001477####
SAUK KAWN 272100 RRA
METAR EGDR 272050Z 19015G27KT 4000 -DZ SCT007 BKN010 OVC024 07/06 Q1016
      GRN=
METAR EGGP 272050Z 18010KT 140V210 9999 BKN028 07/03 Q1013=
METAR COR EGLL 272050Z 20009KT 160V250 CAVOK 05/02 Q1019 NOSIG=
METAR EGNH 272050Z 17013KT 9999 BKN024 BKN030 06/01 Q1013=
METAR EGNS 272050Z 21025KT 9999 BKN015 08/05 Q1009 NOSIG=
METAR COR EGPB 272050Z 19024KT 9000 SCT025 07/03 Q0999 NOSIG=
METAR EGPC 272050Z AUTO 19020KT 170V240 9999 NCD 05/00 Q0999=
METAR EGPK 272050Z 19016G26KT 9999 -SHRA SCT019 SCT023 07/04 Q1006=
METAR EGPN 272050Z 22012KT 200V260 9999 FEW048 07/03 Q1006=
METAR EGPO 272050Z AUTO 21031G41KT 3200 -RA BKN008/// 06/04 Q0993=
METAR EGQM 272050Z AUTO 17013KT 9999 FEW041/// BKN100/// 05/02 Q1010=
METAR EGSS 272050Z 18007KT CAVOK 03/M01 Q1018=
METAR EGUL 272058Z AUTO 19007KT 9999 DZ OVC160 05/00 A3004 RMK AO2
      SLP176 P0000 60000 T00471004 57015=
METAR EGUN 272058Z AUTO 20008KT 9999 OVC160 05/00 A3005 RMK AO2 SLP180
      T00461001 57015=
METAR EGVA 272058Z AUTO 20009KT 9999 BKN110 05/02 A3003 RMK AO2 SLP176
      T00480018 57018 $=
METAR EGVN 272050Z 19005KT CAVOK 05/01 Q1017 BLU NOSIG=
METAR EGVO 272050Z 18009KT CAVOK 05/01 Q1018 BLU=
METAR EGWU 272050Z 21007KT CAVOK 05/01 Q1019 BLU NOSIG=
METAR EGXC 272050Z 20009KT CAVOK 05/00 Q1016 BLU=
METAR EGXE 272050Z 17009KT 9999 BKN047 05/M00 Q1013 BLU BECMG BKN020
      WHT=
METAR EGXW 272050Z 20013KT CAVOK 05/M00 Q1015 BLU=
####018001629####
SANA14 KAWN 272100 RRA
METAR KNFL 272056Z 26030G38KT 7SM -RA SCT035 BKN060 BKN120 08/00 A2968
      RMK AO2 PK WND 25038/2054 RAB53 PRESRR SLP032 P0000 60000
      T00830000 55022=
METAR KNID 272056Z AUTO 04008KT CLR 19/02 A2964 RMK AO2 SLP030 T01890022
      58039 $=
METAR KNKX 272055Z 20013G21KT 10SM SCT026 BKN035 18/10 A2982 RMK AO2
      SLP094 T01830100 58014 $=
METAR KNLC 272056Z 36009KT 10SM SCT045 BKN220 20/07 A2979 RMK AO2 SLP089
      RH/44 T02000072 58025=
METAR KNQI 272056Z 05013KT 7SM -DZ FEW011 OVC016 12/08 A3020 RMK AO2
      DZB54 SLP221 P0000 60000 T01220083 58027 $=
METAR KNSE 272056Z 03011KT 10SM SCT250 14/M02 A3028 RMK AO2 SLP243
      T01441017 56022 $=
METAR KNTU 272056Z 36010KT 10SM BKN048 BKN280 02/M04 A3043 RMK AO2
      SLP307 T00171039 51015 $=
METAR KNUW 272056Z 01007KT 10SM -RA SCT035 BKN055 OVC070 10/07 A2982
      RMK AO2 SLP100 P0001 60002 T01000067 50004 VISNO E $=
METAR KRIV 272058Z AUTO 24002KT 10SM BKN036 15/08 A2979 RMK AO2 SLP086
      T01500077 58019=
METAR KSKA 272058Z AUTO 05011KT 10SM CLR 08/M04 A2977 RMK AO2 SLP097
      60000 T00761038 57012=
METAR KSUU 272058Z AUTO 25017G22KT 10SM BKN050 18/10 A2974 RMK AO2
      SLP078 T01820102 58023 $=
METAR KTCM 272058Z AUTO 02005KT 10SM -RA BKN007 OVC025 09/09 A2974
      RMK AO2 SLP076 P0003 60008 T00880086 50001 $=
METAR KVAD 272058Z AUTO 03010KT 10SM SCT032 BKN180 BKN200 12/04 A3029
      RMK AO2 SLP260 T01150039 55012 $=
METAR SBBR 272100Z 26003KT 9999 FEW040 FEW045TCU BKN100 25/17 Q1016=
METAR SPIM 272100Z 17013KT CAVOK 27/19 Q1010 NOSIG RMK BKN230 PP000=
####018000120####
SAUS17 KAWN 272000 RRI
METAR KU16 271958Z AUTO 21007KT 10SM BKN095 08/M03 A2973 RMK AO2 SLP705
      T00781033 $=
####018000453####
SAGL KAWN 272100
METAR BGBW 272050Z 00000KT 9999 SCT070 BKN180 M06/M12 Q0988=
METAR BGGH 272050Z 04004KT 9999 FEW008 M11/M13 Q0993=
METAR BGJN 272050Z AUTO 14008KT 9999NDV SCT120/// BKN140/// M23/M28
      Q0993=
METAR BGKK 272050Z AUTO 08015KT //// BKN026/// M02/M07 Q0990=
METAR BGSF 272050Z AUTO 05004KT 9999NDV BKN190/// M28/M33 Q0995=
METAR BGTL 272058Z AUTO 09007KT 9999 CLR M34/M34 A2945 RMK AO2 SLP969
      T13391344 51005 $=
####018000197####
SAZZ40 KAWN 272000 RRX
METAR OAKB 271950Z 13003KT 5000 BR NSC 01/M01 Q1020 NOSIG RMK WHT WHT=
METAR ROTM 271958Z COR 10014KT 9000 DZ BR OVC015 17/17 A3009 RMK SLP176
      P0000 T01700166=
####018000099####
SABA31 MYNN 272057
METAR MYNN 272100Z 18004KT 9999 FEW016TCU 30/22 A3007
TCU/W=


NNNN
####018000395####
SAHW31 KMSC 272058
METAR PHSF 272056Z AUTO 22002G10KT 10SM CLR 19/07 A3028 RMK AO2 SLP144
 T01850073 53004 $=
METAR PWAK 272058Z AUTO 08022G26KT 9000 HZ FEW028 25/19 A3002 RMK AO2
      PK WND 08027/38 SLP172 T02470186 52015=
METAR PGWT 272057Z 07013KT 7SM SCT010 BKN150 25/23 A2991
=
METAR NSTU 272055Z 10013KT 12SM SCT022 BKN110 31/26 A2978 RMK SLP085
 8/170 T03110261 52005=
####018000081####
SALI20 GLRB 272100
METAR GLRB 272100Z 00000KT 9999 FEW013 25/24 Q1010  NOSIG=
####018000074####
SABZ18 SBSP 272100
METAR SBSP 272100Z 19006KT 9999 SCT045 26/13 Q1012=
####018000068####
SACO20 SKBO 272058
METAR SKBQ 272100Z 02010KT CAVOK 30/25 A2976=
####018000401####
SACO20 SKBO 272058
METAR SKBO 272100Z 19012KT 9999 SCT023 SCT080 20/06 A3024=
METAR SKBQ 272100Z 02010KT CAVOK 30/25 A2976=
METAR SKCL 272100Z 33012K SCT017 SCT200 31/27 A2972=
METAR SKRG 272100Z 15010KT 9999 FEW020 22/10 A3020=
METAR SKSP 272100Z 08010KT 9999 SCT018 28/24 A2985=
METAR SKBG 272100Z 32005KT 8000 SCT017 26/19 A2990 RMK HZ=
METAR SKPE 272100Z 28005KT 9999 FEW025 29/16 A2990=
####018001598####
SANA35 KAWN 272100 RRA
METAR KACY 272054Z 32006KT 10SM CLR 01/M09 A3043 RMK AO2 SLP304 T00061094
      53013=
METAR KBOS 272054Z VRB03KT 10SM FEW035 SCT250 M03/M19 A3036 RMK AO2
      SLP279 T10281189 53006=
METAR KCHS 272056Z 11009KT 10SM BKN200 10/01 A3035 RMK AO2 SLP277 T01000011
      55007=
METAR KMCF 272058Z AUTO 06009KT 10SM OVC022 17/12 A3017 RMK AO2 SLP220
      T01710124 56013=
METAR KNBC 272057Z 09007KT 7SM FEW060 SCT150 BKN200 10/02 A3034 RMK
      SLP275 T01000022 55010=
METAR KNBG 272055Z 06011KT 10SM FEW250 12/M01 A3030 RMK AO2 SLP259
      T01221011 56020 $=
METAR KNPA 272056Z 03011KT 10SM BKN250 14/M01 A3028 RMK AO2 SLP253
      T01391006 56018 $=
METAR KNTU 272056Z 36010KT 10SM BKN048 BKN280 02/M04 A3043 RMK AO2
      SLP307 T00171039 51015 $=
METAR KPHL 272054Z 32008KT 10SM FEW250 M01/M13 A3046 RMK AO2 SLP314
      T10111133 53011=
METAR KSYR 272054Z 30011KT 10SM BKN031 BKN035 M08/M17 A3049 RMK SLP329
      T10781167 53012=
METAR KVAD 272058Z AUTO 03010KT 10SM SCT032 BKN180 BKN200 12/04 A3029
      RMK AO2 SLP260 T01150039 55012 $=
METAR KVPS 272056Z 05009KT 10SM SCT140 BKN250 15/M00 A3026 RMK AO2A
      SLP254 T01461003 57019 $=
METAR MDSD 272100Z 14010KT 9999 FEW022 28/21 Q1016=
METAR MTPP 272100Z 08010G22KT 9999 FEW028 32/// Q1014 A2994=
METAR SAWH 272100Z 09004KT 9999 BKN045 BKN100 10/07 Q0993=
METAR SPIM 272100Z 17013KT CAVOK 27/19 Q1010 NOSIG RMK BKN230 PP000=
METAR TBPB 272100Z 06018KT 9999 BKN018 SCT300 27/20 Q1014 NOSIG=
METAR TXKF 272055Z 24017KT 9000 -RA BKN007 OVC017 22/20 Q1022=
####018001550####
SAZZ40 KAWN 272100 RRH
METAR BGTL 272058Z AUTO 09007KT 9999 CLR M34/M34 A2945 RMK AO2 SLP969
      T13391344 51005 $=
METAR ETAD 272058Z AUTO 28004KT 9999 CLR 01/M01 A3014 RMK AO2 SLP214
      T00071011 52018=
METAR KAPG 272055Z 30010KT 7SM FEW200 M01/M11 A3049=
METAR KFBG 272058Z AUTO 28005KT 10SM FEW050 11/M03 A3035 RMK AO2 SLP282
      T01061029 55005 $=
METAR KFRI 272058Z AUTO 12003KT 10SM FEW055 SCT070 BKN090 M07/M18 A3054
      RMK AO2 SLP361 T10711181 56025=
METAR KGXA 272055Z AUTO 28021G27KT 10SM FEW220 18/00 A2971 RMK AO2
      SLP057 T01770001 58027 TSNO $=
METAR KHUA 272058Z AUTO 35009KT 10SM CLR 02/M07 A3045 RMK AO2 SLP319
      T00181072 57017=
METAR KIAB 272058Z AUTO 11004KT 3SM -SN FEW002 SCT008 SCT013 OVC036
      M09/M13 A3050 RMK AO2 CIG 003 RWY19 SLP357 P0000 60000
      T10901128 57020=
METAR KLRF 272058Z AUTO VRB03KT 10SM FEW090 M02/M14 A3056 RMK AO2 SLP356
      T10171139 55004=
METAR KMCF 272058Z AUTO 06009KT 10SM OVC022 17/12 A3017 RMK AO2 SLP220
      T01710124 56013=
METAR KPOE 272058Z AUTO VRB06KT 10SM OVC150 09/M02 A3032 RMK AO2 SLP271
      T00891019 57023=
METAR KTIK 272058Z AUTO 06005KT 5SM -SN FEW013 OVC019 M08/M11 A3046
      RMK AO2 CIG 015V019 SLP343 P0001 60001 T10791114 55019=
METAR KVAD 272058Z AUTO 03010KT 10SM SCT032 BKN180 BKN200 12/04 A3029
      RMK AO2 SLP260 T01150039 55012 $=
METAR RODN 272058Z AUTO 07013KT 7SM R05/5500FT BKN004 BKN027 OVC120
      17/16 A3007 RMK AO2 DZB33E49 SLP190 P0000 60000 T01710158
      57007 $=
####018000068####
SAFI77 MBGT 272100
MBGT 272100Z 10015KT 9999 FEW015 27/20 Q1017=
####018000068####
SABZ23 SBCB 272100
METAR SBCB 272100Z 09007KT CAVOK 27/24 Q1008=
####018000121####
SPUS90 KWBC 272100
SPECI KSXT 272058Z AUTO VRB03KT 4SM BR SCT003 BKN007 OVC016 04/03
     A2973 RMK AO2 T00390028=
####018002674####
SAUS90 KWBC 272100
METAR KMEH 272056Z AUTO 09003KT 4SM -RA SCT014 BKN027 OVC037 04/01
     A2966 RMK AO2 RAB34 SLP058 P0000 60000 T00440011 58010=
METAR KALK 272056Z AUTO 26021G29KT 10SM CLR 18/M08 A2980 RMK AO2
     PK WND 22032/2044 SLP028 T01831083 58025=
METAR KNGP 272056Z 05022G27KT 5SM -RA BR BKN010 OVC020 11/08 A3019
     RMK AO2 PK WND 06028/2034 RAB56 SLP223 P0000 60000 T01060083
     58023=
METAR KP28 272056Z AUTO 10004KT M10/M13 A3047 RMK AO1 SLP346 60002
     T11001133 58016=
METAR KNRS 272056Z 18011G19KT 10SM FEW025 BKN035 18/11 A2984 RMK
     AO2 SLP104 T01830111 58012 $=
METAR K9L2 272055Z AUTO 27015G23KT 10SM CLR 18/03 A2969 RMK AO2
     SLP049 T01780028 57029 $=
METAR KVBG 272055Z 32021G28KT 10SM SCT015 BKN020 BKN250 16/12
     A2986 RMK AO2A PK WND 32030/2011 BKN020 V SCT SLP102
     T01610117 58012=
METAR KAQV 272056Z AUTO 03005G14KT 10SM CLR 08/M03 A3034 RMK AO2
     SLP275 6//// T00781028 57019=
METAR KNFE 272056Z AUTO 36010KT 10SM CLR 04/M03 A3043 RMK AO2
     SLP307 T00391033 51015=
METAR KNBT 272056Z AUTO A3038 RMK AO2 SLP293 6//// 53007 PWINO PNO
     $=
METAR KSXT 272056Z AUTO 25005KT 2 1/2SM BR BKN003 BKN007 OVC016
     04/03 A2973 RMK AO2 VIS 1V5 SLP073 60000 T00390033 58015=
METAR KNTU 272056Z 36010KT 10SM BKN048 BKN280 02/M04 A3043 RMK AO2
     SLP307 T00171039 51015 $=
METAR KNXP 272056Z 00000KT 10SM FEW200 21/M01 A2971 RMK AO2 PRESFR
     SLP034 LAST AUGMENTED T02061006 58039=
METAR KNSI 272057Z AUTO 31022G36KT 10SM OVC013 A2983 RMK AO2 PK
     WND 31036/2050 SLPNO 58009 $=
METAR KINS 272058Z AUTO 00000KT 10SM CLR 14/M07 A2967 RMK AO2
     SLP025 T01441069 57037=
METAR PASY 272056Z 33013KT 9SM -SN SCT030 OVC037 M03/M10 A3029 RMK
     AO2 SNB17 SLP259 T10281100 53024 $=
METAR KGXA 272055Z AUTO 28021G27KT 10SM FEW220 18/00 A2971 RMK AO2
     SLP057 T01770001 58027 TSNO $=
METAR KPOE 272058Z AUTO VRB06KT 10SM OVC150 09/M02 A3032 RMK AO2
     SLP271 T00891019 57023=
METAR KEUF 272058Z AUTO VRB05KT 10SM CLR 14/M03 A3030 RMK AO2
     SLP260 T01441028 56016 $=
METAR KVBG 272055Z COR 32021G28KT 10SM SCT015 BKN020 BKN250 16/12
     A2986 RMK AO2 PK WND 32030/2011 BKN020 V SCT SLP102 T01610117
     58012 COR 2057=
METAR KNUQ 272056Z 30007KT 10SM SCT037 SCT044 17/08 A2984 RMK AO2
     SLP106 T01670078 58020=
METAR KWRB 272058Z AUTO 04006KT 10SM CLR 14/M01 A3031 RMK AO2
     SLP268 T01441006 56018=
METAR KXMR 272058Z AUTO 35015KT 7SM BKN007 14/12 A3018 RMK AO2
     RAE14DZB14E19 SLP223 P0000 60000 T01350124 55009 $=
METAR K1J0 272058Z AUTO 05006KT 10SM CLR 14/01 A3029 RMK AO2
     SLP242 T01390006 56020=
####018000554####
SANL40 EHWX 272055
METAR EHDL 272055Z AUTO 25003KT 9999 FEW100 M01/M02 Q1021
BLU=
METAR EHEH 272055Z AUTO 24004KT 9999 NCD 01/M00 Q1022
BLU 28005KT CAVOK=
METAR EHGR 272055Z AUTO 21004KT 9999 OVC380 01/M00 Q1021
BLU=
METAR EHKD 272055Z AUTO 23006KT 9999 NCD 03/01 Q1020
BLU=
METAR EHLW 272055Z AUTO 23004KT 9999 FEW026 OVC029 02/01 Q1019
BLU=
METAR EHVK 272055Z AUTO 25003KT 9999 NCD 00/M01 Q1021
BLU=
METAR EHVL 272055Z AUTO 25009KT 9999 NCD 04/01 Q1019
BLU=
METAR EHWO 272055Z AUTO 20001KT 9999 NCD M01/M02 Q1022
BLU=
####018000111####
SAHW40 PHFO 272058
MTRNGF
METAR PHNG 272057Z 35010KT CLR 27/21 A2997 RMK AO2 SLP144 T02670211 
51007 $
####018000122####
SAUS44 KBMX 272059
MTREUF
METAR KEUF 272058Z AUTO VRB05KT 10SM CLR 14/M03 A3030 RMK AO2 SLP260 
T01441028 56016 $
####018000120####
SAUS44 KMOB 272059
MTR0J4
METAR K0J4 272058Z AUTO 02010KT 10SM CLR 14/M01 A3030 RMK AO2 SLP260 
T01441011 56019
####018000185####
SAUS20 KNKA 272058
METAR PGUA 272058Z AUTO 08012KT 10SM FEW014 BKN049 25/22 A2992 RMK
 AO2 SLP122 T02490223 53014 $=
METAR PGWT 272057Z 07013KT 7SM SCT010 BKN150 25/23 A2991
=
####018002996####
SAUS20 KNKA 272058
METAR KATP 272055Z AUTO 08019KT 10SM SCT034 BKN040 17/09 A3017 RMK
 A01=
METAR KBBF 272055Z AUTO 08022G28KT 6SM HZ FEW020 FEW024 14/10
 A3019 RMK A01=
METAR KBOW 272050Z 04012KT 10SM OVC020 14/08 A3020=
METAR KBQX 272055Z AUTO 03026G33KT 8SM BKN018 OVC022 11/08 A3023
     RMK A01=
METAR KBZN 272056Z 27005KT 10SM CLR M03/M12 A2986 RMK AO2 SLP171 
 T10281117 58014=
METAR KCRH 272055Z AUTO 06018KT 9SM SCT021 OVC029 09/04 A3028 RMK
 A01=
METAR KCVW 272055Z AUTO 04011G17KT 10SM CLR 10/01 A3034 RMK A01=
METAR KDLP 272055Z AUTO 06011G19KT 10SM SCT021 BKN028 11/05 A3025
 RMK A01=
METAR KEHC 272055Z AUTO 06021KT 10SM FEW018 10/06 A3024 RMK A01=
METAR KEIR 272055Z AUTO 06024KT 8SM SCT019 OVC028 09/06 A3028 RMK
 A01=
METAR KEMK 272055Z AUTO 05021G26KT 10SM BKN021 OVC026 16/10 A3020
 RMK A01=
METAR KFLG 272057Z 23013KT 10SM BKN049 OVC055 04/M05 A2975 RMK AO2 
 SLP062 T00391050 58023=
METAR KGBK 272055Z AUTO 04023G32KT 10SM SCT028 BKN032 OVC047 17/11
 A3014 RMK A01=
METAR KGHB 272055Z AUTO 06023G28KT 9SM OVC022 14/10 A3022 RMK A01=
METAR KGRY 272100Z AUTO VRB08G26KT 10SM FEW027 BKN032 OVC040 16/10
 A3017 RMK A01=
METAR KGUL 272055Z AUTO 10SM SCT028 OVC035 16/11 A3015 RMK A01=
METAR KGVX 272055Z AUTO 06020KT 9SM BKN020 OVC024 11/07 A3026 RMK
 A01=
METAR KHHV 272055Z AUTO 07019KT 10SM CLR 18/11 A3018 RMK A01=
METAR KHQI 272055Z AUTO 03022G29KT 9SM OVC016 13/10 A3022 RMK A01=
METAR KIKT 272055Z AUTO 07022KT 10SM BKN028 BKN032 14/08 A3020 RMK
 A01=
METAR KIPN 272055Z AUTO 06021G28KT 10SM OVC027 15/09 A3019 RMK A01=
METAR KJMS 272056Z AUTO 22012KT 10SM CLR M09/M18 A3032 RMK AO2 
 SLP308 T10941178 58024=
METAR KMDJ 272055Z AUTO 04020KT 10SM OVC022 12/08 A3028 RMK A01=
METAR KMIS 272055Z AUTO 07022G27KT 9SM SCT025 11/05 A3026 RMK A01=
METAR KMZG 272055Z AUTO 05015G26KT 5SM HZ SCT020 BKN028 16/11
 A3019 RMK A01=
METAR KNFG 272054Z 21008KT 7SM FEW027 BKN040 18/11 A2981 RMK AO2 SLP094
 T01780106 58021=
METAR KNQX 272053Z 02009KT 10SM BKN008 BKN100 23/19 A3006 RMK AO2 SLP178
 T02330194 58014 $=
METAR KNRB 272052Z 02013G23KT 10SM BKN015 OVC220 10/06 A3029 RMK AO2
 SLP258 T01000061 57008 $=
METAR KROG 272057Z 06007KT 1 1/2SM -SN BKN020 OVC028 M08/M12 A3051 
 RMK AO2 SLP354 P0000 60000 T10831122 58010=
METAR KSPR 272055Z AUTO 06025KT 6SM HZ OVC018 10/06 A3025 RMK A01=
METAR KSQE 272055Z AUTO 07017G29KT 9SM FEW019 BKN023 OVC033 14/10
 A3021 RMK A01=
METAR KVAF 272055Z AUTO 07020KT 7SM FEW021 SCT028 BKN038 15/11
 A3018 RMK A01=
METAR KVBS 272055Z AUTO 13011KT 10SM SCT025 07/02 A3031 RMK A01=
METAR KVKY 272055Z AUTO 08021G26KT 10SM BKN026 11/05 A3026 RMK A01=
METAR KVOA 272055Z AUTO 05019G25KT 10SM BKN027 12/06 A3025 RMK A01=
METAR KVQT 272055Z AUTO 06017G25KT 8SM BKN018 OVC024 11/08 A3024
     RMK A01=
METAR KXIH 272055Z AUTO 08018KT 10SM OVC018 08/04 A3029 RMK A01=
METAR KXPY 272055Z AUTO 04014G23KT 9SM OVC023 09/04 A3032 RMK A01=
####018000362####
SAAK41 KNKA 272058
METAR PAGH 272057Z AUTO 12009KT 10SM OVC020 M01/M01 A3027 RMK AO2 
 SNB1959E51 SLP284 P0000 60000 T10061011 58002 FZRANO=
METAR PARY 272056Z AUTO 06008KT 10SM OVC021 M04/M06 A3033 RMK AO2 
 TSNO 58010 T10441061 SLP284 $=
SPECI PAVA 272057Z AUTO 16020KT 2 1/2SM -SN BR OVC005 00/M01 A3019 
 RMK AO2 UPB44E51SNE33B51 P0000 FZRANO=
####018000162####
SANL32 EHDB 272055 RRA
METAR EHEH 272055Z AUTO 24004KT 9999 NCD 01/M00 Q1022 
BLU 28005KT CAVOK=
METAR EHKD 272055Z AUTO 23006KT 9999 NCD 03/01 Q1020 
BLU=
####018000125####
SAUS46 KMFR 272059
MTRSXT
SPECI KSXT 272058Z AUTO VRB03KT 4SM BR SCT003 BKN007 OVC016 04/03 
A2973 RMK AO2 T00390028
####018000181####
SAUS46 KLOX 272059
MTRVBG
METAR KVBG 272055Z COR 32021G28KT 10SM SCT015 BKN020 BKN250 16/12 
A2986 RMK AO2 PK WND 32030/2011 BKN020 V SCT SLP102 T01610117 58012 
COR 2057
####018000130####
SAUS46 KLOX 272059
MTRNTD
METAR KNTD 272056Z COR 26012KT 10SM FEW027 SCT250 19/12 A2981 RMK 
AO2 SLP096 T01940117 58019 $
####018001529####
SAUS17 KAWN 272100 RRB
METAR KAPG 272055Z 30010KT 7SM FEW200 M01/M11 A3049=
METAR KBAD 272058Z AUTO 02009KT 10SM OVC080 01/M06 A3043 RMK AO2 SLP309
      T00061063 58020=
METAR KCOF 272058Z AUTO 35015G21KT 10SM -TSRA OVC007 13/13 A3017 RMK
      AO2 LTG DSNT E RAE42DZB42E48RAB48E51RAB55 TSB48 SLP221 P0001
      60006 T01340126 57007 $=
METAR KFBG 272058Z AUTO 28005KT 10SM FEW050 11/M03 A3035 RMK AO2 SLP282
      T01061029 55005 $=
METAR KFRI 272058Z AUTO 12003KT 10SM FEW055 SCT070 BKN090 M07/M18 A3054
      RMK AO2 SLP361 T10711181 56025=
METAR KHLR 272058Z AUTO 03009KT 360V060 8SM OVC013 M01/M04 A3033 RMK
      AO2 SLP279 T10151043 57023=
METAR KHUA 272058Z AUTO 35009KT 10SM CLR 02/M07 A3045 RMK AO2 SLP319
      T00181072 57017=
METAR KIAB 272058Z AUTO 11004KT 3SM -SN FEW002 SCT008 SCT013 OVC036
      M09/M13 A3050 RMK AO2 CIG 003 RWY19 SLP357 P0000 60000
      T10901128 57020=
METAR KLRF 272058Z AUTO VRB03KT 10SM FEW090 M02/M14 A3056 RMK AO2 SLP356
      T10171139 55004=
METAR KMCF 272058Z AUTO 06009KT 10SM OVC022 17/12 A3017 RMK AO2 SLP220
      T01710124 56013=
METAR KSSC 272058Z AUTO 12004KT 10SM CLR 12/00 A3032 RMK AO2 SLP270
      60000 T01210002 55012 $=
METAR KSVN 272058Z AUTO VRB05KT 10SM CLR 11/02 A3032 RMK AO2 SLP271
      T01060021 55007=
METAR KVAD 272058Z AUTO 03010KT 10SM SCT032 BKN180 BKN200 12/04 A3029
      RMK AO2 SLP260 T01150039 55012 $=
METAR PPIZ 272056Z AUTO CLR M16/M19 A3016 RMK AO2 TSNO 52009 T11611188
      SLP218 $=
####018001653####
SAZZ40 KAWN 272100 RRI
METAR KBAD 272058Z AUTO 02009KT 10SM OVC080 01/M06 A3043 RMK AO2 SLP309
      T00061063 58020=
METAR KCOF 272058Z AUTO 35015G21KT 10SM -TSRA OVC007 13/13 A3017 RMK
      AO2 LTG DSNT E RAE42DZB42E48RAB48E51RAB55 TSB48 SLP221 P0001
      60006 T01340126 57007 $=
METAR KHLR 272058Z AUTO 03009KT 360V060 8SM OVC013 M01/M04 A3033 RMK
      AO2 SLP279 T10151043 57023=
METAR KMCC 272055Z AUTO 15009KT 10SM SCT039 18/08 A2976 RMK AO2=
METAR KMXF 272058Z AUTO 34008KT 10SM CLR 10/M02 A3035 RMK AO2 SLP281
      T01031019 57016=
METAR KNUQ 272056Z 30007KT 10SM SCT037 SCT044 17/08 A2984 RMK AO2 SLP106
      T01670078 58020=
METAR KOZR 272058Z AUTO 03010KT 10SM CLR 15/M02 A3028 RMK AO2 SLP257
      T01451024 57016=
METAR KPAM 272058Z AUTO 05005KT 10SM CLR 13/02 A3027 RMK AO2 SLP254
      T01270019 56015 $=
METAR KSSC 272058Z AUTO 12004KT 10SM CLR 12/00 A3032 RMK AO2 SLP270
      60000 T01210002 55012 $=
METAR KSVN 272058Z AUTO VRB05KT 10SM CLR 11/02 A3032 RMK AO2 SLP271
      T01060021 55007=
METAR KTTS 272058Z AUTO 36012G18KT 6SM -RA BR OVC007 13/11 A3019 RMK
      AO2 DZE08RAB08 OVC V BKN SLP226 P0001 60001 T01280114 56009 $=
METAR KWRB 272058Z AUTO 04006KT 10SM CLR 14/M01 A3031 RMK AO2 SLP268
      T01441006 56018=
METAR KXMR 272058Z AUTO 35015KT 7SM BKN007 14/12 A3018 RMK AO2 RAE14DZB14E19
      SLP223 P0000 60000 T01350124 55009 $=
METAR MPDA 272100Z 20010KT 9999 FEW020 ///// Q1007=
METAR PMDY 272056Z AUTO 36007KT 10SM SCT025 BKN032 16/13 A3035 RMK
      AO2 TSNO 53014 T01610133 SLP591 $=
METAR TNCM 272100Z 09014KT 9999 SCT024 27/20 Q1017 A3004 NOSIG=
####018000094####
SPCN41 CWAO 272059
SPECI CYLW 272059Z AUTO 34016KT 9SM OVC055 07/M04 A2991 RMK SLP141=

####018000098####
SAPH41 RPLC 272100 COR
METAR RPLC 272100Z
28004KT 9999 SCT020 OVC100 24/19 Q1014 N6SIG A2996=
####018000092####
SAGU31 MGGT 272100
METAR 
MGGT 272100Z 36012KT 9999 FEW020 26/11 Q1021 A3015 FEW080=  
####018000119####
SAUS42 KTAE 272059
MTR1J0
METAR K1J0 272058Z AUTO 05006KT 10SM CLR 14/01 A3029 RMK AO2 SLP242 
T01390006 56020
####018003670####
SAUS99 KWBC 272100 RRA
METAR
KGDJ 272055Z AUTO 35006KT 10SM -DZ OVC014 M03/M05 A3043 RMK AO2
     60001 T10301055=
KGGI 272055Z AUTO 00000KT 10SM CLR M13/M19 A3059 RMK AO2
     T11271188=
KGIC 272055Z AUTO 06005KT 10SM SCT032 07/M01 A2973 RMK AO1
     T00681007=
KGMJ 272055Z AUTO 06003KT 1 1/2SM -SN OVC010 M06/M10 A3056 RMK
     AO2=
KGNC 272055Z AUTO 11010KT 7SM -SN OVC012 M07/M09 A3021 RMK AO2
     T10661092=
KGON 272056Z AUTO 33009KT 10SM CLR M03/M14 A3037 RMK AO2 SLP284
     T10281139 53012=
KGOO 272100Z AUTO 29008G14KT 10SM FEW031 SCT044 BKN060 10/02 A2976
     RMK AO1=
KGWB 272055Z AUTO 28006KT 10SM CLR M07/M18 A3058 RMK AO2=
KGYB 272055Z AUTO 03007KT 10SM OVC021 04/M01 A3035 RMK AO2
     T00351014=
KGYI 272055Z AUTO 05012KT 2SM -SN OVC008 M04/M05 A3045 RMK AO2
     60001 T10421052=
KHJH 272055Z AUTO 15004KT 10SM CLR M06/M19 A3047 RMK AO2
     T10611188=
KHLX 272055Z AUTO 33013KT 10SM CLR M01/M09 A3032 RMK AO2
     T10151092=
KHND 272056Z VRB04KT 10SM CLR 16/M04 A2970 RMK AO2 SLP051
     T01611044 58035=
KHRJ 272055Z AUTO 33006KT 10SM SCT050 10/M03 A3038 RMK AO2
     T00981026=
KHSB 272055Z AUTO 36005KT 10SM BKN029 BKN080 M06/M13 A3064 RMK AO2
     T10581135=
KHYA 272056Z 03006KT 10SM CLR M04/M14 A3035 RMK AO2 SLP279
     T10441139 53016=
KHZL 272055Z AUTO 28006KT 10SM CLR M06/M16 A3037 RMK AO2=
KI16 272055Z AUTO 10SM SCT037 M02/M10 A3051 RMK AO2 T10211104=
KIBM 272055Z AUTO 17019G24KT 4SM -SN SCT008 BKN016 OVC031 M08/M12
     A2995 RMK AO2 T10831124=
KIER 272055Z AUTO 05008G14KT 10SM CLR 07/M03 A3040 RMK AO2
     T00651030=
KIFP 272055Z AUTO 36006KT 10SM CLR 20/M03 A2966 RMK AO2 PWINO=
KIIY 272055Z AUTO 20003KT 10SM CLR 14/03 A3032 RMK AO2=
KJAS 272055Z AUTO 00000KT 10SM BKN100 09/M02 A3036 RMK AO2
     T00871016=
KJDD 272055Z AUTO 04003KT 10SM SCT050 BKN060 BKN075 00/M10 A3045
     RMK AO2=
KJFZ 272055Z AUTO 34004KT 10SM BKN027 M04/M12 A3038 RMK AO2
     T10411125=
KJSO 272055Z AUTO 05006KT 10SM OVC080 00/M06 A3041 RMK AO2
     T00061061=
KJTC 272055Z AUTO 21017G30KT 10SM FEW040 BKN070 BKN090 10/M09
     A2978 RMK AO2=
KJWG 272055Z AUTO 07009KT 10SM SCT026 SCT037 OVC065 M08/M12 A3045
     RMK AO2 T10791118=
KJWY 272055Z AUTO 05009KT 7SM OVC014 M02/M04 A3041 RMK AO2
     T10211041=
KJXI 272055Z AUTO 04009KT 10SM SCT050 OVC080 M01/M09 A3044 RMK AO2
     T10121088=
KLAS 272056Z 00000KT 10SM FEW100 FEW250 17/M07 A2965 RMK AO2
     SLP029 T01671067 58034=
KLNN 272055Z AUTO 29007KT 10SM CLR M11/M17 A3059 RMK AO1
     T11071170=
KLNR 272056Z AUTO 26006KT 10SM CLR M09/M20 A3056 RMK AO2 SLP363
     T10891200 56014=
KLUD 272055Z AUTO 03005KT 1SM -SN OVC006 M05/M07 A3041 RMK AO2
     P0001 60002 T10521071=
KM30 272055Z AUTO 04003KT 10SM CLR M03/M13 A3059 RMK AO2
     T10351127=
KMCC 272055Z AUTO 15009KT 10SM SCT039 18/08 A2976 RMK AO2=
KMEV 272055Z AUTO 24010G27KT 10SM BKN070 BKN085 09/M07 A2970 RMK
     AO2=
KMGR 272055Z AUTO 05007KT 10SM CLR 12/05 A3030 RMK AO2=
KMHV 272055Z AUTO 23019G24KT 10SM SCT040 OVC047 14/04 A2975 RMK
     AO1=
KMTW 272056Z AUTO 28012G17KT 10SM CLR M08/M17 RMK AO2 SLPNO 6////
     T10781172 FZRANO $=
KMVH 272055Z AUTO 32014KT 10SM CLR M06/M15 A2988 RMK A01=
KMWO 272055Z AUTO 10SM SCT045 M06/M19 A3062 RMK AO2 T10631190=
KN38 272055Z AUTO 30006G14KT 10SM SCT049 M08/M20 A3035 RMK AO2=
KNTU 272056Z 36010KT 10SM BKN048 BKN280 02/M04 A3043 RMK AO2
     SLP307 T00171039 51015 $=
KNUQ 272056Z 30007KT 10SM SCT037 SCT044 17/08 A2984 RMK AO2 SLP106
     T01670078 58020=
KO69 272055Z AUTO 27014G21KT 10SM CLR 16/09 A2982 RMK AO1=
####018003682####
SAUS99 KWBC 272100
METAR
K05U 272055Z AUTO 00000KT 10SM SCT024 04/M03 A2969 RMK AO1=
K0E0 272055Z AUTO 14007KT 10SM OVC009 M08/M10 A2994 RMK AO2
     T10781105=
K0F2 272055Z AUTO 04005KT 1 1/4SM -SN SCT008 BKN011 OVC017 M06/M07
     A3043 RMK AO2 P0001 60003 T10591074=
K0V4 272055Z AUTO 30005KT 10SM CLR 05/M07 A3040 RMK AO1
     T00531071=
K11R 272055Z AUTO 05008KT 10SM BKN024 06/00 A3033 RMK AO2
     T00640000=
K1A6 272055Z AUTO 36003KT 10SM CLR M01/M13 A3048 RMK AO2
     T10141131=
K1H2 272055Z AUTO 31004KT 10SM CLR M09/M19 A3064 RMK AO2
     T10871190=
K1L0 272055Z AUTO 01007KT 10SM CLR 12/02 A3032 RMK AO2
     T01210018=
K2G9 272055Z AUTO 29010KT 10SM SCT032 M11/M18 A3039 RMK AO2=
K3LF 272055Z AUTO 36003KT 10SM CLR M11/M20 A3063 RMK AO2
     T11151203=
K3R7 272055Z AUTO 05009KT 10SM CLR 10/01 A3033 RMK AO2
     T00950007=
K54J 272055Z AUTO 01009KT 10SM CLR 13/00 A3028 RMK AO2
     T01311003=
K5T9 272055Z AUTO 04007KT 1 1/2SM BR SCT006 BKN015 02/01 A3025 RMK
     A01=
K65S 272055Z AUTO 05004KT 10SM OVC050 04/M08 A2988 RMK AO2=
K66R 272055Z AUTO 05009G16KT 7SM OVC020 06/01 A3029 RMK AO2
     T00620014=
K6B0 272055Z AUTO 25003KT 10SM CLR M07/M22 A3036 RMK AO2
     T10681223=
K6I2 272050Z AUTO 36005KT 10SM CLR M04/M15 A3056 RMK AO2=
K6R3 272053Z AUTO 35004KT 10SM SCT100 09/01 A3035 RMK AO2=
K8W2 272055Z AUTO 34005KT 10SM OVC065 00/M13 A3041 RMK AO1
     T10011135=
KACQ 272039Z AUTO 23007KT 10SM CLR M11/M17 A3054 RMK AO2=
KACY 272054Z 32006KT 10SM CLR 01/M09 A3043 RMK AO2 SLP304
     T00061094 53013=
KADU 272055Z AUTO 21003KT 10SM CLR M11/M18 A3054 RMK AO2=
KAFK 272055Z AUTO 08004KT 10SM CLR M07/M20 A3052 RMK AO2
     T10661200=
KAFP 272055Z AUTO 31005KT 10SM CLR 10/M02 A3036 RMK AO2
     T01021025=
KAHQ 272055Z AUTO 11005KT 10SM CLR M07/M18 A3050 RMK AO2
     T10711178=
KAIO 272055Z AUTO 21004KT 10SM CLR M10/M18 A3055 RMK AO2=
KAJO 272056Z AUTO 00000KT 10SM BKN037 17/09 A2980 RMK AO2 58023
     T01660094 SLP088 $=
KALX 272055Z AUTO 01008KT 10SM CLR 11/M06 A3036 RMK AO2
     T01091065=
KAPY 272055Z AUTO 35008KT 10SM OVC013 05/01 A3021 RMK AO2
     T00520016=
KAQO 272055Z AUTO 08007KT 3SM HZ OVC017 00/M03 A3035 RMK AO2=
KARM 272055Z AUTO 04012KT 7SM OVC017 06/02 A3031 RMK AO2
     T00550016=
KART 272056Z AUTO 25008KT 1SM -SN VV016 M09/M14 A3048 RMK AO2
     SNB47 SLP335 P0000 60000 T10941139 53007=
KASL 272055Z AUTO 03006KT 360V070 10SM BKN080 01/M06 A3045 RMK AO1
     T00061065=
KAUH 272055Z AUTO 18007KT 10SM CLR M06/M20 A3041 RMK AO2
     T10601204=
KAVC 272056Z AUTO 30007KT 10SM CLR 05/M08 A3045 RMK AO2
     T00461082=
KAVK 272055Z AUTO 09007KT 3SM -SN CLR M09/M12 A3048 RMK AO2
     P0001=
KAVQ 272055Z AUTO 22011G19KT 10SM CLR 24/M04 A2970 RMK AO2
     T02401038=
KEYF 272055Z AUTO 00000KT 10SM CLR 11/M01 A3036 RMK AO2
     T01121012=
KEZM 272055Z AUTO 04004KT 10SM CLR 14/03 A3033 RMK AO2
     T01420034=
KEZS 272055Z AUTO 25011G14KT 10SM CLR M07/M21 A3048 RMK AO2
     T10701208=
KF05 272055Z AUTO 06009KT 7SM OVC012 M06/M11 A3045 RMK AO1
     T10631114=
KF44 272055Z AUTO 06008KT 10SM OVC080 00/M08 A3042 RMK AO2=
KF46 272055Z AUTO 03014G19KT 10SM BKN010 BKN032 OVC055 M02/M05
     A3041 RMK AO2 T10241047=
KFHB 272055Z AUTO 04011G19KT 10SM SCT016 SCT095 12/06 A3029 RMK
     AO1=
KFOT 272055Z AUTO 36009KT 4SM SCT014 SCT021 BKN040 10/09 A2987 RMK
     AO1 P0006=
KFSO 272055Z AUTO 01004KT 10SM CLR M09/M21 A3040 RMK AO2
     T10891215=
KFTN 272150Z AUTO 02008KT 02/02 A3025 RMK AO1=
KGAO 272055Z AUTO 02008KT 10SM CLR 12/02 A3030 RMK AO2
     T01170017=
####018003664####
SAUS99 KWBC 272100 RRB
METAR
KO86 272050Z AUTO 16008KT 10SM SCT048 BKN050 BKN070 12/03 A2972
     RMK AO1=
KOCW 272055Z AUTO 34005KT 10SM CLR 08/M01 A3039 RMK AO2
     T00761014=
KOJA 272055Z AUTO 07007KT 7SM -SN BKN017 OVC050 M08/M12 A3043 RMK
     AO2=
KONM 272055Z AUTO 15008KT 10SM 03/00 A2990 RMK AO2 T00271001=
KONP 272055Z AUTO 26007KT 7SM -RA SCT010 BKN014 10/08 A2976 RMK
     AO2 P0001=
KOPN 272055Z AUTO 01007KT 10SM CLR 13/M01 A3033 RMK AO2=
KORG 272055Z AUTO 07005KT 10SM CLR 11/00 A3033 RMK AO2
     T01140002=
KOWB 272056Z 07007KT 10SM FEW036 M04/M13 A3061 RMK AO2 56010
     T10441133 SLP372=
KP08 272055Z AUTO 22012G18KT 10SM CLR 23/M03 A2970 RMK AO2=
KPBX 272055Z AUTO 04004KT 10SM OVC037 M06/M13 A3049 RMK AO2
     T10561135=
KPDC 272055Z AUTO 25008KT 10SM CLR M11/M21 A3059 RMK AO2
     T11101209=
KPEQ 272055Z AUTO 06008KT 5SM BR OVC008 M04/M05 A3021 RMK AO2
     T10371048=
KPGV 272055Z AUTO 36004KT 10SM CLR 09/M02 A3039 RMK AO2=
KPPQ 272055Z AUTO 00000KT 10SM CLR M10/M19 A3064 RMK AO2
     T10981187=
KPTS 272055Z AUTO 10007KT 10SM BKN038 OVC044 M06/M16 A3053 RMK AO2
     T10611159=
KAWG 272055Z AUTO 25005KT 10SM CLR M12/M18 A3063 RMK AO2=
KAXA 272055Z AUTO 23007KT 10SM BKN014 M12/M17 A3054 RMK AO2=
KAXX 272055Z AUTO 26007KT 1/2SM SN OVC004 M05/M07 A2980 RMK AO2
     T10471070=
KAYS 272055Z AUTO 06007KT 10SM CLR 13/04 A3031 RMK AO2
     T01310042=
KBBD 272055Z AUTO 06007KT 3SM -SN BR BKN007 OVC011 M04/M04 A3027
     RMK=
KBDG 272055Z AUTO 14004KT 10SM OVC016 00/M02 A2987 RMK AO1
     T10011025=
KBED 272056Z AUTO 25005KT 10SM CLR M04/M21 A3034 RMK AO2 SLP291
     T10391211 53006 TSNO=
KBHC 272055Z AUTO 08007KT 10SM CLR 12/03 A3031 RMK AO2=
KBIH 272056Z AUTO VRB03KT 10SM CLR 16/M08 A2961 RMK AO2 SLP003
     T01561078 58035=
KBMI 272056Z 08004KT 10SM CLR M09/M17 A3062 RMK AO2 55005
     T10881172 SLP403=
KBTA 272055Z AUTO 19003KT 10SM CLR M08/M16 A3050 RMK AO2
     T10821160=
KBYH 272055Z 03010KT 10SM BKN028 M04/M09 A3058=
KCCO 272055Z AUTO 35008KT 10SM CLR 10/M02 A3034 RMK AO2
     T00981021=
KCDA 272055Z AUTO 26008KT 10SM CLR M09/M26 A3031 RMK AO2
     T10901257=
KCEC 272056Z AUTO 33006KT 10SM FEW015 FEW090 12/09 A2987 RMK AO2
     SLP114 60002 T01170094 58014=
KCIR 272055Z AUTO 05007KT 10SM CLR M03/M12 A3061 RMK AO2
     T10311117=
KCJR 272055Z AUTO 05005KT 10SM CLR 02/M12 A3046 RMK AO2=
KCMD 272055Z AUTO 36003KT 10SM CLR 01/M08 A3045 RMK AO2
     T00121082=
KCPK 272055Z AUTO 02007G14KT 10SM SCT050 03/M02 A3044 RMK AO2=
KCRX 272055Z AUTO 02006G13KT 10SM CLR 03/M11 A3047 RMK AO2=
KCUH 272055Z AUTO 08005KT 1 1/2SM -SN OVC007 M07/M10 A3052 RMK
     AO2=
KCUL 272055Z AUTO 32005KT 10SM CLR M04/M10 A3063 RMK AO2
     T10451104=
KCWC 272055Z AUTO 05008G14KT 5SM HZ OVC017 M05/M08 A3046 RMK AO2
     T10541084=
KDAY 272056Z 31006KT 10SM FEW026 BKN034 BKN039 M08/M15 A3058 RMK
     AO2 SLP375 SNB25E43 P0000 60000 T10781150 55000=
KDNS 272055Z AUTO 18004KT 10SM CLR M12/M20 A3051 RMK AO2=
KDNV 272055Z AUTO 00000KT 10SM CLR M09/M18 A3059 RMK AO2
     T10891176=
KDQH 272055Z AUTO 05007KT 10SM SCT033 12/03 A3032 RMK AO2=
KDUC 272055Z AUTO 09008KT 7SM BKN014 BKN027 OVC035 M06/M08 A3045
     RMK AO2=
KDVK 272055Z AUTO 04008KT 10SM CLR M06/M14 A3057 RMK AO2=
KE16 272055Z AUTO 32011G18KT 10SM BKN035 OVC065 16/09 A2984 RMK
     AO2=
KEBG 272055Z AUTO 35006KT 10SM OVC027 16/09 A3016 RMK AO2
     T01580086=
KEDU 272055Z AUTO 00000KT 10SM FEW070 18/06 A2975 RMK AO1=
KEED 272056Z AUTO 00000KT 10SM CLR 21/M04 A2965 RMK AO2 SLP023
     T02111044 58034=
####018003685####
SAUS99 KWBC 272100 RRC
METAR
KEKO 272056Z AUTO 21008KT 10SM OVC055 07/M05 A2965 RMK AO2 SLP041
     T00671050 58032=
KEKQ 272056Z AUTO 01005KT 10SM CLR M03/M13 A3056 RMK AO2 56007
     T10271127 SLP363=
KERV 272055Z AUTO 03006KT 2 1/2SM UP OVC011 00/M02 A3025 RMK AO2
     T10051016=
KPTT 272055Z AUTO 12007KT 2SM -SN SCT009 OVC017 M08/M13 A3044 RMK
     AO2 VIS 1 1/2V3=
KRHP 272055Z AUTO 25008KT 10SM CLR 03/M03 A3034 RMK AO2
     T00341029=
KRPH 272055Z AUTO 04005KT 10SM SCT014 BKN020 OVC035 M05/M07 A3040
     RMK AO2 T10501073=
KRPJ 272055Z AUTO 23009KT 10SM CLR M13/M18 A3061 RMK AO2
     T11281181=
KRSV 272055Z AUTO 32004KT 10SM CLR M07/M17 A3065 RMK AO2
     T10751166=
KRTS 272055Z AUTO 27012KT 10SM FEW070 SCT090 09/M05 A2966 RMK
     AO2=
KS39 272100Z AUTO 26005KT 10SM FEW017 FEW022 SCT049 05/01 A2966
     RMK AO2=
KSBP 272056Z 29016G20KT 10SM SCT017 BKN035 17/11 A2983 RMK AO2
     SLP100 T01720111 58017=
KSDF 272056Z 01005KT 10SM SCT049 M03/M16 A3060 RMK AO2 SLP369
     T10331161 55005=
KSFO 272056Z 29019G25KT 10SM FEW013 SCT025 BKN029 16/09 A2984 RMK
     AO2 PK WND 27029/2024 SLP105 60000 T01610094 58016=
KSFY 272055Z AUTO 25007KT 10SM CLR M11/M20 A3062 RMK AO2
     T11081205=
KSGH 272056Z AUTO 33008KT 8SM BKN041 M08/M17 A3058 RMK AO2 55001
     T10771166 BKN V SCT SLP378=
KSHD 272055Z AUTO 03004KT 10SM CLR 01/M11 A3039 RMK AO2
     T00101110=
KSLO 272055Z AUTO 35005KT 10SM CLR M08/M16 A3063 RMK AO2
     T10771165=
KSLR 272055Z AUTO 04012G15KT 7SM SCT013 SCT018 OVC065 M02/M05
     A3048 RMK AO2 T10251052=
KSUT 272055Z AUTO 02003KT 10SM CLR 09/01 A3037 RMK AO2
     T00880011=
KT20 272055Z AUTO 02008KT 10SM OVC016 05/01 A3028 RMK AO2
     T00470007=
KTIP 272055Z AUTO 00000KT 10SM CLR M09/M17 A3061 RMK AO2
     T10861169=
KTKV 272055Z AUTO 00000KT 10SM CLR M08/M21 A3040 RMK AO2
     T10851215=
KTNB 272055Z AUTO 28009KT 230V310 10SM CLR M02/M09 A3030 RMK AO2
     T10161091=
KTOC 272055Z AUTO 28003KT 10SM CLR 11/M08 A3032 RMK AO2
     T01101080=
KTPH 272056Z AUTO 00000KT 10SM SCT060 10/M06 A2967 RMK AO2 SLP028
     T01001061 58036=
KTQH 272055Z AUTO 10008KT 1 1/2SM -SN OVC007 M07/M10 A3052 RMK
     AO2=
KTVK 272055Z AUTO 36003KT 10SM CLR M11/M18 A3059 RMK AO2=
KUKI 272056Z AUTO 29015G21KT 10SM CLR 14/06 A2981 RMK AO2 SLP091
     T01440056 58017=
KUSE 272055Z AUTO 23009KT 10SM CLR M09/M20 A3058 RMK AO2=
KVCV 272055Z AUTO 26016G22KT 10SM CLR 18/00 A2972 RMK AO2=
KVKS 272055Z AUTO 35008KT 10SM CLR 06/M03 A3040 RMK A01=
KVPZ 272056Z AUTO 21009KT 10SM CLR M09/M19 A3058 RMK AO2
     UPE02B35E51 SLP375 P0000 60000 T10941189 56004 TSNO=
KW75 272055Z AUTO 35005KT 10SM SCT033 OVC042 00/M06 A3047 RMK AO1
     T10051064=
KWJF 272056Z 22018G27KT 10SM FEW040 16/06 A2974 RMK AO2 PK WND
     25029/2007 SLP066 T01560061 58022=
KXSA 272055Z AUTO 32004KT 10SM CLR 02/M11 A3047 RMK AO2
     T00151114=
KY50 272056Z AUTO 25007G16KT 10SM CLR M08/M19 A3051 RMK AO2 TSNO
     56013 T10771194 SLP349=
PAAD 272055Z AUTO 26019KT 10SM OVC029 M04/M05 A3015 RMK AO2=
PACM 272056Z AUTO 18018G27KT 1 1/2SM BR SCT007 BKN012 OVC110
     M01/M01 A3015 RMK AO2 PWINO FZRANO TSNO 58019 T10051011 PK
     WND 18027/2049 SLP206 $=
PAGN 272056Z AUTO 00000KT 10SM CLR 04/01 A3040 RMK AO2 TSNO 58003
     T00440005 SLP299 $=
PAHX 272056Z AUTO 16007KT 10SM OVC023 M04/M06 A3032 RMK AO2 SLP269
     T10391061 58011 FZRANO=
PANA 272056Z AUTO 12008KT 10SM OVC032 M01/M04 A3026 RMK AO2 SLP247
     T10111039 58018 FZRANO=
PAQH 272056Z AUTO 10012KT 10SM OVC033 01/M03 A3026 RMK AO2 SLP249
     T00061028 56014 FZRANO=
####018003692####
SAUS99 KWBC 272100 RRD
METAR
PATQ 272056Z AUTO 26012KT 10SM CLR M16/M18 A3015 RMK AO2 TSNO
     51024 60000 T11611177 SLP215 $=
PFCL 272056Z AUTO 07007KT 10SM OVC008 M01/M02 A3033 RMK AO2 SLP274
     T10061017 58009 FZRANO=
PFKW 272056Z AUTO 13007KT 10SM OVC033 M01/M04 A3027 RMK AO2 SLP252
     T10111044 58018 FZRANO=
PFWS 272056Z AUTO 05003KT 10SM BKN110 M03/M03 A3035 RMK AO2 SLP285
     T10281033 55010 FZRANO=
PPIT 272056Z AUTO 14012KT 10SM OVC033 M01/M04 A3025 RMK AO2 SLP243
     T10111039 58016 FZRANO=
TJSJ 272056Z 09009KT 10SM FEW022 SCT033 BKN055 25/22 A3004 RMK AO2
     PK WND 09032/2015 RAB15E33 SLP171 VCSH SW-NW P0000 60000
     T02500217 55003=
PGUA 272058Z AUTO 08012KT 10SM FEW014 BKN049 25/22 A2992 RMK AO2
     SLP122 T02490223 53014 $=
PGWT 272057Z 07013KT 7SM SCT010 BKN150 25/23 A2991=
PAGH 272057Z AUTO 12009KT 10SM OVC020 M01/M01 A3027 RMK AO2
     SNB1959E51 SLP284 P0000 60000 T10061011 58002 FZRANO=
PARY 272056Z AUTO 06008KT 10SM OVC021 M04/M06 A3033 RMK AO2 TSNO
     58010 T10441061 SLP284 $=
KATP 272055Z AUTO 08019KT 10SM SCT034 BKN040 17/09 A3017 RMK
     A01=
KBBF 272055Z AUTO 08022G28KT 6SM HZ FEW020 FEW024 14/10 A3019 RMK
     A01=
KBOW 272050Z 04012KT 10SM OVC020 14/08 A3020=
KBQX 272055Z AUTO 03026G33KT 8SM BKN018 OVC022 11/08 A3023 RMK
     A01=
KBZN 272056Z 27005KT 10SM CLR M03/M12 A2986 RMK AO2 SLP171
     T10281117 58014=
KCRH 272055Z AUTO 06018KT 9SM SCT021 OVC029 09/04 A3028 RMK
     A01=
KCVW 272055Z AUTO 04011G17KT 10SM CLR 10/01 A3034 RMK A01=
KDLP 272055Z AUTO 06011G19KT 10SM SCT021 BKN028 11/05 A3025 RMK
     A01=
KEHC 272055Z AUTO 06021KT 10SM FEW018 10/06 A3024 RMK A01=
KEIR 272055Z AUTO 06024KT 8SM SCT019 OVC028 09/06 A3028 RMK
     A01=
KEMK 272055Z AUTO 05021G26KT 10SM BKN021 OVC026 16/10 A3020 RMK
     A01=
KFLG 272057Z 23013KT 10SM BKN049 OVC055 04/M05 A2975 RMK AO2
     SLP062 T00391050 58023=
KGBK 272055Z AUTO 04023G32KT 10SM SCT028 BKN032 OVC047 17/11 A3014
     RMK A01=
KGHB 272055Z AUTO 06023G28KT 9SM OVC022 14/10 A3022 RMK A01=
KGRY 272100Z AUTO VRB08G26KT 10SM FEW027 BKN032 OVC040 16/10 A3017
     RMK A01=
KGUL 272055Z AUTO 10SM SCT028 OVC035 16/11 A3015 RMK A01=
KGVX 272055Z AUTO 06020KT 9SM BKN020 OVC024 11/07 A3026 RMK
     A01=
KHHV 272055Z AUTO 07019KT 10SM CLR 18/11 A3018 RMK A01=
KHQI 272055Z AUTO 03022G29KT 9SM OVC016 13/10 A3022 RMK A01=
KIKT 272055Z AUTO 07022KT 10SM BKN028 BKN032 14/08 A3020 RMK
     A01=
KIPN 272055Z AUTO 06021G28KT 10SM OVC027 15/09 A3019 RMK A01=
KJMS 272056Z AUTO 22012KT 10SM CLR M09/M18 A3032 RMK AO2 SLP308
     T10941178 58024=
KMDJ 272055Z AUTO 04020KT 10SM OVC022 12/08 A3028 RMK A01=
KMIS 272055Z AUTO 07022G27KT 9SM SCT025 11/05 A3026 RMK A01=
KMZG 272055Z AUTO 05015G26KT 5SM HZ SCT020 BKN028 16/11 A3019 RMK
     A01=
KNFG 272054Z 21008KT 7SM FEW027 BKN040 18/11 A2981 RMK AO2 SLP094
     T01780106 58021=
KNQX 272053Z 02009KT 10SM BKN008 BKN100 23/19 A3006 RMK AO2 SLP178
     T02330194 58014 $=
KNRB 272052Z 02013G23KT 10SM BKN015 OVC220 10/06 A3029 RMK AO2
     SLP258 T01000061 57008 $=
KROG 272057Z 06007KT 1 1/2SM -SN BKN020 OVC028 M08/M12 A3051 RMK
     AO2 SLP354 P0000 60000 T10831122 58010=
KSPR 272055Z AUTO 06025KT 6SM HZ OVC018 10/06 A3025 RMK A01=
KSQE 272055Z AUTO 07017G29KT 9SM FEW019 BKN023 OVC033 14/10 A3021
     RMK A01=
KVAF 272055Z AUTO 07020KT 7SM FEW021 SCT028 BKN038 15/11 A3018 RMK
     A01=
KVBS 272055Z AUTO 13011KT 10SM SCT025 07/02 A3031 RMK A01=
KVKY 272055Z AUTO 08021G26KT 10SM BKN026 11/05 A3026 RMK A01=
KVOA 272055Z AUTO 05019G25KT 10SM BKN027 12/06 A3025 RMK A01=
####018000234####
SAUS99 KWBC 272100 RRE
METAR
KVQT 272055Z AUTO 06017G25KT 8SM BKN018 OVC024 11/08 A3024 RMK
     A01=
KXIH 272055Z AUTO 08018KT 10SM OVC018 08/04 A3029 RMK A01=
KXPY 272055Z AUTO 04014G23KT 9SM OVC023 09/04 A3032 RMK A01=
####018000138####
SPUS99 KWBC 272100
SPECI
PAVA 272057Z AUTO 16020KT 2 1/2SM -SN BR OVC005 00/M01 A3019 RMK
     AO2 UPB44E51SNE33B51 P0000 FZRANO=
####018003677####
SAUS70 KWBC 272100
METAR
KBEA 272055Z AUTO 06011G14KT 10SM OVC020 10/05 A3022 RMK AO2
     T00960045=
KBGE 272055Z AUTO 07006KT 10SM CLR 15/05 A3030 RMK AO2=
KBJC 272045Z 31005KT 10SM VCSN BKN015 BKN050 M08/M13 A2990=
KBKS 272055Z AUTO 06010KT 7SM OVC018 12/07 A3018 RMK AO1
     T01240067=
KBPC 272055Z AUTO 14009KT 10SM -SN BKN023 BKN029 OVC055 M07/M12
     A3030 RMK AO2=
KBVS 272055Z AUTO 34004KT 8SM BKN036 BKN043 OVC055 08/08 A2983 RMK
     A01 P001=
KBYY 272055Z AUTO 04011KT 7SM OVC017 06/03 A3029 RMK AO2
     T00680035=
KCEY 272055Z AUTO 02009KT 10SM CLR M03/M13 A3056 RMK AO1=
KCGC 272055Z AUTO 05009G14KT 10SM CLR 18/06 A3020 RMK AO2=
KCKF 272055Z AUTO 36005KT 10SM CLR 14/01 A3031 RMK AO2
     T01410010=
KCLK 272055Z AUTO 7SM -SN OVC018 M07/M12 A3045 RMK AO2 TSNO=
KCLW 272055Z AUTO 07007KT 10SM OVC028 17/10 A3016 RMK AO2=
KCMA 272055Z 25008KT 10SM SCT026 BKN031 OVC039 17/10 A2980 RMK AO2
     SLP100 T01720100 58016=
KCNI 272055Z AUTO 29009G15KT 10SM CLR 05/M08 A3036 RMK AO2=
KCVC 272055Z AUTO 01007KT 10SM CLR 12/M05 A3032 RMK AO2=
KCWV 272055Z AUTO 07008KT 10SM CLR 12/03 A3033 RMK AO2=
KCZT 272055Z AUTO 05005KT 2 1/2SM DZ BKN006 OVC012 02/01 A3026 RMK
     AO2=
KD57 272055Z AUTO 17013G20KT 10SM CLR M06/M15 A3016 RMK AO2=
KDPL 272055Z AUTO 36005KT 7SM CLR 10/M03 A3038 RMK AO2
     T00951027=
KDRI 272055Z AUTO 00000KT 10SM CLR 11/M02 A3034 RMK AO2
     T01071025=
KDUA 272055Z AUTO 05007KT 1 3/4SM -SN BKN008 BKN013 M03/M06 A3047
     RMK AO2=
KDUX 272055Z AUTO 14009KT 3SM -SN OVC010 M07/M13 A3020 RMK AO2
     T10751135=
KDVO 272055Z AUTO 27014G20KT CLR 16/09 A2981 RMK AO2=
KDZB 272055Z AUTO 04003KT 3SM UP OVC010 M01/M02 A3031 RMK AO2
     T10061017=
KE80 272055Z AUTO 14008KT 7SM -SN OVC016 00/M04 A2991 RMK AO2
     T10041038=
KEAT 272055Z AUTO 29007KT 10SM FEW022 SCT037 BKN044 07/03 A2982
     RMK AO2 SLP103 60000 T00670028 58010=
KECS 272055Z AUTO 14017G22KT 10SM BKN029 M06/M14 A2996 RMK AO2=
KEDE 272055Z AUTO 33005KT 10SM SCT047 08/M01 A3040 RMK AO2
     T00791012=
KEDN 272055Z AUTO 04005KT 10SM CLR 12/M01 A3029 RMK AO2=
KEHO 272055Z AUTO 00000KT 10SM CLR 09/M05 A3033 RMK AO2
     T00911048=
KEHY 272055Z AUTO 10SM SCT047 M03/M11 A2970 RMK AO2=
KELK 272055Z AUTO 07006KT 3SM -SN OVC016 M08/M12 A3044 RMK AO2=
KLOM 272055Z AUTO 31007KT 290V350 10SM CLR M01/M14 A3043 RMK
     AO1=
KLUA 272055Z AUTO 32009KT 10SM CLR 02/M10 A3041 RMK AO2=
KLUM 272055Z AUTO 27007KT 10SM CLR M09/M18 A3051 RMK AO2
     T10941182=
KLVL 272055Z AUTO 00000KT 10SM SCT055 06/M07 A3039 RMK AO1
     T00571067=
KMCD 272055Z AUTO 25009G17KT 10SM SCT023 M11/M16 A3045 RMK AO2
     T11131165=
KMCJ 272055Z AUTO 36008G15KT 7SM OVC018 05/00 A3030 RMK AO1=
KMCX 272055Z AUTO 28005KT 10SM CLR M10/M17 A3061 RMK AO2
     T10991175=
KMDQ 272055Z AUTO 35008KT 10SM CLR 02/M11 A3045 RMK AO2=
KMFV 272055Z AUTO 33010G14KT 10SM SCT026 SCT035 OVC040 00/M05
     A3046 RMK AO2=
KMMI 272055Z AUTO 03004KT 10SM CLR 01/M08 A3047 RMK=
KMNI 272055Z AUTO 36004KT 10SM CLR 12/00 A3034 RMK AO2=
KMNZ 272055Z AUTO 03006KT 2 1/2SM BR OVC006 M03/M03 A3035 RMK AO2
     T10351035=
KMQB 272055Z AUTO 33005KT 10SM CLR M12/M18 A3066 RMK AO2
     T11211179=
KMQS 272055Z AUTO 32009KT 10SM CLR M03/M12 A3043 RMK AO2=
KMRC 272055Z AUTO 04008KT 01/M12 A3048 RMK=
KOBE 272055Z AUTO 01009G18KT 7SM OVC008 13/12 A3017 RMK AO2 LTG
     DSNT NW=
KOKV 272055Z AUTO 28011G16KT 10SM CLR 00/M16 A3044 RMK AO2=
KOLE 272055Z AUTO 31008KT 10SM CLR M12/M21 A3036 RMK AO2=
KONX 272055Z AUTO 04007G15KT 10SM BKN046 03/M05 A3043 RMK AO2
     T00321047=
####018003704####
SAUS70 KWBC 272100 RRA
METAR
KOWP 272055Z AUTO 09005KT 1SM -SN OVC008 M06/M10 A3053 RMK AO2
     T10651105=
KOXI 272055Z AUTO 26006KT 10SM M09/M27 A3060 RMK AO1=
KPAN 272055Z AUTO 20009KT 10SM OVC090 13/M05 A2978 RMK AO2=
KPBH 272055Z AUTO 22008KT 10SM CLR M10/M20 A3039 RMK AO2
     T10991203=
KPCM 272055Z AUTO 05009KT 10SM OVC022 A3020 RMK AO2=
KPCZ 272055Z AUTO 26009KT 10SM CLR M06/M20 A3050 RMK AO2
     T10631199=
KPEZ 272055Z AUTO 01006KT 10SM OVC021 04/M02 A3028 RMK AO2
     T00351022=
KPHN 272059Z AUTO 28004KT 10SM CLR M09/M19 A3055 RMK AO2=
KPRO 272055Z AUTO 00000KT 10SM M11/M16 A3057 RMK AO2 T11131165=
KPUJ 272055Z AUTO 35007KT 300V010 10SM CLR 07/M03 A3037 RMK
     AO2=
KPVE 272055Z AUTO 05006KT 10SM CLR 00/M17 A3049 RMK=
KPVF 272055Z AUTO 23003KT 10SM SCT025 BKN030 OVC070 11/05 A2977
     RMK AO1=
KPVJ 272055Z AUTO 05006KT 2SM -SN BKN008 BKN017 OVC032 M08/M10
     A3048 RMK AO2 P0001 60002 T10761098=
KRBW 272055Z AUTO 00000KT 10SM CLR 11/01 A3035 RMK AO2=
KRCX 272055Z AUTO 26009KT 10SM CLR M09/M21 A3046 RMK AO2
     T10931209=
KRCZ 272055Z AUTO 00000KT 10SM 10/M02 A3035 RMK AO2 T01011019=
KRPD 272055Z AUTO 26006KT 10SM CLR M10/M20 A3049 RMK AO2
     T11011197=
KRSN 272055Z AUTO 03007KT 10SM OVC090 03/M06 A3049 RMK AO2
     T00301056=
KRYW 272055Z AUTO 05009KT 3SM UP OVC016 00/M02 A3030 RMK AO2
     T10021021=
KSAA 272055Z AUTO 26003KT 10SM BKN060 M02/M10 A2975 RMK AO2=
KSCD 272055Z AUTO 35004G14KT 10SM CLR 07/M05 A3040 RMK AO2
     T00691048=
KSIF 272055Z AUTO 00000KT 10SM CLR 07/M08 A3039 RMK AO2
     T00651084=
KSJS 272055Z AUTO 07003KT 10SM OVC041 M04/M13 A3052 RMK AO2
     T10371135=
KSNH 272055Z AUTO 05006KT 10SM CLR 03/M13 A3048 RMK=
KSNL 272055Z AUTO 04004KT 1 1/2SM -SN VV007 M05/M07 A3051 RMK
     AO2=
KSPL 272055Z AUTO 36007KT 1 1/4SM SCT065 15/13 A3014 RMK AO1=
KSRB 272055Z AUTO VRB06KT 10SM CLR M01/M11 A3047 RMK=
KSRC 272056Z AUTO 01008KT 10SM OVC100 M02/M12 A3060 RMK AO2 SLP370
     T10221117 55003 FZRANO TSNO=
KSTF 272055Z AUTO 05008KT 012V072 10SM CLR 05/M05 A3043 RMK
     AO2=
KSYI 272055Z AUTO VRB06KT 10SM CLR 01/M11 A3049 RMK=
KSZT 272055Z AUTO 02010KT 10SM BKN065 OVC120 07/M05 A2984 RMK
     AO2=
KTMK 272055Z AUTO 19005KT 7SM -RA SCT016 BKN023 OVC029 11/09 A2973
     RMK AO2 P0001=
KTPF 272055Z AUTO 06009KT 10SM OVC022 18/12 A3017 RMK AO2=
KTTA 272055Z AUTO 00000KT 10SM CLR 08/M03 A3038 RMK AO2
     T00801031=
KTTF 272039Z AUTO 00000KT 10SM CLR M09/M18 A3057 RMK AO2=
KTYQ 272055Z AUTO 30004KT 10SM CLR M09/M18 A3060 RMK AO2
     T10891183=
KUCY 272055Z AUTO 02007KT 10SM CLR M04/M11 A3056 RMK=
KUGN 272055Z VRB06KT 10SM CLR M09/M20 A3057 RMK AO2 SLP381
     T10941200 55004=
KUVA 272055Z AUTO 06007KT 2 1/2SM BR OVC009 02/01 A3026 RMK AO2
     T00160008=
KVDI 272055Z AUTO 00000KT 10SM CLR 12/03 A3032 RMK AO2=
KVJI 272055Z AUTO 29005KT 10SM BKN034 00/M09 A3039 RMK AO2
     T00001094=
KVWU 272049Z AUTO 00000KT 10SM CLR M09/M19 A3035 RMK AO2=
KW31 272055Z AUTO 30005KT 10SM CLR 05/M09 A3039 RMK AO1
     T00531095=
KW43 272055Z AUTO 21011G17KT 10SM CLR M05/M13 A2992 RMK AO2=
KW63 272055Z AUTO 34006KT 10SM CLR 05/M07 A3040 RMK AO1=
KW81 272055Z AUTO 01005G14KT 10SM CLR 05/M05 A3040 RMK AO1
     T00461051=
KFBR 272100Z AUTO 10006KT 10SM OVC090 M03/M07 A2976 RMK AO2
     T10321073=
KFEP 272055Z AUTO 21005KT 10SM CLR M12/M19 A3060 RMK AO2
     T11221191=
KFKR 272055Z AUTO 24006KT 10SM CLR M07/M17 A3061 RMK AO2
     T10731171=
KFKS 272051Z AUTO 25006KT 10SM OVC026 M09/M14 A3050 RMK AO2
     T10921142=
KFRR 272055Z AUTO 31006KT 10SM SCT060 00/M13 A3043 RMK AO1=
####018003663####
SAUS70 KWBC 272100 RRB
METAR
KFVX 272055Z AUTO 26003KT 10SM CLR 09/M11 A3039 RMK AO2
     T00901107=
KFWZ 272055Z AUTO 21004KT 10SM CLR M06/M11 RMK AO2=
KFYM 272055Z AUTO 04008KT 10SM CLR 00/M11 RMK=
KGCM 272055Z AUTO 04008KT 1 3/4SM -SN SCT005 M08/M11 A3057 RMK
     AO2=
KGEV 272055Z AUTO 31009KT 10SM CLR M01/M13 A3029 RMK AO2
     T10121129=
KGKT 272055Z AUTO 00000KT 10SM CLR 01/M09 A3045 RMK=
KHAE 272055Z AUTO 00000KT 10SM CLR M08/M22 A3063 RMK AO2=
KHBI 272055Z AUTO 02004KT 10SM SCT049 06/M04 A3041 RMK AO2
     T00561043=
KHCO 272041Z AUTO 21010KT 10SM CLR M09/M16 A3036 RMK AO2=
KHHF 272055Z AUTO 10009KT 7SM -SN OVC023 M07/M11 A3035 RMK AO2
     T10751112=
KHNZ 272055Z AUTO 00000KT 10SM SCT055 05/M09 A3040 RMK AO2
     T00501086=
KHVE 272055Z AUTO 10003KT 10SM SCT050 BKN060 BKN110 08/M05 A2976
     RMK AO2=
KHZE 272055Z AUTO 18015KT 10SM CLR M06/M17 A3019 RMK AO2=
KI39 272055Z AUTO 08005KT 10SM CLR M06/M14 A3056 RMK AO2=
KICL 272055Z AUTO VRB05G12KT 10SM CLR M06/M17 A3057 RMK AO2=
KIDI 272055Z AUTO 28008KT 260V320 10SM CLR M08/M19 A3051 RMK
     A01=
KIFA 272055Z AUTO 00000KT 3SM HZ CLR M13/M18 A3058 RMK AO2
     T11291183=
KIGQ 272055Z AUTO 26008KT 10SM CLR M09/M19 A3060 RMK AO2
     T10921191=
KIPJ 272055Z AUTO 06003KT 10SM BKN050 09/M04 A3034 RMK AO2
     T00901043=
KISO 272056Z 01006KT 10SM SCT080 09/M01 A3039 RMK AO2=
KIXA 272055Z AUTO 34007KT 10SM CLR 07/M05 A3040 RMK AO2=
KJFX 272055Z AUTO 05006KT 10SM CLR 06/M05 A3045 RMK A02 P-128=
KJSV 272055Z AUTO 08005KT 3/4SM -SN OVC005 M05/M07 A3055 RMK
     AO2=
KLHB 272055Z AUTO 04007KT 10SM OVC050 03/M03 A3038 RMK AO2
     T00281027=
KLHM 272055Z AUTO 17010KT 10SM CLR 18/07 A2974 RMK AO1=
KLLJ 272055Z AUTO 00000KT 10SM OVC080 03/M07 A2968 RMK AO2 SLP057
     T00331072 58022=
KLNC 272055Z AUTO 04009KT 10SM BKN016 OVC022 M02/M05 A3043 RMK AO2
     60001 T10181055=
K2DP 272056Z AUTO 01007G14KT 10SM CLR 07/M03 A3040 RMK AO2 SLPNO
     T00701026 52014=
KBAF 272053Z 30009KT 10SM CLR M04/M19 A3036 RMK AO2 SLP290
     T10391189 53009=
KFMH 272055Z AUTO VRB04KT 10SM CLR M04/M14 A3035 RMK AO2
     FZRANO=
KTDR 272056Z AUTO 02010G17KT 10SM CLR 13/04 A3026 RMK AO2 SLP251
     T01290038 56016=
KTOI 272053Z AUTO 04009G16KT 10SM CLR 13/M03 A3032 RMK AO2 SLP268
     T01331028 56018=
KNFE 272056Z AUTO 36010KT 10SM CLR 04/M03 A3043 RMK AO2 SLP307
     T00391033 51015=
KXBP 272055Z AUTO 05007KT 2SM -SN OVC008 M05/M06 A3045 RMK AO2
     60001 T10521060=
KZPH 272055Z AUTO 04010G14KT 10SM OVC023 15/07 A3020 RMK AO2=
PAAK 272056Z 29020G26KT 10SM FEW017 SCT031 BKN055 03/00 A3000 RMK
     AO1 52027=
PAGL 272056Z AUTO 16017KT 10SM OVC024 M01/M03 A3022 RMK AO1
     57014=
PAHP 272056Z AUTO 17019KT 8SM OVC005 M01/M03 A3013 RMK AO1
     57014=
PAUT 272055Z AUTO 11010KT 5SM BR BKN007 BKN011 OVC016 05/04 A3006
     RMK AO2 T00450042=
KCFJ 272055Z AUTO 36006KT 10SM CLR M10/M22 A3060 RMK AO2
     T11011222=
K1M4 272056Z AUTO 06007KT 010V070 10SM 01/M09 A3046 RMK AO2 56014
     T00111088 SLP321 $=
K1P1 272055Z AUTO 27007KT 10SM CLR M06/M19 A3033 RMK AO2
     T10581188=
K2D5 272055Z AUTO 20011G15KT 10SM M10/M16 A3038 RMK AO2=
K46D 272055Z AUTO 10SM CLR M11/M16 A3030 RMK AO2=
KADM 272055Z 04006KT 3/4SM -SN OVC005 M06/M07 A3048 RMK RWY 31 ILS
     - ATIS A PLOWS RWY 13/31, 1" SN ALL ARPT SFCS BAAIE, BRKG
     ACTN NIL VEH @ 1912Z=
KAEJ 272055Z AUTO 00000KT 10SM SCT019 BKN046 OVC049 M09/M13 A2974
     RMK AO2 T10901134=
KAJZ 272055Z AUTO 00000KT 10SM SCT037 BKN050 OVC065 03/00 A2978
     RMK AO2 P0001 60001 T00290002=
####018000088####
SAGI32 EGRR 272050
METAR LXGB 272050Z 27014KT 9999 FEW028 BKN220 15/10 Q1026 NOSIG=
####018003597####
SAUS70 KWBC 272100 RRC
METAR
KAND 272056Z AUTO 30005KT 10SM CLR 12/M04 A3032 RMK AO2 SLP268
     T01171039 55006=
KBAC 272055Z AUTO 21009KT 10SM CLR M11/M17 A3036 RMK AO2=
KBJJ 272056Z AUTO 33006KT 10SM SCT037 M10/M18 A3055 RMK AO2 SLP374
     60000 T11001183 53003 TSNO=
KBOK 272056Z AUTO 29008KT 9SM SCT008 SCT013 BKN070 11/10 A2985 RMK
     AO2 58013 60000 T01110100 BKN V SCT SLP109=
KBXK 272055Z AUTO 21010G15KT 10SM CLR 23/M02 A2968 RMK AO1=
KCTB 272056Z AUTO 35018KT 3SM -SN OVC017 M08/M12 A3002 RMK AO2
     SLP232 P0000 60000 T10831122 51001=
KCXP 272055Z AUTO 24016G26KT 10SM CLR 10/M06 A2968 RMK AO2=
KCXY 272056Z 29009KT 10SM FEW050 M03/M14 A3047 RMK AO2 SLP324
     T10281144 53012=
KD50 272055Z AUTO 18010KT 10SM CLR M09/M16 A3012 RMK AO2=
KDIJ 272056Z AUTO 00000KT 2SM -SN FEW001 SCT019 BKN033 M03/M06
     A2973 RMK AO2 58014 60000 T10271061 BKN V OVC P0000
     SLP082=
KDIK 272056Z AUTO 17018KT 10SM CLR M04/M15 A3005 RMK AO2 SLP231
     T10391150 58030=
KDUG 272056Z AUTO 22024G30KT 10SM CLR 20/M05 A2979 RMK AO2 PK WND
     24030/1957 SLP046 T02001050 58024=
KEAU 272056Z 22009KT 10SM CLR M11/M18 A3051 RMK AO2 SLP356
     T11111183 56013=
KELZ 272056Z AUTO 31010KT 10SM CLR M11/M21 A3036 RMK AO2 SLP332
     60000 T11061211 53014=
KEQA 272055Z AUTO 11005KT 1 3/4SM -SN OVC020 M07/M12 A3050 RMK
     AO2=
KGRD 272056Z AUTO 18003KT 10SM CLR 12/M02 A3033 RMK AO2 SLP273
     T01221022 55010=
KGZL 272055Z AUTO 08006KT 1SM -SN BKN003 M06/M10 A3054 RMK AO2=
KHPN 272056Z 33011KT 10SM CLR M03/M17 A3037 RMK AO2 SLP296
     T10331167 53007=
KHWV 272056Z AUTO 30006KT 10SM CLR M03/M16 A3041 RMK AO2 SLP298
     6//// T10281156 53013 TSNO=
KIGX 272056Z AUTO 28005KT 10SM SCT049 06/M06 A3039 RMK AO2 SLP294
     T00611056 53001 TSNO=
KISP 272056Z 31006KT 10SM FEW250 M02/M16 A3039 RMK AO2 SLP293
     T10221156 53012=
KITH 272056Z 33008KT 10SM CLR M11/M18 A3045 RMK AO2 53013
     T11111183 SLP339=
KJXN 272056Z 28008KT 10SM CLR M09/M19 A3054 RMK AO2 SLP367
     T10941194 53002=
KLRD 272056Z 02008KT 5SM -RA BR OVC009 03/02 A3025 RMK AO2 58026
     60001 T00330022 CIG 006V012 P0001 SLP240=
KM19 272056Z AUTO 01008KT 10SM OVC100 M04/M10 A3061 RMK AO2 55008
     T10381100 PRESRR SLP369=
KMDT 272056Z 34008KT 10SM SCT045 M03/M12 A3047 RMK AO2 SLP322
     T10281122 53011 $=
KMKS 272115Z AUTO 00000KT 7SM CLR 11/00 A3035 RMK AO2=
KMOR 272055Z AUTO 30006KT 10SM CLR 00/M09 A3045 RMK=
KMQY 272056Z 36007KT 330V080 10SM CLR 01/M12 A3054 RMK AO2 55013
     T00111116 SLP356=
KOLV 272050Z 02010KT 10SM BKN250 00/M07 A3050=
KRCE 272055Z AUTO 08008KT 6SM -SN FEW015 M08/M10 A3048 RMK AO2
     P0008=
KRDM 272056Z 32007KT 10SM FEW035 BKN065 BKN085 07/03 A2965 RMK AO2
     RAE09 SLP045 P0000 60002 T00670028 58012=
KRNC 272055Z AUTO VRB04KT 10SM CLR 00/M12 A3047 RMK=
KRNV 272055Z AUTO 03013KT 10SM CLR 01/M03 A3048 RMK AO2
     T00121034=
KRZL 272055Z AUTO 28003KT 10SM CLR M08/M17 A3061 RMK AO2=
KSEE 272047Z 23015KT 20SM BKN035 19/09 A2983=
KSLE 272056Z 18012KT 10SM SCT019 BKN044 OVC055 12/07 A2972 RMK AO2
     RAB36E46 SLP063 P0000 60000 T01170072 58014=
KSVC 272055Z AUTO 17010G15KT 10SM CLR 08/M04 A2988 RMK AO2=
KUCP 272056Z AUTO 27003KT 10SM FEW043 M10/M20 A3055 RMK AO2 53005
     T11001200 SLP386=
PPIT 272056Z AUTO 14012KT 10SM OVC033 M01/M04 A3025 RMK AO2 SLP243
     T10111039 58016 FZRANO=
PPIZ 272056Z AUTO CLR M16/M19 A3016 RMK AO2 TSNO 52009 T11611188
     SLP218 $=
PAAD 272055Z AUTO 26019KT 10SM OVC029 M04/M05 A3015 RMK AO2=
####018003730####
SAXX60 KWBC 272100
METAR
KNGP 272056Z 05022G27KT 5SM -RA BR BKN010 OVC020 11/08 A3019 RMK
     AO2 PK WND 06028/2034 RAB56 SLP223 P0000 60000 T01060083
     58023=
KNXF 272056Z AUTO 19010KT 7SM CLR 18/11 A2981 RMK AO2 SLP179
     T01830106 58019=
KNRS 272056Z 18011G19KT 10SM FEW025 BKN035 18/11 A2984 RMK AO2
     SLP104 T01830111 58012 $=
K9L2 272055Z AUTO 27015G23KT 10SM CLR 18/03 A2969 RMK AO2 SLP049
     T01780028 57029 $=
KCWN 272056Z AUTO 12006KT 3/4SM -SN OVC006 M14/M15 A2952 RMK AO2
     SLP100 T11401149 57019 $=
KFHU 272055Z 23020G26KT 10SM FEW090 FEW160 FEW240 19/M08 A2979 RMK
     PK WND 24031/27 ACSL SE SLP053 58024=
KNBC 272057Z 09007KT 7SM FEW060 SCT150 BKN200 10/02 A3034 RMK
     SLP275 T01000022 55010=
KSXS 272056Z AUTO 05008KT 10SM CLR 14/M02 A3030 RMK AO2 SLP264
     T01361019 57018=
KVBG 272055Z 32021G28KT 10SM SCT015 BKN020 BKN250 16/12 A2986 RMK
     AO2A PK WND 32030/2011 BKN020 V SCT SLP102 T01610117
     58012=
KAQV 272056Z AUTO 03005G14KT 10SM CLR 08/M03 A3034 RMK AO2 SLP275
     6//// T00781028 57019=
KPRN 272056Z AUTO 03007KT 10SM CLR 11/M03 A3032 RMK AO2 SLP267
     T01111033 56017=
KNMM 272056Z 06009KT 10SM CLR 08/M06 A3039 RMK AO2 SLP302
     T00831056 56024=
KNBT 272056Z AUTO A3038 RMK AO2 SLP293 6//// 53007 PWINO PNO $=
K79J 272056Z AUTO 06007G15KT 010V100 10SM CLR 16/M02 A3030 RMK AO2
     SLP260 T01561022 56018=
PHBK 272056Z AUTO 36020KT 10SM CLR 26/18 A3000 RMK AO2 SLP160
     T02560178 50007=
PMDY 272056Z AUTO 36007KT 10SM SCT025 BKN032 16/13 A3035 RMK AO2
     TSNO 53014 T01610133 SLP591 $=
KNFG 272054Z 21008KT 7SM FEW027 BKN040 18/11 A2981 RMK AO2 SLP094
     T01780106 58021=
KNHK 272052Z 04008KT 9SM FEW033 SCT045 SCT250 M01/M07 A3047 RMK
     AO2 SLP318 IR12P 60000 T10111067 53015=
KNIP 272053Z 04015KT 10SM FEW028 SCT150 BKN250 13/04 A3029 RMK AO2
     SLP253 T01330039 56009=
KNKT 272054Z 33009KT 10SM CLR 10/M02 A3038 RMK AO2 SLP285
     T01001017 53003 $=
KNPA 272056Z 03011KT 10SM BKN250 14/M01 A3028 RMK AO2 SLP253
     T01391006 56018 $=
KNQX 272053Z 02009KT 10SM BKN008 BKN100 23/19 A3006 RMK AO2 SLP178
     T02330194 58014 $=
KNRB 272052Z 02013G23KT 10SM BKN015 OVC220 10/06 A3029 RMK AO2
     SLP258 T01000061 57008 $=
KNTD 272056Z 26012KT 10SM CLR 19/12 A2981 RMK AO2 SLP096 T01940117
     58019 $=
KNXP 272056Z 00000KT 10SM FEW200 21/M01 A2971 RMK AO2 PRESFR
     SLP034 LAST AUGMENTED T02061006 58039=
KNYG 272056Z 02010KT 10SM FEW160 SCT220 01/M12 A3050 RMK AO2
     SLP328 T00111117 53013=
KNZY 272052Z 19013KT 10SM FEW028 BKN037 17/12 A2983 RMK AO2 SLP099
     T01720122 58012 $=
KVBG 272055Z 32021G28KT 10SM SCT015 BKN020 BKN250 16/12 A2986 RMK
     AO2A PK WND 32030/2011 BKN020 V SCT SLP102 T01610117
     58012=
KVPS 272056Z 05009KT 10SM SCT140 BKN250 15/M00 A3026 RMK AO2A
     SLP254 T01461003 57019 $=
PHSF 272056Z AUTO 22002G10KT 10SM CLR 19/07 A3028 RMK AO2 SLP144
     T01850073 53004 $=
KNDZ 272056Z 06010KT 10SM BKN250 16/M02 A3028 RMK AO2 SLP242
     T01561017 56021 $=
KNFL 272056Z 26030G38KT 7SM -RA SCT035 BKN060 BKN120 08/00 A2968
     RMK AO2 PK WND 25038/2054 RAB53 PRESRR SLP032 P0000 60000
     T00830000 55022=
KNJK 272056Z 24011KT 10SM FEW050 27/02 A2965 RMK AO2 SLP056
     T02670022 58032=
KNLC 272056Z 36009KT 10SM SCT045 BKN220 20/07 A2979 RMK AO2 SLP089
     RH/44 T02000072 58025=
KNPA 272056Z 03011KT 10SM BKN250 14/M01 A3028 RMK AO2 SLP253
     T01391006 56018 $=
KNQI 272056Z 05013KT 7SM -DZ FEW011 OVC016 12/08 A3020 RMK AO2
     DZB54 SLP221 P0000 60000 T01220083 58027 $=
KNTD 272056Z 26012KT 10SM CLR 19/12 A2981 RMK AO2 SLP096 T01940117
     58019 $=
####018003679####
SAUS80 KWBC 272100
METAR
KCAO 272055Z AUTO 17017KT 6SM HZ OVC017 M10/M13 A3005 RMK AO2
     SNE40 SLP235 P0000 60002 T11001133 56022=
KCLI 272055Z AUTO 24009KT 10SM CLR M08/M21 A3048 RMK AO2=
KCNK 272055Z AUTO 15009KT 10SM FEW090 M08/M18 A3048 RMK AO2 SLP352
     T10781178 56025=
KDLH 272055Z 26012KT 10SM CLR M08/M21 A3035 RMK AO2 SLP318
     T10781211 56013=
KMKG 272055Z 26007KT 230V290 10SM BKN034 M08/M16 A3056 RMK AO2
     SLP366 T10781156 53001=
KMKN 272055Z AUTO 03009KT 5SM BR OVC009 M05/M05 A3036 RMK AO2
     T10461046=
KPHP 272055Z AUTO 16010G19KT 10SM CLR M02/M16 A3017 RMK AO2 SLP258
     T10171161 56037=
KPSN 272055Z AUTO 01007KT 10SM OVC080 01/M06 A3042 RMK AO2
     T00141061=
KRNO 272055Z VRB05KT 10SM BKN050 BKN090 11/M02 A2966 RMK AO2
     SLP024 VIRGA ALQDS VCSH SW MTN TOPS OBSCD SW-W PK WND
     2831/2002 RAB04E20 P0000 60000 T01061022 58028=
KSCK 272055Z 30013KT 10SM FEW045 19/07 A2977 RMK AO2 SLP079
     T01940067 58025=
KSEP 272055Z AUTO 01006KT 2 1/2SM OVC010 M04/M06 A3039 RMK AO2
     T10451064=
KSMS 272055Z AUTO 00000KT 10SM CLR 12/01 A3035 RMK AO2=
KSOW 272055Z AUTO 21023G30KT 10SM BKN090 10/M09 A2978 RMK AO2=
KHON 272055Z AUTO 15010KT 10SM CLR M08/M16 A3041 RMK AO2 SLP332
     T10831161 56030=
KINL 272055Z AUTO 28011KT 10SM CLR M08/M22 A3031 RMK AO2 SLP300
     T10781222 56016=
KIRK 272055Z AUTO 00000KT 10SM CLR M08/M16 A3058 RMK AO2 SLP382
     T10831161 56021=
KJNX 272055Z AUTO 36007KT 10SM SCT050 09/M02 A3038 RMK AO2=
KLIC 272055Z AUTO 15019KT 1 1/2SM -SN BR FEW010 OVC018 M13/M15
     A2997 RMK AO2 PK WND 15027/2031 UPB37E39SNE37B39 SLP221 P0000
     60000 T11281150 56021=
KMEH 272056Z AUTO 09003KT 4SM -RA SCT014 BKN027 OVC037 04/01 A2966
     RMK AO2 RAB34 SLP058 P0000 60000 T00440011 58010=
KALK 272056Z AUTO 26021G29KT 10SM CLR 18/M08 A2980 RMK AO2 PK WND
     22032/2044 SLP028 T01831083 58025=
KP28 272056Z AUTO 10004KT M10/M13 A3047 RMK AO1 SLP346 60002
     T11001133 58016=
PADK 272056Z AUTO 29004KT 10SM SCT035 SCT041 02/M04 A3013 RMK AO1
     WSHFT 37 52030=
KSXT 272056Z AUTO 25005KT 2 1/2SM BR BKN003 BKN007 OVC016 04/03
     A2973 RMK AO2 VIS 1V5 SLP073 60000 T00390033 58015=
KCAE 272056Z 00000KT 10SM FEW050 SCT220 13/M01 A3033 RMK AO2
     SLP270 T01281006 55014=
KCHS 272056Z 11009KT 10SM BKN200 10/01 A3035 RMK AO2 SLP277
     T01000011 55007=
KFSD 272056Z 22007KT 10SM CLR M11/M18 A3045 RMK AO2 SLP351
     T11061183 56022=
KINW 272056Z AUTO 35007KT 10SM OVC090 10/M02 A2974 RMK AO2 SLP057
     T01001022 58025=
KJAX 272056Z 04015KT 10SM FEW025 FEW150 OVC200 11/03 A3030 RMK AO2
     SLP259 T01060028 56009=
KLWS 272056Z 00000KT 10SM CLR 11/03 A2972 RMK AO2 SLP070 T01060033
     58023=
KLZZ 272055Z AUTO 04008KT 3SM BR OVC010 M01/M02 A3032 RMK AO2
     T10141024=
KMOB 272056Z 06011KT 10SM SCT200 12/M02 A3029 RMK AO2 SLP256
     T01171017 56026=
KOFK 272056Z AUTO 10SM CLR M06/M18 A3043 RMK AO2 SLP340 T10611178
     56027=
KSHV 272056Z 02013KT 10SM OVC080 01/M06 A3043 RMK AO2 SLP304
     T00111061 58019=
KSYR 272054Z 30011KT 10SM BKN031 BKN035 M08/M17 A3049 RMK SLP329
     T10781167 53012=
KWMC 272056Z AUTO 12003KT 5SM -RA BR OVC024 02/01 A2967 RMK AO2
     SLP055 P0005 60010 T00220011 58023=
PHNY 272056Z AUTO 32008KT 10SM BKN015 27/19 A3005 RMK AO2 TSNO
     51010 T02660194 SLP156 $=
PHJR 272053Z 27007KT 10SM CLR 28/18 A3000 RMK AO2 SLP164 T02780183
     51004=
PHKO 272053Z 29008KT 10SM CLR 27/19 A2996 RMK AO2 SLP147 T02720194
     50005=
PHMK 272054Z 36011G15KT 10SM FEW020 26/21 A3001 RMK AO2 SLP164
     P0001 60001 T02610206 50006=
####018003739####
SAUS70 KWBC 272100 RRD
METAR
PACM 272056Z AUTO 18018G27KT 1 1/2SM BR SCT007 BKN012 OVC110
     M01/M01 A3015 RMK AO2 PWINO FZRANO TSNO 58019 T10051011 PK
     WND 18027/2049 SLP206 $=
PADM 272056Z AUTO 13016KT 10SM OVC031 M01/M05 A3030 RMK AO2 TSNO
     58016 T10111050 SLP248 $=
PADU 272056Z 10005KT 10SM SCT008 SCT014 OVC033 06/03 A3007 RMK AO2
     SLP186 CS 60000 T00610028 51001=
PAFS 272056Z AUTO 00000KT 10SM CLR M08/M13 A3037 RMK AO2 TSNO
     56020 60000 T10831127 SLP299 $=
PAGN 272056Z AUTO 00000KT 10SM CLR 04/01 A3040 RMK AO2 TSNO 58003
     T00440005 SLP299 $=
PAHC 272056Z AUTO 14004KT 10SM UP FEW015 OVC024 M04/M08 A3032 RMK
     AO2 TSNO 58009 60000 T10441077 P0000 SLP271 $=
PAIG 272056Z AUTO 00000KT CLR M05/M06 A3036 RMK AO2 TSNO 56009
     T10501061 SLP285 $=
PAKI 272056Z AUTO 13018KT 10SM OVC043 M01/M03 A3020 RMK AO2 TSNO
     56014 60000 T10051027 SLP230 $=
PALG 272056Z AUTO 10005KT 10SM BKN031 M04/M08 A3030 RMK AO2 TSNO
     58016 T10381077 BKN V SCT SLP265 $=
PAMB 272056Z AUTO 05010KT 10SM OVC009 M02/M02 A3029 RMK AO2 TSNO
     58011 T10161022 SLP260 $=
PAMK 272056Z AUTO 17010KT 10SM OVC027 M01/M04 A3024 RMK AO2 TSNO
     58015 T10111044 SLP245 $=
PAMO 272056Z AUTO 15019KT 10SM OVC008 M02/M04 A3022 RMK AO2 TSNO
     58013 T10221038 CIG 007V013 SLP117 $=
PANA 272056Z AUTO 12008KT 10SM OVC032 M01/M04 A3026 RMK AO2 SLP247
     T10111039 58018 FZRANO=
PAOH 272056Z AUTO 00000KT 10SM CLR 06/01 A3045 RMK AO2 TSNO 58003
     T00550005 SLP314 $=
PAOO 272056Z AUTO 14018KT 7SM FEW015 OVC037 M01/M02 A3018 RMK AO2
     TSNO 56014 60000 T10111016 UPB41E55 P0000 SLP220 $=
PAOU 272056Z AUTO 13016KT 10SM SCT065 SCT085 04/02 A3019 RMK AO2
     TSNO 56010 T00380016 SLP225 $=
PAPM 272056Z AUTO 08016KT 10SM BKN035 01/M02 A3028 RMK AO2 TSNO
     58010 T00051016 BKN V SCT SLP253 $=
PAQH 272056Z AUTO 10012KT 10SM OVC033 01/M03 A3026 RMK AO2 SLP249
     T00061028 56014 FZRANO=
PARS 272056Z AUTO 16004KT 10SM BKN029 OVC033 M02/M06 A3030 RMK AO2
     TSNO 58014 T10221055 BKN V SCT SLP264 $=
PASI 272053Z COR 21003KT 10SM SKC 07/M03 A3038 RMK AO2 SLP288
     T00671028 53001=
PATQ 272056Z AUTO 26012KT 10SM CLR M16/M18 A3015 RMK AO2 TSNO
     51024 60000 T11611177 SLP215 $=
PFCL 272056Z AUTO 07007KT 10SM OVC008 M01/M02 A3033 RMK AO2 SLP274
     T10061017 58009 FZRANO=
PFKW 272056Z AUTO 13007KT 10SM OVC033 M01/M04 A3027 RMK AO2 SLP252
     T10111044 58018 FZRANO=
KOSC 272053Z AUTO 24006G09KT 10SM CLR M07/M17 A3045 RMK AO2
     T10691172=
KNSE 272056Z 03011KT 10SM SCT250 14/M02 A3028 RMK AO2 SLP243
     T01441017 56022 $=
K05U 272055Z AUTO 00000KT 10SM SCT024 04/M03 A2969 RMK AO1=
K0E0 272055Z AUTO 14007KT 10SM OVC009 M08/M10 A2994 RMK AO2
     T10781105=
K0F2 272055Z AUTO 04005KT 1 1/4SM -SN SCT008 BKN011 OVC017 M06/M07
     A3043 RMK AO2 P0001 60003 T10591074=
K0V4 272055Z AUTO 30005KT 10SM CLR 05/M07 A3040 RMK AO1
     T00531071=
K11R 272055Z AUTO 05008KT 10SM BKN024 06/00 A3033 RMK AO2
     T00640000=
K1A6 272055Z AUTO 36003KT 10SM CLR M01/M13 A3048 RMK AO2
     T10141131=
K1H2 272055Z AUTO 31004KT 10SM CLR M09/M19 A3064 RMK AO2
     T10871190=
K1L0 272055Z AUTO 01007KT 10SM CLR 12/02 A3032 RMK AO2
     T01210018=
K3LF 272055Z AUTO 36003KT 10SM CLR M11/M20 A3063 RMK AO2
     T11151203=
K3R7 272055Z AUTO 05009KT 10SM CLR 10/01 A3033 RMK AO2
     T00950007=
K54J 272055Z AUTO 01009KT 10SM CLR 13/00 A3028 RMK AO2
     T01311003=
K65S 272055Z AUTO 05004KT 10SM OVC050 04/M08 A2988 RMK AO2=
K66R 272055Z AUTO 05009G16KT 7SM OVC020 06/01 A3029 RMK AO2
     T00620014=
K6B0 272055Z AUTO 25003KT 10SM CLR M07/M22 A3036 RMK AO2
     T10681223=
####018003696####
SAUS70 KWBC 272100 RRE
METAR
K6R3 272053Z AUTO 35004KT 10SM SCT100 09/01 A3035 RMK AO2=
K8W2 272055Z AUTO 34005KT 10SM OVC065 00/M13 A3041 RMK AO1
     T10011135=
KACQ 272039Z AUTO 23007KT 10SM CLR M11/M17 A3054 RMK AO2=
KADU 272055Z AUTO 21003KT 10SM CLR M11/M18 A3054 RMK AO2=
KAFK 272055Z AUTO 08004KT 10SM CLR M07/M20 A3052 RMK AO2
     T10661200=
KAFP 272055Z AUTO 31005KT 10SM CLR 10/M02 A3036 RMK AO2
     T01021025=
KAHQ 272055Z AUTO 11005KT 10SM CLR M07/M18 A3050 RMK AO2
     T10711178=
KAIO 272055Z AUTO 21004KT 10SM CLR M10/M18 A3055 RMK AO2=
KAJO 272056Z AUTO 00000KT 10SM BKN037 17/09 A2980 RMK AO2 58023
     T01660094 SLP088 $=
KALX 272055Z AUTO 01008KT 10SM CLR 11/M06 A3036 RMK AO2
     T01091065=
KAQO 272055Z AUTO 08007KT 3SM HZ OVC017 00/M03 A3035 RMK AO2=
KARM 272055Z AUTO 04012KT 7SM OVC017 06/02 A3031 RMK AO2
     T00550016=
KART 272056Z AUTO 25008KT 1SM -SN VV016 M09/M14 A3048 RMK AO2
     SNB47 SLP335 P0000 60000 T10941139 53007=
KASL 272055Z AUTO 03006KT 360V070 10SM BKN080 01/M06 A3045 RMK AO1
     T00061065=
KAUH 272055Z AUTO 18007KT 10SM CLR M06/M20 A3041 RMK AO2
     T10601204=
KAVC 272056Z AUTO 30007KT 10SM CLR 05/M08 A3045 RMK AO2
     T00461082=
KAVK 272055Z AUTO 09007KT 3SM -SN CLR M09/M12 A3048 RMK AO2
     P0001=
KEYF 272055Z AUTO 00000KT 10SM CLR 11/M01 A3036 RMK AO2
     T01121012=
KEZM 272055Z AUTO 04004KT 10SM CLR 14/03 A3033 RMK AO2
     T01420034=
KEZS 272055Z AUTO 25011G14KT 10SM CLR M07/M21 A3048 RMK AO2
     T10701208=
KF05 272055Z AUTO 06009KT 7SM OVC012 M06/M11 A3045 RMK AO1
     T10631114=
KF44 272055Z AUTO 06008KT 10SM OVC080 00/M08 A3042 RMK AO2=
KF46 272055Z AUTO 03014G19KT 10SM BKN010 BKN032 OVC055 M02/M05
     A3041 RMK AO2 T10241047=
KFHB 272055Z AUTO 04011G19KT 10SM SCT016 SCT095 12/06 A3029 RMK
     AO1=
KFOT 272055Z AUTO 36009KT 4SM SCT014 SCT021 BKN040 10/09 A2987 RMK
     AO1 P0006=
KFSO 272055Z AUTO 01004KT 10SM CLR M09/M21 A3040 RMK AO2
     T10891215=
KGAO 272055Z AUTO 02008KT 10SM CLR 12/02 A3030 RMK AO2
     T01170017=
KGDJ 272055Z AUTO 35006KT 10SM -DZ OVC014 M03/M05 A3043 RMK AO2
     60001 T10301055=
KGGI 272055Z AUTO 00000KT 10SM CLR M13/M19 A3059 RMK AO2
     T11271188=
KGMJ 272055Z AUTO 06003KT 1 1/2SM -SN OVC010 M06/M10 A3056 RMK
     AO2=
KGNC 272055Z AUTO 11010KT 7SM -SN OVC012 M07/M09 A3021 RMK AO2
     T10661092=
KGON 272056Z AUTO 33009KT 10SM CLR M03/M14 A3037 RMK AO2 SLP284
     T10281139 53012=
KGOO 272100Z AUTO 29008G14KT 10SM FEW031 SCT044 BKN060 10/02 A2976
     RMK AO1=
KGWB 272055Z AUTO 28006KT 10SM CLR M07/M18 A3058 RMK AO2=
KGYB 272055Z AUTO 03007KT 10SM OVC021 04/M01 A3035 RMK AO2
     T00351014=
KGYI 272055Z AUTO 05012KT 2SM -SN OVC008 M04/M05 A3045 RMK AO2
     60001 T10421052=
KHJH 272055Z AUTO 15004KT 10SM CLR M06/M19 A3047 RMK AO2
     T10611188=
KHLX 272055Z AUTO 33013KT 10SM CLR M01/M09 A3032 RMK AO2
     T10151092=
KHND 272056Z VRB04KT 10SM CLR 16/M04 A2970 RMK AO2 SLP051
     T01611044 58035=
KHRJ 272055Z AUTO 33006KT 10SM SCT050 10/M03 A3038 RMK AO2
     T00981026=
KHSB 272055Z AUTO 36005KT 10SM BKN029 BKN080 M06/M13 A3064 RMK AO2
     T10581135=
KHYA 272056Z 03006KT 10SM CLR M04/M14 A3035 RMK AO2 SLP279
     T10441139 53016=
KHZL 272055Z AUTO 28006KT 10SM CLR M06/M16 A3037 RMK AO2=
KI16 272055Z AUTO 10SM SCT037 M02/M10 A3051 RMK AO2 T10211104=
KIBM 272055Z AUTO 17019G24KT 4SM -SN SCT008 BKN016 OVC031 M08/M12
     A2995 RMK AO2 T10831124=
KIER 272055Z AUTO 05008G14KT 10SM CLR 07/M03 A3040 RMK AO2
     T00651030=
KIFP 272055Z AUTO 36006KT 10SM CLR 20/M03 A2966 RMK AO2 PWINO=
####018003736####
SAXX60 KWBC 272100 RRA
METAR
KNTU 272056Z 36010KT 10SM BKN048 BKN280 02/M04 A3043 RMK AO2
     SLP307 T00171039 51015 $=
KNUW 272056Z 01007KT 10SM -RA SCT035 BKN055 OVC070 10/07 A2982 RMK
     AO2 SLP100 P0001 60002 T01000067 50004 VISNO E $=
KNXP 272056Z 00000KT 10SM FEW200 21/M01 A2971 RMK AO2 PRESFR
     SLP034 LAST AUGMENTED T02061006 58039=
KNYG 272056Z 02010KT 10SM FEW160 SCT220 01/M12 A3050 RMK AO2
     SLP328 T00111117 53013=
KVPS 272056Z 05009KT 10SM SCT140 BKN250 15/M00 A3026 RMK AO2A
     SLP254 T01461003 57019 $=
KNSI 272057Z AUTO 31022G36KT 10SM OVC013 A2983 RMK AO2 PK WND
     31036/2050 SLPNO 58009 $=
PGUA 272058Z AUTO 08012KT 10SM FEW014 BKN049 25/22 A2992 RMK AO2
     SLP122 T02490223 53014 $=
PHHI 272058Z AUTO 34010KT 10SM CLR 25/20 A3000 RMK AO2 SLP150
     T02480201 51007 $=
PHSF 272056Z AUTO 22002G10KT 10SM CLR 19/07 A3028 RMK AO2 SLP144
     T01850073 53004 $=
PWAK 272058Z AUTO 08022G26KT 9000 HZ FEW028 25/19 A3002 RMK AO2 PK
     WND 08027/38 SLP172 T02470186 52015=
KAFF 272058Z AUTO 15007KT 6SM HZ OVC016 M12/M16 A2985 RMK AO2
     SNE31SNB37E48 SLP202 P0000 60000 T11211163 57020=
KBAB 272058Z AUTO 20011KT 10SM CLR 18/09 A2973 RMK AO2 SLP143
     T01840085 57025 $=
KGXF 272056Z 22010G18KT 10SM CLR 25/M03 A2967 RMK AO2A SLP039
     T02471027 57027=
KHMN 272058Z AUTO 14010KT 10SM CLR 05/M04 A2994 RMK AO2 SLP130
     T00521045 57028 $=
KLSV 272058Z AUTO VRB05KT 10SM CLR 17/M04 A2967 RMK AO2 SLP038
     T01661038 57035=
KMUO 272058Z AUTO 10015KT 10SM FEW090 09/M01 A2968 RMK AO2 SLP056
     T00931014 57028 $=
KSKA 272058Z AUTO 05011KT 10SM CLR 08/M04 A2977 RMK AO2 SLP097
     60000 T00761038 57012=
KSUU 272058Z AUTO 25017G22KT 10SM BKN050 18/10 A2974 RMK AO2
     SLP078 T01820102 58023 $=
KTCM 272058Z AUTO 02005KT 10SM -RA BKN007 OVC025 09/09 A2974 RMK
     AO2 SLP076 P0003 60008 T00880086 50001 $=
PGUA 272058Z AUTO 08012KT 10SM FEW014 BKN049 25/22 A2992 RMK AO2
     SLP122 T02490223 53014 $=
PHHI 272058Z AUTO 34010KT 10SM CLR 25/20 A3000 RMK AO2 SLP150
     T02480201 51007 $=
PWAK 272058Z AUTO 08022G26KT 9000 HZ FEW028 25/19 A3002 RMK AO2 PK
     WND 08027/38 SLP172 T02470186 52015=
KDMA 272058Z AUTO 21011G21KT 170V240 10SM CLR 22/M04 A2972 RMK AO2
     SLP040 T02241036 57031 $=
KINS 272058Z AUTO 00000KT 10SM CLR 14/M07 A2967 RMK AO2 SLP025
     T01441069 57037=
KNBG 272055Z 06011KT 10SM FEW250 12/M01 A3030 RMK AO2 SLP259
     T01221011 56020 $=
KNID 272056Z AUTO 04008KT CLR 19/02 A2964 RMK AO2 SLP030 T01890022
     58039 $=
KNKX 272055Z 20013G21KT 10SM SCT026 BKN035 18/10 A2982 RMK AO2
     SLP094 T01830100 58014 $=
KRIV 272058Z AUTO 24002KT 10SM BKN036 15/08 A2979 RMK AO2 SLP086
     T01500077 58019=
PAED 272058Z AUTO 27001KT 10SM CLR M05/M09 A3045 RMK AO2 SLP310
     T10481089 55007=
PAEI 272058Z AUTO 00000KT 10SM CLR M10/M12 A3044 RMK AO2 SLP324
     T11021121 58011 $=
PASY 272056Z 33013KT 9SM -SN SCT030 OVC037 M03/M10 A3029 RMK AO2
     SNB17 SLP259 T10281100 53024 $=
KRSP 272054Z AUTO 10SM FEW039 M05/M16 RMK AO2 SLPNO T10501156
     $=
KAPY 272055Z AUTO 35008KT 10SM OVC013 05/01 A3021 RMK AO2
     T00520016=
KMCC 272055Z AUTO 15009KT 10SM SCT039 18/08 A2976 RMK AO2=
KNTU 272056Z 36010KT 10SM BKN048 BKN280 02/M04 A3043 RMK AO2
     SLP307 T00171039 51015 $=
KNUQ 272056Z 30007KT 10SM SCT037 SCT044 17/08 A2984 RMK AO2 SLP106
     T01670078 58020=
KBYH 272055Z 03010KT 10SM BKN028 M04/M09 A3058=
KAFF 272058Z AUTO 15007KT 6SM HZ OVC016 M12/M16 A2985 RMK AO2
     SNE31SNB37E48 SLP202 P0000 60000 T11211163 57020=
KBAB 272058Z AUTO 20011KT 10SM CLR 18/09 A2973 RMK AO2 SLP143
     T01840085 57025 $=
####018003640####
SAUS70 KWBC 272100 RRG
METAR
KCRX 272055Z AUTO 02006G13KT 10SM CLR 03/M11 A3047 RMK AO2=
KCUH 272055Z AUTO 08005KT 1 1/2SM -SN OVC007 M07/M10 A3052 RMK
     AO2=
KCWC 272055Z AUTO 05008G14KT 5SM HZ OVC017 M05/M08 A3046 RMK AO2
     T10541084=
KDAY 272056Z 31006KT 10SM FEW026 BKN034 BKN039 M08/M15 A3058 RMK
     AO2 SLP375 SNB25E43 P0000 60000 T10781150 55000=
KDNS 272055Z AUTO 18004KT 10SM CLR M12/M20 A3051 RMK AO2=
KDNV 272055Z AUTO 00000KT 10SM CLR M09/M18 A3059 RMK AO2
     T10891176=
KDQH 272055Z AUTO 05007KT 10SM SCT033 12/03 A3032 RMK AO2=
KDUC 272055Z AUTO 09008KT 7SM BKN014 BKN027 OVC035 M06/M08 A3045
     RMK AO2=
KE16 272055Z AUTO 32011G18KT 10SM BKN035 OVC065 16/09 A2984 RMK
     AO2=
KEBG 272055Z AUTO 35006KT 10SM OVC027 16/09 A3016 RMK AO2
     T01580086=
KEED 272056Z AUTO 00000KT 10SM CLR 21/M04 A2965 RMK AO2 SLP023
     T02111044 58034=
KEKO 272056Z AUTO 21008KT 10SM OVC055 07/M05 A2965 RMK AO2 SLP041
     T00671050 58032=
KEKQ 272056Z AUTO 01005KT 10SM CLR M03/M13 A3056 RMK AO2 56007
     T10271127 SLP363=
KERV 272055Z AUTO 03006KT 2 1/2SM UP OVC011 00/M02 A3025 RMK AO2
     T10051016=
KPTT 272055Z AUTO 12007KT 2SM -SN SCT009 OVC017 M08/M13 A3044 RMK
     AO2 VIS 1 1/2V3=
KRHP 272055Z AUTO 25008KT 10SM CLR 03/M03 A3034 RMK AO2
     T00341029=
KRPH 272055Z AUTO 04005KT 10SM SCT014 BKN020 OVC035 M05/M07 A3040
     RMK AO2 T10501073=
KRPJ 272055Z AUTO 23009KT 10SM CLR M13/M18 A3061 RMK AO2
     T11281181=
KRSV 272055Z AUTO 32004KT 10SM CLR M07/M17 A3065 RMK AO2
     T10751166=
KRTS 272055Z AUTO 27012KT 10SM FEW070 SCT090 09/M05 A2966 RMK
     AO2=
KSBP 272056Z 29016G20KT 10SM SCT017 BKN035 17/11 A2983 RMK AO2
     SLP100 T01720111 58017=
KSDF 272056Z 01005KT 10SM SCT049 M03/M16 A3060 RMK AO2 SLP369
     T10331161 55005=
KSGH 272056Z AUTO 33008KT 8SM BKN041 M08/M17 A3058 RMK AO2 55001
     T10771166 BKN V SCT SLP378=
KSHD 272055Z AUTO 03004KT 10SM CLR 01/M11 A3039 RMK AO2
     T00101110=
KSLO 272055Z AUTO 35005KT 10SM CLR M08/M16 A3063 RMK AO2
     T10771165=
KSLR 272055Z AUTO 04012G15KT 7SM SCT013 SCT018 OVC065 M02/M05
     A3048 RMK AO2 T10251052=
KSUT 272055Z AUTO 02003KT 10SM CLR 09/01 A3037 RMK AO2
     T00880011=
KT20 272055Z AUTO 02008KT 10SM OVC016 05/01 A3028 RMK AO2
     T00470007=
KTIP 272055Z AUTO 00000KT 10SM CLR M09/M17 A3061 RMK AO2
     T10861169=
KTNB 272055Z AUTO 28009KT 230V310 10SM CLR M02/M09 A3030 RMK AO2
     T10161091=
KTOC 272055Z AUTO 28003KT 10SM CLR 11/M08 A3032 RMK AO2
     T01101080=
KTPH 272056Z AUTO 00000KT 10SM SCT060 10/M06 A2967 RMK AO2 SLP028
     T01001061 58036=
KTQH 272055Z AUTO 10008KT 1 1/2SM -SN OVC007 M07/M10 A3052 RMK
     AO2=
KTVK 272055Z AUTO 36003KT 10SM CLR M11/M18 A3059 RMK AO2=
KUKI 272056Z AUTO 29015G21KT 10SM CLR 14/06 A2981 RMK AO2 SLP091
     T01440056 58017=
KUSE 272055Z AUTO 23009KT 10SM CLR M09/M20 A3058 RMK AO2=
KVCV 272055Z AUTO 26016G22KT 10SM CLR 18/00 A2972 RMK AO2=
KVKS 272055Z AUTO 35008KT 10SM CLR 06/M03 A3040 RMK A01=
KVPZ 272056Z AUTO 21009KT 10SM CLR M09/M19 A3058 RMK AO2
     UPE02B35E51 SLP375 P0000 60000 T10941189 56004 TSNO=
KW75 272055Z AUTO 35005KT 10SM SCT033 OVC042 00/M06 A3047 RMK AO1
     T10051064=
KWJF 272056Z 22018G27KT 10SM FEW040 16/06 A2974 RMK AO2 PK WND
     25029/2007 SLP066 T01560061 58022=
KXSA 272055Z AUTO 32004KT 10SM CLR 02/M11 A3047 RMK AO2
     T00151114=
KY50 272056Z AUTO 25007G16KT 10SM CLR M08/M19 A3051 RMK AO2 TSNO
     56013 T10771194 SLP349=
PAAD 272055Z AUTO 26019KT 10SM OVC029 M04/M05 A3015 RMK AO2=
####018003669####
SAXX60 KWBC 272100 RRB
METAR
KDMA 272058Z AUTO 21011G21KT 170V240 10SM CLR 22/M04 A2972 RMK AO2
     SLP040 T02241036 57031 $=
KFHU 272055Z 23020G26KT 10SM FEW090 FEW160 FEW240 19/M08 A2979 RMK
     PK WND 24031/27 ACSL SE SLP053 58024=
KGXF 272056Z 22010G18KT 10SM CLR 25/M03 A2967 RMK AO2A SLP039
     T02471027 57027=
KHMN 272058Z AUTO 14010KT 10SM CLR 05/M04 A2994 RMK AO2 SLP130
     T00521045 57028 $=
KLSV 272058Z AUTO VRB05KT 10SM CLR 17/M04 A2967 RMK AO2 SLP038
     T01661038 57035=
KMUO 272058Z AUTO 10015KT 10SM FEW090 09/M01 A2968 RMK AO2 SLP056
     T00931014 57028 $=
KNBC 272057Z 09007KT 7SM FEW060 SCT150 BKN200 10/02 A3034 RMK
     SLP275 T01000022 55010=
KNBG 272055Z 06011KT 10SM FEW250 12/M01 A3030 RMK AO2 SLP259
     T01221011 56020 $=
KNFW 272052Z 01008KT 1/2SM -SN FZFG VV012 M03/M05 A3047 RMK AO2
     SLP300 P0002 60003 T10281050 56023 $=
KNJK 272056Z 24011KT 10SM FEW050 27/02 A2965 RMK AO2 SLP056
     T02670022 58032=
KNYL 272057Z 24004KT 10SM FEW100 24/06 A2968 RMK AO2 SLP047
     T02390056 58024=
KNFL 272056Z 26030G38KT 7SM -RA SCT035 BKN060 BKN120 08/00 A2968
     RMK AO2 PK WND 25038/2054 RAB53 PRESRR SLP032 P0000 60000
     T00830000 55022=
KNID 272056Z AUTO 04008KT CLR 19/02 A2964 RMK AO2 SLP030 T01890022
     58039 $=
KNKX 272055Z 20013G21KT 10SM SCT026 BKN035 18/10 A2982 RMK AO2
     SLP094 T01830100 58014 $=
KNLC 272056Z 36009KT 10SM SCT045 BKN220 20/07 A2979 RMK AO2 SLP089
     RH/44 T02000072 58025=
KNQI 272056Z 05013KT 7SM -DZ FEW011 OVC016 12/08 A3020 RMK AO2
     DZB54 SLP221 P0000 60000 T01220083 58027 $=
KNTU 272056Z 36010KT 10SM BKN048 BKN280 02/M04 A3043 RMK AO2
     SLP307 T00171039 51015 $=
KNUW 272056Z 01007KT 10SM -RA SCT035 BKN055 OVC070 10/07 A2982 RMK
     AO2 SLP100 P0001 60002 T01000067 50004 VISNO E $=
KRIV 272058Z AUTO 24002KT 10SM BKN036 15/08 A2979 RMK AO2 SLP086
     T01500077 58019=
KSKA 272058Z AUTO 05011KT 10SM CLR 08/M04 A2977 RMK AO2 SLP097
     60000 T00761038 57012=
KSUU 272058Z AUTO 25017G22KT 10SM BKN050 18/10 A2974 RMK AO2
     SLP078 T01820102 58023 $=
KTCM 272058Z AUTO 02005KT 10SM -RA BKN007 OVC025 09/09 A2974 RMK
     AO2 SLP076 P0003 60008 T00880086 50001 $=
KVAD 272058Z AUTO 03010KT 10SM SCT032 BKN180 BKN200 12/04 A3029
     RMK AO2 SLP260 T01150039 55012 $=
PHSF 272056Z AUTO 22002G10KT 10SM CLR 19/07 A3028 RMK AO2 SLP144
     T01850073 53004 $=
PWAK 272058Z AUTO 08022G26KT 9000 HZ FEW028 25/19 A3002 RMK AO2 PK
     WND 08027/38 SLP172 T02470186 52015=
KMCF 272058Z AUTO 06009KT 10SM OVC022 17/12 A3017 RMK AO2 SLP220
     T01710124 56013=
KNBC 272057Z 09007KT 7SM FEW060 SCT150 BKN200 10/02 A3034 RMK
     SLP275 T01000022 55010=
KNBG 272055Z 06011KT 10SM FEW250 12/M01 A3030 RMK AO2 SLP259
     T01221011 56020 $=
KNPA 272056Z 03011KT 10SM BKN250 14/M01 A3028 RMK AO2 SLP253
     T01391006 56018 $=
KNTU 272056Z 36010KT 10SM BKN048 BKN280 02/M04 A3043 RMK AO2
     SLP307 T00171039 51015 $=
KVAD 272058Z AUTO 03010KT 10SM SCT032 BKN180 BKN200 12/04 A3029
     RMK AO2 SLP260 T01150039 55012 $=
KVPS 272056Z 05009KT 10SM SCT140 BKN250 15/M00 A3026 RMK AO2A
     SLP254 T01461003 57019 $=
KFBG 272058Z AUTO 28005KT 10SM FEW050 11/M03 A3035 RMK AO2 SLP282
     T01061029 55005 $=
KFRI 272058Z AUTO 12003KT 10SM FEW055 SCT070 BKN090 M07/M18 A3054
     RMK AO2 SLP361 T10711181 56025=
KHUA 272058Z AUTO 35009KT 10SM CLR 02/M07 A3045 RMK AO2 SLP319
     T00181072 57017=
KIAB 272058Z AUTO 11004KT 3SM -SN FEW002 SCT008 SCT013 OVC036
     M09/M13 A3050 RMK AO2 CIG 003 RWY19 SLP357 P0000 60000
     T10901128 57020=
####018003705####
SAUS70 KWBC 272100 RRF
METAR
KIIY 272055Z AUTO 20003KT 10SM CLR 14/03 A3032 RMK AO2=
KJAS 272055Z AUTO 00000KT 10SM BKN100 09/M02 A3036 RMK AO2
     T00871016=
KJDD 272055Z AUTO 04003KT 10SM SCT050 BKN060 BKN075 00/M10 A3045
     RMK AO2=
KJFZ 272055Z AUTO 34004KT 10SM BKN027 M04/M12 A3038 RMK AO2
     T10411125=
KJSO 272055Z AUTO 05006KT 10SM OVC080 00/M06 A3041 RMK AO2
     T00061061=
KJWG 272055Z AUTO 07009KT 10SM SCT026 SCT037 OVC065 M08/M12 A3045
     RMK AO2 T10791118=
KJWY 272055Z AUTO 05009KT 7SM OVC014 M02/M04 A3041 RMK AO2
     T10211041=
KJXI 272055Z AUTO 04009KT 10SM SCT050 OVC080 M01/M09 A3044 RMK AO2
     T10121088=
KLAS 272056Z 00000KT 10SM FEW100 FEW250 17/M07 A2965 RMK AO2
     SLP029 T01671067 58034=
KLNN 272055Z AUTO 29007KT 10SM CLR M11/M17 A3059 RMK AO1
     T11071170=
KLNR 272056Z AUTO 26006KT 10SM CLR M09/M20 A3056 RMK AO2 SLP363
     T10891200 56014=
KLUD 272055Z AUTO 03005KT 1SM -SN OVC006 M05/M07 A3041 RMK AO2
     P0001 60002 T10521071=
KM30 272055Z AUTO 04003KT 10SM CLR M03/M13 A3059 RMK AO2
     T10351127=
KMEV 272055Z AUTO 24010G27KT 10SM BKN070 BKN085 09/M07 A2970 RMK
     AO2=
KMGR 272055Z AUTO 05007KT 10SM CLR 12/05 A3030 RMK AO2=
KMHV 272055Z AUTO 23019G24KT 10SM SCT040 OVC047 14/04 A2975 RMK
     AO1=
KMTW 272056Z AUTO 28012G17KT 10SM CLR M08/M17 RMK AO2 SLPNO 6////
     T10781172 FZRANO $=
KMVH 272055Z AUTO 32014KT 10SM CLR M06/M15 A2988 RMK A01=
KMWO 272055Z AUTO 10SM SCT045 M06/M19 A3062 RMK AO2 T10631190=
KN38 272055Z AUTO 30006G14KT 10SM SCT049 M08/M20 A3035 RMK AO2=
KO69 272055Z AUTO 27014G21KT 10SM CLR 16/09 A2982 RMK AO1=
KOCW 272055Z AUTO 34005KT 10SM CLR 08/M01 A3039 RMK AO2
     T00761014=
KOJA 272055Z AUTO 07007KT 7SM -SN BKN017 OVC050 M08/M12 A3043 RMK
     AO2=
KONM 272055Z AUTO 15008KT 10SM 03/00 A2990 RMK AO2 T00271001=
KONP 272055Z AUTO 26007KT 7SM -RA SCT010 BKN014 10/08 A2976 RMK
     AO2 P0001=
KOPN 272055Z AUTO 01007KT 10SM CLR 13/M01 A3033 RMK AO2=
KORG 272055Z AUTO 07005KT 10SM CLR 11/00 A3033 RMK AO2
     T01140002=
KOWB 272056Z 07007KT 10SM FEW036 M04/M13 A3061 RMK AO2 56010
     T10441133 SLP372=
KPBX 272055Z AUTO 04004KT 10SM OVC037 M06/M13 A3049 RMK AO2
     T10561135=
KPDC 272055Z AUTO 25008KT 10SM CLR M11/M21 A3059 RMK AO2
     T11101209=
KPEQ 272055Z AUTO 06008KT 5SM BR OVC008 M04/M05 A3021 RMK AO2
     T10371048=
KPGV 272055Z AUTO 36004KT 10SM CLR 09/M02 A3039 RMK AO2=
KPPQ 272055Z AUTO 00000KT 10SM CLR M10/M19 A3064 RMK AO2
     T10981187=
KAWG 272055Z AUTO 25005KT 10SM CLR M12/M18 A3063 RMK AO2=
KAXA 272055Z AUTO 23007KT 10SM BKN014 M12/M17 A3054 RMK AO2=
KAXX 272055Z AUTO 26007KT 1/2SM SN OVC004 M05/M07 A2980 RMK AO2
     T10471070=
KBBD 272055Z AUTO 06007KT 3SM -SN BR BKN007 OVC011 M04/M04 A3027
     RMK=
KBDG 272055Z AUTO 14004KT 10SM OVC016 00/M02 A2987 RMK AO1
     T10011025=
KBED 272056Z AUTO 25005KT 10SM CLR M04/M21 A3034 RMK AO2 SLP291
     T10391211 53006 TSNO=
KBHC 272055Z AUTO 08007KT 10SM CLR 12/03 A3031 RMK AO2=
KBMI 272056Z 08004KT 10SM CLR M09/M17 A3062 RMK AO2 55005
     T10881172 SLP403=
KBTA 272055Z AUTO 19003KT 10SM CLR M08/M16 A3050 RMK AO2
     T10821160=
KCCO 272055Z AUTO 35008KT 10SM CLR 10/M02 A3034 RMK AO2
     T00981021=
KCDA 272055Z AUTO 26008KT 10SM CLR M09/M26 A3031 RMK AO2
     T10901257=
KCEC 272056Z AUTO 33006KT 10SM FEW015 FEW090 12/09 A2987 RMK AO2
     SLP114 60002 T01170094 58014=
KCJR 272055Z AUTO 05005KT 10SM CLR 02/M12 A3046 RMK AO2=
KCMD 272055Z AUTO 36003KT 10SM CLR 01/M08 A3045 RMK AO2
     T00121082=
KCPK 272055Z AUTO 02007G14KT 10SM SCT050 03/M02 A3044 RMK AO2=
####018003743####
SAUS70 KWBC 272100 RRH
METAR
PACM 272056Z AUTO 18018G27KT 1 1/2SM BR SCT007 BKN012 OVC110
     M01/M01 A3015 RMK AO2 PWINO FZRANO TSNO 58019 T10051011 PK
     WND 18027/2049 SLP206 $=
PAGN 272056Z AUTO 00000KT 10SM CLR 04/01 A3040 RMK AO2 TSNO 58003
     T00440005 SLP299 $=
PAHX 272056Z AUTO 16007KT 10SM OVC023 M04/M06 A3032 RMK AO2 SLP269
     T10391061 58011 FZRANO=
PANA 272056Z AUTO 12008KT 10SM OVC032 M01/M04 A3026 RMK AO2 SLP247
     T10111039 58018 FZRANO=
PAQH 272056Z AUTO 10012KT 10SM OVC033 01/M03 A3026 RMK AO2 SLP249
     T00061028 56014 FZRANO=
PATQ 272056Z AUTO 26012KT 10SM CLR M16/M18 A3015 RMK AO2 TSNO
     51024 60000 T11611177 SLP215 $=
PFCL 272056Z AUTO 07007KT 10SM OVC008 M01/M02 A3033 RMK AO2 SLP274
     T10061017 58009 FZRANO=
PFKW 272056Z AUTO 13007KT 10SM OVC033 M01/M04 A3027 RMK AO2 SLP252
     T10111044 58018 FZRANO=
PFWS 272056Z AUTO 05003KT 10SM BKN110 M03/M03 A3035 RMK AO2 SLP285
     T10281033 55010 FZRANO=
PPIT 272056Z AUTO 14012KT 10SM OVC033 M01/M04 A3025 RMK AO2 SLP243
     T10111039 58016 FZRANO=
KFMH 272055Z AUTO VRB04KT 10SM CLR M04/M14 A3035 RMK AO2
     FZRANO=
KHFF 272056Z AUTO 36007KT 10SM CLR 10/M02 A3039 RMK AO2 SLP296
     T01001022 55005=
KNSE 272056Z 03011KT 10SM SCT250 14/M02 A3028 RMK AO2 SLP243
     T01441017 56022 $=
KBOS 272054Z VRB03KT 10SM FEW035 SCT250 M03/M19 A3036 RMK AO2
     SLP279 T10281189 53006=
KPHL 272054Z 32008KT 10SM FEW250 M01/M13 A3046 RMK AO2 SLP314
     T10111133 53011=
KAPG 272055Z 30010KT 7SM FEW200 M01/M11 A3049=
PAGH 272057Z AUTO 12009KT 10SM OVC020 M01/M01 A3027 RMK AO2
     SNB1959E51 SLP284 P0000 60000 T10061011 58002 FZRANO=
PARY 272056Z AUTO 06008KT 10SM OVC021 M04/M06 A3033 RMK AO2 TSNO
     58010 T10441061 SLP284 $=
KATP 272055Z AUTO 08019KT 10SM SCT034 BKN040 17/09 A3017 RMK
     A01=
KBBF 272055Z AUTO 08022G28KT 6SM HZ FEW020 FEW024 14/10 A3019 RMK
     A01=
KBOW 272050Z 04012KT 10SM OVC020 14/08 A3020=
KBQX 272055Z AUTO 03026G33KT 8SM BKN018 OVC022 11/08 A3023 RMK
     A01=
KCRH 272055Z AUTO 06018KT 9SM SCT021 OVC029 09/04 A3028 RMK
     A01=
KCVW 272055Z AUTO 04011G17KT 10SM CLR 10/01 A3034 RMK A01=
KDLP 272055Z AUTO 06011G19KT 10SM SCT021 BKN028 11/05 A3025 RMK
     A01=
KEHC 272055Z AUTO 06021KT 10SM FEW018 10/06 A3024 RMK A01=
KEIR 272055Z AUTO 06024KT 8SM SCT019 OVC028 09/06 A3028 RMK
     A01=
KEMK 272055Z AUTO 05021G26KT 10SM BKN021 OVC026 16/10 A3020 RMK
     A01=
KGHB 272055Z AUTO 06023G28KT 9SM OVC022 14/10 A3022 RMK A01=
KGRY 272100Z AUTO VRB08G26KT 10SM FEW027 BKN032 OVC040 16/10 A3017
     RMK A01=
KGUL 272055Z AUTO 10SM SCT028 OVC035 16/11 A3015 RMK A01=
KGVX 272055Z AUTO 06020KT 9SM BKN020 OVC024 11/07 A3026 RMK
     A01=
KHHV 272055Z AUTO 07019KT 10SM CLR 18/11 A3018 RMK A01=
KHQI 272055Z AUTO 03022G29KT 9SM OVC016 13/10 A3022 RMK A01=
KIKT 272055Z AUTO 07022KT 10SM BKN028 BKN032 14/08 A3020 RMK
     A01=
KIPN 272055Z AUTO 06021G28KT 10SM OVC027 15/09 A3019 RMK A01=
KJMS 272056Z AUTO 22012KT 10SM CLR M09/M18 A3032 RMK AO2 SLP308
     T10941178 58024=
KMDJ 272055Z AUTO 04020KT 10SM OVC022 12/08 A3028 RMK A01=
KMIS 272055Z AUTO 07022G27KT 9SM SCT025 11/05 A3026 RMK A01=
KMZG 272055Z AUTO 05015G26KT 5SM HZ SCT020 BKN028 16/11 A3019 RMK
     A01=
KROG 272057Z 06007KT 1 1/2SM -SN BKN020 OVC028 M08/M12 A3051 RMK
     AO2 SLP354 P0000 60000 T10831122 58010=
KSPR 272055Z AUTO 06025KT 6SM HZ OVC018 10/06 A3025 RMK A01=
KSQE 272055Z AUTO 07017G29KT 9SM FEW019 BKN023 OVC033 14/10 A3021
     RMK A01=
KVAF 272055Z AUTO 07020KT 7SM FEW021 SCT028 BKN038 15/11 A3018 RMK
     A01=
KVBS 272055Z AUTO 13011KT 10SM SCT025 07/02 A3031 RMK A01=
####018003681####
SAXX60 KWBC 272100 RRC
METAR
KLRF 272058Z AUTO VRB03KT 10SM FEW090 M02/M14 A3056 RMK AO2 SLP356
     T10171139 55004=
KMCF 272058Z AUTO 06009KT 10SM OVC022 17/12 A3017 RMK AO2 SLP220
     T01710124 56013=
KPOE 272058Z AUTO VRB06KT 10SM OVC150 09/M02 A3032 RMK AO2 SLP271
     T00891019 57023=
KTIK 272058Z AUTO 06005KT 5SM -SN FEW013 OVC019 M08/M11 A3046 RMK
     AO2 CIG 015V019 SLP343 P0001 60001 T10791114 55019=
KVAD 272058Z AUTO 03010KT 10SM SCT032 BKN180 BKN200 12/04 A3029
     RMK AO2 SLP260 T01150039 55012 $=
KEUF 272058Z AUTO VRB05KT 10SM CLR 14/M03 A3030 RMK AO2 SLP260
     T01441028 56016 $=
K0J4 272058Z AUTO 02010KT 10SM CLR 14/M01 A3030 RMK AO2 SLP260
     T01441011 56019=
PGUA 272058Z AUTO 08012KT 10SM FEW014 BKN049 25/22 A2992 RMK AO2
     SLP122 T02490223 53014 $=
KGBK 272055Z AUTO 04023G32KT 10SM SCT028 BKN032 OVC047 17/11 A3014
     RMK A01=
KNFG 272054Z 21008KT 7SM FEW027 BKN040 18/11 A2981 RMK AO2 SLP094
     T01780106 58021=
KNQX 272053Z 02009KT 10SM BKN008 BKN100 23/19 A3006 RMK AO2 SLP178
     T02330194 58014 $=
KNRB 272052Z 02013G23KT 10SM BKN015 OVC220 10/06 A3029 RMK AO2
     SLP258 T01000061 57008 $=
KVBG 272055Z COR 32021G28KT 10SM SCT015 BKN020 BKN250 16/12 A2986
     RMK AO2 PK WND 32030/2011 BKN020 V SCT SLP102 T01610117 58012
     COR 2057=
KNTD 272056Z COR 26012KT 10SM FEW027 SCT250 19/12 A2981 RMK AO2
     SLP096 T01940117 58019 $=
KBAD 272058Z AUTO 02009KT 10SM OVC080 01/M06 A3043 RMK AO2 SLP309
     T00061063 58020=
KCOF 272058Z AUTO 35015G21KT 10SM -TSRA OVC007 13/13 A3017 RMK AO2
     LTG DSNT E RAE42DZB42E48RAB48E51RAB55 TSB48 SLP221 P0001
     60006 T01340126 57007 $=
KFBG 272058Z AUTO 28005KT 10SM FEW050 11/M03 A3035 RMK AO2 SLP282
     T01061029 55005 $=
KFRI 272058Z AUTO 12003KT 10SM FEW055 SCT070 BKN090 M07/M18 A3054
     RMK AO2 SLP361 T10711181 56025=
KHLR 272058Z AUTO 03009KT 360V060 8SM OVC013 M01/M04 A3033 RMK AO2
     SLP279 T10151043 57023=
KHUA 272058Z AUTO 35009KT 10SM CLR 02/M07 A3045 RMK AO2 SLP319
     T00181072 57017=
KIAB 272058Z AUTO 11004KT 3SM -SN FEW002 SCT008 SCT013 OVC036
     M09/M13 A3050 RMK AO2 CIG 003 RWY19 SLP357 P0000 60000
     T10901128 57020=
KLRF 272058Z AUTO VRB03KT 10SM FEW090 M02/M14 A3056 RMK AO2 SLP356
     T10171139 55004=
KMCF 272058Z AUTO 06009KT 10SM OVC022 17/12 A3017 RMK AO2 SLP220
     T01710124 56013=
KSSC 272058Z AUTO 12004KT 10SM CLR 12/00 A3032 RMK AO2 SLP270
     60000 T01210002 55012 $=
KSVN 272058Z AUTO VRB05KT 10SM CLR 11/02 A3032 RMK AO2 SLP271
     T01060021 55007=
KVAD 272058Z AUTO 03010KT 10SM SCT032 BKN180 BKN200 12/04 A3029
     RMK AO2 SLP260 T01150039 55012 $=
KBAD 272058Z AUTO 02009KT 10SM OVC080 01/M06 A3043 RMK AO2 SLP309
     T00061063 58020=
KCOF 272058Z AUTO 35015G21KT 10SM -TSRA OVC007 13/13 A3017 RMK AO2
     LTG DSNT E RAE42DZB42E48RAB48E51RAB55 TSB48 SLP221 P0001
     60006 T01340126 57007 $=
KHLR 272058Z AUTO 03009KT 360V060 8SM OVC013 M01/M04 A3033 RMK AO2
     SLP279 T10151043 57023=
KMCC 272055Z AUTO 15009KT 10SM SCT039 18/08 A2976 RMK AO2=
KMXF 272058Z AUTO 34008KT 10SM CLR 10/M02 A3035 RMK AO2 SLP281
     T01031019 57016=
KNUQ 272056Z 30007KT 10SM SCT037 SCT044 17/08 A2984 RMK AO2 SLP106
     T01670078 58020=
KOZR 272058Z AUTO 03010KT 10SM CLR 15/M02 A3028 RMK AO2 SLP257
     T01451024 57016=
KPAM 272058Z AUTO 05005KT 10SM CLR 13/02 A3027 RMK AO2 SLP254
     T01270019 56015 $=
KSSC 272058Z AUTO 12004KT 10SM CLR 12/00 A3032 RMK AO2 SLP270
     60000 T01210002 55012 $=
KSVN 272058Z AUTO VRB05KT 10SM CLR 11/02 A3032 RMK AO2 SLP271
     T01060021 55007=
####018000125####
SAXX60 KWBC 272000 RRO
METAR
ROTM 271958Z COR 10014KT 9000 DZ BR OVC015 17/17 A3009 RMK SLP176
     P0000 T01700166=
####018000433####
SAXX60 KWBC 272100 RRD
METAR
KWRB 272058Z AUTO 04006KT 10SM CLR 14/M01 A3031 RMK AO2 SLP268
     T01441006 56018=
KXMR 272058Z AUTO 35015KT 7SM BKN007 14/12 A3018 RMK AO2
     RAE14DZB14E19 SLP223 P0000 60000 T01350124 55009 $=
PMDY 272056Z AUTO 36007KT 10SM SCT025 BKN032 16/13 A3035 RMK AO2
     TSNO 53014 T01610133 SLP591 $=
K1J0 272058Z AUTO 05006KT 10SM CLR 14/01 A3029 RMK AO2 SLP242
     T01390006 56020=
####018000497####
SAPQ50 KWBC 272100
METAR
PKMR 272054Z 07013KT 5SM SHRA SCT014TCU BKN050 BKN120 OVC300 26/24
     A2980 RMK SHRAB44 TCU ALQDS SLP093 60007 8/878 T02620244
     52022=
PGSN 272054Z 06014KT 10SM SCT016 24/23 A2992 RMK AO2 SLP154 60000
     T02440228 53016=
PGUM 272054Z 07008KT 5SM -RA FEW031 SCT055 BKN070 26/23 A2991 RMK
     AO2 RAB46 SLP122 P0001 60001 T02560228 53014=
PGWT 272057Z 07013KT 7SM SCT010 BKN150 25/23 A2991=
PGWT 272057Z 07013KT 7SM SCT010 BKN150 25/23 A2991=
####018000121####
SAUS70 KWBC 272000 RRW
METAR
KU16 271958Z AUTO 21007KT 10SM BKN095 08/M03 A2973 RMK AO2 SLP705
     T00781033 $=
####018000189####
SAXX60 KWBC 272100 CCA
METAR
KNFL 272056Z 26030G38KT 7SM -RA SCT035 BKN060 BKN120 08/00 A2968
     RMK AO2 PK WND 25038/2054 RAB53 PRESRR SLP032 P0000 60000
     T00830000 55022=
####018000078####
SAUS70 KWBC 272200
METAR
KFTN 272150Z AUTO 02008KT 02/02 A3025 RMK AO1=
####018002073####
SAUS80 KWBC 272100 RRA
METAR
PHNL 272053Z 05003KT 10SM FEW030 SCT038 SCT050 SCT140 BKN240 28/18
     A2998 RMK AO2 SLP150 T02830183 50001=
PHOG 272054Z 35007KT 10SM FEW025 SCT050 28/18 A2999 RMK AO2 SLP161
     T02830183 50007 $=
PHTO 272053Z 12011KT 10SM FEW030 SCT100 SCT200 28/20 A2997 RMK AO2
     SLP147 T02830200 50000=
KACY 272054Z 32006KT 10SM CLR 01/M09 A3043 RMK AO2 SLP304
     T00061094 53013=
KGIC 272055Z AUTO 06005KT 10SM SCT032 07/M01 A2973 RMK AO1
     T00681007=
KO86 272050Z AUTO 16008KT 10SM SCT048 BKN050 BKN070 12/03 A2972
     RMK AO1=
KPTS 272055Z AUTO 10007KT 10SM BKN038 OVC044 M06/M16 A3053 RMK AO2
     T10611159=
KAYS 272055Z AUTO 06007KT 10SM CLR 13/04 A3031 RMK AO2
     T01310042=
KBIH 272056Z AUTO VRB03KT 10SM CLR 16/M08 A2961 RMK AO2 SLP003
     T01561078 58035=
KCIR 272055Z AUTO 05007KT 10SM CLR M03/M12 A3061 RMK AO2
     T10311117=
KCUL 272055Z AUTO 32005KT 10SM CLR M04/M10 A3063 RMK AO2
     T10451104=
KDVK 272055Z AUTO 04008KT 10SM CLR M06/M14 A3057 RMK AO2=
KEDU 272055Z AUTO 00000KT 10SM FEW070 18/06 A2975 RMK AO1=
KS39 272100Z AUTO 26005KT 10SM FEW017 FEW022 SCT049 05/01 A2966
     RMK AO2=
KSFO 272056Z 29019G25KT 10SM FEW013 SCT025 BKN029 16/09 A2984 RMK
     AO2 PK WND 27029/2024 SLP105 60000 T01610094 58016=
KSFY 272055Z AUTO 25007KT 10SM CLR M11/M20 A3062 RMK AO2
     T11081205=
KTKV 272055Z AUTO 00000KT 10SM CLR M08/M21 A3040 RMK AO2
     T10851215=
TJSJ 272056Z 09009KT 10SM FEW022 SCT033 BKN055 25/22 A3004 RMK AO2
     PK WND 09032/2015 RAB15E33 SLP171 VCSH SW-NW P0000 60000
     T02500217 55003=
KACY 272054Z 32006KT 10SM CLR 01/M09 A3043 RMK AO2 SLP304
     T00061094 53013=
KCHS 272056Z 11009KT 10SM BKN200 10/01 A3035 RMK AO2 SLP277
     T01000011 55007=
KSYR 272054Z 30011KT 10SM BKN031 BKN035 M08/M17 A3049 RMK SLP329
     T10781167 53012=
KBZN 272056Z 27005KT 10SM CLR M03/M12 A2986 RMK AO2 SLP171
     T10281117 58014=
KFLG 272057Z 23013KT 10SM BKN049 OVC055 04/M05 A2975 RMK AO2
     SLP062 T00391050 58023=
####018000259####
SPXX60 KWBC 272100
SPECI
KCOF 272055Z AUTO 34018G22KT 330V060 10SM -TSRA OVC007 13/13 A3017
     RMK AO2 LTG DSNT E RAE42DZB42E48RAB48E51RAB55 TSB48 $=
KEND 272053Z AUTO 06007KT 8SM BKN005 OVC043 M09/M13 A3048 RMK AO2
     SNB45E49 CIG 005V007 $=
####018000224####
SPUS80 KWBC 272100
SPECI
KDAL 272055Z 05010KT 2SM -SN BR SCT013 BKN018 OVC033 M02/M06 A3043
     RMK AO2 P0000 T10221056=
KSXT 272058Z AUTO VRB03KT 4SM BR SCT003 BKN007 OVC016 04/03 A2973
     RMK AO2 T00390028=
####018000630####
SAUS70 KWBC 272100 RRI
METAR
KVKY 272055Z AUTO 08021G26KT 10SM BKN026 11/05 A3026 RMK A01=
KVOA 272055Z AUTO 05019G25KT 10SM BKN027 12/06 A3025 RMK A01=
KVQT 272055Z AUTO 06017G25KT 8SM BKN018 OVC024 11/08 A3024 RMK
     A01=
KXIH 272055Z AUTO 08018KT 10SM OVC018 08/04 A3029 RMK A01=
KXPY 272055Z AUTO 04014G23KT 9SM OVC023 09/04 A3032 RMK A01=
KAPG 272055Z 30010KT 7SM FEW200 M01/M11 A3049=
PPIZ 272056Z AUTO CLR M16/M19 A3016 RMK AO2 TSNO 52009 T11611188
     SLP218 $=
KTTS 272058Z AUTO 36012G18KT 6SM -RA BR OVC007 13/11 A3019 RMK AO2
     DZE08RAB08 OVC V BKN SLP226 P0001 60001 T01280114 56009 $=
####018000145####
SPUS70 KWBC 272100
SPECI
KDRO 272056Z AUTO 00000KT 1 3/4SM -SN BR FEW010 BKN016 OVC025
     M02/M04 A2979 RMK AO2 SNB54 P0000 T10171039=
####018000097####
SPCN31 KWBC 272100
SPECI
CYKL 272058Z AUTO 28012G19KT 9SM OVC035 M26/M34 A2967 RMK SLP118=
####018000411####
SAAW34 KWBC 272045 RRB
METAR
OPGD 272100Z NIL=
OPKC 272055Z 16005KT 5000 TSRA FEW020CB BKN025 OVC090 16/10 Q1013
     TEMPO TSRA SCT020CB=
OPLA 272055Z 00000KT 4000 FU NSC 14/10 Q1016 NOSIG=
OPNH 272100Z 36004KT 3000M FU SCT035 BKN100 15/09 Q1011=
OPPS 272100Z 23006KT 4000 HZ FEW250 10/03 Q1016.7=
OPPS 272100Z NIL=
OPRN 272100Z 00000KT 6000 FEW100 10/05 Q1017.2/30.03=
OPSK 272100Z NIL=
####018000111####
SAGR31 KWBC 272050 RRB
METAR
LGKR 272050Z 27003KT 9999 FEW018TCU BKN035 OVC080 11/09 Q1007
     NOSIG=
####018000196####
SAGR41 KWBC 272050 RRB
METAR
LGPZ 272050Z 00000KT 9999 FEW012 FEW020TCU SCT025 OVC080 10/08
     Q1008 BLU=
LGRX 272050Z 05004KT 8000 -RA FEW020TCU BKN025 OVC080 10/10 Q1007
     BLU=
####018000081####
SAMM31 KWBC 272030 RRB
METAR
LCRA 272050Z 30002KT CAVOK 13/11 Q1012 NOSIG=
####018000316####
SAMX31 KWBC 272045 RRD
METAR
MMGL 272054Z 30019KT 10SM SCT300 27/M14 A3000 RMK SLP055 57031 951
     8/002 VSBY 3/4 SM W FU=
MMPR 272048Z 22010KT 15SM SCT250 25/19 A2985 RMK SLP106 57015 905
     8/001 SC-NW=
MMTM 272055Z 36010KT 7SM SCT030 BKN050 OVC070 20/14 A3008 RMK
     SLP184 52030 930 8/57/=
####018000244####
SAMX41 KWBC 272045 RRD
METAR
MMAS 272046Z 22010G20KT 13SM SCT220 24/M17 A3005 RMK 8/002=
MMGL 272054Z 30019KT 10SM SCT300 27/M14 A3000 RMK SLP055 57031 951
     8/002 VSBY 3/4 SM W FU=
MMGM 272058Z RTD 15008KT 10SM SKC 23/14 A2976=
####018000092####
SAMX42 KWBC 272045 RRB
METAR
MMZC 272046Z 24012KT 10SM BKN200 23/M08 A3006 RMK 8/002=
####018000383####
SANL31 KWBC 272050 RRB
METAR
EHAM 272055Z 22008KT 9999 FEW020 02/M00 Q1021 NOSIG=
EHBK 272055Z AUTO 27003KT 240V300 9999 NCD 02/M01 Q1021 NOSIG=
EHEH 272055Z AUTO 24004KT 9999 NCD 01/M00 Q1022 BLU 28005KT
     CAVOK=
EHEH 272055Z NIL=
EHGG 272055Z AUTO 24004KT 9999 NSC 00/M00 Q1019 NOSIG=
EHKD 272055Z NIL=
EHRD 272055Z AUTO 22004KT 9999 NCD 01/M00 Q1021 NOSIG=
####018001590####
SAUS17 KAWN 272100 RRC
METAR KBIX 272058Z AUTO 04008KT 10SM CLR 14/M01 A3028 RMK AO2 SLP257
      T01351009 57026=
METAR KBKF 272058Z 35007KT 10SM FEW070 SCT110 M09/M15 A2988 RMK AO2A
      SLP182 T10861146 57022=
METAR KBYH 272055Z 03010KT 10SM BKN028 M04/M09 A3058=
METAR KCBM 272058Z AUTO 06009KT 10SM CLR 05/M08 A3043 RMK AO2 SLP309
      T00491080 57024 $=
METAR KEND 272058Z AUTO 05007KT 8SM BKN007 OVC042 M09/M13 A3048 RMK
      AO2 SNB45E49 CIG 005V007 SLP345 P0000 60000 57015 $=
METAR KFSI 272058Z AUTO 06008KT 8SM -SN FEW017 BKN025 OVC033 M07/M11
      A3043 RMK AO2 SNE29UPB29E33SNB33E35UPB35E37SNB37 CIG 022V033
      SLP321 P0000 60000 T10741107 57018=
METAR KGRF 272058Z 35006KT 4SM -RA FEW004 OVC034 09/09 A2973 RMK AO2A
      SLP072 P0007 60012 T00880086 50001 $=
METAR KHIF 272058Z 17005KT 10SM BKN035 BKN070 04/M05 A2973 RMK AO2A
      SLP067 60000 57022=
METAR KHST 272058Z AUTO 07010KT 10SM CLR 26/21 A3007 RMK AO2 SLP186
      60000 T02560207 57011=
METAR KLSF 272058Z AUTO 35007KT 10SM CLR 14/M02 A3031 RMK AO2 SLP268
      T01371025 56018=
METAR KLTS 272058Z AUTO 05009KT 3SM -SN BKN014 OVC020 M07/M09 A3043
      RMK AO2 SLP324 P0000 60001 T10701094 57022 $=
METAR KLUF 272058Z 20008G16KT 10SM CLR 23/M01 A2966 RMK AO2A SLP038
      T02281008 57031 $=
METAR KMCC 272055Z AUTO 15009KT 10SM SCT039 18/08 A2976 RMK AO2=
METAR KMXF 272058Z AUTO 34008KT 10SM CLR 10/M02 A3035 RMK AO2 SLP281
      T01031019 57016=
METAR KNUQ 272056Z 30007KT 10SM SCT037 SCT044 17/08 A2984 RMK AO2 SLP106
      T01670078 58020=
####018001586####
SAZZ40 KAWN 272100 RRJ
METAR KBIX 272058Z AUTO 04008KT 10SM CLR 14/M01 A3028 RMK AO2 SLP257
      T01351009 57026=
METAR KBKF 272058Z 35007KT 10SM FEW070 SCT110 M09/M15 A2988 RMK AO2A
      SLP182 T10861146 57022=
METAR KBYH 272055Z 03010KT 10SM BKN028 M04/M09 A3058=
METAR KCBM 272058Z AUTO 06009KT 10SM CLR 05/M08 A3043 RMK AO2 SLP309
      T00491080 57024 $=
METAR KEND 272058Z AUTO 05007KT 8SM BKN007 OVC042 M09/M13 A3048 RMK
      AO2 SNB45E49 CIG 005V007 SLP345 P0000 60000 57015 $=
METAR KGRF 272058Z 35006KT 4SM -RA FEW004 OVC034 09/09 A2973 RMK AO2A
      SLP072 P0007 60012 T00880086 50001 $=
METAR KHST 272058Z AUTO 07010KT 10SM CLR 26/21 A3007 RMK AO2 SLP186
      60000 T02560207 57011=
METAR KLSF 272058Z AUTO 35007KT 10SM CLR 14/M02 A3031 RMK AO2 SLP268
      T01371025 56018=
METAR KPOB 272058Z AUTO 34004KT 10SM CLR 11/M02 A3036 RMK AO2 SLP285
      T01051025 55003=
METAR KRND 272058Z 02013G18KT 10SM OVC016 02/M04 A3027 RMK AO2A SLP256
      60000 T00151037 57021=
METAR KSGH 272056Z AUTO 33008KT 8SM BKN041 M08/M17 A3058 RMK AO2 55001
      T10771166 BKN V SCT SLP378=
METAR KTBN 272058Z AUTO VRB02KT 10SM BKN075 OVC095 M07/M18 A3051 RMK
      AO2 SLP357 T10691184 57019=
METAR KWJF 272056Z 22018G27KT 10SM FEW040 16/06 A2974 RMK AO2 PK WND
      25029/2007 SLP066 T01560061 58022=
METAR MGGT 272100Z 36012KT 9999 FEW020 26/11 Q1021 A3015 FEW080=
METAR TJSJ 272056Z 09009KT 10SM FEW022 SCT033 BKN055 25/22 A3004 RMK
      AO2 PK WND 09032/2015 RAB15E33 SLP171 VCSH SW-NW P0000 60000
      T02500217 55003=
####018000113####
SAUK41 KWBC 272050 RRA
METAR
EGDR 272050Z 19015G27KT 4000 -DZ SCT007 BKN010 OVC024 07/06 Q1016
     GRN=
####018000099####
SAUK42 KWBC 272050 RRA
METAR
EGQM 272050Z AUTO 17013KT 9999 FEW041/// BKN100/// 05/02 Q1010=
####018000080####
SACS31 MROC 272058
METAR
MRLM 272100Z 07006KT 9999 SCT025 29/23 A2985=
####018000125####
SAXX99 KWBC 272000 RRX
METAR
ROTM 271958Z COR 10014KT 9000 DZ BR OVC015 17/17 A3009 RMK SLP176
     P0000 T01700166=
####018000083####
SPCN44 CWAO 272059
SPECI CYUS 272059Z AUTO 21022KT 1/8SM OVC015 M19/ A2927=

####018000115####
SPCN48 CWAO 272059
SPECI CYAH 272059Z AUTO 26007KT 4SM HZ SCT021 BKN026 OVC036 M22/M27
 A2986 RMK SLP153=

####018000075####
SAEG31 HECA 272100
METAR HECA 272100Z 30004KT CAVOK 17/07 Q1017 NOSIG=
####018000077####
SANL42 EHDB 272055
METAR EHFS 272055Z AUTO 20007KT 9999 NCD 04/02 Q1021=
####018000594####
SATU33 LTAA 272050
METAR LTAR 272050Z 17019KT CAVOK 02/M05 Q1016=
METAR LTAY 272050Z VRB04KT 9999 -TSRA FEW020CB BKN030 BKN090 06/03 Q1010=
METAR LTBY 272050Z 15004KT 9999 BKN040 08/05 Q1009=
METAR LTBZ 272050Z 18015G27KT 9999 -SHRA SCT035 BKN100 08/03 Q1009=
METAR LTCA 272050Z VRB03KT CAVOK 01/M02 Q1019 NOSIG=
METAR LTCD 272050Z 12008KT CAVOK 05/M05 Q1018 NOSIG=
METAR LTCF 272050Z 32003KT CAVOK M13/M15 Q1023=
METAR LTCI 272050Z 09001KT CAVOK M02/M03 Q1022 NOSIG=
METAR LTDA 272050Z 05009KT CAVOK 13/07 Q1016=
METAR LTFH 272050Z VRB01KT 8000 SCT036 06/05 Q1009 NOSIG=
####018000099####
SPUS42 KWBC 272100
SPECI
KDAL 272055Z 05010KT 2SM -SN BR SCT013 BKN018 OVC033 M02/M06 A3043=
####018000095####
SAPH RPLC 272100 COR
METAR RPLC 272100Z
28004KT 9999 SCT020 OVC100 24/19 Q1014 N6SIG A2996
####018000684####
SAUS20 KNKA 272059
METAR KBCT 272053Z 02009KT 10SM OVC008 20/18 A3011=
METAR KCFE 272045Z AUTO 21005KT 10SM CLR M10/M18 A3051 RMK AO2=
METAR KDMA 272058Z AUTO 21011G21KT 170V240 10SM CLR 22/M04 A2972 RMK
 AO2 SLP040 T02241036 57031 $=
METAR KHFF 272056Z AUTO 36007KT 10SM CLR 10/M02 A3039 RMK AO2 SLP296
      T01001022 55005=
METAR KJQF 272052Z 36005KT 10SM CLR 08/M02 A3040=
METAR KNBG 272055Z 06011KT 10SM FEW250 12/M01 A3030 RMK AO2 SLP259
 T01221011 56020 $=
METAR KNSE 272056Z 03011KT 10SM SCT250 14/M02 A3028 RMK AO2 SLP243
 T01441017 56022 $=
METAR KVAD 272058Z AUTO 03010KT 10SM SCT032 BKN180 BKN200 12/04 A3029
 RMK AO2 SLP260 T01150039 55012 $=
