####018000084####
SAUS90 KWBC 272000 RRD
METAR KMWS 272000Z 24004G05KT 10/07 RMK SNOW DEPTH 1.00=
####018000629####
SAXN17 KAWN 272000 RRG
METAR AGGH 272000Z 27002KT 9999 HZ FEW016 FEW018CB SCT300 25/24 Q1006=
METAR AYPY 272000Z 00000KT 9999 FEW016 SCT040 BKN130 24/23 Q1007=
METAR MYGF 272000Z 02010KT 9999 VCSH SCT018TCU BKN250 25/24 A3006 RMK
      TCU/VCSH SE=
METAR MYNN 272000Z 17004KT 9999 FEW016CB FEW018TCU 29/20 A3006 CB AND
      TCU/W TRU N=
METAR RCKH 272000Z 02004KT 340V050 4200 BR FEW012 SCT025 20/18 Q1016
      NOSIG RMK A3001=
METAR RCTP 272000Z 03011KT 9999 SCT003 BKN006 BKN012 16/14 Q1019 NOSIG
      RMK A3010=
METAR SKCL 272000Z 33013KT 9000 SCT020TCU SCT300 32/18 A2984 RMK TCU/
      NE/E HZ=
####018000201####
SPNA14 KAWN 272015 RRA
SPECI KNSI 272008Z AUTO 31026G35KT 10SM OVC013 A2986 RMK AO2 PK WND
      32035/2005 $=
SPECI KTIK 272011Z AUTO VRB06KT 1 1/4SM -SN OVC009 M08/M11 A3046 RMK
      AO2=
####018000139####
SAAK41 KNKA 272014
SPECI PFKT 272013Z AUTO 18021G32KT 7SM BKN008 OVC029 00/M01 A3007 
 RMK AO2 PK WND 19032/2006 CIG 007V013 FZRANO=
####018000757####
SAUS20 KNKA 272014
METAR KBBP 272015Z AUTO 36003KT 10SM CLR 12/M02 A3034 RMK AO2=
METAR KFOZ 272013Z AUTO 22007KT 10SM CLR M06/M21 A3033 RMK AO2=
SPECI KLHX 272013Z AUTO 14016KT 10SM M06/M12 A3004 RMK AO2 T10611117=
METAR KLKR 272015Z AUTO 11003KT 10SM CLR 10/M03 A3033 RMK AO2=
METAR KMAO 272035Z AUTO 00000KT 10SM CLR 11/M01 A3036 RMK AO2=
METAR KN03 272015Z AUTO 29010KT 10SM CLR M09/M17 A3042 RMK AO2=
SPECI KRBD 272013Z 05008KT 1 1/2SM -SN BR SCT009 BKN015 OVC050 
 M03/M05 A3041 RMK AO2 P0000 T10331050=
METAR KRZR 272015Z AUTO 04005KT 10SM CLR 01/M08 A3045 RMK=
SPECI KVTA 272013Z AUTO 27003KT 2SM -SN SCT024 OVC040 M08/M13 A3057 
    RMK AO2 P0000 T10831128=
METAR KXVG 272016Z AUTO 23008KT 10SM CLR M07/M22 A3037 RMK AO2=
####018000110####
SPCN31 CWAO 272015
SPECI CYFC 272015Z AUTO 26010G18KT 220V290 6SM -SN CLR M07/M20 A3021
 RMK SLP232=

####018000088####
SAUS46 KLOX 272015
MTRMWS
METAR KMWS 272000Z 24004G05KT 10/07 RMK SNOW DEPTH 1.00
####018000120####
SPCN42 CWAO 272015
SPECI CYVL 272015Z AUTO 26009KT 2 1/2SM -SN FEW017 BKN026 OVC034
 M05/M06 A2996 RMK SLP170=

####018000112####
SPCN52 CWAO 272015
SPECI CZUM 272015Z AUTO 27011G16KT 8SM -SN BKN032 OVC038 M23/M29
 A2970 RMK SLP117=

####018000411####
SPUS99 KWBC 272016
SPECI
PFKT 272013Z AUTO 18021G32KT 7SM BKN008 OVC029 00/M01 A3007 RMK
     AO2 PK WND 19032/2006 CIG 007V013 FZRANO=
KLHX 272013Z AUTO 14016KT 10SM M06/M12 A3004 RMK AO2 T10611117=
KRBD 272013Z 05008KT 1 1/2SM -SN BR SCT009 BKN015 OVC050 M03/M05
     A3041 RMK AO2 P0000 T10331050=
KVTA 272013Z AUTO 27003KT 2SM -SN SCT024 OVC040 M08/M13 A3057 RMK
     AO2 P0000 T10831128=
####018000441####
SAUS99 KWBC 272016
METAR
KBBP 272015Z AUTO 36003KT 10SM CLR 12/M02 A3034 RMK AO2=
KFOZ 272013Z AUTO 22007KT 10SM CLR M06/M21 A3033 RMK AO2=
KLKR 272015Z AUTO 11003KT 10SM CLR 10/M03 A3033 RMK AO2=
KMAO 272035Z AUTO 00000KT 10SM CLR 11/M01 A3036 RMK AO2=
KN03 272015Z AUTO 29010KT 10SM CLR M09/M17 A3042 RMK AO2=
KRZR 272015Z AUTO 04005KT 10SM CLR 01/M08 A3045 RMK=
KXVG 272016Z AUTO 23008KT 10SM CLR M07/M22 A3037 RMK AO2=
####018000097####
SPAF31 KWBC 272016
SPECI
DIAP 272014Z 21004KT 9000 FEW012 FEW020CB 27/26 Q1011 RETS NOSIG=
####018000854####
SPXX60 KWBC 272016
SPECI
KDMA 272008Z AUTO 22015G23KT 10SM CLR 22/M03 A2974 RMK AO2 WSHFT
     1958=
KAFF 272013Z AUTO 15009KT 5SM -SN OVC017 M12/M16 A2986 RMK AO2=
KDLF 272013Z AUTO 10005KT 5SM HZ BKN009 OVC016 02/00 A3026 RMK AO2
     CIG 007V015 BKN V SCT $=
KEND 272013Z AUTO 08008KT 8SM SCT006 BKN043 BKN180 M09/M13 A3048
     RMK AO2=
KFSI 272013Z AUTO 06008KT 10SM -SN SCT012 OVC020 M07/M10 A3044 RMK
     AO2 CIG 015V020=
KGRF 272010Z 05004KT 2 1/2SM -RA BR OVC005 09/08 A2974 RMK AO2A
     TWR VIS 1 1/2 VIS 2 1/2V4=
KGRK 272013Z AUTO 04010KT 10SM OVC014 M02/M05 A3034 RMK AO2=
KHIF 272013Z VRB05KT 10SM FEW033 SCT042 OVC085 04/M05 A2976 RMK
     AO2A=
KIAB 272013Z AUTO VRB05KT 2SM -SN OVC017 M09/M13 A3051 RMK AO2=
PACZ 272013Z AUTO 18026G30KT 1 1/2SM -FZDZ BR OVC002 M01/M01 A3009
     RMK AO2 SLP197 $=
####018000152####
SPUS80 KWBC 272016
SPECI
PAQT 272012Z AUTO 28024KT 1 1/4SM BLSN OVC042 M09/M13 A3015 RMK
     AO2 PK WND 27030/2001 UPE1954 T10941128 TSNO PNO=
####018000086####
SAUS80 KWBC 272000 RRD
METAR
KMWS 272000Z 24004G05KT 10/07 RMK SNOW DEPTH 1.00=
####018000458####
SPUS70 KWBC 272016
SPECI
KAAO 272013Z AUTO 13005KT 3SM -SN SCT022 BKN027 OVC039 M09/M13
     A3051 RMK AO2 P0000 T10891133=
KMRY 272012Z 27013G16KT 10SM BKN017 16/10 A2990 RMK AO2=
KLHX 272013Z AUTO 14016KT 10SM M06/M12 A3004 RMK AO2 T10611117=
KRBD 272013Z 05008KT 1 1/2SM -SN BR SCT009 BKN015 OVC050 M03/M05
     A3041 RMK AO2 P0000 T10331050=
KVTA 272013Z AUTO 27003KT 2SM -SN SCT024 OVC040 M08/M13 A3057 RMK
     AO2 P0000 T10831128=
####018000441####
SAUS70 KWBC 272016
METAR
KBBP 272015Z AUTO 36003KT 10SM CLR 12/M02 A3034 RMK AO2=
KFOZ 272013Z AUTO 22007KT 10SM CLR M06/M21 A3033 RMK AO2=
KLKR 272015Z AUTO 11003KT 10SM CLR 10/M03 A3033 RMK AO2=
KMAO 272035Z AUTO 00000KT 10SM CLR 11/M01 A3036 RMK AO2=
KN03 272015Z AUTO 29010KT 10SM CLR M09/M17 A3042 RMK AO2=
KRZR 272015Z AUTO 04005KT 10SM CLR 01/M08 A3045 RMK=
KXVG 272016Z AUTO 23008KT 10SM CLR M07/M22 A3037 RMK AO2=
####018000089####
SAAF34 KWBC 272000 RRC
METAR
FYWB 272000Z AUTO 35005KT //// // ////// 14/11 Q1014=
####018000099####
SPAK32 KWBC 272016
SPECI
PACZ 272013Z AUTO 18026G30KT 1 1/2SM -FZDZ BR OVC002 M01/M01 A3009=
####018000137####
SAAU31 KWBC 272000 RRB
METAR
YSCB 272000Z 10004KT CAVOK 15/14 Q1011 NOSIG=
YSRI 272000Z AUTO 00000KT 0450 // OVC002 19/19 Q1010=
####018000108####
SPCN31 KWBC 272016
SPECI
CYFC 272015Z AUTO 26010G18KT 220V290 6SM -SN CLR M07/M20 A3021 RMK
SLP232=
####018000119####
SACA31 KWBC 272000 RRB
METAR
MYNN 272000Z 17004KT 9999 FEW016CB FEW018TCU 29/20 A3006 CB AND
     TCU/W TRU N=
####018000123####
SPJP31 KWBC 272016
SPECI
RODN 272013Z AUTO 09011KT 8SM R05/5500FT BKN009 BKN016 18/15 A3007
RMK AO2 CIG 009V017 $=
####018000097####
SPNL31 KWBC 272016
SPECI
EHEH 272008Z AUTO 26004KT 9999 NCD 02/00 Q1021 BLU 28005KT CAVOK=
####018000086####
SPNL31 KWBC 272016
SPECI
EHKD 272012Z AUTO 25007KT 9999 FEW022 03/01 Q1020 BLU=
####018000165####
SAIY41 KWBC 271950 RRC
METAR
LIED 271955Z 35001KT 9999 FEW010 SCT030 10/09 Q1012 RMK BKN BKN200
     VIS MIN 9999 WIND THR35 14002KT WIND THR17 01003KT BLU=
####018000127####
SAIY42 KWBC 271950 RRC
METAR
LIMH 271955Z /////KT CAVOK M14/M15 Q1007 RMK SKC MON LIB VAL N MAR
     CLD VIS MIN 9999=
####018000188####
SAIY43 KWBC 271950 RRC
METAR
LIQC 271955Z ///05KT 9999 SCT020 BKN030 11/06 Q1010 RMK OVC QUK /
     QUL / VIS MAR 20 KM VIS MIN 9999=
LIRK 271955Z AUTO 36000KT //// 00/00 Q0000=
####018000108####
SPNL31 KWBC 272016
SPECI
EHKD 272011Z AUTO 25007KT 9999 FEW019 03/01 Q1020 BLU 28008KT 9999
SCT025=
####018000095####
SANO41 KWBC 271950 RRC
METAR
ENHV 271950Z 21017KT 9999 -RASN FEW016 BKN022 02/M01 Q0998=
####018000095####
SAPA31 KWBC 272000 RRC
METAR
AYPY 272000Z 00000KT 9999 FEW016 SCT040 BKN130 24/23 Q1007=
####018000087####
SASA31 KWBC 272000 RRB
METAR
SVMI 272000Z 05004KT 9999 FEW023 31/25 Q1013 NOSIG=
####018000081####
SASD42 KWBC 272000 RRB
METAR
OEKK 272000Z 32005KT CAVOK 10/02 Q1020 NOSIG=
####018000123####
SPXX62 KWBC 272016
SPECI
RODN 272013Z AUTO 09011KT 8SM R05/5500FT BKN009 BKN016 18/15 A3007
RMK AO2 CIG 009V017 $=
####018000083####
SAXX62 KWBC 272000 RRA
METAR
RKSM 272000Z 15001KT 9999 BKN200 M02/M07 A3042=
####018000251####
SAXX99 KWBC 272000 RRM
METAR
CZEV 272000Z AUTO 27007KT M02/M08 RMK AO1 SOG 41 3009 SLP182
     T10221080=
CZFS 272000Z AUTO 14002KT M10/M14 RMK AO1 SOG 46 8012 SLP239
     T10971135=
FYOW 272000Z AUTO 23003KT //// // ////// 24/07 Q1016=
####018000094####
SAZA31 KWBC 272000 RRA
METAR
FABL 272000Z AUTO 12009KT 090V150 9999 ////// 19/10 Q1021=
####018000084####
SAIN32 VIDP 272000
METAR VIDP 272000Z 02004KT 3500 HZ FEW100 17/08 Q1014 NOSIG=
####018000847####
SAAR20 OEJD 272000
METAR OBBI 272000Z NIL=
METAR OKBK 272000Z 27005KT CAVOK 13/00 Q1017 NOSIG=
METAR OMAA 272000Z 36007KT CAVOK 18/10 Q1015 A2997 NOSIG=
METAR OMAD 272000Z 02006KT CAVOK 19/13 Q1015 A2998 NOSIG=
METAR OMAL 272000Z 34007KT CAVOK 15/03 Q1015 A2998 NOSIG=
METAR OMDB 272000Z 01006KT 340V060 CAVOK 20/08 Q1015 NOSIG=
METAR OMFJ 272000Z 35006KT 310V090 8000 NSC 19/09 Q1015 A2998=
METAR OMRK 272000Z 22004KT CAVOK 15/09 Q1015 A2998=
METAR OMSJ 272000Z 34002KT CAVOK 17/09 Q1015=
METAR OOBR 272000Z NIL=
METAR OOKB 272000Z NIL=
METAR OOMS 271950Z 02009KT 350V060 6000 SCT025 SCT100 20/10 Q1014
NOSIG=
METAR OOSA 272000Z NIL=
METAR OOSH 272000Z NIL=
METAR OOSQ 272000Z NIL=
METAR OOSR 272000Z NIL=
METAR OOTH 272000Z NIL=
METAR OOYB 272000Z NIL=
METAR OTBD 272000Z NIL=
METAR OTHH 272000Z NIL=
####018000131####
SAAR20 OEJD 272000 RRA
METAR OYAA 272000Z 11007KT 6000 NSC 25/19 Q1014=
METAR OYSN 272000Z VRB02KT CAVOK 14/M08 Q1028 NOSIG=
####018000091####
SAAF20 LFPW 272000 RRB
METAR FABL 272000Z AUTO 12009KT 090V150 9999 ////// 19/10 Q1021=
####018002982####
SAUS20 KNKA 272015
METAR K04W 272014Z AUTO 22006KT 10SM CLR M08/M18 A3045 RMK AO2=
METAR K14Y 272018Z AUTO 23005KT 10SM CLR M09/M18 A3044 RMK AO2=
METAR K21D 272010Z AUTO 22008KT 10SM CLR M08/M16 A3051 RMK AO2=
METAR K9MN 272014Z AUTO 28008KT 10SM CLR M11/M18 A3052 RMK AO1
     T11141182=
METAR KAEL 272012Z AUTO 23005KT 10SM CLR M13/M18 A3052 RMK AO2=
METAR KAIT 272013Z AUTO 24008KT 10SM CLR M07/M25 A3039 RMK AO2=
METAR KAQP 272014Z AUTO 25005KT 10SM CLR M08/M19 A3048 RMK AO2=
METAR KAXV 272011Z AUTO 33005KT 10SM CLR M07/M17 A3059 RMK AO2=
METAR KBBB 272014Z AUTO 24004KT 10SM CLR M09/M19 A3048 RMK AO2=
METAR KBFW 272014Z AUTO 25006KT 10SM CLR M05/M23 A3034 RMK AO2=
METAR KBJI 272012Z AUTO 27008KT 10SM CLR M09/M21 A3036 RMK AO2
 T10941209=
METAR KCVH 272010Z AUTO 29007KT 10SM FEW026 BKN035 BKN043 17/12
 A2986 RMK AO1=
METAR KD39 272012Z AUTO 27010KT 10SM CLR M10/M19 A3045 RMK AO2
 T11011193=
METAR KD95 272013Z AUTO 27009KT 10SM CLR M09/M18 A3052 RMK AO2
 T10921185=
METAR KDLZ 272027Z AUTO 31008KT 10SM CLR M09/M19 A3058 RMK AO2=
METAR KDVP 272013Z AUTO 24004KT 10SM CLR M11/M18 A3045 RMK AO2
 T11151184=
METAR KDXX 272014Z AUTO 25004KT 10SM CLR M09/M19 A3048 RMK AO2=
METAR KDYT 272013Z AUTO 21012KT 10SM CLR M07/M19 A3044 RMK AO2=
METAR KELO 272012Z AUTO 25005KT 10SM CLR M08/M24 A3031 RMK AO2=
METAR KEVM 272012Z AUTO 25007KT 10SM CLR M08/M21 A3035 RMK AO2=
METAR KFBL 272014Z AUTO 21005KT 10SM CLR M12/M18 A3052 RMK AO2=
METAR KFFM 272014Z AUTO 28007KT 10SM CLR M10/M19 A3048 RMK AO2=
METAR KFGN 272014Z AUTO 25013KT 10SM CLR M08/M22 A3028 RMK AO2=
METAR KFKA 272015Z AUTO 27006KT 10SM CLR M14/M20 A3053 RMK AO2
     T11451205=
METAR KGDB 272013Z AUTO 23004KT 7SM CLR M10/M17 A3051 RMK AO2
 T10981166=
METAR KGHW 272013Z AUTO 25007KT 10SM CLR M10/M19 A3044 RMK AO2=
METAR KGYL 272014Z AUTO 24005KT 10SM CLR M11/M17 A3051 RMK AO2
 T11081166=
METAR KHCD 272012Z AUTO 25006KT 10SM CLR M11/M17 A3051 RMK AO2
 T11061173=
METAR KHZX 272008Z AUTO 23006KT 10SM CLR M07/M20 A3041 RMK AO2=
METAR KI69 272016Z AUTO 33003KT 10SM BKN046 M05/M17 A3058 RMK AO1=
METAR KIKW 272013Z AUTO 26009KT 10SM SCT037 M07/M16 A3050 RMK AO2
 T10741165=
METAR KIMS 272012Z AUTO 00000KT 10SM CLR M05/M20 A3060 RMK AO1=
METAR KJKJ 272012Z AUTO 24008KT 10SM CLR M08/M19 A3044 RMK AO2=
METAR KJMR 272015Z AUTO 23006KT 10SM CLR M08/M18 A3047 RMK AO2=
METAR KLJF 272013Z AUTO 24004KT 10SM CLR M11/M18 A3049 RMK AO2=
METAR KLXL 272014Z AUTO 22007KT 193V263 10SM CLR M08/M21 A3045 RMK
 AO2=
METAR KLYV 272016Z AUTO 20004KT 10SM CLR M10/M17 A3048 RMK AO2=
METAR KMDS 272010Z AUTO 20006KT 10SM CLR M11/M17 A3042 RMK AO2=
METAR KMGG 272016Z AUTO 25005KT 10SM CLR M09/M16 A3050 RMK AO2
     T10891165=
METAR KMJQ 272013Z AUTO 22005KT 10SM CLR M11/M17 A3049 RMK AO2=
METAR KMOX 272013Z AUTO 20005KT 10SM CLR M09/M18 A3045 RMK AO2=
METAR KMQJ 272015Z AUTO 27006KT 10SM CLR M06/M24 A3058 RMK AO1=
####018000078####
SACH11 SCSC 272000 RRB
METAR SCSE 272000Z 26009KT 9999 FEW012 21/12 Q1014=
####018000078####
SACH11 SCSC 272000 RRC
METAR SCEL 272000Z 15012KT CAVOK 28/10 Q1012 NOSIG=
####018000092####
SPUS81 KWBC 272016
SPECI
PAQT 272012Z AUTO 28024KT 1 1/4SM BLSN OVC042 M09/M13 A3015=
####018000109####
SACA01 KMSC 272015
METAR MYNN 272000Z 17004KT 9999 FEW016CB FEW018TCU 29/20 A3006 CB AND
 TCU/W TRU N=
####018002331####
SAUS20 KNKA 272015
METAR KMRT 272013Z AUTO 35005KT 10SM CLR M09/M20 A3057 RMK AO2
     T10921196=
METAR KMVE 272014Z AUTO 00000KT 10SM CLR M06/M14 A3049 RMK AO2=
METAR KMWM 272014Z AUTO 00000KT 10SM CLR M11/M17 A3048 RMK AO2=
METAR KONA 272016Z AUTO 23007KT 10SM CLR M10/M18 A3057 RMK AO2=
METAR KONZ 272014Z AUTO 22007KT 10SM CLR M08/M19 A3055 RMK AO2=
METAR KORB 272013Z AUTO 00000KT 10SM CLR M07/M25 A3030 RMK AO2=
METAR KOSC 272013Z AUTO 26009G14KT 10SM SCT049 M07/M17 A3045 RMK
 AO2 T10701172=
METAR KOVL 272013Z AUTO 24004KT 10SM CLR M10/M17 A3049 RMK AO2=
METAR KOWA 272015Z AUTO 23005KT 10SM CLR M13/M19 A3052 RMK AO2=
METAR KPCW 272012Z AUTO 21011KT 10SM CLR M09/M18 A3058 RMK AO2 $=
METAR KPEX 272014Z AUTO 17005KT 10SM CLR M11/M21 A3047 RMK AO2
 T11141208=
METAR KPNM 272014Z AUTO 19005KT 10SM CLR M08/M18 A3047 RMK AO2=
METAR KPOV 272016Z AUTO 00000KT 10SM OVC039 M09/M19 A3052 RMK AO2
 T10941195=
METAR KPQN 272014Z AUTO 26006KT 10SM CLR M12/M18 A3043 RMK AO2=
METAR KPWC 272014Z AUTO 20005KT 10SM CLR M09/M19 A3041 RMK AO2=
METAR KRMY 272013Z AUTO 23007KT 10SM SCT044 M09/M19 A3053 RMK AO2
 T10951189=
METAR KROS 272015Z AUTO 23006KT 10SM CLR M09/M19 A3048 RMK AO2
 T10881193=
METAR KROX 272014Z AUTO 24009KT 10SM CLR M11/M18 A3034 RMK AO2=
METAR KRRT 272014Z AUTO 23012G15KT 10SM CLR M11/M19 A3033 RMK AO2=
METAR KRZT 272015Z AUTO 32011KT 10SM CLR M07/M17 A3060 RMK AO2=
METAR KSAZ 272013Z AUTO 28005KT 10SM CLR M09/M19 A3041 RMK AO2=
METAR KSGS 272010Z AUTO 22006KT 10SM CLR M09/M18 A3052 RMK AO2
     T10921179=
METAR KSYM 272010Z AUTO VRB04G10KT 10SM CLR M06/M15 A3058 RMK AO2=
METAR KSYN 272014Z AUTO 25006KT 10SM CLR M11/M18 A3052 RMK AO2
 T11081185=
METAR KTEW 272014Z AUTO 24007KT 10SM SCT041 M08/M19 A3053 RMK AO2
 T10851188=
METAR KTKC 272011Z AUTO 26005KT 10SM CLR M10/M18 A3047 RMK AO2
 T10961176=
METAR KTOB 272014Z AUTO 24007KT 10SM CLR M14/M18 A3050 RMK AO2=
METAR KTWM 272014Z AUTO 24008KT 10SM CLR M06/M18 A3035 RMK AO2=
METAR KULM 272014Z AUTO 30004KT 10SM CLR M12/M19 A3052 RMK AO2=
METAR KVVV 272014Z AUTO 22005KT 10SM CLR M09/M20 A3046 RMK AO2=
METAR KY63 272014Z AUTO 24005KT 10SM CLR M12/M18 A3045 RMK AO2
     T11211176=
METAR KY70 272013Z AUTO 25009KT 10SM OVC039 M07/M15 A3052 RMK AO2
     T10721154=
####018000589####
SACH11 SCSC 272000 RRD
METAR
SCAR 272000Z 21011KT CAVOK 26/15 Q1011=
METAR SCBA 272000Z 30021KT CAVOK 28/05 Q1010=
METAR SCCF 272000Z 25022KT 9999 SCT060TCU FEW300 22/08 Q1023=
METAR SCCI 272000Z 29024KT 9999 FEW045 SCT200 21/10 Q0998 NOSIG=
METAR SCDA 272000Z 21015KT CAVOK 27/14 Q1012=
METAR SCEL 272000Z 15012KT CAVOK 28/10 Q1012 NOSIG=
METAR SCFA 272000Z 19010KT 160V220 9999 FEW040 23/12 Q1012 NOSIG=
METAR SCIE 272000Z 22009KT 190V250 CAVOK 21/13 Q1014=
METAR SCIP 272000Z 08011KT 9999 SCT020 26/17 Q1020 NOSIG=
METAR SCTE 272000Z 14008KT 5000 FU SKC 23/13 Q1013 NOSIG=
####018000078####
SACH11 SCSC 272000 RRE
METAR SCSE 272000Z 26009KT 9999 FEW012 21/12 Q1014=
####018000073####
SAAL41 DAMM 272000 RRC
METAR DAUI 272000Z 18008KT CAVOK 18/M01 Q1021=
####018000211####
SANA35 KAWN 272000 RRF
METAR MYGF 272000Z 02010KT 9999 VCSH SCT018TCU BKN250 25/24 A3006 RMK
      TCU/VCSH SE=
METAR MYNN 272000Z 17004KT 9999 FEW016CB FEW018TCU 29/20 A3006 CB AND
      TCU/W TRU N=
####018002967####
SAUS20 KNKA 272015
METAR KCDN 272015Z AUTO VRB03KT 9SM CLR 12/M01 A3033 RMK AO2 TSNO=
SPECI KCDS 272014Z AUTO 08006KT 2 1/2SM -SN SCT016 BKN022 OVC035 
 M08/M11 A3039 RMK AO2 VIS 1 3/4V4 P0000 T10781111=
METAR KCFS 272015Z AUTO 24009G14KT 10SM CLR M09/M17 A3052 RMK AO2
 T10951175=
METAR KCGZ 272015Z AUTO 22011G15KT 10SM CLR 23/M03 A2971 RMK AO1=
METAR KCIU 272015Z AUTO 24010G15KT 10SM CLR M08/M17 A3040 RMK AO1=
METAR KCKC 272013Z AUTO 20007KT 169V239 10SM CLR M08/M24 A3026 RMK
 AO2=
METAR KCKN 272015Z AUTO 22011KT 10SM CLR M10/M16 A3042 RMK AO2=
METAR KCNB 272014Z AUTO 25006KT 10SM CLR M09/M17 A3047 RMK AO2
 T10941175=
METAR KCOD 272015Z 07003KT 10SM CLR M08/M13 A2983 RMK AO1=
METAR KCOE 272015Z AUTO 09008G14KT 10SM CLR 09/M03 A2978 RMK AO1=
METAR KCOQ 272017Z AUTO 21009KT 10SM CLR M08/M24 A3037 RMK AO2=
METAR KCPW 272014Z AUTO 22016G22KT 1/4SM SN OVC001 M12/M13 A2973
 RMK AO2 P0001=
METAR KCQM 272014Z AUTO 25008KT 10SM CLR M08/M22 A3033 RMK AO2=
METAR KCQW 272015Z AUTO 00000KT 10SM CLR 10/M04 A3034 RMK AO2=
METAR KCVN 272015Z AUTO 15011KT 7SM OVC014 M11/M14 A3016 RMK AO1=
METAR KCVO 272015Z AUTO 18008KT 10SM SCT017 BKN028 OVC042 11/08 
 A2976 RMK AO1 P0001=
METAR KCVX 272015Z AUTO 25013G16KT 10SM BKN027 M10/M15 A3050 RMK
 AO2 T11051155=
METAR KCWI 272015Z AUTO 27005KT 10SM CLR M13/M19 A3064 RMK AO1=
METAR KD57 272015Z AUTO 16011KT 10SM CLR M07/M16 A3018 RMK AO2=
METAR KDKB 272015Z AUTO 27009KT 10SM CLR M13/M20 A3059 RMK AO2 
 T11291203=
METAR KDRM 272015Z AUTO 24009G16KT 10SM CLR M10/M17 A3042 RMK AO2
 T11051169=
METAR KDTL 272015Z AUTO 22005KT 10SM CLR M10/M17 A3041 RMK AO2=
METAR KDUH 272015Z AUTO 29004KT 10SM CLR M08/M21 A3059 RMK AO2=
METAR KDVL 272015Z AUTO 22010KT 10SM CLR M11/M17 A3030 RMK AO1=
METAR KDWU 272015Z AUTO 06005KT 10SM BKN047 M04/M14 A3057 RMK AO1=
METAR KDYB 272015Z AUTO 33003KT 10SM CLR 11/01 A3036 RMK AO1=
METAR KDYR 272015Z 02012G16KT 10SM FEW028 M03/M14 A3057 RMK AO1=
METAR KE80 272015Z AUTO 12007KT 10SM OVC014 M01/M05 A2993 RMK AO2 
     T10121046=
METAR KEAR 272015Z 16010G14KT 10SM CLR M07/M20 A3038 RMK AO1=
METAR KEDC 272015Z AUTO 03013KT 10SM OVC024 02/M04 A3034 RMK AO2=
METAR KEDJ 272010Z AUTO 28007KT 10SM FEW035 M10/M17 A3056 RMK AO1=
METAR KEEN 272015Z AUTO 36007KT 10SM CLR M05/M20 A3032 RMK AO1=
METAR KEHR 272015Z AUTO 01005KT 10SM SCT028 BKN036 M06/M12 A3062 RMK 
 AO1=
METAR KEIK 272015Z AUTO 00000KT 10SM CLR M09/M14 A2994 RMK AO2
 T10941137=
METAR KENV 272015Z AUTO 00000KT 10SM BKN100 06/M03 A2974 RMK AO1=
METAR KERY 272014Z AUTO 24006KT 10SM CLR M10/M19 A3039 RMK AO2
     T11011188=
METAR KESC 272015Z AUTO 18010KT 10SM CLR M09/M18 A3044 RMK AO1=
METAR KETC 272015Z AUTO 34007KT 10SM CLR 09/M03 A3040 RMK AO2 
     T00921030=
METAR KEUL 272015Z AUTO 12013G16KT 10SM CLR 11/M01 A2971 RMK AO1=
METAR KEWK 272015Z AUTO 12009KT 5SM SCT018 BKN029 BKN037 M09/M17 
 A3051 RMK AO1=
####018002996####
SAUS20 KNKA 272015
METAR KFAM 272015Z AUTO 09004KT 10SM CLR M07/M16 A3059 RMK AO1=
METAR KFFX 272013Z AUTO 29007KT 10SM CLR M08/M19 A3052 RMK AO2
 T10801186=
METAR KFGX 272015Z AUTO 00000KT 10SM SCT035 M07/M15 A3058 RMK AO2 
 T10711150=
METAR KFKL 272015Z AUTO 32008KT 10SM FEW037 M11/M19 A3048 RMK AO1=
METAR KFLP 272015Z 03003KT 10SM BKN060 BKN070 M05/M17 A3055 RMK AO1=
METAR KFLY 272012Z AUTO 14010KT 2SM -SN OVC008 M13/M16 A2987 RMK
     AO2 T11261162=
METAR KFMH 272015Z AUTO VRB03KT 10SM CLR M04/M15 A3034 RMK AO2 
 FZRANO=
METAR KFMM 272015Z AUTO 17018G22KT 10SM OVC030 M08/M13 A3002 RMK 
 AO2 T10761133=
METAR KFNL 272015Z AUTO 00000KT 10SM BKN016 M08/M12 A2997 RMK AO1 
 P0005=
METAR KFOD 272015Z AUTO 28003KT 10SM CLR M12/M18 A3057 RMK AO1=
METAR KFPK 272015Z AUTO 22008KT 10SM OVC042 M09/M18 A3051 RMK AO2
 T10861178=
METAR KFRM 272015Z AUTO 22006KT 10SM CLR M11/M18 A3051 RMK AO1=
METAR KFSE 272015Z AUTO 21009KT 10SM CLR M10/M15 A3039 RMK AO2=
METAR KFYJ 272015Z AUTO 01003KT 10SM BKN024 OVC035 02/M05 A3048 
 RMK AO2 T00171055=
METAR KFYM 272015Z AUTO 03010KT 10SM CLR 00/M10 RMK=
METAR KGAD 272015Z 01010KT 10SM CLR 04/M06 A3042 RMK AO1=
METAR KGAI 272015Z AUTO 32008G14KT 10SM CLR M03/M14 A3048 RMK AO1=
METAR KGBD 272015Z AUTO 17007KT 5SM FEW025 BKN031 OVC040 M08/M15 
 A3044 RMK AO1=
SPECI KGCK 272014Z 15017KT 3SM -SN BKN024 OVC043 M10/M13 A3030 RMK 
 AO2 P0000 T11001133=
METAR KGDV 272015Z AUTO 19012G20KT 10SM CLR M03/M14 A3004 RMK AO1=
METAR KGOV 272014Z AUTO 27008G14KT 240V300 10SM BKN035 M08/M17
 A3042 RMK AO2 T10851171=
METAR KGPZ 272015Z AUTO 24007KT 10SM CLR M08/M21 A3035 RMK AO1=
METAR KGUC 272015Z 22012G15KT 10SM CLR M01/M10 A2975 RMK AO1=
METAR KGXY 272015Z AUTO 14008KT 10SM BKN030 OVC037 M05/M14 A2996 RMK 
 AO1=
METAR KHAF 272015Z AUTO 32015G21KT 7SM BKN016 BKN027 14/10 A2988
 RMK AO2=
METAR KHAI 272015Z AUTO 32007KT 10SM OVC040 M08/M15 A3056 RMK AO2
 T10811152=
METAR KHCO 272001Z AUTO 23011KT 10SM CLR M09/M16 A3036 RMK AO2=
METAR KHDN 272015Z AUTO 27004KT 10SM CLR M03/M12 A2978 RMK AO1=
METAR KHEZ 272015Z AUTO 34006KT 330V040 10SM CLR 07/M03 A3037 RMK 
 AO1=
METAR KHNB 272015Z AUTO 04006KT 10SM FEW037 M06/M13 A3062 RMK AO1=
METAR KHVS 272015Z AUTO 00000KT 10SM CLR 12/M01 A3034 RMK AO2=
METAR KHYS 272015Z AUTO 14003KT 6SM SCT040 BKN046 OVC050 M08/M18 
 A3042 RMK AO1=
METAR KHYW 272015Z AUTO 05008KT 7SM CLR 10/00 A3036 RMK AO2=
METAR KHYX 272015Z AUTO 25010KT 10SM CLR M08/M15 A3053 RMK AO2=
METAR KI67 272015Z AUTO 03008KT 10SM BKN048 M05/M15 A3060 RMK AO1=
METAR KILE 272015Z AUTO 02009KT 10SM OVC018 M01/M07 A3035 RMK AO1=
METAR KIRS 272014Z AUTO 25007KT 10SM OVC042 M09/M17 A3055 RMK AO2=
METAR KISQ 272014Z AUTO 20009KT 10SM CLR M09/M18 A3042 RMK AO2
 T10951178=
METAR KIWD 272015Z AUTO 27010KT 10SM CLR M10/M19 A3036 RMK AO1=
METAR KJHN 272015Z AUTO 15016KT 5SM -SN SCT018 BKN025 OVC050 
 M10/M14 A3024 RMK AO2 T10961136=
####018002947####
SAUS20 KNKA 272015
METAR K04V 272015Z AUTO 11007KT 3SM -SN OVC016 M04/M08 A2978 RMK
 AO2=
METAR K0A9 272015Z AUTO 30005KT 10SM FEW025 OVC034 M02/M08 A3042 
     RMK=
METAR K0CO 272015Z AUTO 30017G22KT 1/4SM -SN BKN001 OVC006 M15/M18
 A2962 RMK AO2=
METAR K1S5 272015Z AUTO 23004KT 10SM SCT025 BKN060 OVC080 08/03 
 A2976 RMK AO2 T00750033=
METAR K1V6 272015Z AUTO 13005KT 10SM CLR M07/M13 A2994 RMK AO2=
METAR K20V 272015Z AUTO 00000KT 10SM SCT050 BKN055 M02/M11 A2976
 RMK AO2=
METAR K2V5 272015Z AUTO 15017G21KT 10SM OVC032 M06/M13 A3016 RMK 
     AO2 T10651127=
METAR K33V 272015Z AUTO 00000KT 10SM CLR M08/M11 A2972 RMK AO2=
METAR K4BM 272016Z AUTO 23005KT 10SM SCT003 SCT120 M07/M11 A2969
 RMK AO2=
METAR K4I3 272016Z AUTO 25006KT 10SM SCT039 M07/M18 A3054 RMK AO2=
METAR K5SM 272015Z AUTO 00000KT 1SM -SN OVC005 M07/M09 RMK AO2=
METAR K7BM 272014Z AUTO 00000KT 5SM -SN SCT020 BKN044 OVC050
 M07/M11 A2969 RMK AO2=
METAR KACB 272016Z AUTO 25008KT 10SM OVC031 M08/M16 A3049 RMK AO2
 T10851161=
METAR KADC 272014Z AUTO 24006KT 10SM CLR M11/M18 A3041 RMK AO2=
METAR KAFJ 272015Z AUTO 27008KT 10SM CLR M08/M19 A3052 RMK AO1=
METAR KAIZ 272015Z AUTO 00000KT 10SM BKN110 M07/M19 A3055 RMK AO1=
METAR KALM 272015Z AUTO 20006KT 10SM OVC029 03/M03 A2999 RMK AO2=
METAR KAMN 272011Z AUTO 27011G14KT 10SM SCT040 M08/M17 A3052 RMK
 AO2 T10811173=
METAR KARG 272015Z AUTO 03011KT 10SM CLR M04/M12 A3058 RMK AO1=
METAR KATS 272015Z AUTO 16010KT 10SM OVC014 M05/M06 A3018 RMK AO2=
METAR KAUM 272016Z AUTO 22008KT 193V253 10SM CLR M13/M19 A3052 RMK
 AO2=
METAR KAUO 272015Z AUTO 34006KT 10SM CLR 11/M04 A3035 RMK AO1=
METAR KAWO 272015Z AUTO 02011KT 10SM OVC060 09/06 A2980 RMK AO1=
METAR KBAX 272014Z AUTO 24009KT 10SM CLR M10/M17 A3051 RMK AO2
 T11021169=
METAR KBCB 272015Z AUTO 30009G14KT 10SM SCT042 M02/M11 A3039 RMK 
 AO2 T10201112=
METAR KBDH 272015Z AUTO 25006KT 10SM CLR M11/M18 A3050 RMK AO2=
METAR KBDU 272017Z AUTO 00000KT 4SM -SN OVC015 M08/M12 A2993 RMK
 AO2=
METAR KBGF 272015Z AUTO 02005KT 10SM CLR 01/M10 A3046 RMK=
METAR KBHB 272015Z 23006KT 10SM CLR M04/M20 A3029 RMK AO1=
METAR KBID 272015Z AUTO 26011G14KT 10SM CLR M02/M12 A3034 RMK AO1=
METAR KBLM 272015Z AUTO 27010KT 10SM CLR M01/M13 A3040 RMK AO1=
METAR KBNL 272015Z AUTO 03004KT 10SM CLR 13/02 A3033 RMK AO2=
METAR KBTP 272015Z AUTO 30006KT 10SM CLR M10/M20 A3051 RMK AO1=
METAR KBVU 272015Z AUTO VRB03KT 10SM CLR 16/M03 A2972 RMK AO2=
METAR KBVX 272015Z AUTO 08007KT 10SM CLR M03/M16 A3056 RMK AO1=
METAR KBXA 272015Z AUTO 02006KT 10SM 10/00 A3035 RMK AO2 T00950001=
METAR KCAD 272015Z AUTO 23008KT 10SM SCT036 M09/M17 A3041 RMK AO2
 T10921171=
METAR KCBG 272016Z AUTO 25006KT 10SM CLR M08/M17 A3046 RMK AO2=
METAR KCCU 272015Z AUTO 28014G18KT 1 3/4SM -SN BKN006 OVC010
 M09/M13 A2964 RMK AO2 VIS 1V4=
METAR KCDD 272008Z AUTO 24003KT 10SM CLR M08/M25 A3034 RMK AO2=
####018002952####
SAUS20 KNKA 272015
METAR KJHW 272015Z 27011KT 10SM CLR M13/M21 A3043 RMK AO1=
METAR KJKA 272015Z AUTO 02007KT 350V050 10SM CLR 13/00 A3029 RMK 
 AO2 T01271003=
METAR KJYG 272015Z AUTO 24003KT 10SM CLR M11/M18 A3053 RMK AO2=
METAR KJYL 272015Z AUTO 02004KT 10SM CLR 11/03 A3034 RMK AO2 
 T01130034=
METAR KJYM 272015Z AUTO 27008KT 10SM CLR M09/M19 A3053 RMK AO2
     T10891191=
METAR KKLS 272015Z 00000KT 10SM FEW020 SCT080 BKN100 11/06 A2976 RMK 
 AO1=
METAR KLBL 272015Z AUTO 14012KT 10SM FEW012 SCT018 BKN070 M09/M14 
 A3032 RMK AO1=
METAR KLCI 272015Z AUTO 26010KT 10SM CLR M06/M22 A3028 RMK AO1=
METAR KLCK 272015Z AUTO 27009KT 10SM OVC040 M07/M16 A3059 RMK AO2 
 T10751164=
METAR KLDM 272014Z AUTO 24011G16KT 10SM BKN029 M08/M16 A3053 RMK
     AO2 T10841161=
METAR KLEW 272015Z AUTO 31010G14KT 10SM CLR M05/M21 A3029 RMK AO1=
METAR KLGD 272015Z AUTO 20007KT 10SM SCT021 BKN028 08/00 A2969 RMK 
 AO1=
METAR KLKV 272015Z 32008KT 10SM SCT034 BKN055 OVC100 06/00 A2969 RMK 
 AO1=
METAR KLMO 272014Z AUTO 01004KT 10SM -SN BKN017 M03/M12 A2997 RMK
 AO2 T10301125=
METAR KLPC 272015Z AUTO 30013G22KT 10SM OVC021 17/09 A2988 RMK AO1=
METAR KLWA 272015Z AUTO 24009KT 10SM SCT021 SCT029 BKN036 M08/M17
 A3057 RMK AO2 T10781168=
METAR KM91 272015Z AUTO 06010KT 030V100 10SM CLR M03/M12 A3053 RMK=
METAR KMBL 272015Z AUTO 26010G17KT 10SM BKN030 M09/M18 A3051 RMK AO1=
METAR KMEZ 272015Z AUTO 02007KT 5SM SCT018 BKN030 OVC035 M01/M10 
 A3048 RMK AO2=
METAR KMGN 272014Z AUTO 26009G15KT 230V290 10SM CLR M10/M16 A3046
 RMK AO2 T11061165=
METAR KMJX 272015Z AUTO 30010KT 10SM CLR M01/M11 A3042 RMK AO1=
METAR KMKT 272015Z AUTO 26007KT 10SM CLR M12/M20 A3052 RMK AO1=
METAR KMKY 272015Z AUTO 04013KT 10SM BKN019 OVC026 19/13 A3012 RMK 
 AO1=
METAR KMML 272015Z AUTO 28007KT 10SM CLR M11/M19 A3049 RMK AO1=
METAR KMNH 272016Z AUTO 20011KT 10SM CLR M10/M15 A2980 RMK AO2=
METAR KMNI 272015Z AUTO 04006KT 10SM CLR 12/M01 A3034 RMK AO2=
METAR KMNM 272015Z AUTO 29007KT 250V310 10SM CLR M08/M19 A3045 RMK 
 AO1=
METAR KMOP 272014Z AUTO 22010KT 10SM BKN040 M07/M17 A3050 RMK AO2
 T10721167=
METAR KMRF 272015Z AUTO 06012KT 10SM OVC010 00/M03 A3005 RMK AO1=
METAR KMSV 272015Z AUTO 29012G19KT 10SM CLR M07/M18 A3032 RMK AO1=
METAR KMVN 272015Z AUTO 36003KT 10SM CLR M07/M14 A3062 RMK AO1=
METAR KOAJ 272015Z AUTO 01007KT 10SM FEW044 09/M01 A3038 RMK AO1=
METAR KOCH 272015Z AUTO 07005KT 10SM FEW095 04/M05 A3040 RMK AO1=
METAR KOEB 272014Z AUTO 28007KT 10SM OVC042 M09/M18 A3055 RMK AO2
 T10861181=
METAR KOKK 272015Z AUTO 27008KT 10SM CLR M09/M13 A3060 RMK AO1=
METAR KOLU 272015Z AUTO 20006KT 10SM CLR M07/M19 A3049 RMK AO1=
METAR KOTG 272015Z AUTO 22007KT 10SM CLR M03/M19 A3049 RMK AO1=
METAR KOTH 272015Z 27007KT 10SM FEW023 BKN040 OVC047 11/09 A2983 RMK 
 AO1 
 P0001=
METAR KOZW 272015Z AUTO 26009KT 10SM CLR M09/M19 A3052 RMK AO2
 T10921187=
####018000078####
SACN93 CWAO 272015
WPF SA 2015 AUTO8 M M M M/08/06/3610+16/M/M M 18MM=

####018000247####
SAAK41 KNKA 272015
SPECI PAIW 272013Z AUTO 17026G33KT 3SM -RA BR OVC005 01/M01 A2999 
 RMK AO2 PK WND 18033/2005 RAB08SNE08 P0000 FZRANO=
SPECI PAVL 272014Z AUTO 08013KT 3/4SM -SN BR VV016 M04/M04 A3005 RMK 
 AO2 P0000 T10391044 TSNO $=
####018001398####
SAUS20 KNKA 272015
METAR KTGI 272015Z AUTO 34011KT 10SM OVC037 00/M06 A3046 RMK AO1=
METAR KTHA 272015Z AUTO 05007KT 10SM CLR 01/M12 A3046 RMK=
METAR KTME 272015Z AUTO 03008KT 8SM OVC020 05/00 A3035 RMK AO2=
METAR KTPL 272015Z AUTO 02009KT 10SM OVC019 M01/M06 A3036 RMK AO1=
METAR KTSP 272015Z AUTO 30016G23KT 9SM OVC026 09/04 A2981 RMK AO2=
METAR KTVF 272015Z AUTO 20009KT 10SM CLR M12/M16 A3038 RMK AO1=
METAR KUDG 272015Z AUTO 03004KT 10SM CLR 12/00 A3035 RMK AO1=
METAR KUKT 272015Z AUTO 32009KT 10SM CLR M04/M15 A3042 RMK AO1=
METAR KUTA 272015Z AUTO 01004KT 10SM SCT031 00/M07 A3053 RMK AO2=
METAR KUYF 272015Z AUTO 35006KT 10SM BKN038 M08/M17 A3056 RMK AO2=
METAR KVBT 272015Z AUTO 08006KT 10SM BKN037 OVC043 M07/M16 A3051 RMK 
 AO1=
METAR KVIS 272015Z AUTO 28004KT 8SM FEW085 17/08 A2983 RMK AO1=
METAR KVLL 272014Z AUTO 28004KT 10SM CLR M06/M20 A3055 RMK AO2
     T10591202=
METAR KVTP 272015Z AUTO 22005KT 1/2SM -SN OVC002 M07/M10 A2972 RMK
 AO2=
METAR KWDR 272015Z AUTO 26004KT 10SM CLR 11/M02 A3036 RMK AO1=
METAR KWVL 272015Z 30011G14KT CLR M05/M21 A3025 RMK AO1=
METAR KWWD 272015Z AUTO 28012G16KT 260V320 10SM SCT050 BKN075 
 M02/M09 A3045 RMK AO1=
METAR KXLL 272015Z AUTO 30004KT 10SM CLR M02/M15 A3044 RMK AO2=
METAR KYKN 272015Z AUTO 16004KT 10SM CLR M08/M18 A3048 RMK AO1=
METAR K7N0 272015Z AUTO 00000KT 10SM CLR A3032 RMK AO1=
####018002986####
SAUS20 KNKA 272015
METAR KPAN 272015Z AUTO 18008G16KT 150V210 10SM OVC095 13/M04 A2979
 RMK AO2=
METAR KPHT 272015Z AUTO 04005G19KT 10SM CLR M03/M13 A3054 RMK=
METAR KPIB 272015Z AUTO 03009KT 10SM CLR 08/M02 A3037 RMK AO1=
METAR KPQI 272015Z AUTO 28011G19KT 10SM CLR M08/M26 A3017 RMK AO1=
METAR KPRX 272015Z 05009KT 3SM FEW010 BKN013 OVC032 M03/M07 A3049 
 RMK AO1=
METAR KPSO 272015Z AUTO 21006KT 1SM -SN BKN009 OVC021 M02/M03 A2980
 RMK AO2 T10181032=
METAR KPTN 272015Z AUTO 06009KT 10SM CLR 11/02 A3031 RMK AO1=
METAR KPTV 272015Z AUTO 27006KT 10SM CLR 18/08 A2982 RMK AO1=
METAR KPVC 272015Z 33009KT 10SM CLR M04/M16 A3036 RMK AO1=
METAR KPVG 272015Z AUTO 04008G14KT 10SM BKN035 OVC041 01/M05 A3046 
 RMK AO1=
METAR KPWG 272015Z AUTO 02011KT 10SM M01/M07 A3040 RMK AO1=
METAR KPWT 272015Z AUTO 36008KT 10SM SCT021 BKN027 OVC033 08/07 
 A2978 RMK AO1 P0001=
METAR KPZQ 272015Z AUTO 26009KT 240V310 10SM CLR M08/M16 A3045 RMK
 AO2 T10771162=
METAR KRCV 272015Z AUTO 07008KT 10SM SCT012 BKN060 BKN070 M06/M10
 A2977 RMK AO2 T10591099=
METAR KRGK 272011Z AUTO 31004KT 10SM CLR M10/M19 A3054 RMK AO2=
METAR KRKD 272015Z AUTO 26005KT 10SM CLR M06/M20 A3029 RMK AO1=
METAR KRKR 272015Z AUTO 05005KT 2 1/2SM -SN SCT014 BKN034 OVC043 
 M05/M11 A3057 RMK AO2 VIS 1 1/2V4 T10481110=
METAR KRNP 272015Z AUTO 27012KT 10SM CLR M09/M17 A3054 RMK AO2
 T10861166=
METAR KRQB 272014Z AUTO 30010G14KT 10SM SCT043 M07/M18 A3047 RMK
 AO2 T10751176=
METAR KRQO 272015Z AUTO 07007KT SCT009 BKN021 OVC060 M07/M11 A3046 
 RMK AO2 PWINO=
METAR KRUT 272015Z 02005KT 10SM CLR M08/M24 A3033 RMK AO1=
METAR KSBS 272015Z AUTO 00000KT 10SM CLR M03/M13 A2977 RMK AO1
 T10271132=
METAR KSDY 272015Z AUTO 17013KT 10SM CLR M02/M15 A3010 RMK AO1=
METAR KSEM 272015Z AUTO 05009KT 10SM 10/M03 A3037 RMK AO2=
METAR KSFM 272015Z AUTO 28009KT 10SM CLR M04/M21 A3031 RMK AO1=
METAR KSFZ 272015Z 28005KT 10SM CLR M04/M16 A3031 RMK AO1=
METAR KSGT 272015Z AUTO 03008KT 10SM FEW030 SCT100 M01/M09 A3055 RMK 
 AO1=
METAR KSGU 272015Z AUTO 27006KT 10SM FEW120 13/M03 A2974 RMK AO1=
METAR KSJX 272016Z AUTO 24013G17KT 10SM CLR M11/M17 A3045 RMK AO2
 T11101166=
METAR KSKX 272015Z AUTO 26008KT 1 3/4SM SCT013 OVC021 M06/M11 A2988 
 RMK AO1=
METAR KSLG 272015Z AUTO 06006KT 10SM OVC060 M07/M18 A3052 RMK AO1=
METAR KSLH 272018Z AUTO 26009G14KT 10SM SCT030 M10/M16 A3045 RMK
 AO2 T10991167=
METAR KSMN 272015Z AUTO 00000KT 10SM FEW050 SCT060 BKN100 01/M05 
 A2976 RMK AO1=
METAR KSNH 272015Z AUTO VRB06KT 10SM CLR 02/M13 A3050 RMK=
METAR KSOP 272015Z AUTO 02004KT 10SM CLR 08/M03 A3036 RMK AO1=
METAR KSQI 272015Z AUTO 26004KT 10SM CLR M11/M18 A3063 RMK AO1=
METAR KSTK 272010Z AUTO 17019G24KT 10SM OVC033 M06/M12 A3007 RMK
     AO2=
METAR KSUE 272015Z AUTO 24010G14KT 220V280 10SM CLR M09/M18 A3048 
 RMK AO1=
METAR KTEX 272015Z AUTO 31006KT 270V340 10SM SCT038 SCT047 BKN050 
 M02/M13 A2974 RMK AO2 T10241135=
####018000111####
SPCN45 CWAO 272009
SPECI CYHK 272009Z AUTO 23017KT 3/4SM -SN SCT009 OVC029 M16/M17 A2927
 RMK SLP918=

####018000119####
SPCN48 CWAO 272016
SPECI CYGV 272016Z AUTO 27020G29KT 6SM -SN SCT025 SCT032 M16/M20
 A2997 RMK PRESRR SLP153=

####018000102####
SPCN43 CWAO 272016
SPECI CZVL 272016Z AUTO 33012KT 9SM -SN OVC022 M09/M13 A3020 RMK
 SLP276=

####018000096####
SPCN44 CWAO 272006
SPECI CYCY 272006Z AUTO 25004KT 9SM -SN CLR M33/M37 A2958 RMK SLP021=

####018003738####
SAUS99 KWBC 272017 RRD
METAR
KDYR 272015Z 02012G16KT 10SM FEW028 M03/M14 A3057 RMK AO1=
KE80 272015Z AUTO 12007KT 10SM OVC014 M01/M05 A2993 RMK AO2
     T10121046=
KEAR 272015Z 16010G14KT 10SM CLR M07/M20 A3038 RMK AO1=
KEDC 272015Z AUTO 03013KT 10SM OVC024 02/M04 A3034 RMK AO2=
KEDJ 272010Z AUTO 28007KT 10SM FEW035 M10/M17 A3056 RMK AO1=
KEEN 272015Z AUTO 36007KT 10SM CLR M05/M20 A3032 RMK AO1=
KEHR 272015Z AUTO 01005KT 10SM SCT028 BKN036 M06/M12 A3062 RMK
     AO1=
KEIK 272015Z AUTO 00000KT 10SM CLR M09/M14 A2994 RMK AO2
     T10941137=
KENV 272015Z AUTO 00000KT 10SM BKN100 06/M03 A2974 RMK AO1=
KERY 272014Z AUTO 24006KT 10SM CLR M10/M19 A3039 RMK AO2
     T11011188=
KESC 272015Z AUTO 18010KT 10SM CLR M09/M18 A3044 RMK AO1=
KETC 272015Z AUTO 34007KT 10SM CLR 09/M03 A3040 RMK AO2
     T00921030=
KEUL 272015Z AUTO 12013G16KT 10SM CLR 11/M01 A2971 RMK AO1=
KEWK 272015Z AUTO 12009KT 5SM SCT018 BKN029 BKN037 M09/M17 A3051
     RMK AO1=
KTGI 272015Z AUTO 34011KT 10SM OVC037 00/M06 A3046 RMK AO1=
KTHA 272015Z AUTO 05007KT 10SM CLR 01/M12 A3046 RMK=
KTME 272015Z AUTO 03008KT 8SM OVC020 05/00 A3035 RMK AO2=
KTPL 272015Z AUTO 02009KT 10SM OVC019 M01/M06 A3036 RMK AO1=
KTSP 272015Z AUTO 30016G23KT 9SM OVC026 09/04 A2981 RMK AO2=
KTVF 272015Z AUTO 20009KT 10SM CLR M12/M16 A3038 RMK AO1=
KUDG 272015Z AUTO 03004KT 10SM CLR 12/00 A3035 RMK AO1=
KUKT 272015Z AUTO 32009KT 10SM CLR M04/M15 A3042 RMK AO1=
KUTA 272015Z AUTO 01004KT 10SM SCT031 00/M07 A3053 RMK AO2=
KUYF 272015Z AUTO 35006KT 10SM BKN038 M08/M17 A3056 RMK AO2=
KVBT 272015Z AUTO 08006KT 10SM BKN037 OVC043 M07/M16 A3051 RMK
     AO1=
KVIS 272015Z AUTO 28004KT 8SM FEW085 17/08 A2983 RMK AO1=
KVLL 272014Z AUTO 28004KT 10SM CLR M06/M20 A3055 RMK AO2
     T10591202=
KVTP 272015Z AUTO 22005KT 1/2SM -SN OVC002 M07/M10 A2972 RMK
     AO2=
KWDR 272015Z AUTO 26004KT 10SM CLR 11/M02 A3036 RMK AO1=
KWVL 272015Z 30011G14KT CLR M05/M21 A3025 RMK AO1=
KWWD 272015Z AUTO 28012G16KT 260V320 10SM SCT050 BKN075 M02/M09
     A3045 RMK AO1=
KXLL 272015Z AUTO 30004KT 10SM CLR M02/M15 A3044 RMK AO2=
KYKN 272015Z AUTO 16004KT 10SM CLR M08/M18 A3048 RMK AO1=
K7N0 272015Z AUTO 00000KT 10SM CLR A3032 RMK AO1=
KPAN 272015Z AUTO 18008G16KT 150V210 10SM OVC095 13/M04 A2979 RMK
     AO2=
KPHT 272015Z AUTO 04005G19KT 10SM CLR M03/M13 A3054 RMK=
KPIB 272015Z AUTO 03009KT 10SM CLR 08/M02 A3037 RMK AO1=
KPQI 272015Z AUTO 28011G19KT 10SM CLR M08/M26 A3017 RMK AO1=
KPRX 272015Z 05009KT 3SM FEW010 BKN013 OVC032 M03/M07 A3049 RMK
     AO1=
KPSO 272015Z AUTO 21006KT 1SM -SN BKN009 OVC021 M02/M03 A2980 RMK
     AO2 T10181032=
KPTN 272015Z AUTO 06009KT 10SM CLR 11/02 A3031 RMK AO1=
KPTV 272015Z AUTO 27006KT 10SM CLR 18/08 A2982 RMK AO1=
KPVC 272015Z 33009KT 10SM CLR M04/M16 A3036 RMK AO1=
KPVG 272015Z AUTO 04008G14KT 10SM BKN035 OVC041 01/M05 A3046 RMK
     AO1=
KPWG 272015Z AUTO 02011KT 10SM M01/M07 A3040 RMK AO1=
KPWT 272015Z AUTO 36008KT 10SM SCT021 BKN027 OVC033 08/07 A2978
     RMK AO1 P0001=
KPZQ 272015Z AUTO 26009KT 240V310 10SM CLR M08/M16 A3045 RMK AO2
     T10771162=
KRCV 272015Z AUTO 07008KT 10SM SCT012 BKN060 BKN070 M06/M10 A2977
     RMK AO2 T10591099=
KRGK 272011Z AUTO 31004KT 10SM CLR M10/M19 A3054 RMK AO2=
KRKD 272015Z AUTO 26005KT 10SM CLR M06/M20 A3029 RMK AO1=
KRKR 272015Z AUTO 05005KT 2 1/2SM -SN SCT014 BKN034 OVC043 M05/M11
     A3057 RMK AO2 VIS 1 1/2V4 T10481110=
KRNP 272015Z AUTO 27012KT 10SM CLR M09/M17 A3054 RMK AO2
     T10861166=
KRQB 272014Z AUTO 30010G14KT 10SM SCT043 M07/M18 A3047 RMK AO2
     T10751176=
KRQO 272015Z AUTO 07007KT SCT009 BKN021 OVC060 M07/M11 A3046 RMK
     AO2 PWINO=
####018003731####
SAUS99 KWBC 272017 RRA
METAR
KPWC 272014Z AUTO 20005KT 10SM CLR M09/M19 A3041 RMK AO2=
KRMY 272013Z AUTO 23007KT 10SM SCT044 M09/M19 A3053 RMK AO2
     T10951189=
KROS 272015Z AUTO 23006KT 10SM CLR M09/M19 A3048 RMK AO2
     T10881193=
KROX 272014Z AUTO 24009KT 10SM CLR M11/M18 A3034 RMK AO2=
KRRT 272014Z AUTO 23012G15KT 10SM CLR M11/M19 A3033 RMK AO2=
KRZT 272015Z AUTO 32011KT 10SM CLR M07/M17 A3060 RMK AO2=
KSAZ 272013Z AUTO 28005KT 10SM CLR M09/M19 A3041 RMK AO2=
KSGS 272010Z AUTO 22006KT 10SM CLR M09/M18 A3052 RMK AO2
     T10921179=
KSYM 272010Z AUTO VRB04G10KT 10SM CLR M06/M15 A3058 RMK AO2=
KSYN 272014Z AUTO 25006KT 10SM CLR M11/M18 A3052 RMK AO2
     T11081185=
KTEW 272014Z AUTO 24007KT 10SM SCT041 M08/M19 A3053 RMK AO2
     T10851188=
KTKC 272011Z AUTO 26005KT 10SM CLR M10/M18 A3047 RMK AO2
     T10961176=
KTOB 272014Z AUTO 24007KT 10SM CLR M14/M18 A3050 RMK AO2=
KTWM 272014Z AUTO 24008KT 10SM CLR M06/M18 A3035 RMK AO2=
KULM 272014Z AUTO 30004KT 10SM CLR M12/M19 A3052 RMK AO2=
KVVV 272014Z AUTO 22005KT 10SM CLR M09/M20 A3046 RMK AO2=
KY63 272014Z AUTO 24005KT 10SM CLR M12/M18 A3045 RMK AO2
     T11211176=
KY70 272013Z AUTO 25009KT 10SM OVC039 M07/M15 A3052 RMK AO2
     T10721154=
KFAM 272015Z AUTO 09004KT 10SM CLR M07/M16 A3059 RMK AO1=
KFFX 272013Z AUTO 29007KT 10SM CLR M08/M19 A3052 RMK AO2
     T10801186=
KFGX 272015Z AUTO 00000KT 10SM SCT035 M07/M15 A3058 RMK AO2
     T10711150=
KFKL 272015Z AUTO 32008KT 10SM FEW037 M11/M19 A3048 RMK AO1=
KFLP 272015Z 03003KT 10SM BKN060 BKN070 M05/M17 A3055 RMK AO1=
KFLY 272012Z AUTO 14010KT 2SM -SN OVC008 M13/M16 A2987 RMK AO2
     T11261162=
KFMH 272015Z AUTO VRB03KT 10SM CLR M04/M15 A3034 RMK AO2
     FZRANO=
KFMM 272015Z AUTO 17018G22KT 10SM OVC030 M08/M13 A3002 RMK AO2
     T10761133=
KFNL 272015Z AUTO 00000KT 10SM BKN016 M08/M12 A2997 RMK AO1
     P0005=
KFOD 272015Z AUTO 28003KT 10SM CLR M12/M18 A3057 RMK AO1=
KFPK 272015Z AUTO 22008KT 10SM OVC042 M09/M18 A3051 RMK AO2
     T10861178=
KFRM 272015Z AUTO 22006KT 10SM CLR M11/M18 A3051 RMK AO1=
KFSE 272015Z AUTO 21009KT 10SM CLR M10/M15 A3039 RMK AO2=
KFYJ 272015Z AUTO 01003KT 10SM BKN024 OVC035 02/M05 A3048 RMK AO2
     T00171055=
KFYM 272015Z AUTO 03010KT 10SM CLR 00/M10 RMK=
KGAD 272015Z 01010KT 10SM CLR 04/M06 A3042 RMK AO1=
KGAI 272015Z AUTO 32008G14KT 10SM CLR M03/M14 A3048 RMK AO1=
KGBD 272015Z AUTO 17007KT 5SM FEW025 BKN031 OVC040 M08/M15 A3044
     RMK AO1=
KGDV 272015Z AUTO 19012G20KT 10SM CLR M03/M14 A3004 RMK AO1=
KGOV 272014Z AUTO 27008G14KT 240V300 10SM BKN035 M08/M17 A3042 RMK
     AO2 T10851171=
KGPZ 272015Z AUTO 24007KT 10SM CLR M08/M21 A3035 RMK AO1=
KGUC 272015Z 22012G15KT 10SM CLR M01/M10 A2975 RMK AO1=
KGXY 272015Z AUTO 14008KT 10SM BKN030 OVC037 M05/M14 A2996 RMK
     AO1=
KHAF 272015Z AUTO 32015G21KT 7SM BKN016 BKN027 14/10 A2988 RMK
     AO2=
KHAI 272015Z AUTO 32007KT 10SM OVC040 M08/M15 A3056 RMK AO2
     T10811152=
KHCO 272001Z AUTO 23011KT 10SM CLR M09/M16 A3036 RMK AO2=
KHDN 272015Z AUTO 27004KT 10SM CLR M03/M12 A2978 RMK AO1=
KHEZ 272015Z AUTO 34006KT 330V040 10SM CLR 07/M03 A3037 RMK
     AO1=
KHNB 272015Z AUTO 04006KT 10SM FEW037 M06/M13 A3062 RMK AO1=
KHVS 272015Z AUTO 00000KT 10SM CLR 12/M01 A3034 RMK AO2=
KHYS 272015Z AUTO 14003KT 6SM SCT040 BKN046 OVC050 M08/M18 A3042
     RMK AO1=
KHYW 272015Z AUTO 05008KT 7SM CLR 10/00 A3036 RMK AO2=
KHYX 272015Z AUTO 25010KT 10SM CLR M08/M15 A3053 RMK AO2=
KI67 272015Z AUTO 03008KT 10SM BKN048 M05/M15 A3060 RMK AO1=
KILE 272015Z AUTO 02009KT 10SM OVC018 M01/M07 A3035 RMK AO1=
KIRS 272014Z AUTO 25007KT 10SM OVC042 M09/M17 A3055 RMK AO2=
####018003746####
SAUS99 KWBC 272017 RRB
METAR
KISQ 272014Z AUTO 20009KT 10SM CLR M09/M18 A3042 RMK AO2
     T10951178=
KIWD 272015Z AUTO 27010KT 10SM CLR M10/M19 A3036 RMK AO1=
KJHN 272015Z AUTO 15016KT 5SM -SN SCT018 BKN025 OVC050 M10/M14
     A3024 RMK AO2 T10961136=
KJHW 272015Z 27011KT 10SM CLR M13/M21 A3043 RMK AO1=
KJKA 272015Z AUTO 02007KT 350V050 10SM CLR 13/00 A3029 RMK AO2
     T01271003=
KJYG 272015Z AUTO 24003KT 10SM CLR M11/M18 A3053 RMK AO2=
KJYL 272015Z AUTO 02004KT 10SM CLR 11/03 A3034 RMK AO2
     T01130034=
KJYM 272015Z AUTO 27008KT 10SM CLR M09/M19 A3053 RMK AO2
     T10891191=
KKLS 272015Z 00000KT 10SM FEW020 SCT080 BKN100 11/06 A2976 RMK
     AO1=
KLBL 272015Z AUTO 14012KT 10SM FEW012 SCT018 BKN070 M09/M14 A3032
     RMK AO1=
KLCI 272015Z AUTO 26010KT 10SM CLR M06/M22 A3028 RMK AO1=
KLCK 272015Z AUTO 27009KT 10SM OVC040 M07/M16 A3059 RMK AO2
     T10751164=
KLDM 272014Z AUTO 24011G16KT 10SM BKN029 M08/M16 A3053 RMK AO2
     T10841161=
KLEW 272015Z AUTO 31010G14KT 10SM CLR M05/M21 A3029 RMK AO1=
KLGD 272015Z AUTO 20007KT 10SM SCT021 BKN028 08/00 A2969 RMK
     AO1=
KLKV 272015Z 32008KT 10SM SCT034 BKN055 OVC100 06/00 A2969 RMK
     AO1=
KLMO 272014Z AUTO 01004KT 10SM -SN BKN017 M03/M12 A2997 RMK AO2
     T10301125=
KLPC 272015Z AUTO 30013G22KT 10SM OVC021 17/09 A2988 RMK AO1=
KLWA 272015Z AUTO 24009KT 10SM SCT021 SCT029 BKN036 M08/M17 A3057
     RMK AO2 T10781168=
KM91 272015Z AUTO 06010KT 030V100 10SM CLR M03/M12 A3053 RMK=
KMBL 272015Z AUTO 26010G17KT 10SM BKN030 M09/M18 A3051 RMK AO1=
KMEZ 272015Z AUTO 02007KT 5SM SCT018 BKN030 OVC035 M01/M10 A3048
     RMK AO2=
KMGN 272014Z AUTO 26009G15KT 230V290 10SM CLR M10/M16 A3046 RMK
     AO2 T11061165=
KMJX 272015Z AUTO 30010KT 10SM CLR M01/M11 A3042 RMK AO1=
KMKT 272015Z AUTO 26007KT 10SM CLR M12/M20 A3052 RMK AO1=
KMKY 272015Z AUTO 04013KT 10SM BKN019 OVC026 19/13 A3012 RMK
     AO1=
KMML 272015Z AUTO 28007KT 10SM CLR M11/M19 A3049 RMK AO1=
KMNH 272016Z AUTO 20011KT 10SM CLR M10/M15 A2980 RMK AO2=
KMNI 272015Z AUTO 04006KT 10SM CLR 12/M01 A3034 RMK AO2=
KMNM 272015Z AUTO 29007KT 250V310 10SM CLR M08/M19 A3045 RMK
     AO1=
KMOP 272014Z AUTO 22010KT 10SM BKN040 M07/M17 A3050 RMK AO2
     T10721167=
KMRF 272015Z AUTO 06012KT 10SM OVC010 00/M03 A3005 RMK AO1=
KMSV 272015Z AUTO 29012G19KT 10SM CLR M07/M18 A3032 RMK AO1=
KMVN 272015Z AUTO 36003KT 10SM CLR M07/M14 A3062 RMK AO1=
KOAJ 272015Z AUTO 01007KT 10SM FEW044 09/M01 A3038 RMK AO1=
KOCH 272015Z AUTO 07005KT 10SM FEW095 04/M05 A3040 RMK AO1=
KOEB 272014Z AUTO 28007KT 10SM OVC042 M09/M18 A3055 RMK AO2
     T10861181=
KOKK 272015Z AUTO 27008KT 10SM CLR M09/M13 A3060 RMK AO1=
KOLU 272015Z AUTO 20006KT 10SM CLR M07/M19 A3049 RMK AO1=
KOTG 272015Z AUTO 22007KT 10SM CLR M03/M19 A3049 RMK AO1=
KOTH 272015Z 27007KT 10SM FEW023 BKN040 OVC047 11/09 A2983 RMK AO1
     P0001=
KOZW 272015Z AUTO 26009KT 10SM CLR M09/M19 A3052 RMK AO2
     T10921187=
K04V 272015Z AUTO 11007KT 3SM -SN OVC016 M04/M08 A2978 RMK AO2=
K0A9 272015Z AUTO 30005KT 10SM FEW025 OVC034 M02/M08 A3042 RMK=
K0CO 272015Z AUTO 30017G22KT 1/4SM -SN BKN001 OVC006 M15/M18 A2962
     RMK AO2=
K1S5 272015Z AUTO 23004KT 10SM SCT025 BKN060 OVC080 08/03 A2976
     RMK AO2 T00750033=
K1V6 272015Z AUTO 13005KT 10SM CLR M07/M13 A2994 RMK AO2=
K20V 272015Z AUTO 00000KT 10SM SCT050 BKN055 M02/M11 A2976 RMK
     AO2=
K2V5 272015Z AUTO 15017G21KT 10SM OVC032 M06/M13 A3016 RMK AO2
     T10651127=
K33V 272015Z AUTO 00000KT 10SM CLR M08/M11 A2972 RMK AO2=
K4BM 272016Z AUTO 23005KT 10SM SCT003 SCT120 M07/M11 A2969 RMK
     AO2=
K4I3 272016Z AUTO 25006KT 10SM SCT039 M07/M18 A3054 RMK AO2=
####018003691####
SAUS99 KWBC 272017 RRC
METAR
K5SM 272015Z AUTO 00000KT 1SM -SN OVC005 M07/M09 RMK AO2=
K7BM 272014Z AUTO 00000KT 5SM -SN SCT020 BKN044 OVC050 M07/M11
     A2969 RMK AO2=
KACB 272016Z AUTO 25008KT 10SM OVC031 M08/M16 A3049 RMK AO2
     T10851161=
KADC 272014Z AUTO 24006KT 10SM CLR M11/M18 A3041 RMK AO2=
KAFJ 272015Z AUTO 27008KT 10SM CLR M08/M19 A3052 RMK AO1=
KAIZ 272015Z AUTO 00000KT 10SM BKN110 M07/M19 A3055 RMK AO1=
KALM 272015Z AUTO 20006KT 10SM OVC029 03/M03 A2999 RMK AO2=
KAMN 272011Z AUTO 27011G14KT 10SM SCT040 M08/M17 A3052 RMK AO2
     T10811173=
KARG 272015Z AUTO 03011KT 10SM CLR M04/M12 A3058 RMK AO1=
KATS 272015Z AUTO 16010KT 10SM OVC014 M05/M06 A3018 RMK AO2=
KAUM 272016Z AUTO 22008KT 193V253 10SM CLR M13/M19 A3052 RMK
     AO2=
KAUO 272015Z AUTO 34006KT 10SM CLR 11/M04 A3035 RMK AO1=
KAWO 272015Z AUTO 02011KT 10SM OVC060 09/06 A2980 RMK AO1=
KBAX 272014Z AUTO 24009KT 10SM CLR M10/M17 A3051 RMK AO2
     T11021169=
KBCB 272015Z AUTO 30009G14KT 10SM SCT042 M02/M11 A3039 RMK AO2
     T10201112=
KBDH 272015Z AUTO 25006KT 10SM CLR M11/M18 A3050 RMK AO2=
KBDU 272017Z AUTO 00000KT 4SM -SN OVC015 M08/M12 A2993 RMK AO2=
KBGF 272015Z AUTO 02005KT 10SM CLR 01/M10 A3046 RMK=
KBHB 272015Z 23006KT 10SM CLR M04/M20 A3029 RMK AO1=
KBID 272015Z AUTO 26011G14KT 10SM CLR M02/M12 A3034 RMK AO1=
KBLM 272015Z AUTO 27010KT 10SM CLR M01/M13 A3040 RMK AO1=
KBNL 272015Z AUTO 03004KT 10SM CLR 13/02 A3033 RMK AO2=
KBTP 272015Z AUTO 30006KT 10SM CLR M10/M20 A3051 RMK AO1=
KBVU 272015Z AUTO VRB03KT 10SM CLR 16/M03 A2972 RMK AO2=
KBVX 272015Z AUTO 08007KT 10SM CLR M03/M16 A3056 RMK AO1=
KBXA 272015Z AUTO 02006KT 10SM 10/00 A3035 RMK AO2 T00950001=
KCAD 272015Z AUTO 23008KT 10SM SCT036 M09/M17 A3041 RMK AO2
     T10921171=
KCBG 272016Z AUTO 25006KT 10SM CLR M08/M17 A3046 RMK AO2=
KCCU 272015Z AUTO 28014G18KT 1 3/4SM -SN BKN006 OVC010 M09/M13
     A2964 RMK AO2 VIS 1V4=
KCDD 272008Z AUTO 24003KT 10SM CLR M08/M25 A3034 RMK AO2=
KCDN 272015Z AUTO VRB03KT 9SM CLR 12/M01 A3033 RMK AO2 TSNO=
KCFS 272015Z AUTO 24009G14KT 10SM CLR M09/M17 A3052 RMK AO2
     T10951175=
KCGZ 272015Z AUTO 22011G15KT 10SM CLR 23/M03 A2971 RMK AO1=
KCIU 272015Z AUTO 24010G15KT 10SM CLR M08/M17 A3040 RMK AO1=
KCKC 272013Z AUTO 20007KT 169V239 10SM CLR M08/M24 A3026 RMK
     AO2=
KCKN 272015Z AUTO 22011KT 10SM CLR M10/M16 A3042 RMK AO2=
KCNB 272014Z AUTO 25006KT 10SM CLR M09/M17 A3047 RMK AO2
     T10941175=
KCOD 272015Z 07003KT 10SM CLR M08/M13 A2983 RMK AO1=
KCOE 272015Z AUTO 09008G14KT 10SM CLR 09/M03 A2978 RMK AO1=
KCOQ 272017Z AUTO 21009KT 10SM CLR M08/M24 A3037 RMK AO2=
KCPW 272014Z AUTO 22016G22KT 1/4SM SN OVC001 M12/M13 A2973 RMK AO2
     P0001=
KCQM 272014Z AUTO 25008KT 10SM CLR M08/M22 A3033 RMK AO2=
KCQW 272015Z AUTO 00000KT 10SM CLR 10/M04 A3034 RMK AO2=
KCVN 272015Z AUTO 15011KT 7SM OVC014 M11/M14 A3016 RMK AO1=
KCVO 272015Z AUTO 18008KT 10SM SCT017 BKN028 OVC042 11/08 A2976
     RMK AO1 P0001=
KCVX 272015Z AUTO 25013G16KT 10SM BKN027 M10/M15 A3050 RMK AO2
     T11051155=
KCWI 272015Z AUTO 27005KT 10SM CLR M13/M19 A3064 RMK AO1=
KD57 272015Z AUTO 16011KT 10SM CLR M07/M16 A3018 RMK AO2=
KDKB 272015Z AUTO 27009KT 10SM CLR M13/M20 A3059 RMK AO2
     T11291203=
KDRM 272015Z AUTO 24009G16KT 10SM CLR M10/M17 A3042 RMK AO2
     T11051169=
KDTL 272015Z AUTO 22005KT 10SM CLR M10/M17 A3041 RMK AO2=
KDUH 272015Z AUTO 29004KT 10SM CLR M08/M21 A3059 RMK AO2=
KDVL 272015Z AUTO 22010KT 10SM CLR M11/M17 A3030 RMK AO1=
KDWU 272015Z AUTO 06005KT 10SM BKN047 M04/M14 A3057 RMK AO1=
KDYB 272015Z AUTO 33003KT 10SM CLR 11/01 A3036 RMK AO1=
####018003697####
SAUS99 KWBC 272017
METAR
K04W 272014Z AUTO 22006KT 10SM CLR M08/M18 A3045 RMK AO2=
K14Y 272018Z AUTO 23005KT 10SM CLR M09/M18 A3044 RMK AO2=
K21D 272010Z AUTO 22008KT 10SM CLR M08/M16 A3051 RMK AO2=
K9MN 272014Z AUTO 28008KT 10SM CLR M11/M18 A3052 RMK AO1
     T11141182=
KAEL 272012Z AUTO 23005KT 10SM CLR M13/M18 A3052 RMK AO2=
KAIT 272013Z AUTO 24008KT 10SM CLR M07/M25 A3039 RMK AO2=
KAQP 272014Z AUTO 25005KT 10SM CLR M08/M19 A3048 RMK AO2=
KAXV 272011Z AUTO 33005KT 10SM CLR M07/M17 A3059 RMK AO2=
KBBB 272014Z AUTO 24004KT 10SM CLR M09/M19 A3048 RMK AO2=
KBFW 272014Z AUTO 25006KT 10SM CLR M05/M23 A3034 RMK AO2=
KBJI 272012Z AUTO 27008KT 10SM CLR M09/M21 A3036 RMK AO2
     T10941209=
KCVH 272010Z AUTO 29007KT 10SM FEW026 BKN035 BKN043 17/12 A2986
     RMK AO1=
KD39 272012Z AUTO 27010KT 10SM CLR M10/M19 A3045 RMK AO2
     T11011193=
KD95 272013Z AUTO 27009KT 10SM CLR M09/M18 A3052 RMK AO2
     T10921185=
KDLZ 272027Z AUTO 31008KT 10SM CLR M09/M19 A3058 RMK AO2=
KDVP 272013Z AUTO 24004KT 10SM CLR M11/M18 A3045 RMK AO2
     T11151184=
KDXX 272014Z AUTO 25004KT 10SM CLR M09/M19 A3048 RMK AO2=
KDYT 272013Z AUTO 21012KT 10SM CLR M07/M19 A3044 RMK AO2=
KELO 272012Z AUTO 25005KT 10SM CLR M08/M24 A3031 RMK AO2=
KEVM 272012Z AUTO 25007KT 10SM CLR M08/M21 A3035 RMK AO2=
KFBL 272014Z AUTO 21005KT 10SM CLR M12/M18 A3052 RMK AO2=
KFFM 272014Z AUTO 28007KT 10SM CLR M10/M19 A3048 RMK AO2=
KFGN 272014Z AUTO 25013KT 10SM CLR M08/M22 A3028 RMK AO2=
KFKA 272015Z AUTO 27006KT 10SM CLR M14/M20 A3053 RMK AO2
     T11451205=
KGDB 272013Z AUTO 23004KT 7SM CLR M10/M17 A3051 RMK AO2
     T10981166=
KGHW 272013Z AUTO 25007KT 10SM CLR M10/M19 A3044 RMK AO2=
KGYL 272014Z AUTO 24005KT 10SM CLR M11/M17 A3051 RMK AO2
     T11081166=
KHCD 272012Z AUTO 25006KT 10SM CLR M11/M17 A3051 RMK AO2
     T11061173=
KHZX 272008Z AUTO 23006KT 10SM CLR M07/M20 A3041 RMK AO2=
KI69 272016Z AUTO 33003KT 10SM BKN046 M05/M17 A3058 RMK AO1=
KIKW 272013Z AUTO 26009KT 10SM SCT037 M07/M16 A3050 RMK AO2
     T10741165=
KIMS 272012Z AUTO 00000KT 10SM CLR M05/M20 A3060 RMK AO1=
KJKJ 272012Z AUTO 24008KT 10SM CLR M08/M19 A3044 RMK AO2=
KJMR 272015Z AUTO 23006KT 10SM CLR M08/M18 A3047 RMK AO2=
KLJF 272013Z AUTO 24004KT 10SM CLR M11/M18 A3049 RMK AO2=
KLXL 272014Z AUTO 22007KT 193V263 10SM CLR M08/M21 A3045 RMK
     AO2=
KLYV 272016Z AUTO 20004KT 10SM CLR M10/M17 A3048 RMK AO2=
KMDS 272010Z AUTO 20006KT 10SM CLR M11/M17 A3042 RMK AO2=
KMGG 272016Z AUTO 25005KT 10SM CLR M09/M16 A3050 RMK AO2
     T10891165=
KMJQ 272013Z AUTO 22005KT 10SM CLR M11/M17 A3049 RMK AO2=
KMOX 272013Z AUTO 20005KT 10SM CLR M09/M18 A3045 RMK AO2=
KMQJ 272015Z AUTO 27006KT 10SM CLR M06/M24 A3058 RMK AO1=
KMRT 272013Z AUTO 35005KT 10SM CLR M09/M20 A3057 RMK AO2
     T10921196=
KMVE 272014Z AUTO 00000KT 10SM CLR M06/M14 A3049 RMK AO2=
KMWM 272014Z AUTO 00000KT 10SM CLR M11/M17 A3048 RMK AO2=
KONA 272016Z AUTO 23007KT 10SM CLR M10/M18 A3057 RMK AO2=
KONZ 272014Z AUTO 22007KT 10SM CLR M08/M19 A3055 RMK AO2=
KORB 272013Z AUTO 00000KT 10SM CLR M07/M25 A3030 RMK AO2=
KOSC 272013Z AUTO 26009G14KT 10SM SCT049 M07/M17 A3045 RMK AO2
     T10701172=
KOVL 272013Z AUTO 24004KT 10SM CLR M10/M17 A3049 RMK AO2=
KOWA 272015Z AUTO 23005KT 10SM CLR M13/M19 A3052 RMK AO2=
KPCW 272012Z AUTO 21011KT 10SM CLR M09/M18 A3058 RMK AO2 $=
KPEX 272014Z AUTO 17005KT 10SM CLR M11/M21 A3047 RMK AO2
     T11141208=
KPNM 272014Z AUTO 19005KT 10SM CLR M08/M18 A3047 RMK AO2=
KPOV 272016Z AUTO 00000KT 10SM OVC039 M09/M19 A3052 RMK AO2
     T10941195=
KPQN 272014Z AUTO 26006KT 10SM CLR M12/M18 A3043 RMK AO2=
####018001343####
SAUS99 KWBC 272017 RRE
METAR
KRUT 272015Z 02005KT 10SM CLR M08/M24 A3033 RMK AO1=
KSBS 272015Z AUTO 00000KT 10SM CLR M03/M13 A2977 RMK AO1
     T10271132=
KSDY 272015Z AUTO 17013KT 10SM CLR M02/M15 A3010 RMK AO1=
KSEM 272015Z AUTO 05009KT 10SM 10/M03 A3037 RMK AO2=
KSFM 272015Z AUTO 28009KT 10SM CLR M04/M21 A3031 RMK AO1=
KSFZ 272015Z 28005KT 10SM CLR M04/M16 A3031 RMK AO1=
KSGT 272015Z AUTO 03008KT 10SM FEW030 SCT100 M01/M09 A3055 RMK
     AO1=
KSGU 272015Z AUTO 27006KT 10SM FEW120 13/M03 A2974 RMK AO1=
KSJX 272016Z AUTO 24013G17KT 10SM CLR M11/M17 A3045 RMK AO2
     T11101166=
KSKX 272015Z AUTO 26008KT 1 3/4SM SCT013 OVC021 M06/M11 A2988 RMK
     AO1=
KSLG 272015Z AUTO 06006KT 10SM OVC060 M07/M18 A3052 RMK AO1=
KSLH 272018Z AUTO 26009G14KT 10SM SCT030 M10/M16 A3045 RMK AO2
     T10991167=
KSMN 272015Z AUTO 00000KT 10SM FEW050 SCT060 BKN100 01/M05 A2976
     RMK AO1=
KSNH 272015Z AUTO VRB06KT 10SM CLR 02/M13 A3050 RMK=
KSOP 272015Z AUTO 02004KT 10SM CLR 08/M03 A3036 RMK AO1=
KSQI 272015Z AUTO 26004KT 10SM CLR M11/M18 A3063 RMK AO1=
KSTK 272010Z AUTO 17019G24KT 10SM OVC033 M06/M12 A3007 RMK AO2=
KSUE 272015Z AUTO 24010G14KT 220V280 10SM CLR M09/M18 A3048 RMK
     AO1=
KTEX 272015Z AUTO 31006KT 270V340 10SM SCT038 SCT047 BKN050
     M02/M13 A2974 RMK AO2 T10241135=
####018000459####
SPUS99 KWBC 272017
SPECI
KGCK 272014Z 15017KT 3SM -SN BKN024 OVC043 M10/M13 A3030 RMK AO2
     P0000 T11001133=
KCDS 272014Z AUTO 08006KT 2 1/2SM -SN SCT016 BKN022 OVC035 M08/M11
     A3039 RMK AO2 VIS 1 3/4V4 P0000 T10781111=
PAIW 272013Z AUTO 17026G33KT 3SM -RA BR OVC005 01/M01 A2999 RMK
     AO2 PK WND 18033/2005 RAB08SNE08 P0000 FZRANO=
PAVL 272014Z AUTO 08013KT 3/4SM -SN BR VV016 M04/M04 A3005 RMK AO2
     P0000 T10391044 TSNO $=
####018000175####
SACN92 CWAO 272000 RRB
WJW SA 2000 AUTO8 M M M 240/-05/-15/3310+16/M/     PK WND 3319 1932Z SOG 18 1002 88MM=
WLG SA 2000 AUTO8 M M M 208/-01/-06/0104/M/M 5000 23MM=

####018000212####
SACN91 CWAO 272000 RRB
WID SA 2000 AUTO8 M M M 229/-08/-12/2707/M/M 8005 88MM=
WIJ SA 2000 AUTO8 M M M 078/-14/-16/MMMM/M/     SOG 74 6017 87MM=
WIY SA 2000 AUTO8 M M M 221/-10/-21/2909/M/M 3005 31MM=

####018000150####
SACN82 CWAO 272000 RRA
MFX SA 2000 AUTO8 M M M 073/-29/-32/2503/M/     3013 64MM=
NSQ SA 2000 AUTO8 M M M 125/-26/-29/1904/M/     3013 27MM=

####018000106####
SACN94 CWAO 272000 RRB
WSQ SA 2000 AUTO8 M M M M/-30/-33/2805/M/M PK WND 3223 1902Z SOG 24 M 58MM=

####018000354####
SACN95 CWAO 272000 RRB
WTS SA 2000 AUTO8 M M M 258/-16/-20/3408/M/     SOG 13 5000 16MM=
WWF SA 2000 AUTO8 M M M 257/-14/-18/1911/M/     SOG 16 8025 30MM=
WWN SA 2000 AUTO8 M M M 123/-12/-18/2709/M/     SOG 19 3010 15MM=
WXA SA 2000 AUTO8 M M M 226/-07/-12/0502/M/     0000 39MM=
WXC SA 2000 AUTO8 M M M 215/-14/-22/2106/M/     3007 87MM=

####018000288####
SACN89 CWAO 272000 RRB
WAV SA 2000 AUTO8 M M M 246/-08/-12/0209/M/     SOG 10 0001 02MM=
WBJ SA 2000 AUTO8 M M M 184/-12/-16/2612/M/     8012 05MM=
WCO SA 2000 AUTO8 M M M 340/-10/-18/2808/M/     3002 01MM=
WDT SA 2000 AUTO8 M M M 212/-16/-23/2805/M/M PK WND MM17 1013 80MM=

####018000258####
SACN74 CWAO 272000 RRB
NBI SA 2000 AUTO8 M M M 992/-09/-11/2727+34/M/0002 PCPN 0.2MM PAST HR PK WND 2834 1959Z 8034 81MM=
NFR SA 2000 AUTO8 M M M 913/-25/-28/0312/M/     SOG 14 6012 99MM=
NGH SA 2000 AUTO8 M M M 893/-15/-17/3508/M/     6013 39MM=

####018000159####
SACN97 CWAO 272000 RRB
XLL SA 2000 AUTO8 M M M M/-09/-12/2003/M/     SOG 71 M 89MM=
XSR SA 2000 AUTO8 M M M 277/-09/-11/2505/M/     SOG 58 0002 40MM=

####018000096####
SACN78 CWAO 271900 RRE
TPQ SA 1900 AUTO8 M M M 318/-11/-18/2506/M/     SOG 36 0003 10MM=

####018000361####
SACN96 CWAO 272000 RRB
WXP SA 2000 AUTO8 M M M 017/-29/-32/2304/M/     SOG 05 3011 64MM=
WYF SA 2000 AUTO8 M M M 052/-26/-29/3325+31/M/M PK WND 3435 1930Z SOG 28 3037 33MM=
WZR SA 2000 AUTO8 M M M 243/-18/-21/0000/M/M 1010 14MM=
XEL SA 2000 AUTO8 M M M M/-13/-15/MMMM/M/M M 67MM=
XPS SA 2000 AUTO8 M M M 282/-10/-15/3205/M/     SOG 16 8001 77MM=

####018000131####
SACN45 CWAO 272000 RRA
METAR CYHK 272000Z AUTO 23019KT 1 1/4SM -SN BKN009 OVC017 M16/M17
 A2927 RMK VIS VRB 1/2-2 SLP921=

####018000096####
SACN44 CWAO 272000 RRB
METAR CYCY 272000Z AUTO 23004KT 9SM CLR M34/M37 A2958 RMK SLP021=

####018000228####
SACN78 CWAO 272000 RRB
TNK SA 2000 AUTO8 M M M 301/-10/-23/2505/M/     SOG 52 3003 16MM=
TPQ SA 2000 AUTO8 M M M 322/-11/-18/2508+15/M/     SOG 36 3002 03MM=
TWL SA 2000 AUTO8 M M M 351/-11/-18/2507/M/     3003 02MM=

####018000257####
SACN90 CWAO 272000 RRB
WEZ SA 2000 AUTO8 M M M 102/08/06/3104/M/0004 PCPN 0.2MM PAST HR 2013 74MM=
WFX SA 2000 AUTO8 M M M 163/-05/-07/2608/M/     5000 71MM=
WFZ SA 2000 AUTO8 M M M 162/-13/-17/2508+15/M/0002 PCPN 0.1MM PAST HR SOG 35 6022 73MM=

####018000110####
SACN88 CWAO 272000 RRB
ADS SA 2000 AUTO8 M M M 141/-05/-09/2716+21/M/     PK WND 2724 1920Z 3026 21MM=

####018000455####
SACN98 CWAO 272000 RRB
XKI SA 2000 AUTO8 M M M 255/-09/-19/MMMM/M/     SOG 43 6003 69MM=
XRB SA 2000 AUTO8 M M M 927/-28/-31/0913/M/     PK WND 0918 1946Z SOG 00 5001 10MM=
XTO SA 2000 AUTO8 M M M 335/-09/-18/MMMM/M/     3001 49MM=
XVN SA 2000 AUTO8 M M M 349/-10/-19/2513/M/     PK WND 2318 1932Z 3003 39MM=
XYH SA 2000 AUTO8 M M M 227/-01/-09/1901/M/M SOG 55 6016 33MM=
ZZJ SA 2000 AUTO8 M M M 271/-08/-15/2903/M/     SOG 37 8001 69MM=

####018000147####
SACN59 CWAO 272000 RRA
PBR SA 2000 AUTO8 M M M M/-08/M/MMMM/M/M M 4MMM=
WLB SA 2000 AUTO8 M M M 277/-12/-17/3107/M/     SOG 23 8001 74MM=

####018000236####
SACN63 CWAO 272000 RRB
NPV SA 2000 AUTO8 M M M 007/-25/-30/3518+29/M/0002 PK WND 3529 1959Z 1032 38MM=
WMT SA 2000 AUTO8 M M M 189/-08/-11/2809/M/M 8012 02MM=
ZHY SA 2000 AUTO8 M M M 218/-06/-13/2907/M/     SOG 33 6008 41MM=

####018000104####
SACN87 CWAO 272000 RRA
WEK SA 2000 AUTO8 M M M 247/08/M/0220/M/     PK WND 0227 1911Z 3010 2MMM=

####018000109####
SACN48 CWAO 272000 RRB
METAR CYMU 272000Z 18006KT 15SM FEW006 FEW270 M27/M32 A2991 RMK SF1CI0 SLP140=

####018000114####
SACN93 CWAO 272000 RRB
WOI SA 2000 AUTO8 M M M 217/-11/-16/2205/M/     PK WND 2520 1902Z SOG 10 1021 23MM=

####018000078####
SAID33 WABP 272000
METAR WABP 272000Z 00000KT 5000 HZ SCT014 24/23 Q1009=
####018000106####
SAUS42 KKEY 272017
MTRNQX
SPECI KNQX 272016Z 03009KT 10SM BKN008 23/19 A3007 RMK AO2 T02330194 
$
####018000116####
SAUS46 KLOX 272017
MTRNSI
SPECI KNSI 272015Z AUTO 31020G33KT 10SM OVC015 A2986 RMK AO2 PK WND 
32035/2005 $
####018000080####
SAAB31 LATI 272020
METAR LATI 272020Z VRB02KT 9999 SCT085 09/07 Q1008 NOSIG=
####018000488####
SAUS20 KNKA 272016
METAR PADK 272016Z AUTO 35013KT 10SM OVC043 02/M04 A3010 RMK AO1=
METAR PAGL 272016Z AUTO 16017KT 6SM OVC022 M01/M03 A3023 RMK AO1=
METAR PAHP 272016Z AUTO 16020KT 10SM BKN005 OVC041 M01/M03 A3014 RMK 
 AO1=
METAR PAUT 272015Z AUTO 11008KT 4SM -DZ OVC007 04/04 A3007 RMK 
 AO2 T00410040=
METAR KCFJ 272015Z AUTO 30004KT 10SM CLR M10/M23 A3060 RMK AO2 
     T11011231=
METAR K5A6 272015Z AUTO 05011KT 10SM CLR 03/M04 A3044 RMK AO2 
     T00251042=
####018002964####
SAUS20 KNKA 272016
METAR K1A9 272015Z AUTO 34008KT 10SM CLR 09/M02 A3036 RMK AO2 
 T00891024=
METAR K1K1 272015Z AUTO 09004KT 4SM -SN SCT039 BKN046 OVC060 
 M09/M15 A3051 RMK AO2 T10921146=
METAR K1P1 272015Z AUTO 27008KT 10SM CLR M06/M19 A3031 RMK AO2 
 T10591186=
METAR K3D2 272015Z AUTO 23008G14KT 200V260 10SM CLR M10/M20 A3044 
 RMK AO2 T10981201=
METAR K3J7 272015Z AUTO 33004KT 10SM CLR 13/00 A3028 RMK AO2=
METAR K40J 272015Z AUTO 04008KT 10SM CLR 12/05 A3027 RMK AO2 
 T01150049=
METAR K42J 272015Z AUTO 04008G16KT 9SM FEW047 13/03 A3026 RMK AO1 
 TSNO=
METAR K46D 272015Z AUTO 10SM CLR M11/M17 A3032 RMK AO2=
METAR K4M9 272015Z AUTO 05011G16KT 10SM M04/M11 A3059 RMK AO2=
METAR K6A2 272015Z AUTO 34005KT 10SM CLR 11/M02 A3033 RMK AO2=
METAR K6L4 272015Z AUTO 27006KT 10SM BKN041 OVC049 M06/M14 A3044 
 RMK AO2=
METAR K7W4 272015Z AUTO 05003KT 10SM BKN050 OVC060 02/M09 A3042 
 RMK AO1 T00171086=
METAR K82V 272015Z AUTO 18016G20KT 10SM OVC026 M08/M13 A2995 RMK 
 AO2=
SPECI KAIA 272015Z AUTO 18023G29KT 10SM OVC031 M07/M14 A3006 RMK AO2 
 PK WND 16031/1957 T10671139=
METAR KAQX 272015Z AUTO 00000KT 10SM CLR 12/02 A3032 RMK AO2=
METAR KASN 272015Z AUTO 33005KT 10SM CLR 06/M04 A3042 RMK AO2 
 T00621041=
METAR KAUN 272015Z AUTO 24005KT 10SM FEW035 SCT042 14/07 A2979 
 RMK AO1=
METAR KAXS 272015Z AUTO 05009KT 2SM -SN OVC007 M07/M10 A3046 RMK 
 AO2 T10691105=
METAR KAZC 272015Z AUTO 22005KT 10SM BKN060 OVC070 11/M05 A2975 
 RMK AO2 T01071054=
METAR KBCK 272015Z AUTO 26005KT 10SM CLR M09/M21 A3053 RMK AO2 
 T10931214=
METAR KBDN 272015Z AUTO 00000KT 1 1/2SM RA BKN011 OVC022 03/02 
 A2967 RMK AO2 P0003=
METAR KBEA 272015Z AUTO 05008KT 10SM OVC020 09/04 A3024 RMK AO2 
 T00910041=
METAR KBKS 272015Z AUTO 04008KT 10SM BKN018 OVC028 12/06 A3021 
 RMK AO1 T01190061=
METAR KBPC 272015Z AUTO 13009KT 10SM -SN OVC025 M07/M12 A3032 RMK 
 AO2=
METAR KBVS 272015Z AUTO 34005KT 8SM BKN038 BKN050 08/08 A2983 RMK 
 A01 P000=
METAR KCEY 272015Z AUTO 36007KT 10SM CLR M04/M14 A3057 RMK AO1 =
METAR KCGC 272015Z AUTO 05011G15KT 10SM CLR 17/06 A3019 RMK AO2=
METAR KCKF 272015Z AUTO 02004KT 10SM CLR 14/01 A3032 RMK AO2 
 T01390013=
METAR KCLI 272015Z AUTO 27009KT 10SM CLR M08/M20 A3048 RMK AO2=
METAR KCLK 272015Z AUTO 10SM -SN OVC018 M08/M12 A3045 RMK AO2 TSNO=
METAR KCNI 272015Z AUTO 28008KT 10SM CLR 04/M08 A3036 RMK AO2=
METAR KCVC 272015Z AUTO 01005KT 10SM CLR 12/M04 A3032 RMK AO2=
METAR KCWV 272015Z AUTO 03006KT 10SM CLR 11/03 A3034 RMK AO2=
METAR KCZT 272015Z AUTO 05006KT 2SM DZ OVC006 02/01 A3027 RMK AO2=
SPECI KDIJ 272015Z AUTO 00000KT 4SM -SN SCT001 BKN014 OVC042 M03/M07 
 A2974 RMK AO2 P0000=
METAR KDRI 272015Z AUTO 00000KT 10SM CLR 09/M02 A3036 RMK AO2 
 T00941025=
METAR KDUA 272015Z AUTO 05009KT 3SM -SN OVC010 M04/M06 A3048 RMK 
 AO2=
METAR KECS 272015Z AUTO 13017G20KT 10SM OVC029 M07/M14 A2998 RMK 
     AO2=
####018002974####
SAUS20 KNKA 272016
SPECI KOLM 272015Z 02006KT 10SM SCT008 SCT012 OVC019 09/08 A2974 RMK 
 AO2 T00940078=
METAR KONX 272015Z AUTO 04008KT 10SM SCT037 BKN042 04/M05 A3042 
 RMK AO2 T00391050=
METAR KOWP 272015Z AUTO 05007KT 1 1/2SM -SN OVC012 M07/M11 A3053 
 RMK AO2 T10661111=
METAR KPBH 272015Z AUTO 25008KT 10SM CLR M10/M21 A3038 RMK AO2 
 T11011211=
METAR KPCM 272015Z AUTO 05007KT 10SM OVC020 A3020 RMK AO2=
METAR KPEZ 272015Z AUTO 01009G14KT 10SM -SN OVC021 03/M02 A3029 
 RMK AO2 T00321022=
METAR KPHN 272019Z AUTO 28006KT 10SM CLR M09/M19 A3055 RMK AO2=
METAR KPKV 272020Z AUTO 05017KT 7SM OVC090 09/04 A3027 RMK AO2 
 T00890042=
METAR KPRO 272015Z AUTO 00000KT 10SM M11/M17 A3058 RMK AO2 
 T11131166=
METAR KPUJ 272015Z AUTO 34009KT 10SM CLR 06/M02 A3037 RMK AO2=
METAR KPVE 272015Z AUTO VRB03KT 10SM CLR M01/M16 A3049 RMK=
METAR KPVF 272015Z AUTO 31004KT 10SM FEW055 SCT070 10/02 A2980 RMK 
     AO1 =
METAR KPVJ 272015Z AUTO 05006KT 3/4SM -SN OVC010 M08/M10 A3049 
 RMK AO2 T10801098=
METAR KRBW 272015Z AUTO 36004KT 10SM CLR 12/02 A3035 RMK AO2=
METAR KRCX 272015Z AUTO 27007KT 10SM CLR M10/M21 A3046 RMK AO2 
 T10981206=
METAR KRPD 272015Z AUTO 24007KT 10SM CLR M11/M20 A3049 RMK AO2 
 T11071205=
METAR KRSN 272015Z AUTO 09004KT 10SM BKN090 03/M05 A3049 RMK AO2 
 T00311050=
METAR KRYW 272015Z AUTO 04006G14KT 10SM OVC018 00/M04 A3031 RMK 
 AO2 T00021039=
METAR KSCD 272015Z AUTO 04006KT 350V050 10SM CLR 07/M04 A3040 RMK 
     AO2 T00671036=
METAR KSMS 272015Z AUTO 00000KT 10SM CLR 12/01 A3034 RMK AO2=
METAR KSNL 272015Z AUTO 05003KT 3/4SM -SN BKN006 OVC012 M05/M07 
 A3051 RMK AO2=
METAR KSOW 272015Z AUTO 22023G28KT 10SM BKN090 10/M08 A2979 RMK AO2
=
METAR KSPL 272015Z AUTO 36006KT 3SM FEW030 FEW040 14/13 A3015 RMK 
 AO1=
METAR KSRB 272015Z AUTO 02008KT 10SM CLR M01/M11 A3047 RMK=
METAR KSTF 272015Z AUTO 01008KT 342V042 10SM CLR 04/M06 A3044 RMK 
     AO2=
METAR KSYI 272015Z AUTO 36005KT 10SM CLR 01/M11 A3049 RMK=
METAR KSZT 272015Z AUTO 01015G22KT 10SM SCT055 07/M05 A2985 RMK 
 AO2=
METAR KTPF 272015Z AUTO 05010KT 10SM OVC024 18/12 A3018 RMK AO2=
METAR KTTA 272015Z AUTO 00000KT 10SM CLR 08/M03 A3038 RMK AO2 
 T00781029=
METAR KTTF 272016Z AUTO 00000KT 10SM CLR M09/M19 A3057 RMK AO2=
SPECI KUAO 272015Z AUTO 19008KT 10SM SCT021 BKN031 BKN045 11/07 
 A2974 RMK AO2 T01060067=
METAR KUCY 272015Z AUTO 03007KT 10SM CLR M04/M11 A3056 RMK=
METAR KVDI 272015Z AUTO 08003KT 10SM CLR 12/03 A3033 RMK AO2=
METAR KVTI 272015Z AUTO 24003KT 10SM CLR M12/M18 A3062 RMK AO2 
 T11221185=
METAR KVWU 272009Z AUTO 22005KT 10SM CLR M10/M18 A3036 RMK AO2=
METAR KW31 272015Z AUTO 29007KT 10SM CLR 06/M09 A3039 RMK AO1 
 T00561090=
METAR KW63 272015Z AUTO 32005KT 10SM CLR 05/M07 A3040 RMK AO1=
METAR KZPH 272015Z AUTO 05008KT 10SM OVC023 15/07 A3020 RMK AO2=
METAR PAAK 272016Z 29021G25KT 10SM FEW013 SCT050 OVC065 03/01 A2998 
 RMK AO1=
####018002966####
SAUS20 KNKA 272016
METAR KEDE 272015Z AUTO 35007KT 10SM SCT043 08/M01 A3039 RMK AO2 
 T00811010=
METAR KEHY 272015Z AUTO 10SM CLR M03/M11 A2971 RMK AO2=
METAR KELK 272015Z AUTO 09008KT 5SM -SN OVC016 M08/M12 A3045 RMK 
 AO2=
METAR KETH 272016Z AUTO 00000KT 10SM CLR M11/M19 A3048 RMK AO2=
METAR KFBR 272015Z AUTO 10004KT 10SM BKN015 OVC090 M04/M08 A2978 
 RMK AO2 T10381078=
METAR KFEP 272015Z AUTO 21007KT 10SM CLR M12/M19 A3060 RMK AO2 
 T11251195=
METAR KFKS 272016Z AUTO 22009G14KT 190V270 10SM OVC026 M09/M14
 A3050 RMK AO2 T10931144=
METAR KFRR 272015Z AUTO 32007KT 10SM SCT060 00/M13 A3041 RMK AO1=
SPECI KFST 272015Z AUTO 05011KT 3SM BR OVC005 M03/M03 A3018 RMK AO2 
 T10281033=
METAR KFVX 272015Z AUTO 27004KT 10SM CLR 09/M10 A3039 RMK AO2 
 T00881102=
METAR KFWZ 272015Z AUTO 22009KT 10SM CLR M07/M11 RMK AO2=
METAR KGCM 272015Z AUTO 03009KT 3SM -SN M08/M12 A3059 RMK AO2 SKY 
 OBSCURED=
METAR KGEV 272015Z AUTO 28007KT 10SM CLR M01/M11 A3028 RMK AO2 
 T10101115=
METAR KGKT 272015Z AUTO 00000KT 10SM CLR M01/M09 A3045 RMK=
METAR KHAE 272015Z AUTO 33003KT 10SM CLR M08/M21 A3063 RMK AO2=
METAR KHZE 272015Z AUTO 18011G19KT 10SM CLR M07/M17 A3022 RMK AO2 =
METAR KI39 272015Z AUTO 04004KT 10SM BKN033 M06/M14 A3055 RMK AO2=
METAR KICL 272015Z AUTO 00000KT 10SM CLR M08/M18 A3058 RMK AO2=
METAR KIDI 272015Z AUTO 30007KT 260V330 10SM CLR M08/M18 A3050 RMK 
 A01=
METAR KIFA 272015Z AUTO 27004KT 5SM HZ CLR M13/M19 A3058 RMK AO2 
 T11321186=
METAR KIGQ 272015Z AUTO 25009KT 10SM CLR M09/M19 A3060 RMK AO2 
 T10931193=
METAR KIPJ 272015Z AUTO 23004KT 10SM SCT050 09/M04 A3034 RMK AO2 
 T00851044=
METAR KIXA 272015Z AUTO 32007KT 10SM CLR 07/M05 A3039 RMK AO2=
METAR KJFX 272015Z AUTO 06007KT 10SM UP CLR 06/M05 A3045 RMK A02 
 P-128=
METAR KLHB 272015Z AUTO 02005KT 10SM OVC026 03/M03 A3039 RMK AO2 
 T00261030=
METAR KLHM 272015Z AUTO 16009KT 10SM CLR 18/07 A2978 RMK AO1=
METAR KLVN 271941Z AUTO 25008KT 10SM CLR M12/M19 A3052 RMK AO2=
SPECI KLXV 272015Z AUTO 00000KT 1 3/4SM -SN BKN027 BKN033 OVC041 
 M07/M13 A2965 RMK AO2 SNB00 P0000 T10721128=
METAR KMCD 272015Z AUTO 24014G20KT 10SM OVC021 M11/M16 A3044 RMK
 AO2 T11111163=
METAR KMCJ 272015Z AUTO 36009KT 7SM OVC018 05/00 A3030 RMK AO1 =
METAR KMCX 272015Z AUTO 30006KT 10SM CLR M10/M17 A3061 RMK AO2 
 T10971171=
METAR KMDQ 272015Z AUTO 01008KT 330V040 10SM CLR 01/M09 A3046 RMK 
 AO2=
METAR KMFV 272015Z AUTO 34009KT 10SM SCT024 OVC033 00/M05 A3046 
 RMK AO2=
METAR KMKN 272015Z AUTO 04008KT 10SM OVC009 M05/M05 A3037 RMK AO2 
 T10461048=
METAR KMMI 272015Z AUTO 34004KT 10SM CLR 00/M08 A3047 RMK=
METAR KMQB 272015Z AUTO 31005KT 10SM CLR M13/M18 A3066 RMK AO2 
 T11271177=
METAR KMRC 272015Z AUTO 05008KT 01/M12 A3047 RMK=
METAR KMZH 272015Z AUTO 22007KT 10SM CLR M07/M21 A3040 RMK AO2=
METAR KOBE 272015Z AUTO 01010G16KT 5SM BR BKN008 BKN022 OVC027 
 13/12 A3016 RMK AO2=
####018000112####
SPUS90 KWBC 272018
SPECI KNSI 272015Z AUTO 31020G33KT 10SM OVC015 A2986 RMK AO2 PK
     WND 32035/2005 $=
####018000140####
SASA KAWN 272000 RRI
METAR SVMI 272000Z 05004KT 9999 FEW023 31/25 Q1013 NOSIG=
METAR SVPR 272000Z 11007KT 8000 DZ OVC040 ///// Q1014=
####018002670####
SAAK41 KNKA 272016
METAR PAAK 272016Z 29021G25KT 10SM FEW013 SCT050 OVC065 03/01 A2998 
 RMK AO1=
METAR PABL 272016Z AUTO 14013KT 10SM OVC023 01/M03 A3021 RMK AO1=
METAR PABV 272016Z AUTO 00000KT 10SM CLR M06/M07 A3047 RMK AO1=
METAR PADK 272016Z AUTO 35013KT 10SM OVC043 02/M04 A3010 RMK AO1=
METAR PAEM 272016Z AUTO 16016G22KT 10SM FEW009 OVC032 M01/M03 A3016 
 RMK AO1=
METAR PAFE 272016Z AUTO 19004KT 10SM CLR 06/M01 A3043 RMK AO1=
METAR PAFM 272016Z AUTO 21008KT 3SM FEW008 OVC021 M01/M01 A3026 RMK 
 AO1=
METAR PAGL 272016Z AUTO 16017KT 6SM OVC022 M01/M03 A3023 RMK AO1=
METAR PAGS 272016Z AUTO 00000KT 10SM CLR 04/M03 A3045 RMK AO1 PNO=
METAR PAHL 272016Z AUTO 18012KT 10SM OVC028 M01/M04 A3031 RMK AO1=
METAR PAHP 272016Z AUTO 16020KT 10SM BKN005 OVC041 M01/M03 A3014 RMK 
 AO1=
METAR PAHY 272016Z AUTO 10SM CLR 08/M06 A3031 RMK AO1=
METAR PAII 272016Z AUTO 12010KT 10SM BKN075 OVC090 02/01 A3032 RMK 
 AO1=
METAR PAIN 272016Z AUTO 00000KT 10SM CLR M09/M13 A3041 RMK AO1=
METAR PAJC 272016Z AUTO 12006KT 5SM SCT012 BKN017 OVC029 04/00 A3028 
 RMK AO1 P0001=
METAR PAKK 272016Z AUTO 20007KT 10SM OVC021 A3023 RMK AO1=
METAR PAKP 272016Z AUTO 22012KT 7SM FEW012 BKN028 OVC085 M06/M11 
 A3014 RMK AO1=
METAR PAMD 272016Z 14006KT 10SM BKN013 04/02 A3045 RMK AO1=
METAR PAMH 272016Z AUTO 00000KT 10SM CLR M14/M16 A3037 RMK AO1=
METAR PAMM 272016Z AUTO 36008KT 10SM CLR 08/M03 A3032 RMK AO1=
METAR PANI 272016Z AUTO 10008KT 10SM CLR M06/M08 A3034 RMK AO1=
METAR PANV 272016Z AUTO 15005KT 10SM OVC020 M02/M06 A3028 RMK AO1=
METAR PAPH 272016Z AUTO 13019G24KT 10SM BKN075 OVC085 04/M02 A3026 
 RMK AO1=
METAR PAPO 272016Z AUTO 03008KT 10SM OVC017 M13/M15 A3008 RMK AO1=
METAR PARC 272016Z AUTO 00000KT 10SM CLR M21/M34 A3011 RMK AO1=
METAR PASD 272016Z 04003KT 10SM OVC012 04/04 A3021 RMK AO1 
 WEA: -RA (KH)=
METAR PASK 272016Z AUTO 21018KT 10SM FEW050 OVC070 00/M02 A3019 RMK 
 AO1=
METAR PASM 272016Z AUTO 15014G19KT 10SM OVC030 M02/M06 A3022 RMK AO1=
METAR PATG 272016Z AUTO 08006KT 10SM OVC014 00/M02 A3031 RMK AO1=
METAR PAUN 272016Z AUTO 18010KT 10SM OVC022 M01/M04 A3029 RMK AO1=
METAR PAUT 272015Z AUTO 11008KT 4SM -DZ OVC007 04/04 A3007 RMK 
 AO2 T00410040=
SPECI PAVA 272015Z AUTO 16017KT 2 1/2SM -SN BR OVC005 00/M01 A3020 
 RMK AO2 VIS 1 1/2V4 P0000 FZRANO=
METAR PAVD 272016Z 00000KT 10SM FEW250 01/M07 A3047 RMK AO1 
 1947Z WEA: NONE TWR WND 00000KT=
METAR PAWG 272016Z 31006KT 10SM CLR 06/M04 A3039 RMK AO1 
 WEA:NONE (KB)=
METAR PAWS 272016Z AUTO 23003KT 10SM CLR M04/M09 A3043 RMK AO1=
METAR PAZK 272016Z AUTO 08004KT 10SM CLR M11/M12 A3035 RMK AO1=
####018003743####
SAUS99 KWBC 272018
METAR
K1A9 272015Z AUTO 34008KT 10SM CLR 09/M02 A3036 RMK AO2
     T00891024=
K1K1 272015Z AUTO 09004KT 4SM -SN SCT039 BKN046 OVC060 M09/M15
     A3051 RMK AO2 T10921146=
K1P1 272015Z AUTO 27008KT 10SM CLR M06/M19 A3031 RMK AO2
     T10591186=
K3D2 272015Z AUTO 23008G14KT 200V260 10SM CLR M10/M20 A3044 RMK
     AO2 T10981201=
K3J7 272015Z AUTO 33004KT 10SM CLR 13/00 A3028 RMK AO2=
K40J 272015Z AUTO 04008KT 10SM CLR 12/05 A3027 RMK AO2
     T01150049=
K42J 272015Z AUTO 04008G16KT 9SM FEW047 13/03 A3026 RMK AO1
     TSNO=
K46D 272015Z AUTO 10SM CLR M11/M17 A3032 RMK AO2=
K4M9 272015Z AUTO 05011G16KT 10SM M04/M11 A3059 RMK AO2=
K6A2 272015Z AUTO 34005KT 10SM CLR 11/M02 A3033 RMK AO2=
K6L4 272015Z AUTO 27006KT 10SM BKN041 OVC049 M06/M14 A3044 RMK
     AO2=
K7W4 272015Z AUTO 05003KT 10SM BKN050 OVC060 02/M09 A3042 RMK AO1
     T00171086=
K82V 272015Z AUTO 18016G20KT 10SM OVC026 M08/M13 A2995 RMK AO2=
KAQX 272015Z AUTO 00000KT 10SM CLR 12/02 A3032 RMK AO2=
KASN 272015Z AUTO 33005KT 10SM CLR 06/M04 A3042 RMK AO2
     T00621041=
KAUN 272015Z AUTO 24005KT 10SM FEW035 SCT042 14/07 A2979 RMK
     AO1=
KAXS 272015Z AUTO 05009KT 2SM -SN OVC007 M07/M10 A3046 RMK AO2
     T10691105=
KAZC 272015Z AUTO 22005KT 10SM BKN060 OVC070 11/M05 A2975 RMK AO2
     T01071054=
KBCK 272015Z AUTO 26005KT 10SM CLR M09/M21 A3053 RMK AO2
     T10931214=
KBDN 272015Z AUTO 00000KT 1 1/2SM RA BKN011 OVC022 03/02 A2967 RMK
     AO2 P0003=
KBEA 272015Z AUTO 05008KT 10SM OVC020 09/04 A3024 RMK AO2
     T00910041=
KBKS 272015Z AUTO 04008KT 10SM BKN018 OVC028 12/06 A3021 RMK AO1
     T01190061=
KBPC 272015Z AUTO 13009KT 10SM -SN OVC025 M07/M12 A3032 RMK
     AO2=
KBVS 272015Z AUTO 34005KT 8SM BKN038 BKN050 08/08 A2983 RMK A01
     P000=
KCEY 272015Z AUTO 36007KT 10SM CLR M04/M14 A3057 RMK AO1=
KCGC 272015Z AUTO 05011G15KT 10SM CLR 17/06 A3019 RMK AO2=
KCKF 272015Z AUTO 02004KT 10SM CLR 14/01 A3032 RMK AO2
     T01390013=
KCLI 272015Z AUTO 27009KT 10SM CLR M08/M20 A3048 RMK AO2=
KCLK 272015Z AUTO 10SM -SN OVC018 M08/M12 A3045 RMK AO2 TSNO=
KCNI 272015Z AUTO 28008KT 10SM CLR 04/M08 A3036 RMK AO2=
KCVC 272015Z AUTO 01005KT 10SM CLR 12/M04 A3032 RMK AO2=
KCWV 272015Z AUTO 03006KT 10SM CLR 11/03 A3034 RMK AO2=
KCZT 272015Z AUTO 05006KT 2SM DZ OVC006 02/01 A3027 RMK AO2=
KDRI 272015Z AUTO 00000KT 10SM CLR 09/M02 A3036 RMK AO2
     T00941025=
KDUA 272015Z AUTO 05009KT 3SM -SN OVC010 M04/M06 A3048 RMK AO2=
KECS 272015Z AUTO 13017G20KT 10SM OVC029 M07/M14 A2998 RMK AO2=
PADK 272016Z AUTO 35013KT 10SM OVC043 02/M04 A3010 RMK AO1=
PAGL 272016Z AUTO 16017KT 6SM OVC022 M01/M03 A3023 RMK AO1=
PAHP 272016Z AUTO 16020KT 10SM BKN005 OVC041 M01/M03 A3014 RMK
     AO1=
PAUT 272015Z AUTO 11008KT 4SM -DZ OVC007 04/04 A3007 RMK AO2
     T00410040=
KCFJ 272015Z AUTO 30004KT 10SM CLR M10/M23 A3060 RMK AO2
     T11011231=
K5A6 272015Z AUTO 05011KT 10SM CLR 03/M04 A3044 RMK AO2
     T00251042=
KONX 272015Z AUTO 04008KT 10SM SCT037 BKN042 04/M05 A3042 RMK AO2
     T00391050=
KOWP 272015Z AUTO 05007KT 1 1/2SM -SN OVC012 M07/M11 A3053 RMK AO2
     T10661111=
KPBH 272015Z AUTO 25008KT 10SM CLR M10/M21 A3038 RMK AO2
     T11011211=
KPCM 272015Z AUTO 05007KT 10SM OVC020 A3020 RMK AO2=
KPEZ 272015Z AUTO 01009G14KT 10SM -SN OVC021 03/M02 A3029 RMK AO2
     T00321022=
KPHN 272019Z AUTO 28006KT 10SM CLR M09/M19 A3055 RMK AO2=
KPKV 272020Z AUTO 05017KT 7SM OVC090 09/04 A3027 RMK AO2
     T00890042=
KPRO 272015Z AUTO 00000KT 10SM M11/M17 A3058 RMK AO2 T11131166=
KPUJ 272015Z AUTO 34009KT 10SM CLR 06/M02 A3037 RMK AO2=
KPVE 272015Z AUTO VRB03KT 10SM CLR M01/M16 A3049 RMK=
####018003706####
SAUS99 KWBC 272018 RRA
METAR
KPVF 272015Z AUTO 31004KT 10SM FEW055 SCT070 10/02 A2980 RMK
     AO1=
KPVJ 272015Z AUTO 05006KT 3/4SM -SN OVC010 M08/M10 A3049 RMK AO2
     T10801098=
KRBW 272015Z AUTO 36004KT 10SM CLR 12/02 A3035 RMK AO2=
KRCX 272015Z AUTO 27007KT 10SM CLR M10/M21 A3046 RMK AO2
     T10981206=
KRPD 272015Z AUTO 24007KT 10SM CLR M11/M20 A3049 RMK AO2
     T11071205=
KRSN 272015Z AUTO 09004KT 10SM BKN090 03/M05 A3049 RMK AO2
     T00311050=
KRYW 272015Z AUTO 04006G14KT 10SM OVC018 00/M04 A3031 RMK AO2
     T00021039=
KSCD 272015Z AUTO 04006KT 350V050 10SM CLR 07/M04 A3040 RMK AO2
     T00671036=
KSMS 272015Z AUTO 00000KT 10SM CLR 12/01 A3034 RMK AO2=
KSNL 272015Z AUTO 05003KT 3/4SM -SN BKN006 OVC012 M05/M07 A3051
     RMK AO2=
KSOW 272015Z AUTO 22023G28KT 10SM BKN090 10/M08 A2979 RMK AO2=
KSPL 272015Z AUTO 36006KT 3SM FEW030 FEW040 14/13 A3015 RMK
     AO1=
KSRB 272015Z AUTO 02008KT 10SM CLR M01/M11 A3047 RMK=
KSTF 272015Z AUTO 01008KT 342V042 10SM CLR 04/M06 A3044 RMK
     AO2=
KSYI 272015Z AUTO 36005KT 10SM CLR 01/M11 A3049 RMK=
KSZT 272015Z AUTO 01015G22KT 10SM SCT055 07/M05 A2985 RMK AO2=
KTPF 272015Z AUTO 05010KT 10SM OVC024 18/12 A3018 RMK AO2=
KTTA 272015Z AUTO 00000KT 10SM CLR 08/M03 A3038 RMK AO2
     T00781029=
KTTF 272016Z AUTO 00000KT 10SM CLR M09/M19 A3057 RMK AO2=
KUCY 272015Z AUTO 03007KT 10SM CLR M04/M11 A3056 RMK=
KVDI 272015Z AUTO 08003KT 10SM CLR 12/03 A3033 RMK AO2=
KVTI 272015Z AUTO 24003KT 10SM CLR M12/M18 A3062 RMK AO2
     T11221185=
KVWU 272009Z AUTO 22005KT 10SM CLR M10/M18 A3036 RMK AO2=
KW31 272015Z AUTO 29007KT 10SM CLR 06/M09 A3039 RMK AO1
     T00561090=
KW63 272015Z AUTO 32005KT 10SM CLR 05/M07 A3040 RMK AO1=
KZPH 272015Z AUTO 05008KT 10SM OVC023 15/07 A3020 RMK AO2=
PAAK 272016Z 29021G25KT 10SM FEW013 SCT050 OVC065 03/01 A2998 RMK
     AO1=
KEDE 272015Z AUTO 35007KT 10SM SCT043 08/M01 A3039 RMK AO2
     T00811010=
KEHY 272015Z AUTO 10SM CLR M03/M11 A2971 RMK AO2=
KELK 272015Z AUTO 09008KT 5SM -SN OVC016 M08/M12 A3045 RMK AO2=
KETH 272016Z AUTO 00000KT 10SM CLR M11/M19 A3048 RMK AO2=
KFBR 272015Z AUTO 10004KT 10SM BKN015 OVC090 M04/M08 A2978 RMK AO2
     T10381078=
KFEP 272015Z AUTO 21007KT 10SM CLR M12/M19 A3060 RMK AO2
     T11251195=
KFKS 272016Z AUTO 22009G14KT 190V270 10SM OVC026 M09/M14 A3050 RMK
     AO2 T10931144=
KFRR 272015Z AUTO 32007KT 10SM SCT060 00/M13 A3041 RMK AO1=
KFVX 272015Z AUTO 27004KT 10SM CLR 09/M10 A3039 RMK AO2
     T00881102=
KFWZ 272015Z AUTO 22009KT 10SM CLR M07/M11 RMK AO2=
KGCM 272015Z AUTO 03009KT 3SM -SN M08/M12 A3059 RMK AO2 SKY
     OBSCURED=
KGEV 272015Z AUTO 28007KT 10SM CLR M01/M11 A3028 RMK AO2
     T10101115=
KGKT 272015Z AUTO 00000KT 10SM CLR M01/M09 A3045 RMK=
KHAE 272015Z AUTO 33003KT 10SM CLR M08/M21 A3063 RMK AO2=
KHZE 272015Z AUTO 18011G19KT 10SM CLR M07/M17 A3022 RMK AO2=
KI39 272015Z AUTO 04004KT 10SM BKN033 M06/M14 A3055 RMK AO2=
KICL 272015Z AUTO 00000KT 10SM CLR M08/M18 A3058 RMK AO2=
KIDI 272015Z AUTO 30007KT 260V330 10SM CLR M08/M18 A3050 RMK
     A01=
KIFA 272015Z AUTO 27004KT 5SM HZ CLR M13/M19 A3058 RMK AO2
     T11321186=
KIGQ 272015Z AUTO 25009KT 10SM CLR M09/M19 A3060 RMK AO2
     T10931193=
KIPJ 272015Z AUTO 23004KT 10SM SCT050 09/M04 A3034 RMK AO2
     T00851044=
KIXA 272015Z AUTO 32007KT 10SM CLR 07/M05 A3039 RMK AO2=
KJFX 272015Z AUTO 06007KT 10SM UP CLR 06/M05 A3045 RMK A02
     P-128=
KLHB 272015Z AUTO 02005KT 10SM OVC026 03/M03 A3039 RMK AO2
     T00261030=
KLHM 272015Z AUTO 16009KT 10SM CLR 18/07 A2978 RMK AO1=
KLVN 271941Z AUTO 25008KT 10SM CLR M12/M19 A3052 RMK AO2=
####018000567####
SACN89 KWBC 272018
METAR CWAV 272000Z AUTO 02009KT M08/M12 RMK AO1 SOG 10 0001 SLP246
T10801122=
METAR CWCO 272000Z AUTO 28008KT M10/M18 RMK AO1 SLP340 T11001181
53002=
METAR CWDT 272000Z AUTO 28005KT M16/M23 RMK AO1 17 1013 SLP212
T11581230=
METAR CWCO 272000Z AUTO 28008KT M10/M18 RMK AO1 SLP340 T11001181
53002=
METAR CWDT 272000Z AUTO 28005KT M16/M23 RMK AO1 17 1013 SLP212
T11581230=
METAR CWDT 272000Z AUTO 28005KT M16/M23 RMK AO1 17 1013 SLP212
T11581230=
METAR CWDT 272000Z AUTO 28005KT M16/M23 RMK AO1 17 1013 SLP212
T11581230=
####018000083####
SACN93 KWBC 272018
METAR CWPF 272015Z AUTO 36010G16KT 08/06 RMK AO1 T00810058=
####018000115####
SACN90 KWBC 272018
METAR CWEZ 272000Z AUTO 31004KT 08/06 RMK AO1 2PAST HR 2013 SLP102
P0001 T00770064 50004=
####018000247####
SACN91 KWBC 272018
METAR CWID 272000Z AUTO 27007KT M08/M12 RMK AO1 SLP229 T10781118
58005=
METAR CWIJ 272000Z AUTO M14/M16 RMK AO1 SOG 74 6017 SLP078
T11381157=
METAR CWIY 272000Z AUTO 29009KT M10/M21 RMK AO1 SLP221 T11031211
53005=
####018000189####
SACN87 KWBC 272018
METAR CWLB 272000Z AUTO 31007KT M12/M17 RMK AO1 SOG 23 8001 SLP277
T11171174=
METAR CWEK 272000Z AUTO 02020KT 08/ RMK AO1 PK WND 02027/1911
SLP247 T0082 53010=
####018000124####
SACN92 KWBC 272018
METAR CWJW 272000Z AUTO 33010G16KT M05/M15 RMK AO1 SOG 18 1002 PK
WND 33019/1932 SLP240 T10481148=
####018000171####
SACN97 KWBC 272018
METAR CXLL 272000Z AUTO 20003KT M09/M12 RMK AO1 SOG 71 T10881119=
METAR CXSR 272000Z AUTO 25005KT M09/M11 RMK AO1 SOG 58 0002 SLP277
T10941110=
####018003179####
SAUS99 KWBC 272018 RRB
METAR
KMCD 272015Z AUTO 24014G20KT 10SM OVC021 M11/M16 A3044 RMK AO2
     T11111163=
KMCJ 272015Z AUTO 36009KT 7SM OVC018 05/00 A3030 RMK AO1=
KMCX 272015Z AUTO 30006KT 10SM CLR M10/M17 A3061 RMK AO2
     T10971171=
KMDQ 272015Z AUTO 01008KT 330V040 10SM CLR 01/M09 A3046 RMK
     AO2=
KMFV 272015Z AUTO 34009KT 10SM SCT024 OVC033 00/M05 A3046 RMK
     AO2=
KMKN 272015Z AUTO 04008KT 10SM OVC009 M05/M05 A3037 RMK AO2
     T10461048=
KMMI 272015Z AUTO 34004KT 10SM CLR 00/M08 A3047 RMK=
KMQB 272015Z AUTO 31005KT 10SM CLR M13/M18 A3066 RMK AO2
     T11271177=
KMRC 272015Z AUTO 05008KT 01/M12 A3047 RMK=
KMZH 272015Z AUTO 22007KT 10SM CLR M07/M21 A3040 RMK AO2=
KOBE 272015Z AUTO 01010G16KT 5SM BR BKN008 BKN022 OVC027 13/12
     A3016 RMK AO2=
PAAK 272016Z 29021G25KT 10SM FEW013 SCT050 OVC065 03/01 A2998 RMK
     AO1=
PABL 272016Z AUTO 14013KT 10SM OVC023 01/M03 A3021 RMK AO1=
PABV 272016Z AUTO 00000KT 10SM CLR M06/M07 A3047 RMK AO1=
PADK 272016Z AUTO 35013KT 10SM OVC043 02/M04 A3010 RMK AO1=
PAEM 272016Z AUTO 16016G22KT 10SM FEW009 OVC032 M01/M03 A3016 RMK
     AO1=
PAFE 272016Z AUTO 19004KT 10SM CLR 06/M01 A3043 RMK AO1=
PAFM 272016Z AUTO 21008KT 3SM FEW008 OVC021 M01/M01 A3026 RMK
     AO1=
PAGL 272016Z AUTO 16017KT 6SM OVC022 M01/M03 A3023 RMK AO1=
PAGS 272016Z AUTO 00000KT 10SM CLR 04/M03 A3045 RMK AO1 PNO=
PAHL 272016Z AUTO 18012KT 10SM OVC028 M01/M04 A3031 RMK AO1=
PAHP 272016Z AUTO 16020KT 10SM BKN005 OVC041 M01/M03 A3014 RMK
     AO1=
PAHY 272016Z AUTO 10SM CLR 08/M06 A3031 RMK AO1=
PAII 272016Z AUTO 12010KT 10SM BKN075 OVC090 02/01 A3032 RMK
     AO1=
PAIN 272016Z AUTO 00000KT 10SM CLR M09/M13 A3041 RMK AO1=
PAJC 272016Z AUTO 12006KT 5SM SCT012 BKN017 OVC029 04/00 A3028 RMK
     AO1 P0001=
PAKK 272016Z AUTO 20007KT 10SM OVC021 A3023 RMK AO1=
PAKP 272016Z AUTO 22012KT 7SM FEW012 BKN028 OVC085 M06/M11 A3014
     RMK AO1=
PAMD 272016Z 14006KT 10SM BKN013 04/02 A3045 RMK AO1=
PAMH 272016Z AUTO 00000KT 10SM CLR M14/M16 A3037 RMK AO1=
PAMM 272016Z AUTO 36008KT 10SM CLR 08/M03 A3032 RMK AO1=
PANI 272016Z AUTO 10008KT 10SM CLR M06/M08 A3034 RMK AO1=
PANV 272016Z AUTO 15005KT 10SM OVC020 M02/M06 A3028 RMK AO1=
PAPH 272016Z AUTO 13019G24KT 10SM BKN075 OVC085 04/M02 A3026 RMK
     AO1=
PAPO 272016Z AUTO 03008KT 10SM OVC017 M13/M15 A3008 RMK AO1=
PARC 272016Z AUTO 00000KT 10SM CLR M21/M34 A3011 RMK AO1=
PASD 272016Z 04003KT 10SM OVC012 04/04 A3021 RMK AO1 WEA: -RA
     (KH)=
PASK 272016Z AUTO 21018KT 10SM FEW050 OVC070 00/M02 A3019 RMK
     AO1=
PASM 272016Z AUTO 15014G19KT 10SM OVC030 M02/M06 A3022 RMK AO1=
PATG 272016Z AUTO 08006KT 10SM OVC014 00/M02 A3031 RMK AO1=
PAUN 272016Z AUTO 18010KT 10SM OVC022 M01/M04 A3029 RMK AO1=
PAUT 272015Z AUTO 11008KT 4SM -DZ OVC007 04/04 A3007 RMK AO2
     T00410040=
PAVD 272016Z 00000KT 10SM FEW250 01/M07 A3047 RMK AO1 1947Z WEA:
     NONE TWR WND 00000KT=
PAWG 272016Z 31006KT 10SM CLR 06/M04 A3039 RMK AO1 WEA:NONE
     (KB)=
PAWS 272016Z AUTO 23003KT 10SM CLR M04/M09 A3043 RMK AO1=
PAZK 272016Z AUTO 08004KT 10SM CLR M11/M12 A3035 RMK AO1=
####018000255####
SACN95 KWBC 272018
METAR CWWF 272000Z AUTO 19011KT M14/M18 RMK AO1 SOG 16 8025 SLP257
T11431180=
METAR CWXA 272000Z AUTO 05002KT M07/M12 RMK AO1 SLP226 T10731119
50000=
METAR CWXC 272000Z AUTO 21006KT M14/M22 RMK AO1 SLP215 T11381217
53007=
####018000103####
SACN78 KWBC 272018
METAR CTNK 272000Z AUTO 25005KT M10/M23 RMK AO1 SOG 52 3003 SLP301
T11011226=
####018000701####
SPUS99 KWBC 272018
SPECI
KAIA 272015Z AUTO 18023G29KT 10SM OVC031 M07/M14 A3006 RMK AO2 PK
     WND 16031/1957 T10671139=
KDIJ 272015Z AUTO 00000KT 4SM -SN SCT001 BKN014 OVC042 M03/M07
     A2974 RMK AO2 P0000=
KOLM 272015Z 02006KT 10SM SCT008 SCT012 OVC019 09/08 A2974 RMK AO2
     T00940078=
KUAO 272015Z AUTO 19008KT 10SM SCT021 BKN031 BKN045 11/07 A2974
     RMK AO2 T01060067=
KFST 272015Z AUTO 05011KT 3SM BR OVC005 M03/M03 A3018 RMK AO2
     T10281033=
KLXV 272015Z AUTO 00000KT 1 3/4SM -SN BKN027 BKN033 OVC041 M07/M13
     A2965 RMK AO2 SNB00 P0000 T10721128=
PAVA 272015Z AUTO 16017KT 2 1/2SM -SN BR OVC005 00/M01 A3020 RMK
     AO2 VIS 1 1/2V4 P0000 FZRANO=
####018003723####
SAUS70 KWBC 272018
METAR
K04W 272014Z AUTO 22006KT 10SM CLR M08/M18 A3045 RMK AO2=
K14Y 272018Z AUTO 23005KT 10SM CLR M09/M18 A3044 RMK AO2=
K21D 272010Z AUTO 22008KT 10SM CLR M08/M16 A3051 RMK AO2=
KAEL 272012Z AUTO 23005KT 10SM CLR M13/M18 A3052 RMK AO2=
KAIT 272013Z AUTO 24008KT 10SM CLR M07/M25 A3039 RMK AO2=
KAQP 272014Z AUTO 25005KT 10SM CLR M08/M19 A3048 RMK AO2=
KAXV 272011Z AUTO 33005KT 10SM CLR M07/M17 A3059 RMK AO2=
KBBB 272014Z AUTO 24004KT 10SM CLR M09/M19 A3048 RMK AO2=
KBFW 272014Z AUTO 25006KT 10SM CLR M05/M23 A3034 RMK AO2=
KBJI 272012Z AUTO 27008KT 10SM CLR M09/M21 A3036 RMK AO2
     T10941209=
KCVH 272010Z AUTO 29007KT 10SM FEW026 BKN035 BKN043 17/12 A2986
     RMK AO1=
KD39 272012Z AUTO 27010KT 10SM CLR M10/M19 A3045 RMK AO2
     T11011193=
KD95 272013Z AUTO 27009KT 10SM CLR M09/M18 A3052 RMK AO2
     T10921185=
KDLZ 272027Z AUTO 31008KT 10SM CLR M09/M19 A3058 RMK AO2=
KDVP 272013Z AUTO 24004KT 10SM CLR M11/M18 A3045 RMK AO2
     T11151184=
KDXX 272014Z AUTO 25004KT 10SM CLR M09/M19 A3048 RMK AO2=
KDYT 272013Z AUTO 21012KT 10SM CLR M07/M19 A3044 RMK AO2=
KELO 272012Z AUTO 25005KT 10SM CLR M08/M24 A3031 RMK AO2=
KEVM 272012Z AUTO 25007KT 10SM CLR M08/M21 A3035 RMK AO2=
KFBL 272014Z AUTO 21005KT 10SM CLR M12/M18 A3052 RMK AO2=
KFFM 272014Z AUTO 28007KT 10SM CLR M10/M19 A3048 RMK AO2=
KFGN 272014Z AUTO 25013KT 10SM CLR M08/M22 A3028 RMK AO2=
KFKA 272015Z AUTO 27006KT 10SM CLR M14/M20 A3053 RMK AO2
     T11451205=
KGDB 272013Z AUTO 23004KT 7SM CLR M10/M17 A3051 RMK AO2
     T10981166=
KGHW 272013Z AUTO 25007KT 10SM CLR M10/M19 A3044 RMK AO2=
KGYL 272014Z AUTO 24005KT 10SM CLR M11/M17 A3051 RMK AO2
     T11081166=
KHCD 272012Z AUTO 25006KT 10SM CLR M11/M17 A3051 RMK AO2
     T11061173=
KHZX 272008Z AUTO 23006KT 10SM CLR M07/M20 A3041 RMK AO2=
KI69 272016Z AUTO 33003KT 10SM BKN046 M05/M17 A3058 RMK AO1=
KJKJ 272012Z AUTO 24008KT 10SM CLR M08/M19 A3044 RMK AO2=
KJMR 272015Z AUTO 23006KT 10SM CLR M08/M18 A3047 RMK AO2=
KLJF 272013Z AUTO 24004KT 10SM CLR M11/M18 A3049 RMK AO2=
KLXL 272014Z AUTO 22007KT 193V263 10SM CLR M08/M21 A3045 RMK
     AO2=
KMDS 272010Z AUTO 20006KT 10SM CLR M11/M17 A3042 RMK AO2=
KMGG 272016Z AUTO 25005KT 10SM CLR M09/M16 A3050 RMK AO2
     T10891165=
KMJQ 272013Z AUTO 22005KT 10SM CLR M11/M17 A3049 RMK AO2=
KMOX 272013Z AUTO 20005KT 10SM CLR M09/M18 A3045 RMK AO2=
KMQJ 272015Z AUTO 27006KT 10SM CLR M06/M24 A3058 RMK AO1=
KMVE 272014Z AUTO 00000KT 10SM CLR M06/M14 A3049 RMK AO2=
KMWM 272014Z AUTO 00000KT 10SM CLR M11/M17 A3048 RMK AO2=
KONA 272016Z AUTO 23007KT 10SM CLR M10/M18 A3057 RMK AO2=
KONZ 272014Z AUTO 22007KT 10SM CLR M08/M19 A3055 RMK AO2=
KORB 272013Z AUTO 00000KT 10SM CLR M07/M25 A3030 RMK AO2=
KOSC 272013Z AUTO 26009G14KT 10SM SCT049 M07/M17 A3045 RMK AO2
     T10701172=
KOVL 272013Z AUTO 24004KT 10SM CLR M10/M17 A3049 RMK AO2=
KOWA 272015Z AUTO 23005KT 10SM CLR M13/M19 A3052 RMK AO2=
KPCW 272012Z AUTO 21011KT 10SM CLR M09/M18 A3058 RMK AO2 $=
KPEX 272014Z AUTO 17005KT 10SM CLR M11/M21 A3047 RMK AO2
     T11141208=
KPNM 272014Z AUTO 19005KT 10SM CLR M08/M18 A3047 RMK AO2=
KPQN 272014Z AUTO 26006KT 10SM CLR M12/M18 A3043 RMK AO2=
KPWC 272014Z AUTO 20005KT 10SM CLR M09/M19 A3041 RMK AO2=
KRMY 272013Z AUTO 23007KT 10SM SCT044 M09/M19 A3053 RMK AO2
     T10951189=
KROX 272014Z AUTO 24009KT 10SM CLR M11/M18 A3034 RMK AO2=
KRRT 272014Z AUTO 23012G15KT 10SM CLR M11/M19 A3033 RMK AO2=
KRZT 272015Z AUTO 32011KT 10SM CLR M07/M17 A3060 RMK AO2=
KSAZ 272013Z AUTO 28005KT 10SM CLR M09/M19 A3041 RMK AO2=
KSGS 272010Z AUTO 22006KT 10SM CLR M09/M18 A3052 RMK AO2
     T10921179=
####018003737####
SAUS70 KWBC 272018 RRB
METAR
KLCK 272015Z AUTO 27009KT 10SM OVC040 M07/M16 A3059 RMK AO2
     T10751164=
KLDM 272014Z AUTO 24011G16KT 10SM BKN029 M08/M16 A3053 RMK AO2
     T10841161=
KLEW 272015Z AUTO 31010G14KT 10SM CLR M05/M21 A3029 RMK AO1=
KLGD 272015Z AUTO 20007KT 10SM SCT021 BKN028 08/00 A2969 RMK
     AO1=
KLKV 272015Z 32008KT 10SM SCT034 BKN055 OVC100 06/00 A2969 RMK
     AO1=
KLMO 272014Z AUTO 01004KT 10SM -SN BKN017 M03/M12 A2997 RMK AO2
     T10301125=
KLPC 272015Z AUTO 30013G22KT 10SM OVC021 17/09 A2988 RMK AO1=
KLWA 272015Z AUTO 24009KT 10SM SCT021 SCT029 BKN036 M08/M17 A3057
     RMK AO2 T10781168=
KM91 272015Z AUTO 06010KT 030V100 10SM CLR M03/M12 A3053 RMK=
KMBL 272015Z AUTO 26010G17KT 10SM BKN030 M09/M18 A3051 RMK AO1=
KMEZ 272015Z AUTO 02007KT 5SM SCT018 BKN030 OVC035 M01/M10 A3048
     RMK AO2=
KMGN 272014Z AUTO 26009G15KT 230V290 10SM CLR M10/M16 A3046 RMK
     AO2 T11061165=
KMJX 272015Z AUTO 30010KT 10SM CLR M01/M11 A3042 RMK AO1=
KMKT 272015Z AUTO 26007KT 10SM CLR M12/M20 A3052 RMK AO1=
KMKY 272015Z AUTO 04013KT 10SM BKN019 OVC026 19/13 A3012 RMK
     AO1=
KMML 272015Z AUTO 28007KT 10SM CLR M11/M19 A3049 RMK AO1=
KMNH 272016Z AUTO 20011KT 10SM CLR M10/M15 A2980 RMK AO2=
KMNI 272015Z AUTO 04006KT 10SM CLR 12/M01 A3034 RMK AO2=
KMNM 272015Z AUTO 29007KT 250V310 10SM CLR M08/M19 A3045 RMK
     AO1=
KMOP 272014Z AUTO 22010KT 10SM BKN040 M07/M17 A3050 RMK AO2
     T10721167=
KMRF 272015Z AUTO 06012KT 10SM OVC010 00/M03 A3005 RMK AO1=
KMSV 272015Z AUTO 29012G19KT 10SM CLR M07/M18 A3032 RMK AO1=
KMVN 272015Z AUTO 36003KT 10SM CLR M07/M14 A3062 RMK AO1=
KOAJ 272015Z AUTO 01007KT 10SM FEW044 09/M01 A3038 RMK AO1=
KOCH 272015Z AUTO 07005KT 10SM FEW095 04/M05 A3040 RMK AO1=
KOEB 272014Z AUTO 28007KT 10SM OVC042 M09/M18 A3055 RMK AO2
     T10861181=
KOKK 272015Z AUTO 27008KT 10SM CLR M09/M13 A3060 RMK AO1=
KOLU 272015Z AUTO 20006KT 10SM CLR M07/M19 A3049 RMK AO1=
KOTG 272015Z AUTO 22007KT 10SM CLR M03/M19 A3049 RMK AO1=
KOTH 272015Z 27007KT 10SM FEW023 BKN040 OVC047 11/09 A2983 RMK AO1
     P0001=
KOZW 272015Z AUTO 26009KT 10SM CLR M09/M19 A3052 RMK AO2
     T10921187=
K04V 272015Z AUTO 11007KT 3SM -SN OVC016 M04/M08 A2978 RMK AO2=
K0A9 272015Z AUTO 30005KT 10SM FEW025 OVC034 M02/M08 A3042 RMK=
K0CO 272015Z AUTO 30017G22KT 1/4SM -SN BKN001 OVC006 M15/M18 A2962
     RMK AO2=
K1S5 272015Z AUTO 23004KT 10SM SCT025 BKN060 OVC080 08/03 A2976
     RMK AO2 T00750033=
K1V6 272015Z AUTO 13005KT 10SM CLR M07/M13 A2994 RMK AO2=
K20V 272015Z AUTO 00000KT 10SM SCT050 BKN055 M02/M11 A2976 RMK
     AO2=
K2V5 272015Z AUTO 15017G21KT 10SM OVC032 M06/M13 A3016 RMK AO2
     T10651127=
K33V 272015Z AUTO 00000KT 10SM CLR M08/M11 A2972 RMK AO2=
K4I3 272016Z AUTO 25006KT 10SM SCT039 M07/M18 A3054 RMK AO2=
K5SM 272015Z AUTO 00000KT 1SM -SN OVC005 M07/M09 RMK AO2=
K7BM 272014Z AUTO 00000KT 5SM -SN SCT020 BKN044 OVC050 M07/M11
     A2969 RMK AO2=
KACB 272016Z AUTO 25008KT 10SM OVC031 M08/M16 A3049 RMK AO2
     T10851161=
KADC 272014Z AUTO 24006KT 10SM CLR M11/M18 A3041 RMK AO2=
KAFJ 272015Z AUTO 27008KT 10SM CLR M08/M19 A3052 RMK AO1=
KAIZ 272015Z AUTO 00000KT 10SM BKN110 M07/M19 A3055 RMK AO1=
KALM 272015Z AUTO 20006KT 10SM OVC029 03/M03 A2999 RMK AO2=
KAMN 272011Z AUTO 27011G14KT 10SM SCT040 M08/M17 A3052 RMK AO2
     T10811173=
KARG 272015Z AUTO 03011KT 10SM CLR M04/M12 A3058 RMK AO1=
KATS 272015Z AUTO 16010KT 10SM OVC014 M05/M06 A3018 RMK AO2=
KAUM 272016Z AUTO 22008KT 193V253 10SM CLR M13/M19 A3052 RMK
     AO2=
KAUO 272015Z AUTO 34006KT 10SM CLR 11/M04 A3035 RMK AO1=
KAWO 272015Z AUTO 02011KT 10SM OVC060 09/06 A2980 RMK AO1=
####018003688####
SAUS70 KWBC 272018 RRA
METAR
KSYM 272010Z AUTO VRB04G10KT 10SM CLR M06/M15 A3058 RMK AO2=
KTEW 272014Z AUTO 24007KT 10SM SCT041 M08/M19 A3053 RMK AO2
     T10851188=
KTOB 272014Z AUTO 24007KT 10SM CLR M14/M18 A3050 RMK AO2=
KTWM 272014Z AUTO 24008KT 10SM CLR M06/M18 A3035 RMK AO2=
KULM 272014Z AUTO 30004KT 10SM CLR M12/M19 A3052 RMK AO2=
KVVV 272014Z AUTO 22005KT 10SM CLR M09/M20 A3046 RMK AO2=
KY63 272014Z AUTO 24005KT 10SM CLR M12/M18 A3045 RMK AO2
     T11211176=
KY70 272013Z AUTO 25009KT 10SM OVC039 M07/M15 A3052 RMK AO2
     T10721154=
KFAM 272015Z AUTO 09004KT 10SM CLR M07/M16 A3059 RMK AO1=
KFFX 272013Z AUTO 29007KT 10SM CLR M08/M19 A3052 RMK AO2
     T10801186=
KFGX 272015Z AUTO 00000KT 10SM SCT035 M07/M15 A3058 RMK AO2
     T10711150=
KFKL 272015Z AUTO 32008KT 10SM FEW037 M11/M19 A3048 RMK AO1=
KFLP 272015Z 03003KT 10SM BKN060 BKN070 M05/M17 A3055 RMK AO1=
KFLY 272012Z AUTO 14010KT 2SM -SN OVC008 M13/M16 A2987 RMK AO2
     T11261162=
KFMH 272015Z AUTO VRB03KT 10SM CLR M04/M15 A3034 RMK AO2
     FZRANO=
KFMM 272015Z AUTO 17018G22KT 10SM OVC030 M08/M13 A3002 RMK AO2
     T10761133=
KFNL 272015Z AUTO 00000KT 10SM BKN016 M08/M12 A2997 RMK AO1
     P0005=
KFOD 272015Z AUTO 28003KT 10SM CLR M12/M18 A3057 RMK AO1=
KFPK 272015Z AUTO 22008KT 10SM OVC042 M09/M18 A3051 RMK AO2
     T10861178=
KFRM 272015Z AUTO 22006KT 10SM CLR M11/M18 A3051 RMK AO1=
KFSE 272015Z AUTO 21009KT 10SM CLR M10/M15 A3039 RMK AO2=
KFYJ 272015Z AUTO 01003KT 10SM BKN024 OVC035 02/M05 A3048 RMK AO2
     T00171055=
KFYM 272015Z AUTO 03010KT 10SM CLR 00/M10 RMK=
KGAD 272015Z 01010KT 10SM CLR 04/M06 A3042 RMK AO1=
KGAI 272015Z AUTO 32008G14KT 10SM CLR M03/M14 A3048 RMK AO1=
KGBD 272015Z AUTO 17007KT 5SM FEW025 BKN031 OVC040 M08/M15 A3044
     RMK AO1=
KGDV 272015Z AUTO 19012G20KT 10SM CLR M03/M14 A3004 RMK AO1=
KGOV 272014Z AUTO 27008G14KT 240V300 10SM BKN035 M08/M17 A3042 RMK
     AO2 T10851171=
KGUC 272015Z 22012G15KT 10SM CLR M01/M10 A2975 RMK AO1=
KGXY 272015Z AUTO 14008KT 10SM BKN030 OVC037 M05/M14 A2996 RMK
     AO1=
KHAF 272015Z AUTO 32015G21KT 7SM BKN016 BKN027 14/10 A2988 RMK
     AO2=
KHAI 272015Z AUTO 32007KT 10SM OVC040 M08/M15 A3056 RMK AO2
     T10811152=
KHCO 272001Z AUTO 23011KT 10SM CLR M09/M16 A3036 RMK AO2=
KHDN 272015Z AUTO 27004KT 10SM CLR M03/M12 A2978 RMK AO1=
KHEZ 272015Z AUTO 34006KT 330V040 10SM CLR 07/M03 A3037 RMK
     AO1=
KHNB 272015Z AUTO 04006KT 10SM FEW037 M06/M13 A3062 RMK AO1=
KHVS 272015Z AUTO 00000KT 10SM CLR 12/M01 A3034 RMK AO2=
KHYS 272015Z AUTO 14003KT 6SM SCT040 BKN046 OVC050 M08/M18 A3042
     RMK AO1=
KHYW 272015Z AUTO 05008KT 7SM CLR 10/00 A3036 RMK AO2=
KHYX 272015Z AUTO 25010KT 10SM CLR M08/M15 A3053 RMK AO2=
KI67 272015Z AUTO 03008KT 10SM BKN048 M05/M15 A3060 RMK AO1=
KILE 272015Z AUTO 02009KT 10SM OVC018 M01/M07 A3035 RMK AO1=
KIRS 272014Z AUTO 25007KT 10SM OVC042 M09/M17 A3055 RMK AO2=
KISQ 272014Z AUTO 20009KT 10SM CLR M09/M18 A3042 RMK AO2
     T10951178=
KIWD 272015Z AUTO 27010KT 10SM CLR M10/M19 A3036 RMK AO1=
KJHW 272015Z 27011KT 10SM CLR M13/M21 A3043 RMK AO1=
KJKA 272015Z AUTO 02007KT 350V050 10SM CLR 13/00 A3029 RMK AO2
     T01271003=
KJYG 272015Z AUTO 24003KT 10SM CLR M11/M18 A3053 RMK AO2=
KJYL 272015Z AUTO 02004KT 10SM CLR 11/03 A3034 RMK AO2
     T01130034=
KJYM 272015Z AUTO 27008KT 10SM CLR M09/M19 A3053 RMK AO2
     T10891191=
KKLS 272015Z 00000KT 10SM FEW020 SCT080 BKN100 11/06 A2976 RMK
     AO1=
KLBL 272015Z AUTO 14012KT 10SM FEW012 SCT018 BKN070 M09/M14 A3032
     RMK AO1=
KLCI 272015Z AUTO 26010KT 10SM CLR M06/M22 A3028 RMK AO1=
####018003710####
SAUS70 KWBC 272018 RRC
METAR
KBAX 272014Z AUTO 24009KT 10SM CLR M10/M17 A3051 RMK AO2
     T11021169=
KBCB 272015Z AUTO 30009G14KT 10SM SCT042 M02/M11 A3039 RMK AO2
     T10201112=
KBDH 272015Z AUTO 25006KT 10SM CLR M11/M18 A3050 RMK AO2=
KBDU 272017Z AUTO 00000KT 4SM -SN OVC015 M08/M12 A2993 RMK AO2=
KBGF 272015Z AUTO 02005KT 10SM CLR 01/M10 A3046 RMK=
KBHB 272015Z 23006KT 10SM CLR M04/M20 A3029 RMK AO1=
KBID 272015Z AUTO 26011G14KT 10SM CLR M02/M12 A3034 RMK AO1=
KBLM 272015Z AUTO 27010KT 10SM CLR M01/M13 A3040 RMK AO1=
KBNL 272015Z AUTO 03004KT 10SM CLR 13/02 A3033 RMK AO2=
KBTP 272015Z AUTO 30006KT 10SM CLR M10/M20 A3051 RMK AO1=
KBVU 272015Z AUTO VRB03KT 10SM CLR 16/M03 A2972 RMK AO2=
KBVX 272015Z AUTO 08007KT 10SM CLR M03/M16 A3056 RMK AO1=
KBXA 272015Z AUTO 02006KT 10SM 10/00 A3035 RMK AO2 T00950001=
KCAD 272015Z AUTO 23008KT 10SM SCT036 M09/M17 A3041 RMK AO2
     T10921171=
KCBG 272016Z AUTO 25006KT 10SM CLR M08/M17 A3046 RMK AO2=
KCCU 272015Z AUTO 28014G18KT 1 3/4SM -SN BKN006 OVC010 M09/M13
     A2964 RMK AO2 VIS 1V4=
KCDD 272008Z AUTO 24003KT 10SM CLR M08/M25 A3034 RMK AO2=
KCDN 272015Z AUTO VRB03KT 9SM CLR 12/M01 A3033 RMK AO2 TSNO=
KCFS 272015Z AUTO 24009G14KT 10SM CLR M09/M17 A3052 RMK AO2
     T10951175=
KCGZ 272015Z AUTO 22011G15KT 10SM CLR 23/M03 A2971 RMK AO1=
KCIU 272015Z AUTO 24010G15KT 10SM CLR M08/M17 A3040 RMK AO1=
KCKC 272013Z AUTO 20007KT 169V239 10SM CLR M08/M24 A3026 RMK
     AO2=
KCKN 272015Z AUTO 22011KT 10SM CLR M10/M16 A3042 RMK AO2=
KCNB 272014Z AUTO 25006KT 10SM CLR M09/M17 A3047 RMK AO2
     T10941175=
KCOD 272015Z 07003KT 10SM CLR M08/M13 A2983 RMK AO1=
KCOE 272015Z AUTO 09008G14KT 10SM CLR 09/M03 A2978 RMK AO1=
KCOQ 272017Z AUTO 21009KT 10SM CLR M08/M24 A3037 RMK AO2=
KCPW 272014Z AUTO 22016G22KT 1/4SM SN OVC001 M12/M13 A2973 RMK AO2
     P0001=
KCQM 272014Z AUTO 25008KT 10SM CLR M08/M22 A3033 RMK AO2=
KCQW 272015Z AUTO 00000KT 10SM CLR 10/M04 A3034 RMK AO2=
KCVN 272015Z AUTO 15011KT 7SM OVC014 M11/M14 A3016 RMK AO1=
KCVO 272015Z AUTO 18008KT 10SM SCT017 BKN028 OVC042 11/08 A2976
     RMK AO1 P0001=
KCVX 272015Z AUTO 25013G16KT 10SM BKN027 M10/M15 A3050 RMK AO2
     T11051155=
KCWI 272015Z AUTO 27005KT 10SM CLR M13/M19 A3064 RMK AO1=
KD57 272015Z AUTO 16011KT 10SM CLR M07/M16 A3018 RMK AO2=
KDKB 272015Z AUTO 27009KT 10SM CLR M13/M20 A3059 RMK AO2
     T11291203=
KDRM 272015Z AUTO 24009G16KT 10SM CLR M10/M17 A3042 RMK AO2
     T11051169=
KDTL 272015Z AUTO 22005KT 10SM CLR M10/M17 A3041 RMK AO2=
KDUH 272015Z AUTO 29004KT 10SM CLR M08/M21 A3059 RMK AO2=
KDYB 272015Z AUTO 33003KT 10SM CLR 11/01 A3036 RMK AO1=
KDYR 272015Z 02012G16KT 10SM FEW028 M03/M14 A3057 RMK AO1=
KE80 272015Z AUTO 12007KT 10SM OVC014 M01/M05 A2993 RMK AO2
     T10121046=
KEDC 272015Z AUTO 03013KT 10SM OVC024 02/M04 A3034 RMK AO2=
KEDJ 272010Z AUTO 28007KT 10SM FEW035 M10/M17 A3056 RMK AO1=
KEEN 272015Z AUTO 36007KT 10SM CLR M05/M20 A3032 RMK AO1=
KEHR 272015Z AUTO 01005KT 10SM SCT028 BKN036 M06/M12 A3062 RMK
     AO1=
KEIK 272015Z AUTO 00000KT 10SM CLR M09/M14 A2994 RMK AO2
     T10941137=
KENV 272015Z AUTO 00000KT 10SM BKN100 06/M03 A2974 RMK AO1=
KERY 272014Z AUTO 24006KT 10SM CLR M10/M19 A3039 RMK AO2
     T11011188=
KESC 272015Z AUTO 18010KT 10SM CLR M09/M18 A3044 RMK AO1=
KETC 272015Z AUTO 34007KT 10SM CLR 09/M03 A3040 RMK AO2
     T00921030=
KEUL 272015Z AUTO 12013G16KT 10SM CLR 11/M01 A2971 RMK AO1=
KEWK 272015Z AUTO 12009KT 5SM SCT018 BKN029 BKN037 M09/M17 A3051
     RMK AO1=
KTHA 272015Z AUTO 05007KT 10SM CLR 01/M12 A3046 RMK=
KTME 272015Z AUTO 03008KT 8SM OVC020 05/00 A3035 RMK AO2=
####018000142####
SPUS80 KWBC 272018
SPECI
KLXV 272015Z AUTO 00000KT 1 3/4SM -SN BKN027 BKN033 OVC041 M07/M13
     A2965 RMK AO2 SNB00 P0000 T10721128=
####018002612####
SAUS70 KWBC 272018 RRG
METAR
KMQB 272015Z AUTO 31005KT 10SM CLR M13/M18 A3066 RMK AO2
     T11271177=
KMRC 272015Z AUTO 05008KT 01/M12 A3047 RMK=
KMZH 272015Z AUTO 22007KT 10SM CLR M07/M21 A3040 RMK AO2=
KOBE 272015Z AUTO 01010G16KT 5SM BR BKN008 BKN022 OVC027 13/12
     A3016 RMK AO2=
PAAK 272016Z 29021G25KT 10SM FEW013 SCT050 OVC065 03/01 A2998 RMK
     AO1=
PABL 272016Z AUTO 14013KT 10SM OVC023 01/M03 A3021 RMK AO1=
PABV 272016Z AUTO 00000KT 10SM CLR M06/M07 A3047 RMK AO1=
PAEM 272016Z AUTO 16016G22KT 10SM FEW009 OVC032 M01/M03 A3016 RMK
     AO1=
PAFE 272016Z AUTO 19004KT 10SM CLR 06/M01 A3043 RMK AO1=
PAFM 272016Z AUTO 21008KT 3SM FEW008 OVC021 M01/M01 A3026 RMK
     AO1=
PAGL 272016Z AUTO 16017KT 6SM OVC022 M01/M03 A3023 RMK AO1=
PAGS 272016Z AUTO 00000KT 10SM CLR 04/M03 A3045 RMK AO1 PNO=
PAHL 272016Z AUTO 18012KT 10SM OVC028 M01/M04 A3031 RMK AO1=
PAHP 272016Z AUTO 16020KT 10SM BKN005 OVC041 M01/M03 A3014 RMK
     AO1=
PAHY 272016Z AUTO 10SM CLR 08/M06 A3031 RMK AO1=
PAII 272016Z AUTO 12010KT 10SM BKN075 OVC090 02/01 A3032 RMK
     AO1=
PAIN 272016Z AUTO 00000KT 10SM CLR M09/M13 A3041 RMK AO1=
PAJC 272016Z AUTO 12006KT 5SM SCT012 BKN017 OVC029 04/00 A3028 RMK
     AO1 P0001=
PAKK 272016Z AUTO 20007KT 10SM OVC021 A3023 RMK AO1=
PAKP 272016Z AUTO 22012KT 7SM FEW012 BKN028 OVC085 M06/M11 A3014
     RMK AO1=
PAMD 272016Z 14006KT 10SM BKN013 04/02 A3045 RMK AO1=
PAMH 272016Z AUTO 00000KT 10SM CLR M14/M16 A3037 RMK AO1=
PAMM 272016Z AUTO 36008KT 10SM CLR 08/M03 A3032 RMK AO1=
PANI 272016Z AUTO 10008KT 10SM CLR M06/M08 A3034 RMK AO1=
PANV 272016Z AUTO 15005KT 10SM OVC020 M02/M06 A3028 RMK AO1=
PAPH 272016Z AUTO 13019G24KT 10SM BKN075 OVC085 04/M02 A3026 RMK
     AO1=
PAPO 272016Z AUTO 03008KT 10SM OVC017 M13/M15 A3008 RMK AO1=
PARC 272016Z AUTO 00000KT 10SM CLR M21/M34 A3011 RMK AO1=
PASD 272016Z 04003KT 10SM OVC012 04/04 A3021 RMK AO1 WEA: -RA
     (KH)=
PASK 272016Z AUTO 21018KT 10SM FEW050 OVC070 00/M02 A3019 RMK
     AO1=
PASM 272016Z AUTO 15014G19KT 10SM OVC030 M02/M06 A3022 RMK AO1=
PATG 272016Z AUTO 08006KT 10SM OVC014 00/M02 A3031 RMK AO1=
PAUN 272016Z AUTO 18010KT 10SM OVC022 M01/M04 A3029 RMK AO1=
PAUT 272015Z AUTO 11008KT 4SM -DZ OVC007 04/04 A3007 RMK AO2
     T00410040=
PAVD 272016Z 00000KT 10SM FEW250 01/M07 A3047 RMK AO1 1947Z WEA:
     NONE TWR WND 00000KT=
PAWG 272016Z 31006KT 10SM CLR 06/M04 A3039 RMK AO1 WEA:NONE
     (KB)=
PAWS 272016Z AUTO 23003KT 10SM CLR M04/M09 A3043 RMK AO1=
PAZK 272016Z AUTO 08004KT 10SM CLR M11/M12 A3035 RMK AO1=
####018000106####
SAXX60 KWBC 272018
METAR
KMRT 272013Z AUTO 35005KT 10SM CLR M09/M20 A3057 RMK AO2
     T10921196=
####018001499####
SAUS80 KWBC 272018
METAR
K9MN 272014Z AUTO 28008KT 10SM CLR M11/M18 A3052 RMK AO1
     T11141182=
KIKW 272013Z AUTO 26009KT 10SM SCT037 M07/M16 A3050 RMK AO2
     T10741165=
KLYV 272016Z AUTO 20004KT 10SM CLR M10/M17 A3048 RMK AO2=
KPOV 272016Z AUTO 00000KT 10SM OVC039 M09/M19 A3052 RMK AO2
     T10941195=
KROS 272015Z AUTO 23006KT 10SM CLR M09/M19 A3048 RMK AO2
     T10881193=
KSYN 272014Z AUTO 25006KT 10SM CLR M11/M18 A3052 RMK AO2
     T11081185=
KTKC 272011Z AUTO 26005KT 10SM CLR M10/M18 A3047 RMK AO2
     T10961176=
KGPZ 272015Z AUTO 24007KT 10SM CLR M08/M21 A3035 RMK AO1=
K4BM 272016Z AUTO 23005KT 10SM SCT003 SCT120 M07/M11 A2969 RMK
     AO2=
KDVL 272015Z AUTO 22010KT 10SM CLR M11/M17 A3030 RMK AO1=
KDWU 272015Z AUTO 06005KT 10SM BKN047 M04/M14 A3057 RMK AO1=
KEAR 272015Z 16010G14KT 10SM CLR M07/M20 A3038 RMK AO1=
KPZQ 272015Z AUTO 26009KT 240V310 10SM CLR M08/M16 A3045 RMK AO2
     T10771162=
K40J 272015Z AUTO 04008KT 10SM CLR 12/05 A3027 RMK AO2
     T01150049=
KCLI 272015Z AUTO 27009KT 10SM CLR M08/M20 A3048 RMK AO2=
PADK 272016Z AUTO 35013KT 10SM OVC043 02/M04 A3010 RMK AO1=
KSMS 272015Z AUTO 00000KT 10SM CLR 12/01 A3034 RMK AO2=
KSOW 272015Z AUTO 22023G28KT 10SM BKN090 10/M08 A2979 RMK AO2=
KVTI 272015Z AUTO 24003KT 10SM CLR M12/M18 A3062 RMK AO2
     T11221185=
KMKN 272015Z AUTO 04008KT 10SM OVC009 M05/M05 A3037 RMK AO2
     T10461048=
PADK 272016Z AUTO 35013KT 10SM OVC043 02/M04 A3010 RMK AO1=
####018003726####
SAUS70 KWBC 272018 RRD
METAR
KTPL 272015Z AUTO 02009KT 10SM OVC019 M01/M06 A3036 RMK AO1=
KTSP 272015Z AUTO 30016G23KT 9SM OVC026 09/04 A2981 RMK AO2=
KTVF 272015Z AUTO 20009KT 10SM CLR M12/M16 A3038 RMK AO1=
KUDG 272015Z AUTO 03004KT 10SM CLR 12/00 A3035 RMK AO1=
KUKT 272015Z AUTO 32009KT 10SM CLR M04/M15 A3042 RMK AO1=
KUTA 272015Z AUTO 01004KT 10SM SCT031 00/M07 A3053 RMK AO2=
KUYF 272015Z AUTO 35006KT 10SM BKN038 M08/M17 A3056 RMK AO2=
KVBT 272015Z AUTO 08006KT 10SM BKN037 OVC043 M07/M16 A3051 RMK
     AO1=
KVIS 272015Z AUTO 28004KT 8SM FEW085 17/08 A2983 RMK AO1=
KVLL 272014Z AUTO 28004KT 10SM CLR M06/M20 A3055 RMK AO2
     T10591202=
KVTP 272015Z AUTO 22005KT 1/2SM -SN OVC002 M07/M10 A2972 RMK
     AO2=
KWDR 272015Z AUTO 26004KT 10SM CLR 11/M02 A3036 RMK AO1=
KWVL 272015Z 30011G14KT CLR M05/M21 A3025 RMK AO1=
KWWD 272015Z AUTO 28012G16KT 260V320 10SM SCT050 BKN075 M02/M09
     A3045 RMK AO1=
KXLL 272015Z AUTO 30004KT 10SM CLR M02/M15 A3044 RMK AO2=
KYKN 272015Z AUTO 16004KT 10SM CLR M08/M18 A3048 RMK AO1=
K7N0 272015Z AUTO 00000KT 10SM CLR A3032 RMK AO1=
KPAN 272015Z AUTO 18008G16KT 150V210 10SM OVC095 13/M04 A2979 RMK
     AO2=
KPHT 272015Z AUTO 04005G19KT 10SM CLR M03/M13 A3054 RMK=
KPIB 272015Z AUTO 03009KT 10SM CLR 08/M02 A3037 RMK AO1=
KPQI 272015Z AUTO 28011G19KT 10SM CLR M08/M26 A3017 RMK AO1=
KPRX 272015Z 05009KT 3SM FEW010 BKN013 OVC032 M03/M07 A3049 RMK
     AO1=
KPSO 272015Z AUTO 21006KT 1SM -SN BKN009 OVC021 M02/M03 A2980 RMK
     AO2 T10181032=
KPTN 272015Z AUTO 06009KT 10SM CLR 11/02 A3031 RMK AO1=
KPTV 272015Z AUTO 27006KT 10SM CLR 18/08 A2982 RMK AO1=
KPVC 272015Z 33009KT 10SM CLR M04/M16 A3036 RMK AO1=
KPVG 272015Z AUTO 04008G14KT 10SM BKN035 OVC041 01/M05 A3046 RMK
     AO1=
KPWG 272015Z AUTO 02011KT 10SM M01/M07 A3040 RMK AO1=
KPWT 272015Z AUTO 36008KT 10SM SCT021 BKN027 OVC033 08/07 A2978
     RMK AO1 P0001=
KRCV 272015Z AUTO 07008KT 10SM SCT012 BKN060 BKN070 M06/M10 A2977
     RMK AO2 T10591099=
KRGK 272011Z AUTO 31004KT 10SM CLR M10/M19 A3054 RMK AO2=
KRKD 272015Z AUTO 26005KT 10SM CLR M06/M20 A3029 RMK AO1=
KRKR 272015Z AUTO 05005KT 2 1/2SM -SN SCT014 BKN034 OVC043 M05/M11
     A3057 RMK AO2 VIS 1 1/2V4 T10481110=
KRNP 272015Z AUTO 27012KT 10SM CLR M09/M17 A3054 RMK AO2
     T10861166=
KRQB 272014Z AUTO 30010G14KT 10SM SCT043 M07/M18 A3047 RMK AO2
     T10751176=
KRQO 272015Z AUTO 07007KT SCT009 BKN021 OVC060 M07/M11 A3046 RMK
     AO2 PWINO=
KRUT 272015Z 02005KT 10SM CLR M08/M24 A3033 RMK AO1=
KSBS 272015Z AUTO 00000KT 10SM CLR M03/M13 A2977 RMK AO1
     T10271132=
KSDY 272015Z AUTO 17013KT 10SM CLR M02/M15 A3010 RMK AO1=
KSEM 272015Z AUTO 05009KT 10SM 10/M03 A3037 RMK AO2=
KSFM 272015Z AUTO 28009KT 10SM CLR M04/M21 A3031 RMK AO1=
KSFZ 272015Z 28005KT 10SM CLR M04/M16 A3031 RMK AO1=
KSGT 272015Z AUTO 03008KT 10SM FEW030 SCT100 M01/M09 A3055 RMK
     AO1=
KSGU 272015Z AUTO 27006KT 10SM FEW120 13/M03 A2974 RMK AO1=
KSJX 272016Z AUTO 24013G17KT 10SM CLR M11/M17 A3045 RMK AO2
     T11101166=
KSKX 272015Z AUTO 26008KT 1 3/4SM SCT013 OVC021 M06/M11 A2988 RMK
     AO1=
KSLG 272015Z AUTO 06006KT 10SM OVC060 M07/M18 A3052 RMK AO1=
KSLH 272018Z AUTO 26009G14KT 10SM SCT030 M10/M16 A3045 RMK AO2
     T10991167=
KSMN 272015Z AUTO 00000KT 10SM FEW050 SCT060 BKN100 01/M05 A2976
     RMK AO1=
KSNH 272015Z AUTO VRB06KT 10SM CLR 02/M13 A3050 RMK=
KSOP 272015Z AUTO 02004KT 10SM CLR 08/M03 A3036 RMK AO1=
KSQI 272015Z AUTO 26004KT 10SM CLR M11/M18 A3063 RMK AO1=
KSTK 272010Z AUTO 17019G24KT 10SM OVC033 M06/M12 A3007 RMK AO2=
KSUE 272015Z AUTO 24010G14KT 220V280 10SM CLR M09/M18 A3048 RMK
     AO1=
####018003706####
SAUS70 KWBC 272018 RRE
METAR
KTEX 272015Z AUTO 31006KT 270V340 10SM SCT038 SCT047 BKN050
     M02/M13 A2974 RMK AO2 T10241135=
K1A9 272015Z AUTO 34008KT 10SM CLR 09/M02 A3036 RMK AO2
     T00891024=
K1K1 272015Z AUTO 09004KT 4SM -SN SCT039 BKN046 OVC060 M09/M15
     A3051 RMK AO2 T10921146=
K1P1 272015Z AUTO 27008KT 10SM CLR M06/M19 A3031 RMK AO2
     T10591186=
K3J7 272015Z AUTO 33004KT 10SM CLR 13/00 A3028 RMK AO2=
K42J 272015Z AUTO 04008G16KT 9SM FEW047 13/03 A3026 RMK AO1
     TSNO=
K46D 272015Z AUTO 10SM CLR M11/M17 A3032 RMK AO2=
K4M9 272015Z AUTO 05011G16KT 10SM M04/M11 A3059 RMK AO2=
K6A2 272015Z AUTO 34005KT 10SM CLR 11/M02 A3033 RMK AO2=
K6L4 272015Z AUTO 27006KT 10SM BKN041 OVC049 M06/M14 A3044 RMK
     AO2=
K7W4 272015Z AUTO 05003KT 10SM BKN050 OVC060 02/M09 A3042 RMK AO1
     T00171086=
K82V 272015Z AUTO 18016G20KT 10SM OVC026 M08/M13 A2995 RMK AO2=
KAQX 272015Z AUTO 00000KT 10SM CLR 12/02 A3032 RMK AO2=
KASN 272015Z AUTO 33005KT 10SM CLR 06/M04 A3042 RMK AO2
     T00621041=
KAUN 272015Z AUTO 24005KT 10SM FEW035 SCT042 14/07 A2979 RMK
     AO1=
KAXS 272015Z AUTO 05009KT 2SM -SN OVC007 M07/M10 A3046 RMK AO2
     T10691105=
KAZC 272015Z AUTO 22005KT 10SM BKN060 OVC070 11/M05 A2975 RMK AO2
     T01071054=
KBCK 272015Z AUTO 26005KT 10SM CLR M09/M21 A3053 RMK AO2
     T10931214=
KBDN 272015Z AUTO 00000KT 1 1/2SM RA BKN011 OVC022 03/02 A2967 RMK
     AO2 P0003=
KBEA 272015Z AUTO 05008KT 10SM OVC020 09/04 A3024 RMK AO2
     T00910041=
KBKS 272015Z AUTO 04008KT 10SM BKN018 OVC028 12/06 A3021 RMK AO1
     T01190061=
KBPC 272015Z AUTO 13009KT 10SM -SN OVC025 M07/M12 A3032 RMK
     AO2=
KBVS 272015Z AUTO 34005KT 8SM BKN038 BKN050 08/08 A2983 RMK A01
     P000=
KCEY 272015Z AUTO 36007KT 10SM CLR M04/M14 A3057 RMK AO1=
KCGC 272015Z AUTO 05011G15KT 10SM CLR 17/06 A3019 RMK AO2=
KCKF 272015Z AUTO 02004KT 10SM CLR 14/01 A3032 RMK AO2
     T01390013=
KCLK 272015Z AUTO 10SM -SN OVC018 M08/M12 A3045 RMK AO2 TSNO=
KCNI 272015Z AUTO 28008KT 10SM CLR 04/M08 A3036 RMK AO2=
KCVC 272015Z AUTO 01005KT 10SM CLR 12/M04 A3032 RMK AO2=
KCWV 272015Z AUTO 03006KT 10SM CLR 11/03 A3034 RMK AO2=
KCZT 272015Z AUTO 05006KT 2SM DZ OVC006 02/01 A3027 RMK AO2=
KDRI 272015Z AUTO 00000KT 10SM CLR 09/M02 A3036 RMK AO2
     T00941025=
KDUA 272015Z AUTO 05009KT 3SM -SN OVC010 M04/M06 A3048 RMK AO2=
KECS 272015Z AUTO 13017G20KT 10SM OVC029 M07/M14 A2998 RMK AO2=
PAGL 272016Z AUTO 16017KT 6SM OVC022 M01/M03 A3023 RMK AO1=
PAHP 272016Z AUTO 16020KT 10SM BKN005 OVC041 M01/M03 A3014 RMK
     AO1=
PAUT 272015Z AUTO 11008KT 4SM -DZ OVC007 04/04 A3007 RMK AO2
     T00410040=
KCFJ 272015Z AUTO 30004KT 10SM CLR M10/M23 A3060 RMK AO2
     T11011231=
KONX 272015Z AUTO 04008KT 10SM SCT037 BKN042 04/M05 A3042 RMK AO2
     T00391050=
KOWP 272015Z AUTO 05007KT 1 1/2SM -SN OVC012 M07/M11 A3053 RMK AO2
     T10661111=
KPBH 272015Z AUTO 25008KT 10SM CLR M10/M21 A3038 RMK AO2
     T11011211=
KPCM 272015Z AUTO 05007KT 10SM OVC020 A3020 RMK AO2=
KPEZ 272015Z AUTO 01009G14KT 10SM -SN OVC021 03/M02 A3029 RMK AO2
     T00321022=
KPHN 272019Z AUTO 28006KT 10SM CLR M09/M19 A3055 RMK AO2=
KPKV 272020Z AUTO 05017KT 7SM OVC090 09/04 A3027 RMK AO2
     T00890042=
KPRO 272015Z AUTO 00000KT 10SM M11/M17 A3058 RMK AO2 T11131166=
KPUJ 272015Z AUTO 34009KT 10SM CLR 06/M02 A3037 RMK AO2=
KPVE 272015Z AUTO VRB03KT 10SM CLR M01/M16 A3049 RMK=
KPVF 272015Z AUTO 31004KT 10SM FEW055 SCT070 10/02 A2980 RMK
     AO1=
KPVJ 272015Z AUTO 05006KT 3/4SM -SN OVC010 M08/M10 A3049 RMK AO2
     T10801098=
KRBW 272015Z AUTO 36004KT 10SM CLR 12/02 A3035 RMK AO2=
####018000189####
SPXX60 KWBC 272018
SPECI
KNSI 272015Z AUTO 31020G33KT 10SM OVC015 A2986 RMK AO2 PK WND
     32035/2005 $=
KNQX 272016Z 03009KT 10SM BKN008 23/19 A3007 RMK AO2 T02330194
     $=
####018000914####
SPUS70 KWBC 272018
SPECI
KGCK 272014Z 15017KT 3SM -SN BKN024 OVC043 M10/M13 A3030 RMK AO2
     P0000 T11001133=
KCDS 272014Z AUTO 08006KT 2 1/2SM -SN SCT016 BKN022 OVC035 M08/M11
     A3039 RMK AO2 VIS 1 3/4V4 P0000 T10781111=
PAIW 272013Z AUTO 17026G33KT 3SM -RA BR OVC005 01/M01 A2999 RMK
     AO2 PK WND 18033/2005 RAB08SNE08 P0000 FZRANO=
PAVL 272014Z AUTO 08013KT 3/4SM -SN BR VV016 M04/M04 A3005 RMK AO2
     P0000 T10391044 TSNO $=
KAIA 272015Z AUTO 18023G29KT 10SM OVC031 M07/M14 A3006 RMK AO2 PK
     WND 16031/1957 T10671139=
KDIJ 272015Z AUTO 00000KT 4SM -SN SCT001 BKN014 OVC042 M03/M07
     A2974 RMK AO2 P0000=
KOLM 272015Z 02006KT 10SM SCT008 SCT012 OVC019 09/08 A2974 RMK AO2
     T00940078=
KUAO 272015Z AUTO 19008KT 10SM SCT021 BKN031 BKN045 11/07 A2974
     RMK AO2 T01060067=
KFST 272015Z AUTO 05011KT 3SM BR OVC005 M03/M03 A3018 RMK AO2
     T10281033=
####018003713####
SAUS70 KWBC 272018 RRF
METAR
KRCX 272015Z AUTO 27007KT 10SM CLR M10/M21 A3046 RMK AO2
     T10981206=
KRPD 272015Z AUTO 24007KT 10SM CLR M11/M20 A3049 RMK AO2
     T11071205=
KRSN 272015Z AUTO 09004KT 10SM BKN090 03/M05 A3049 RMK AO2
     T00311050=
KRYW 272015Z AUTO 04006G14KT 10SM OVC018 00/M04 A3031 RMK AO2
     T00021039=
KSCD 272015Z AUTO 04006KT 350V050 10SM CLR 07/M04 A3040 RMK AO2
     T00671036=
KSNL 272015Z AUTO 05003KT 3/4SM -SN BKN006 OVC012 M05/M07 A3051
     RMK AO2=
KSPL 272015Z AUTO 36006KT 3SM FEW030 FEW040 14/13 A3015 RMK
     AO1=
KSRB 272015Z AUTO 02008KT 10SM CLR M01/M11 A3047 RMK=
KSTF 272015Z AUTO 01008KT 342V042 10SM CLR 04/M06 A3044 RMK
     AO2=
KSYI 272015Z AUTO 36005KT 10SM CLR 01/M11 A3049 RMK=
KSZT 272015Z AUTO 01015G22KT 10SM SCT055 07/M05 A2985 RMK AO2=
KTPF 272015Z AUTO 05010KT 10SM OVC024 18/12 A3018 RMK AO2=
KTTA 272015Z AUTO 00000KT 10SM CLR 08/M03 A3038 RMK AO2
     T00781029=
KTTF 272016Z AUTO 00000KT 10SM CLR M09/M19 A3057 RMK AO2=
KUCY 272015Z AUTO 03007KT 10SM CLR M04/M11 A3056 RMK=
KVDI 272015Z AUTO 08003KT 10SM CLR 12/03 A3033 RMK AO2=
KVWU 272009Z AUTO 22005KT 10SM CLR M10/M18 A3036 RMK AO2=
KW31 272015Z AUTO 29007KT 10SM CLR 06/M09 A3039 RMK AO1
     T00561090=
KW63 272015Z AUTO 32005KT 10SM CLR 05/M07 A3040 RMK AO1=
KZPH 272015Z AUTO 05008KT 10SM OVC023 15/07 A3020 RMK AO2=
PAAK 272016Z 29021G25KT 10SM FEW013 SCT050 OVC065 03/01 A2998 RMK
     AO1=
KEDE 272015Z AUTO 35007KT 10SM SCT043 08/M01 A3039 RMK AO2
     T00811010=
KEHY 272015Z AUTO 10SM CLR M03/M11 A2971 RMK AO2=
KELK 272015Z AUTO 09008KT 5SM -SN OVC016 M08/M12 A3045 RMK AO2=
KETH 272016Z AUTO 00000KT 10SM CLR M11/M19 A3048 RMK AO2=
KFBR 272015Z AUTO 10004KT 10SM BKN015 OVC090 M04/M08 A2978 RMK AO2
     T10381078=
KFEP 272015Z AUTO 21007KT 10SM CLR M12/M19 A3060 RMK AO2
     T11251195=
KFKS 272016Z AUTO 22009G14KT 190V270 10SM OVC026 M09/M14 A3050 RMK
     AO2 T10931144=
KFRR 272015Z AUTO 32007KT 10SM SCT060 00/M13 A3041 RMK AO1=
KFVX 272015Z AUTO 27004KT 10SM CLR 09/M10 A3039 RMK AO2
     T00881102=
KFWZ 272015Z AUTO 22009KT 10SM CLR M07/M11 RMK AO2=
KGCM 272015Z AUTO 03009KT 3SM -SN M08/M12 A3059 RMK AO2 SKY
     OBSCURED=
KGEV 272015Z AUTO 28007KT 10SM CLR M01/M11 A3028 RMK AO2
     T10101115=
KGKT 272015Z AUTO 00000KT 10SM CLR M01/M09 A3045 RMK=
KHAE 272015Z AUTO 33003KT 10SM CLR M08/M21 A3063 RMK AO2=
KHZE 272015Z AUTO 18011G19KT 10SM CLR M07/M17 A3022 RMK AO2=
KI39 272015Z AUTO 04004KT 10SM BKN033 M06/M14 A3055 RMK AO2=
KICL 272015Z AUTO 00000KT 10SM CLR M08/M18 A3058 RMK AO2=
KIDI 272015Z AUTO 30007KT 260V330 10SM CLR M08/M18 A3050 RMK
     A01=
KIFA 272015Z AUTO 27004KT 5SM HZ CLR M13/M19 A3058 RMK AO2
     T11321186=
KIGQ 272015Z AUTO 25009KT 10SM CLR M09/M19 A3060 RMK AO2
     T10931193=
KIPJ 272015Z AUTO 23004KT 10SM SCT050 09/M04 A3034 RMK AO2
     T00851044=
KIXA 272015Z AUTO 32007KT 10SM CLR 07/M05 A3039 RMK AO2=
KJFX 272015Z AUTO 06007KT 10SM UP CLR 06/M05 A3045 RMK A02
     P-128=
KLHB 272015Z AUTO 02005KT 10SM OVC026 03/M03 A3039 RMK AO2
     T00261030=
KLHM 272015Z AUTO 16009KT 10SM CLR 18/07 A2978 RMK AO1=
KLVN 271941Z AUTO 25008KT 10SM CLR M12/M19 A3052 RMK AO2=
KMCD 272015Z AUTO 24014G20KT 10SM OVC021 M11/M16 A3044 RMK AO2
     T11111163=
KMCJ 272015Z AUTO 36009KT 7SM OVC018 05/00 A3030 RMK AO1=
KMCX 272015Z AUTO 30006KT 10SM CLR M10/M17 A3061 RMK AO2
     T10971171=
KMDQ 272015Z AUTO 01008KT 330V040 10SM CLR 01/M09 A3046 RMK
     AO2=
KMFV 272015Z AUTO 34009KT 10SM SCT024 OVC033 00/M05 A3046 RMK
     AO2=
KMMI 272015Z AUTO 34004KT 10SM CLR 00/M08 A3047 RMK=
####018000090####
SAAS31 KWBC 272005 RRB
METAR
VIDP 272000Z 02004KT 3500 HZ FEW100 17/08 Q1014 NOSIG=
####018000053####
SAAW32 KWBC 272000 RRB
METAR
OTBD 272000Z NIL=
####018000073####
SAAW33 KWBC 272000 RRB
METAR
OBBI 272000Z NIL=
OOTH 272000Z NIL=
####018000053####
SAAW42 KWBC 272000 RRB
METAR
OBBI 272000Z NIL=
####018000087####
SAEM31 KWBC 272000 RRB
METAR
LATI 272020Z VRB02KT 9999 SCT085 09/07 Q1008 NOSIG=
####018000084####
SAID31 KWBC 272000 RRB
METAR
WABP 272000Z 00000KT 5000 HZ SCT014 24/23 Q1009=
####018000069####
SAOM43 KWBC 272050
METAR
OOSQ 272000Z NIL=
OOTH 272000Z NIL=
####018000084####
SAVN42 KWBC 272000 RRB
METAR
SVPR 272000Z 11007KT 8000 DZ OVC040 ///// Q1014=
####018000511####
SAXX99 KWBC 272000 RRN
METAR
CYCY 272000Z AUTO 23004KT 9SM CLR M34/M37 A2958 RMK SLP021=
CYHK 272000Z AUTO 23019KT 1 1/4SM -SN BKN009 OVC017 M16/M17 A2927
     RMK VIS VRB 1/2-2 SLP921=
CYMU 272000Z 18006KT 15SM FEW006 FEW270 M27/M32 A2991 RMK SF1CI0
     SLP140=
DAUI 272000Z 18008KT CAVOK 18/M01 Q1021=
UTO8 M M M 913/-25/-28/0312/M/ SOG 14 6012 99MM=
UTO8 M M M 893/-15/-17/3508/M/ 6013 39MM=
UTO8 M M M 992/-09/-11/2727+34/M/0002 PCPN 0.2MM PAST HR PK WND
     2834 1959Z 8034 81MM=
####018000089####
SACN82 CWAO 272015
MGB SA 2015 AUTO8 M M M 297/-11/-22/2509/M/M SOG 44 5004 12MM=

####018000139####
SAUS41 KWBC 272000 RRB
METAR
KPQI 272015Z AUTO 28011G19KT 10SM CLR M08/M26 A3017=
KWDR 272015Z AUTO 26004KT 10SM CLR 11/M02 A3036=
####018000193####
SAME31 OLBA 272000 RRA
METAR OJAI 272000Z 00000KT 7000 NSC 13/04 Q1017 NOSIG=
METAR OJAM 272000Z 00000KT 6000 NSC 14/02 Q1018 NOSIG=
METAR OJAQ 272000Z 13005KT CAVOK 23/10 Q1013 NOSIG=
####018000107####
SPUS52 KWBC 272018
SPECI
KCDS 272014Z AUTO 08006KT 2 1/2SM -SN SCT016 BKN022 OVC035 M08/M11
A3039=
####018000192####
SAUS43 KWBC 272000 RRC
METAR
KCIU 272015Z AUTO 24010G15KT 10SM CLR M08/M17 A3040=
KDKB 272015Z AUTO 27009KT 10SM CLR M13/M20 A3059=
KELO 272012Z AUTO 25005KT 10SM CLR M08/M24 A3031=
####018000088####
SAUS44 KWBC 272000 RRB
METAR
KGDV 272015Z AUTO 19012G20KT 10SM CLR M03/M14 A3004=
####018000089####
SPUS53 KWBC 272018
SPECI
KGCK 272014Z 15017KT 3SM -SN BKN024 OVC043 M10/M13 A3030=
####018000237####
SAUS53 KWBC 272000 RRD
METAR
KDVL 272015Z AUTO 22010KT 10SM CLR M11/M17 A3030=
KEAR 272015Z 16010G14KT 10SM CLR M07/M20 A3038=
KGPZ 272015Z AUTO 24007KT 10SM CLR M08/M21 A3035=
KUDG 272015Z AUTO 03004KT 10SM CLR 12/00 A3035=
####018000066####
SAUS54 KWBC 272000 RRB
METAR
KMWS 272000Z 24004G05KT 10/07=
####018000077####
SANL42 EHDB 271955
METAR EHFS 271955Z AUTO 22009KT 9999 NSC 04/02 Q1021=
####018000124####
SAUS44 KMAF 272018
MTRNFW
SPECI KNFW 272016Z 03007KT 1SM -SN SCT011 OVC019 M03/M06 A3048 RMK 
AO2 P0001 T10281056 $
####018000116####
SAUS46 KPDT 272016
MTRMEH
SPECI KMEH 272016Z AUTO 00000KT 10SM BKN014 OVC060 05/02 A2967 RMK 
AO2 T00500017
####018000213####
ISSD04 ENMI 272000
BUFR      X             	*   &# D#(x? -_`@'7777
####018000095####
SPCN44 CWAO 272015
SPECI CYOD 272015Z 33009KT 15SM BKN026 M11/M17 A3018 RMK SC6 SLP272=

####018000086####
SABZ35 SBBR 272018
METAR SACO 272000Z 16003KT 5000 -DZ SCT006 BKN010 18/17 Q1019=
####018000944####
SPUS17 KAWN 272018 RRB
SPECI KAFF 272013Z AUTO 15009KT 5SM -SN OVC017 M12/M16 A2986 RMK AO2=
SPECI KDLF 272013Z AUTO 10005KT 5SM HZ BKN009 OVC016 02/00 A3026 RMK
      AO2 CIG 007V015 BKN V SCT $=
SPECI KDYS 272015Z AUTO 06008KT 4SM UP BR BKN007 OVC013 M07/M08 A3034
      RMK AO2 UPB10 $=
SPECI KEND 272013Z AUTO 08008KT 8SM SCT006 BKN043 BKN180 M09/M13 A3048
      RMK AO2=
SPECI KFSI 272013Z AUTO 06008KT 10SM -SN SCT012 OVC020 M07/M10 A3044
      RMK AO2 CIG 015V020=
SPECI KGRF 272010Z 05004KT 2 1/2SM -RA BR OVC005 09/08 A2974 RMK AO2A
      TWR VIS 1 1/2 VIS 2 1/2V4=
SPECI KGRF 272015Z 04003KT 2SM -RA BR BKN005 OVC019 09/09 A2974 RMK
      AO2A TWR VIS 1 1/2 VIS 2V4 BKN V OVC $=
SPECI KGRK 272013Z AUTO 04010KT 10SM OVC014 M02/M05 A3034 RMK AO2=
SPECI KHIF 272013Z VRB05KT 10SM FEW033 SCT042 OVC085 04/M05 A2976 RMK
      AO2A=
SPECI KIAB 272013Z AUTO VRB05KT 2SM -SN OVC017 M09/M13 A3051 RMK AO2=
####018002900####
SAUS20 KNKA 272017
METAR KFOT 272015Z AUTO 35015KT 7SM BKN014 BKN019 OVC041 11/09
 A2989 RMK AO1 P0002=
METAR KFSO 272015Z AUTO 36004KT 10SM CLR M09/M22 A3039 RMK AO2 
 T10871218=
METAR KFTN 272110Z AUTO 03006KT BKN005 OVC011 02/02 A3026 RMK AO1=
METAR KGAO 272015Z AUTO 02007G14KT 10SM CLR 12/02 A3031 RMK AO2 
 T01160022=
METAR KGDJ 272015Z AUTO 01006KT 5SM UP BKN014 OVC019 M03/M06 
 A3043 RMK AO2 T10321057=
METAR KGGI 272015Z AUTO 33003KT 10SM CLR M13/M20 A3059 RMK AO2 
 T11351197=
METAR KGIC 272015Z AUTO 24003KT 10SM CLR 07/M01 A2975 RMK AO1 
 T00651011=
METAR KGMJ 272015Z AUTO 00000KT 7SM SCT019 BKN025 OVC032 M05/M13 
 A3057 RMK AO2=
METAR KGNC 272015Z AUTO 11010KT 7SM -SN OVC014 M07/M09 A3023 RMK 
 AO2 T10661093=
METAR KGOO 272020Z AUTO 24005KT 10SM SCT033 BKN044 10/02 A2978 RMK
 AO1=
METAR KGWB 272015Z AUTO 32004KT 10SM CLR M07/M19 A3058 RMK AO2=
METAR KGWW 272015Z AUTO 02006KT 10SM CLR 09/M02 A3038 RMK AO2 
     T00861016=
METAR KGYB 272015Z AUTO 04007KT 10SM OVC019 04/M01 A3036 RMK AO2 
 T00361010=
METAR KGYI 272015Z AUTO 05010KT 1 3/4SM -SN OVC008 M04/M05 A3047 
 RMK AO2 T10411051=
METAR KGZL 272015Z AUTO 06004KT 3/4SM -SN VV005 M07/M12 A3056 RMK 
 AO2=
METAR KHBI 272015Z AUTO 00000KT 10SM CLR 05/M04 A3040 RMK AO2 
 T00511045=
METAR KHHF 272015Z AUTO 12008KT 7SM -SN OVC021 M08/M11 A3035 RMK 
 AO2 T10771115=
METAR KHJH 272015Z AUTO 15006KT 10SM CLR M06/M19 A3048 RMK AO2 
 T10611189=
METAR KHLX 272015Z AUTO 32012KT 10SM CLR M01/M09 A3031 RMK AO2 
 T10151095=
METAR KHNZ 272015Z AUTO 34006KT 10SM CLR 06/M08 A3040 RMK AO2 
 T00551081=
METAR KHRJ 272015Z AUTO 33003KT 10SM SCT050 10/M04 A3038 RMK AO2 
 T00951038=
METAR KHSB 272015Z AUTO 00000KT 10SM CLR M06/M12 A3064 RMK AO2 
 T10611122=
METAR KHVE 272015Z AUTO 00000KT 10SM CLR 07/M05 A2979 RMK AO2=
METAR KHZL 272015Z AUTO 26005KT 10SM CLR M06/M16 A3036 RMK AO2=
METAR KI16 272015Z AUTO 10SM SCT035 M02/M11 A3049 RMK AO2 
 T10171106=
METAR KIBM 272015Z AUTO 17019G24KT 4SM -SN SCT009 BKN015 OVC031 
 M08/M12 A2996 RMK AO2 T10831122=
METAR KIER 272015Z AUTO 04008KT 10SM CLR 06/M03 A3041 RMK AO2 
 T00611032=
METAR KIFP 272015Z AUTO 36010G16KT 310V020 10SM CLR 20/M03 A2968
 RMK AO2 PWINO=
METAR KIIY 272015Z AUTO 26005KT 10SM CLR 14/03 A3031 RMK AO2=
METAR KJAS 272015Z AUTO 05004KT 10SM BKN110 08/M02 A3037 RMK AO2 
 T00841017=
METAR KJDD 272015Z AUTO 04005KT 10SM OVC060 00/M10 A3045 RMK AO2=
METAR KJFZ 272015Z AUTO 35004KT 10SM OVC023 M06/M12 A3037 RMK AO2 
 T10561125=
METAR KJNX 272015Z AUTO 30003KT 10SM CLR 09/M03 A3038 RMK AO2=
METAR KJSO 272015Z AUTO 03007KT 10SM OVC080 00/M06 A3041 RMK AO2 
 T00051064=
METAR KJSV 272015Z AUTO 10005KT 1 1/4SM -SN SCT003 OVC009 M05/M10 
 A3058 RMK AO2=
METAR KJTC 272015Z AUTO 21022G44KT 10SM FEW042 SCT070 OVC090
     10/M08 A2980 RMK AO2=
####018001945####
SAUS20 KNKA 272017
METAR KRNC 272015Z AUTO 07006KT 10SM CLR 00/M11 A3047 RMK=
METAR KRNV 272015Z AUTO 05009KT 10SM CLR 01/M04 A3048 RMK AO2 
 T00071042=
SPECI KROG 272016Z 04005KT 5SM -SN BKN029 OVC035 M08/M14 A3052 RMK 
 AO2 P0000=
METAR KRTS 272015Z AUTO 24016G22KT 10SM FEW050 SCT080 09/M05 A2968
 RMK AO2=
METAR KRZL 272015Z AUTO 29006KT 10SM CLR M08/M16 A3061 RMK AO2=
METAR KS39 272020Z AUTO 26007G12KT 9SM -RA FEW025 BKN034 BKN040
 04/02 A2968 RMK AO2=
METAR KSAA 272015Z AUTO 00000KT 10SM CLR M03/M11 A2976 RMK AO2=
METAR KSEP 272015Z AUTO 02008KT 4SM OVC010 M05/M06 A3039 RMK AO2 
 T10471065=
METAR KSIF 272015Z AUTO 30007KT 10SM CLR 06/M08 A3038 RMK AO2 
 T00641083=
METAR KSJS 272015Z AUTO 30004KT 10SM OVC041 M03/M13 A3051 RMK AO2 
 T10291131=
METAR KSVC 272015Z AUTO 17010G15KT 10SM CLR 08/M04 A2991 RMK AO2=
METAR KTMK 272015Z AUTO 00000KT 10SM SCT020 BKN038 OVC090 10/08 
 A2974 RMK AO2=
METAR KTYQ 272015Z AUTO 31003KT 10SM CLR M09/M19 A3059 RMK AO2 
 T10931194=
METAR KUSE 272015Z AUTO 26007KT 10SM CLR M09/M20 A3058 RMK AO2=
METAR KUVA 272015Z AUTO 04008KT 4SM BR BKN007 BKN013 OVC019 02/00 
 A3027 RMK AO2 T00150003=
METAR KVBW 272015Z AUTO 12003KT 10SM SCT060 01/M10 A3038 RMK AO2 
 T00071104=
METAR KVJI 272015Z AUTO 31005KT 10SM OVC032 00/M09 A3039 RMK AO2 
 T10041090=
METAR KVKS 272015Z AUTO 36013KT 10SM CLR 05/M03 A3039 RMK A01=
METAR KW43 272015Z AUTO 21010G16KT 10SM CLR M05/M12 A2993 RMK AO2=
METAR KW81 272015Z AUTO 00000KT 10SM SCT050 05/M08 A3040 RMK AO1 
 T00521080=
METAR KW96 272015Z AUTO 05004KT 10SM CLR 01/M05 A3045 RMK AO1 
 T00061049=
METAR KXBP 272015Z AUTO 06007KT 3SM -SN BKN010 OVC014 M05/M06 
 A3046 RMK AO2 T10511062=
METAR PAAD 272015Z AUTO 27025KT 1/2SM FZFG SCT020 BKN027 OVC034
 M04/M06 A3014 RMK AO2=
SPECI PACM 272016Z AUTO 17018G23KT 1/2SM FG SCT007 BKN012 OVC095 
 00/M01 A3017 RMK AO2 PWINO FZRANO TSNO $=
####018002971####
SAUS20 KNKA 272017
METAR K05U 272015Z AUTO 21006KT 5SM FEW027 SCT033 BKN039 04/M04
 A2972 RMK AO1=
METAR K19A 272015Z AUTO 29006KT 10SM CLR 11/M02 A3033 RMK AO2=
METAR K1A5 272015Z AUTO 33005KT 10SM 07/M12 A3032 RMK AO2 
 T00661122=
METAR K1II 272015Z AUTO 34010KT 10SM CLR M06/M16 A3060 RMK AO2=
METAR K2D5 272015Z AUTO 20008KT 10SM M10/M16 A3040 RMK AO2 =
METAR K2I0 272015Z AUTO 04005KT 10SM CLR M04/M13 A3060 RMK AO2 
 T10411128=
METAR K36U 272015Z AUTO 27006KT 10SM SCT043 BKN050 BKN100 03/M06 
 A2974 RMK AO2=
METAR K3I2 272015Z AUTO 26003KT 10SM CLR M02/M13 A3060 RMK AO2=
METAR K4A9 272015Z AUTO 04008KT 10SM CLR 02/M11 A3041 RMK AO2=
METAR K4O4 272015Z AUTO 07006KT 2 1/2SM OVC008 M02/M07 A3050 RMK 
 AO2=
METAR K5C1 272015Z AUTO 02005KT 2 1/2SM OVC006 00/M01 A3027 RMK 
 AO1=
METAR K5T9 272015Z AUTO VRB04KT 2SM BR BKN016 02/01 A3027 RMK A01=
METAR K65S 272015Z AUTO 15006KT 10SM OVC050 05/M08 A2988 RMK AO2=
METAR K6I2 272010Z AUTO 35005KT 10SM CLR M04/M16 A3056 RMK AO2=
METAR K82C 272015Z AUTO 28004KT 10SM CLR M09/M20 A3051 RMK AO2 
     T10901198=
METAR KAAA 272015Z AUTO 05003KT 10SM SCT027 M09/M15 A3066 RMK AO2 
 T10931153=
METAR KACQ 271959Z AUTO 22007KT 10SM CLR M12/M17 A3054 RMK AO2=
METAR KADH 272015Z AUTO 04004KT 1/2SM -SN VV005 M07/M08 A3049 RMK 
 AO2=
METAR KADS 271947Z 05008KT 1SM SN OVC011 M03/M05 A3046=
METAR KAEJ 272015Z AUTO 00000KT 1 1/2SM -SN OVC011 M08/M13 A2976 
 RMK AO2 T10841134=
METAR KAIB 272015Z AUTO 21011KT 10SM SCT037 02/M05 A2981 RMK AO2=
METAR KAJG 272015Z AUTO 30005KT 10SM CLR M05/M16 A3063 RMK AO2=
METAR KAJZ 272015Z AUTO 00000KT 3/4SM -SN OVC003 01/00 A2980 RMK 
 AO2 P0001 T00140000=
METAR KANW 272015Z AUTO 18009G16KT 10SM CLR M05/M20 A3026 RMK AO2 
 T10511197=
METAR KASW 272015Z AUTO 30006KT 10SM BKN036 BKN046 M08/M16 A3057 
 RMK AO2=
METAR KAVC 272016Z AUTO 32004KT 10SM CLR 05/M08 A3045 RMK AO2 
 T00501076=
METAR KAVK 272015Z AUTO 09007KT 2 1/2SM -SN FEW014 M09/M13 A3050
 RMK AO2=
METAR KAXX 272015Z AUTO 24010G17KT 2SM -SN BKN009 OVC015 M04/M07 
 A2980 RMK AO2 VIS 1 3/4V3 T10361074=
METAR KAYS 272015Z AUTO 03008G14KT 10SM CLR 13/04 A3031 RMK AO2 
 T01320038=
METAR KBAC 272015Z AUTO 23009KT 10SM CLR M12/M17 A3037 RMK AO2 =
METAR KBBD 272015Z AUTO 07007KT 4SM -SN BR OVC009 M03/M04 A3029 
 RMK=
METAR KBDG 272015Z AUTO 00000KT 10SM OVC014 00/M03 A2988 RMK AO1 
 T10021031=
METAR KBGE 272015Z AUTO 04007KT 10SM CLR 15/05 A3030 RMK AO2=
METAR KBHC 272015Z AUTO 01003KT 10SM SCT037 12/03 A3032 RMK AO2=
METAR KBMT 272015Z AUTO 09005KT 10SM CLR 10/00 A3033 RMK AO2 
 T01041003=
METAR KBTA 272015Z AUTO 20004KT 10SM CLR M09/M16 A3051 RMK AO2 
 T10881157=
METAR KBXK 272015Z AUTO 19007KT 120V200 10SM CLR 22/M02 A2971 RMK 
 AO1=
METAR KBYY 272015Z AUTO 03012G17KT 7SM OVC017 07/03 A3030 RMK AO2 
 T00700033=
METAR KCCO 272015Z AUTO 34009KT 10SM CLR 09/M03 A3034 RMK AO2 
 T00901032=
####018000309####
SAAK41 KNKA 272017
METAR PAAD 272015Z AUTO 27025KT 1/2SM FZFG SCT020 BKN027 OVC034
 M04/M06 A3014 RMK AO2=
SPECI PACM 272016Z AUTO 17018G23KT 1/2SM FG SCT007 BKN012 OVC095 
 00/M01 A3017 RMK AO2 PWINO FZRANO TSNO $=
SPECI PADU 272016Z 00000KT 10SM SCT008 SCT016 OVC033 06/03 A3006 RMK 
 AO2 CS=
####018002956####
SAUS20 KNKA 272017
METAR KJWG 272015Z AUTO 04008KT 10SM -SN SCT024 BKN050 OVC065 
 M08/M12 A3047 RMK AO2 T10831119=
METAR KJWY 272015Z AUTO 03009KT 7SM SCT011 OVC050 M02/M04 A3042 
 RMK AO2 T10241043=
METAR KJXI 272015Z AUTO 02008G15KT 10SM BKN050 OVC070 M01/M09 
 A3044 RMK AO2 T10121088=
METAR KLNC 272015Z AUTO 05010G16KT 10SM BKN012 BKN055 OVC070 
 M02/M05 A3044 RMK AO2 T10201055=
METAR KLNN 272015Z AUTO 29008KT 10SM CLR M11/M17 A3058 RMK AO1 
 T11091170=
METAR KLOM 272015Z AUTO 32004KT 10SM CLR M01/M13 A3042 RMK AO1=
METAR KLUA 272015Z AUTO 35004KT 10SM SCT060 02/M10 A3040 RMK AO2=
METAR KLUD 272015Z AUTO 05006KT 1 1/2SM -SN OVC004 M05/M07 A3042 
 RMK AO2 T10521070=
METAR KLUM 272015Z AUTO 23006KT 10SM CLR M10/M18 A3052 RMK AO2 
 T10971182=
METAR KLVL 272015Z AUTO 30005KT 10SM SCT055 06/M07 A3038 RMK AO1 
 T00591070=
METAR KLZZ 272015Z AUTO 04007KT 4SM BR OVC014 M01/M02 A3033 RMK AO2
 T10101022=
METAR KM30 272015Z AUTO 03006KT 10SM BKN038 M03/M11 A3059 RMK AO2 
 T10271115=
METAR KMCC 272015Z AUTO 18009KT 10SM FEW060 17/08 A2979 RMK AO2=
METAR KMEV 272015Z AUTO 26014G23KT 10SM BKN070 OVC085 09/M09 A2972
 RMK AO2=
METAR KMGR 272015Z AUTO 36005KT 10SM CLR 11/05 A3031 RMK AO2=
METAR KMHV 272015Z AUTO 22018G22KT 10SM BKN041 OVC049 14/04 A2976
 RMK AO1=
METAR KMKS 272035Z AUTO 01004KT 7SM CLR 11/00 A3035 RMK AO2=
METAR KMNZ 272015Z AUTO 04006KT 3SM BR OVC008 M04/M04 A3036 RMK 
 AO2 T10361039=
METAR KMQS 272015Z AUTO 33009G16KT 10SM CLR M03/M12 A3042 RMK AO2=
METAR KMRN 272015Z AUTO 22003KT 10SM CLR 08/M08 A3036 RMK AO2 
     T00801084=
METAR KMVH 272015Z AUTO 32012KT 10SM FEW029 M06/M15 A2988 RMK A01=
METAR KMWO 272015Z AUTO 33007KT 10SM SCT045 M06/M19 A3061 RMK AO2 
 T10571193=
METAR KN38 272015Z AUTO 31007G13KT 270V330 10SM FEW048 M08/M19
 A3034 RMK AO2=
METAR KO69 272015Z AUTO 26016G23KT 10SM SCT050 15/09 A2984 RMK AO1=
METAR KO86 272010Z AUTO 12005KT 10SM FEW035 SCT044 13/03 A2974 RMK
 AO1=
METAR KOCW 272015Z AUTO 01008KT SCT047 SCT095 08/00 A3039 RMK AO2 
 T00821004=
METAR KOJA 272015Z AUTO 07007KT 10SM -SN BKN017 OVC060 M08/M12 
 A3044 RMK AO2=
METAR KOKV 272015Z AUTO 30013G16KT 10SM SCT060 00/M16 A3043 RMK 
 AO2=
METAR KOLE 272015Z AUTO 30009KT 270V330 10SM CLR M11/M21 A3035 
 RMK AO2=
METAR KONM 272015Z AUTO 14008KT 10SM 02/00 A2992 RMK AO2 T00171003=
METAR KOXI 272015Z AUTO 25007KT 10SM M09/M27 A3060 RMK AO1=
METAR KP08 272015Z AUTO 22011G18KT 10SM CLR 23/M02 A2972 RMK AO2=
METAR KPCZ 272015Z AUTO 26008KT 10SM CLR M07/M20 A3050 RMK AO2 
 T10661204=
SPECI KPDT 272016Z 29012KT 10SM OVC070 07/04 A2969 RMK AO2 WSHFT 
 1956 RAB00E11 P0000 T00720044=
METAR KPSN 272015Z AUTO 05007KT 10SM OVC080 01/M06 A3042 RMK AO2 
 T00121058=
METAR KRCE 272015Z AUTO 07009KT 1 3/4SM -SN SCT020 M08/M10 A3048 
 RMK AO2 P0004=
METAR KRCZ 272015Z AUTO 27003KT 10SM 10/M03 A3035 RMK AO2 
 T01001026=
####018002963####
SAUS20 KNKA 272017
METAR KCDA 272015Z AUTO 22008G15KT 10SM CLR M09/M26 A3030 RMK AO2 
 T10901258=
METAR KCIR 272015Z AUTO 05008KT 10SM CLR M03/M12 A3061 RMK AO2 
 T10341116=
METAR KCLW 272015Z AUTO 06005KT 10SM OVC026 17/10 A3016 RMK AO2=
METAR KCMD 272015Z AUTO 35004KT 10SM CLR 01/M08 A3045 RMK AO2 
 T00101080=
METAR KCPK 272015Z AUTO 36008G14KT 10SM BKN050 03/M03 A3044 RMK 
 AO2=
METAR KCRX 272015Z AUTO VRB06G15KT 10SM CLR 03/M12 A3049 RMK AO2=
SPECI KCTB 272017Z AUTO 36020KT 3SM -SN OVC017 M08/M12 A3002 RMK AO2 
 P0000 T10831117=
METAR KCUH 272015Z AUTO 09005KT 1 3/4SM -SN SCT001 OVC007 M07/M11 
 A3053 RMK AO2=
METAR KCUL 272015Z AUTO 35005KT 10SM CLR M05/M11 A3062 RMK AO2 
 T10501106=
METAR KCWC 272015Z AUTO 04010KT 10SM SCT014 BKN022 OVC065 M05/M08 
 A3047 RMK AO2 T10541085=
METAR KCXP 272015Z AUTO 27017G25KT 10SM FEW060 SCT070 SCT080 10/M07
 A2969 RMK AO2=
METAR KD50 272015Z AUTO 19007KT 10SM CLR M09/M17 A3014 RMK AO2 =
METAR KDNS 272015Z AUTO 20004KT 10SM CLR M12/M20 A3053 RMK AO2=
METAR KDNV 272015Z AUTO 00000KT 10SM CLR M09/M18 A3059 RMK AO2 
 T10941176=
METAR KDPL 272015Z AUTO 35005KT 7SM CLR 09/M02 A3039 RMK AO2 
 T00941023=
METAR KDQH 272015Z AUTO 06005KT 10SM OVC031 12/04 A3033 RMK AO2=
METAR KDUC 272015Z AUTO 08007KT 5SM -SN BKN014 BKN022 OVC027 
 M06/M08 A3046 RMK AO2=
METAR KDUX 272015Z AUTO 13008KT 4SM -SN OVC010 M07/M13 A3022 RMK 
 AO2 T10751135=
METAR KDVK 272015Z AUTO 02006KT 10SM SCT032 M06/M13 A3057 RMK AO2=
METAR KDVO 272015Z AUTO 27015G23KT CLR 16/08 A2982 RMK AO2=
METAR KDZB 272015Z AUTO 07005KT 5SM UP OVC017 00/M03 A3033 RMK 
 AO2 T00001034=
METAR KE16 272015Z AUTO 32009KT 10SM CLR 16/09 A2986 RMK AO2=
METAR KEBG 272015Z AUTO 01006KT 10SM SCT025 BKN048 OVC050 16/08 
 A3018 RMK AO2 T01600082=
METAR KEDN 272015Z AUTO 03003KT 10SM CLR 12/00 A3029 RMK AO2=
METAR KEDU 272015Z AUTO 25003KT 10SM CLR 19/06 A2977 RMK AO1=
METAR KEHO 272015Z AUTO 02003KT 10SM CLR 09/M05 A3033 RMK AO2 
 T00851049=
METAR KEQA 272015Z AUTO 11005KT 3SM -SN BKN028 OVC033 M07/M13 A3050
 RMK AO2=
METAR KERV 272015Z AUTO 04005KT 3SM UP BKN009 OVC015 00/M02 A3026 
 RMK AO2 T10051016=
METAR KEYF 272015Z AUTO 06003KT 10SM SCT049 11/M01 A3036 RMK AO2 
 T01081012=
METAR KEZM 272015Z AUTO 34004KT 10SM CLR 14/03 A3034 RMK AO2 
 T01380032=
METAR KEZS 272015Z AUTO 25012KT 10SM CLR M07/M20 A3048 RMK AO2 
 T10711205=
METAR KF05 272015Z AUTO 07010KT 7SM BKN014 BKN019 OVC026 M06/M12 
 A3046 RMK AO1 T10651117=
METAR KF44 272015Z AUTO 05008KT 10SM OVC080 00/M08 A3042 RMK AO2=
METAR KF46 272015Z AUTO 03013G16KT 3SM -SN BKN008 OVC030 M03/M04 
 A3043 RMK AO2 T10261045=
SPECI KFDR 272016Z AUTO 07011KT 5SM HZ BKN014 OVC060 M08/M11 A3042 
 RMK AO2 SNE1959 P0000 T10781106 $=
METAR KFHB 272015Z AUTO 02012G17KT 10SM SCT016 12/06 A3030 RMK AO1=
METAR KFKR 272015Z AUTO 23005KT 10SM CLR M08/M17 A3060 RMK AO2 
 T10771171=
####018000090####
SAHW31 KMSC 272017
SPECI PGSN 272016Z 07013KT 10SM BKN014 BKN025 24/23 A2990 RMK AO2=
####018003749####
SAUS99 KWBC 272019
METAR
PAAD 272015Z AUTO 27025KT 1/2SM FZFG SCT020 BKN027 OVC034 M04/M06
     A3014 RMK AO2=
K05U 272015Z AUTO 21006KT 5SM FEW027 SCT033 BKN039 04/M04 A2972
     RMK AO1=
K19A 272015Z AUTO 29006KT 10SM CLR 11/M02 A3033 RMK AO2=
K1A5 272015Z AUTO 33005KT 10SM 07/M12 A3032 RMK AO2 T00661122=
K1II 272015Z AUTO 34010KT 10SM CLR M06/M16 A3060 RMK AO2=
K2D5 272015Z AUTO 20008KT 10SM M10/M16 A3040 RMK AO2=
K2I0 272015Z AUTO 04005KT 10SM CLR M04/M13 A3060 RMK AO2
     T10411128=
K36U 272015Z AUTO 27006KT 10SM SCT043 BKN050 BKN100 03/M06 A2974
     RMK AO2=
K3I2 272015Z AUTO 26003KT 10SM CLR M02/M13 A3060 RMK AO2=
K4A9 272015Z AUTO 04008KT 10SM CLR 02/M11 A3041 RMK AO2=
K4O4 272015Z AUTO 07006KT 2 1/2SM OVC008 M02/M07 A3050 RMK AO2=
K5C1 272015Z AUTO 02005KT 2 1/2SM OVC006 00/M01 A3027 RMK AO1=
K5T9 272015Z AUTO VRB04KT 2SM BR BKN016 02/01 A3027 RMK A01=
K65S 272015Z AUTO 15006KT 10SM OVC050 05/M08 A2988 RMK AO2=
K6I2 272010Z AUTO 35005KT 10SM CLR M04/M16 A3056 RMK AO2=
K82C 272015Z AUTO 28004KT 10SM CLR M09/M20 A3051 RMK AO2
     T10901198=
KAAA 272015Z AUTO 05003KT 10SM SCT027 M09/M15 A3066 RMK AO2
     T10931153=
KACQ 271959Z AUTO 22007KT 10SM CLR M12/M17 A3054 RMK AO2=
KADH 272015Z AUTO 04004KT 1/2SM -SN VV005 M07/M08 A3049 RMK
     AO2=
KADS 271947Z 05008KT 1SM SN OVC011 M03/M05 A3046=
KAEJ 272015Z AUTO 00000KT 1 1/2SM -SN OVC011 M08/M13 A2976 RMK AO2
     T10841134=
KAIB 272015Z AUTO 21011KT 10SM SCT037 02/M05 A2981 RMK AO2=
KAJG 272015Z AUTO 30005KT 10SM CLR M05/M16 A3063 RMK AO2=
KAJZ 272015Z AUTO 00000KT 3/4SM -SN OVC003 01/00 A2980 RMK AO2
     P0001 T00140000=
KANW 272015Z AUTO 18009G16KT 10SM CLR M05/M20 A3026 RMK AO2
     T10511197=
KASW 272015Z AUTO 30006KT 10SM BKN036 BKN046 M08/M16 A3057 RMK
     AO2=
KAVC 272016Z AUTO 32004KT 10SM CLR 05/M08 A3045 RMK AO2
     T00501076=
KAVK 272015Z AUTO 09007KT 2 1/2SM -SN FEW014 M09/M13 A3050 RMK
     AO2=
KAXX 272015Z AUTO 24010G17KT 2SM -SN BKN009 OVC015 M04/M07 A2980
     RMK AO2 VIS 1 3/4V3 T10361074=
KAYS 272015Z AUTO 03008G14KT 10SM CLR 13/04 A3031 RMK AO2
     T01320038=
KBAC 272015Z AUTO 23009KT 10SM CLR M12/M17 A3037 RMK AO2=
KBBD 272015Z AUTO 07007KT 4SM -SN BR OVC009 M03/M04 A3029 RMK=
KBDG 272015Z AUTO 00000KT 10SM OVC014 00/M03 A2988 RMK AO1
     T10021031=
KBGE 272015Z AUTO 04007KT 10SM CLR 15/05 A3030 RMK AO2=
KBHC 272015Z AUTO 01003KT 10SM SCT037 12/03 A3032 RMK AO2=
KBMT 272015Z AUTO 09005KT 10SM CLR 10/00 A3033 RMK AO2
     T01041003=
KBTA 272015Z AUTO 20004KT 10SM CLR M09/M16 A3051 RMK AO2
     T10881157=
KBXK 272015Z AUTO 19007KT 120V200 10SM CLR 22/M02 A2971 RMK
     AO1=
KBYY 272015Z AUTO 03012G17KT 7SM OVC017 07/03 A3030 RMK AO2
     T00700033=
KCCO 272015Z AUTO 34009KT 10SM CLR 09/M03 A3034 RMK AO2
     T00901032=
KRNC 272015Z AUTO 07006KT 10SM CLR 00/M11 A3047 RMK=
KRNV 272015Z AUTO 05009KT 10SM CLR 01/M04 A3048 RMK AO2
     T00071042=
KRTS 272015Z AUTO 24016G22KT 10SM FEW050 SCT080 09/M05 A2968 RMK
     AO2=
KRZL 272015Z AUTO 29006KT 10SM CLR M08/M16 A3061 RMK AO2=
KS39 272020Z AUTO 26007G12KT 9SM -RA FEW025 BKN034 BKN040 04/02
     A2968 RMK AO2=
KSAA 272015Z AUTO 00000KT 10SM CLR M03/M11 A2976 RMK AO2=
KSEP 272015Z AUTO 02008KT 4SM OVC010 M05/M06 A3039 RMK AO2
     T10471065=
KSIF 272015Z AUTO 30007KT 10SM CLR 06/M08 A3038 RMK AO2
     T00641083=
KSJS 272015Z AUTO 30004KT 10SM OVC041 M03/M13 A3051 RMK AO2
     T10291131=
KSVC 272015Z AUTO 17010G15KT 10SM CLR 08/M04 A2991 RMK AO2=
KTMK 272015Z AUTO 00000KT 10SM SCT020 BKN038 OVC090 10/08 A2974
     RMK AO2=
KTYQ 272015Z AUTO 31003KT 10SM CLR M09/M19 A3059 RMK AO2
     T10931194=
####018003698####
SAUS99 KWBC 272019 RRA
METAR
KUSE 272015Z AUTO 26007KT 10SM CLR M09/M20 A3058 RMK AO2=
KUVA 272015Z AUTO 04008KT 4SM BR BKN007 BKN013 OVC019 02/00 A3027
     RMK AO2 T00150003=
KVBW 272015Z AUTO 12003KT 10SM SCT060 01/M10 A3038 RMK AO2
     T00071104=
KVJI 272015Z AUTO 31005KT 10SM OVC032 00/M09 A3039 RMK AO2
     T10041090=
KVKS 272015Z AUTO 36013KT 10SM CLR 05/M03 A3039 RMK A01=
KW43 272015Z AUTO 21010G16KT 10SM CLR M05/M12 A2993 RMK AO2=
KW81 272015Z AUTO 00000KT 10SM SCT050 05/M08 A3040 RMK AO1
     T00521080=
KW96 272015Z AUTO 05004KT 10SM CLR 01/M05 A3045 RMK AO1
     T00061049=
KXBP 272015Z AUTO 06007KT 3SM -SN BKN010 OVC014 M05/M06 A3046 RMK
     AO2 T10511062=
PAAD 272015Z AUTO 27025KT 1/2SM FZFG SCT020 BKN027 OVC034 M04/M06
     A3014 RMK AO2=
KFOT 272015Z AUTO 35015KT 7SM BKN014 BKN019 OVC041 11/09 A2989 RMK
     AO1 P0002=
KFSO 272015Z AUTO 36004KT 10SM CLR M09/M22 A3039 RMK AO2
     T10871218=
KFTN 272110Z AUTO 03006KT BKN005 OVC011 02/02 A3026 RMK AO1=
KGAO 272015Z AUTO 02007G14KT 10SM CLR 12/02 A3031 RMK AO2
     T01160022=
KGDJ 272015Z AUTO 01006KT 5SM UP BKN014 OVC019 M03/M06 A3043 RMK
     AO2 T10321057=
KGGI 272015Z AUTO 33003KT 10SM CLR M13/M20 A3059 RMK AO2
     T11351197=
KGIC 272015Z AUTO 24003KT 10SM CLR 07/M01 A2975 RMK AO1
     T00651011=
KGMJ 272015Z AUTO 00000KT 7SM SCT019 BKN025 OVC032 M05/M13 A3057
     RMK AO2=
KGNC 272015Z AUTO 11010KT 7SM -SN OVC014 M07/M09 A3023 RMK AO2
     T10661093=
KGOO 272020Z AUTO 24005KT 10SM SCT033 BKN044 10/02 A2978 RMK
     AO1=
KGWB 272015Z AUTO 32004KT 10SM CLR M07/M19 A3058 RMK AO2=
KGWW 272015Z AUTO 02006KT 10SM CLR 09/M02 A3038 RMK AO2
     T00861016=
KGYB 272015Z AUTO 04007KT 10SM OVC019 04/M01 A3036 RMK AO2
     T00361010=
KGYI 272015Z AUTO 05010KT 1 3/4SM -SN OVC008 M04/M05 A3047 RMK AO2
     T10411051=
KGZL 272015Z AUTO 06004KT 3/4SM -SN VV005 M07/M12 A3056 RMK
     AO2=
KHBI 272015Z AUTO 00000KT 10SM CLR 05/M04 A3040 RMK AO2
     T00511045=
KHHF 272015Z AUTO 12008KT 7SM -SN OVC021 M08/M11 A3035 RMK AO2
     T10771115=
KHJH 272015Z AUTO 15006KT 10SM CLR M06/M19 A3048 RMK AO2
     T10611189=
KHLX 272015Z AUTO 32012KT 10SM CLR M01/M09 A3031 RMK AO2
     T10151095=
KHNZ 272015Z AUTO 34006KT 10SM CLR 06/M08 A3040 RMK AO2
     T00551081=
KHRJ 272015Z AUTO 33003KT 10SM SCT050 10/M04 A3038 RMK AO2
     T00951038=
KHSB 272015Z AUTO 00000KT 10SM CLR M06/M12 A3064 RMK AO2
     T10611122=
KHVE 272015Z AUTO 00000KT 10SM CLR 07/M05 A2979 RMK AO2=
KHZL 272015Z AUTO 26005KT 10SM CLR M06/M16 A3036 RMK AO2=
KI16 272015Z AUTO 10SM SCT035 M02/M11 A3049 RMK AO2 T10171106=
KIBM 272015Z AUTO 17019G24KT 4SM -SN SCT009 BKN015 OVC031 M08/M12
     A2996 RMK AO2 T10831122=
KIER 272015Z AUTO 04008KT 10SM CLR 06/M03 A3041 RMK AO2
     T00611032=
KIFP 272015Z AUTO 36010G16KT 310V020 10SM CLR 20/M03 A2968 RMK AO2
     PWINO=
KIIY 272015Z AUTO 26005KT 10SM CLR 14/03 A3031 RMK AO2=
KJAS 272015Z AUTO 05004KT 10SM BKN110 08/M02 A3037 RMK AO2
     T00841017=
KJDD 272015Z AUTO 04005KT 10SM OVC060 00/M10 A3045 RMK AO2=
KJFZ 272015Z AUTO 35004KT 10SM OVC023 M06/M12 A3037 RMK AO2
     T10561125=
KJNX 272015Z AUTO 30003KT 10SM CLR 09/M03 A3038 RMK AO2=
KJSO 272015Z AUTO 03007KT 10SM OVC080 00/M06 A3041 RMK AO2
     T00051064=
KJSV 272015Z AUTO 10005KT 1 1/4SM -SN SCT003 OVC009 M05/M10 A3058
     RMK AO2=
KJTC 272015Z AUTO 21022G44KT 10SM FEW042 SCT070 OVC090 10/M08
     A2980 RMK AO2=
KCDA 272015Z AUTO 22008G15KT 10SM CLR M09/M26 A3030 RMK AO2
     T10901258=
KCIR 272015Z AUTO 05008KT 10SM CLR M03/M12 A3061 RMK AO2
     T10341116=
####018003722####
SAUS99 KWBC 272019 RRB
METAR
KCLW 272015Z AUTO 06005KT 10SM OVC026 17/10 A3016 RMK AO2=
KCMD 272015Z AUTO 35004KT 10SM CLR 01/M08 A3045 RMK AO2
     T00101080=
KCPK 272015Z AUTO 36008G14KT 10SM BKN050 03/M03 A3044 RMK AO2=
KCRX 272015Z AUTO VRB06G15KT 10SM CLR 03/M12 A3049 RMK AO2=
KCUH 272015Z AUTO 09005KT 1 3/4SM -SN SCT001 OVC007 M07/M11 A3053
     RMK AO2=
KCUL 272015Z AUTO 35005KT 10SM CLR M05/M11 A3062 RMK AO2
     T10501106=
KCWC 272015Z AUTO 04010KT 10SM SCT014 BKN022 OVC065 M05/M08 A3047
     RMK AO2 T10541085=
KCXP 272015Z AUTO 27017G25KT 10SM FEW060 SCT070 SCT080 10/M07
     A2969 RMK AO2=
KD50 272015Z AUTO 19007KT 10SM CLR M09/M17 A3014 RMK AO2=
KDNS 272015Z AUTO 20004KT 10SM CLR M12/M20 A3053 RMK AO2=
KDNV 272015Z AUTO 00000KT 10SM CLR M09/M18 A3059 RMK AO2
     T10941176=
KDPL 272015Z AUTO 35005KT 7SM CLR 09/M02 A3039 RMK AO2
     T00941023=
KDQH 272015Z AUTO 06005KT 10SM OVC031 12/04 A3033 RMK AO2=
KDUC 272015Z AUTO 08007KT 5SM -SN BKN014 BKN022 OVC027 M06/M08
     A3046 RMK AO2=
KDUX 272015Z AUTO 13008KT 4SM -SN OVC010 M07/M13 A3022 RMK AO2
     T10751135=
KDVK 272015Z AUTO 02006KT 10SM SCT032 M06/M13 A3057 RMK AO2=
KDVO 272015Z AUTO 27015G23KT CLR 16/08 A2982 RMK AO2=
KDZB 272015Z AUTO 07005KT 5SM UP OVC017 00/M03 A3033 RMK AO2
     T00001034=
KE16 272015Z AUTO 32009KT 10SM CLR 16/09 A2986 RMK AO2=
KEBG 272015Z AUTO 01006KT 10SM SCT025 BKN048 OVC050 16/08 A3018
     RMK AO2 T01600082=
KEDN 272015Z AUTO 03003KT 10SM CLR 12/00 A3029 RMK AO2=
KEDU 272015Z AUTO 25003KT 10SM CLR 19/06 A2977 RMK AO1=
KEHO 272015Z AUTO 02003KT 10SM CLR 09/M05 A3033 RMK AO2
     T00851049=
KEQA 272015Z AUTO 11005KT 3SM -SN BKN028 OVC033 M07/M13 A3050 RMK
     AO2=
KERV 272015Z AUTO 04005KT 3SM UP BKN009 OVC015 00/M02 A3026 RMK
     AO2 T10051016=
KEYF 272015Z AUTO 06003KT 10SM SCT049 11/M01 A3036 RMK AO2
     T01081012=
KEZM 272015Z AUTO 34004KT 10SM CLR 14/03 A3034 RMK AO2
     T01380032=
KEZS 272015Z AUTO 25012KT 10SM CLR M07/M20 A3048 RMK AO2
     T10711205=
KF05 272015Z AUTO 07010KT 7SM BKN014 BKN019 OVC026 M06/M12 A3046
     RMK AO1 T10651117=
KF44 272015Z AUTO 05008KT 10SM OVC080 00/M08 A3042 RMK AO2=
KF46 272015Z AUTO 03013G16KT 3SM -SN BKN008 OVC030 M03/M04 A3043
     RMK AO2 T10261045=
KFHB 272015Z AUTO 02012G17KT 10SM SCT016 12/06 A3030 RMK AO1=
KFKR 272015Z AUTO 23005KT 10SM CLR M08/M17 A3060 RMK AO2
     T10771171=
KJWG 272015Z AUTO 04008KT 10SM -SN SCT024 BKN050 OVC065 M08/M12
     A3047 RMK AO2 T10831119=
KJWY 272015Z AUTO 03009KT 7SM SCT011 OVC050 M02/M04 A3042 RMK AO2
     T10241043=
KJXI 272015Z AUTO 02008G15KT 10SM BKN050 OVC070 M01/M09 A3044 RMK
     AO2 T10121088=
KLNC 272015Z AUTO 05010G16KT 10SM BKN012 BKN055 OVC070 M02/M05
     A3044 RMK AO2 T10201055=
KLNN 272015Z AUTO 29008KT 10SM CLR M11/M17 A3058 RMK AO1
     T11091170=
KLOM 272015Z AUTO 32004KT 10SM CLR M01/M13 A3042 RMK AO1=
KLUA 272015Z AUTO 35004KT 10SM SCT060 02/M10 A3040 RMK AO2=
KLUD 272015Z AUTO 05006KT 1 1/2SM -SN OVC004 M05/M07 A3042 RMK AO2
     T10521070=
KLUM 272015Z AUTO 23006KT 10SM CLR M10/M18 A3052 RMK AO2
     T10971182=
KLVL 272015Z AUTO 30005KT 10SM SCT055 06/M07 A3038 RMK AO1
     T00591070=
KLZZ 272015Z AUTO 04007KT 4SM BR OVC014 M01/M02 A3033 RMK AO2
     T10101022=
KM30 272015Z AUTO 03006KT 10SM BKN038 M03/M11 A3059 RMK AO2
     T10271115=
KMCC 272015Z AUTO 18009KT 10SM FEW060 17/08 A2979 RMK AO2=
KMEV 272015Z AUTO 26014G23KT 10SM BKN070 OVC085 09/M09 A2972 RMK
     AO2=
KMGR 272015Z AUTO 36005KT 10SM CLR 11/05 A3031 RMK AO2=
KMHV 272015Z AUTO 22018G22KT 10SM BKN041 OVC049 14/04 A2976 RMK
     AO1=
####018000703####
SPUS99 KWBC 272019
SPECI
PACM 272016Z AUTO 17018G23KT 1/2SM FG SCT007 BKN012 OVC095 00/M01
     A3017 RMK AO2 PWINO FZRANO TSNO $=
PADU 272016Z 00000KT 10SM SCT008 SCT016 OVC033 06/03 A3006 RMK AO2
     CS=
KROG 272016Z 04005KT 5SM -SN BKN029 OVC035 M08/M14 A3052 RMK AO2
     P0000=
PACM 272016Z AUTO 17018G23KT 1/2SM FG SCT007 BKN012 OVC095 00/M01
     A3017 RMK AO2 PWINO FZRANO TSNO $=
KCTB 272017Z AUTO 36020KT 3SM -SN OVC017 M08/M12 A3002 RMK AO2
     P0000 T10831117=
KFDR 272016Z AUTO 07011KT 5SM HZ BKN014 OVC060 M08/M11 A3042 RMK
     AO2 SNE1959 P0000 T10781106 $=
KPDT 272016Z 29012KT 10SM OVC070 07/04 A2969 RMK AO2 WSHFT 1956
     RAB00E11 P0000 T00720044=
####018001461####
SAUS99 KWBC 272019 RRC
METAR
KMKS 272035Z AUTO 01004KT 7SM CLR 11/00 A3035 RMK AO2=
KMNZ 272015Z AUTO 04006KT 3SM BR OVC008 M04/M04 A3036 RMK AO2
     T10361039=
KMQS 272015Z AUTO 33009G16KT 10SM CLR M03/M12 A3042 RMK AO2=
KMRN 272015Z AUTO 22003KT 10SM CLR 08/M08 A3036 RMK AO2
     T00801084=
KMVH 272015Z AUTO 32012KT 10SM FEW029 M06/M15 A2988 RMK A01=
KMWO 272015Z AUTO 33007KT 10SM SCT045 M06/M19 A3061 RMK AO2
     T10571193=
KN38 272015Z AUTO 31007G13KT 270V330 10SM FEW048 M08/M19 A3034 RMK
     AO2=
KO69 272015Z AUTO 26016G23KT 10SM SCT050 15/09 A2984 RMK AO1=
KO86 272010Z AUTO 12005KT 10SM FEW035 SCT044 13/03 A2974 RMK
     AO1=
KOCW 272015Z AUTO 01008KT SCT047 SCT095 08/00 A3039 RMK AO2
     T00821004=
KOJA 272015Z AUTO 07007KT 10SM -SN BKN017 OVC060 M08/M12 A3044 RMK
     AO2=
KOKV 272015Z AUTO 30013G16KT 10SM SCT060 00/M16 A3043 RMK AO2=
KOLE 272015Z AUTO 30009KT 270V330 10SM CLR M11/M21 A3035 RMK
     AO2=
KONM 272015Z AUTO 14008KT 10SM 02/00 A2992 RMK AO2 T00171003=
KOXI 272015Z AUTO 25007KT 10SM M09/M27 A3060 RMK AO1=
KP08 272015Z AUTO 22011G18KT 10SM CLR 23/M02 A2972 RMK AO2=
KPCZ 272015Z AUTO 26008KT 10SM CLR M07/M20 A3050 RMK AO2
     T10661204=
KPSN 272015Z AUTO 05007KT 10SM OVC080 01/M06 A3042 RMK AO2
     T00121058=
KRCE 272015Z AUTO 07009KT 1 3/4SM -SN SCT020 M08/M10 A3048 RMK AO2
     P0004=
KRCZ 272015Z AUTO 27003KT 10SM 10/M03 A3035 RMK AO2 T01001026=
####018000091####
SPUS44 KWBC 272019
SPECI
KOLM 272015Z 02006KT 10SM SCT008 SCT012 OVC019 09/08 A2974=
####018000087####
SPUS53 KWBC 272019
SPECI
KAIA 272015Z AUTO 18023G29KT 10SM OVC031 M07/M14 A3006=
####018000107####
SPUS53 KWBC 272019
SPECI
KLXV 272015Z AUTO 00000KT 1 3/4SM -SN BKN027 BKN033 OVC041 M07/M13
A2965=
####018000089####
SPUS54 KWBC 272019
SPECI
KMEH 272016Z AUTO 00000KT 10SM BKN014 OVC060 05/02 A2967=
####018000091####
SPUS54 KWBC 272019
SPECI
KOLM 272015Z 02006KT 10SM SCT008 SCT012 OVC019 09/08 A2974=
####018000074####
SPAL40 DAMM 272015
SPECI DAOI 272015Z 04002KT 9999 SCT026 11/09 Q1020=
####018000107####
SPUS81 KWBC 272019
SPECI
KLXV 272015Z AUTO 00000KT 1 3/4SM -SN BKN027 BKN033 OVC041 M07/M13
A2965=
####018000089####
SPUS81 KWBC 272019
SPECI
KMEH 272016Z AUTO 00000KT 10SM BKN014 OVC060 05/02 A2967=
####018000079####
SASD20 OEJD 272000 RRB
METAR OEHL 272000Z 27002KT CAVOK 13/M06 Q1021 NOSIG=
