####018000124####
SPUS90 KWBC 272036 CCA
SPECI KCQC 272032Z AUTO 12010KT 1 3/4SM -SN OVC006 M10/M13 A2988
     RMK AO2 P0000 T11001128=
####018000130####
SPPY SGAS 272035
SPECIAL SGAS 272035Z WIND 240/07KT VIS ABV10KM FBL TSRA
CLD BKN600M FEWCB1200M OVC2400M T26 DP24 QNH1009HPA=
####018000199####
SAKY31 RUMS 272030
METAR UCFM 272030Z 28003MPS 8000 SCT066 M04/M05 Q1031 R26/CLRD70
NOSIG=
METAR UCFO 272030Z 16002MPS 1400 R12/P2000 BR FEW050 SCT098 00/M01
Q1028 R12/CLRD70 TEMPO 1000 BR FU=
####018001065####
SAKZ31 RUMS 272030
METAR UAAA 272030Z 15003MPS 2200 BR FU SCT100 M04/M07 Q1032
R88/CLRD65 NOSIG=
METAR UAAH 272030Z NIL=
METAR UADD 272030Z NIL=
METAR UACC 272030Z 23004MPS CAVOK M13/M15 Q1033 R22/0/0070 NOSIG RMK
QFE743/0991=
METAR UACK 272030Z 27006MPS CAVOK M06/M11 Q1030 R20/410360 NOSIG RMK
QFE748/0998=
METAR UACP 272030Z NIL=
METAR UAII 272030Z 09002MPS CAVOK 01/M02 Q1030 R28/0///70 NOSIG RMK
QFE735/0980=
METAR UAKK 272030Z 23005MPS 7000 OVC004 M09/M10 Q1033 R23/920555
NOSIG RMK QBB140 QFE727/0970=
METAR UAOO 272030Z NIL=
METAR UASK 272030Z NIL=
METAR UASP 272030Z 24005MPS CAVOK M07/M11 Q1028 R21/0///60 NOSIG RMK
QFE760/1013=
METAR UASS 272030Z NIL=
METAR UARR 272030Z NIL=
METAR UATE 272030Z 11007MPS CAVOK M02/M04 Q1030 R12/0///70 NOSIG RMK
QFE770/1027=
METAR UATG 272030Z 10004MPS 5000 BR NSC M06/M06 Q1033 R14/CLRD70
NOSIG RMK QFE777/1036=
METAR UATT 272030Z 14002MPS 3000 BR NSC M17/M19 Q1037 R13/0///60
NOSIG RMK QFE758/1010=
METAR UAUU 272030Z 22002MPS 4000 BR FEW200 M14/M16 Q1033 R15/CLRD60
NOSIG RMK QFE758/1011=
####018000132####
SPBZ35 SBBR 272035
SPECI SGAS 272035Z WIND 240/07KT VIS ABV10KM FBL TSRA
CLD BKN600M FEWCB1200M OVC2400M T26 DP24 QNH1009HPA=
####018000397####
SATA31 RUMS 272030
METAR UTDD 272030Z 28004MPS 9999 BKN026 BKN030 OVC051 03/01 Q1027
R09/CLRD// NOSIG RMK QFE701/0935=
METAR UTDK 272030Z 21002MPS 9999 SCT020 BKN030CB OVC040 03/01 Q1027
0109//70 RMK QFE712/0950=
METAR UTDT 272030Z 13001MPS 5000 BR SCT023CB OVC046 05/03 Q1028
35CLRD70 RMK QFE731/0975=
METAR UTDL 272030Z 24002MPS 6000 OVC042 04/02 Q1029 NOSIG RMK
QFE734/0979 88CLRD70=
####018000495####
SAAL40 DAMM 272030
METAR DAAG 272030Z 35010KT 9999 -RA FEW013 SCT020TCU BKN036 11/08
 Q1021=
METAR DAAT 272030Z 27004KT CAVOK 11/M14 Q1023=
METAR DABB 272030Z 28011KT 1000 FEW026 SCT040 BKN100 11/10 Q1014=
METAR DABC 272030Z 00000KT 8000 FEW010 BKN023 05/03 Q1015=
METAR DABS 272030Z NIL=
METAR DAON 272030Z 24010KT 9999 SCT026 13/09 Q1023=
METAR DAOO 272030Z 24008KT 9999 FEW016 SCT233 14/12 Q1021=
METAR DAUH 272030Z 24011KT 9999 FEW040 SCT100 17/08 Q1016=
METAR DAUZ 272030Z NIL=
####018000184####
SAAY31 RUMS 272030
METAR UDYZ 272030Z 00000MPS 6000 FEW100 00/M04 Q1023 R09/0///70
NOSIG=
METAR UDSG 272030Z 00000MPS 1400 R02/0700VP1500D BR NSC M06/M07 Q1022
R02/CLRD70 NOSIG=
####018000129####
SPSA31 XXSA 272035
SPECI SGAS 272035Z WIND 240/07KT VIS ABV10KM FBL TSRA
CLD BKN600M FEWCB1200M OVC2400M T26 DP24 QNH1009HPA=
####018000086####
SPAU65 AMMC 272035
SPECI YMAY 272035Z AUTO 00000KT 6000 // NCD 19/14 Q1008=


####018000216####
SAAK41 KNKA 272034
SPECI PAIK 272033Z AUTO 19004KT 10SM SCT025 OVC035 01/M01 A3020 RMK 
 AO2 FZRANO=
SPECI PAVL 272033Z AUTO 08012KT 1SM -SN BR FEW008 OVC014 M03/M04 
 A3004 RMK AO2 P0000 T10331039 TSNO $=
####018000086####
SPAU32 YBBN 272035
SPECI YSNF 272030Z 10014KT 9999 VCSH SCT010 BKN013 22/21 Q1012=
####018000112####
SPCN52 CWAO 272035
SPECI CZUM 272035Z AUTO 27008G17KT 3SM -SN FEW023 OVC030 M24/M29
 A2971 RMK SLP121=

####018000578####
SPUS99 KWBC 272036
SPECI
KMTJ 272033Z AUTO 33011KT 10SM SCT009 SCT070 OVC090 01/M02 A2978
     RMK AO2 T00061022=
KRBG 272033Z AUTO 26005KT 10SM -RA BKN025 OVC034 11/06 A2979 RMK
     AO2 RAB20 P0000 T01110061=
KROG 272033Z 04007KT 4SM -SN BKN029 OVC035 M08/M13 A3051 RMK AO2
     P0000=
KVUO 272033Z AUTO 22004KT 10SM BKN027 OVC036 12/06 A2973 RMK AO2
     T01170056=
PAIK 272033Z AUTO 19004KT 10SM SCT025 OVC035 01/M01 A3020 RMK AO2
     FZRANO=
PAVL 272033Z AUTO 08012KT 1SM -SN BR FEW008 OVC014 M03/M04 A3004
     RMK AO2 P0000 T10331039 TSNO $=
####018000518####
SAUS99 KWBC 272036
METAR
KBBP 272035Z AUTO 00000KT 10SM CLR 12/M03 A3034 RMK AO2=
KDVP 272033Z AUTO 00000KT 10SM CLR M11/M19 A3045 RMK AO2
     T11111189=
KFOZ 272033Z AUTO 25006KT 10SM CLR M06/M22 A3033 RMK AO2=
KLKR 272035Z AUTO 05003KT 10SM CLR 11/M03 A3034 RMK AO2=
KMAO 272055Z AUTO 00000KT 10SM CLR 11/M01 A3035 RMK AO2=
KN03 272035Z AUTO 29007KT 10SM CLR M09/M17 A3043 RMK AO2=
KRZR 272035Z AUTO 03003KT 10SM CLR 01/M08 A3045 RMK=
KXVG 272036Z AUTO 24009KT 10SM CLR M07/M22 A3037 RMK AO2=
####018000619####
SPXX60 KWBC 272036
SPECI
KBAN 272033Z AUTO 24013G29KT 4SM -RA FEW022 BKN033 OVC060 04/M04
     A2969 RMK AO2 PK WND 22029/2026 RAB15 P0001 T00391044 $=
KAFF 272031Z AUTO 15008KT 5SM HZ OVC017 M12/M17 A2985 RMK AO2
     SNE31=
KCWN 272031Z AUTO 12005KT 7/8SM -SN OVC006 M14/M15 A2953 RMK AO2
     CIG 006V008 $=
KDYS 272032Z AUTO 05008KT 4SM BR BKN006 BKN010 OVC015 M06/M08
     A3033 RMK AO2 UPB10E22 $=
KFSI 272033Z AUTO 07010KT 10SM UP FEW013 BKN020 OVC037 M07/M11
     A3043 RMK AO2 SNE29UPB29 CIG 015V020=
KTIK 272032Z AUTO 05009KT 2SM -SN OVC011 M08/M11 A3046 RMK AO2 VIS
     1 1/2V2=
####018000126####
SPUS80 KWBC 272036 CCA
SPECI
KCQC 272032Z AUTO 12010KT 1 3/4SM -SN OVC006 M10/M13 A2988 RMK AO2
     P0000 T11001128=
####018000790####
SPUS70 KWBC 272036
SPECI
KITR 272032Z AUTO 16022KT 3SM -SN SCT015 OVC044 M10/M14 A3012 RMK
     AO2 PK WND 16027/2006 P0000 T11001139=
KRVS 272032Z 07006KT 2SM -SN FEW020 BKN025 OVC031 M07/M11 A3054
     RMK AO2 P0000 T10721111=
KMTJ 272033Z AUTO 33011KT 10SM SCT009 SCT070 OVC090 01/M02 A2978
     RMK AO2 T00061022=
KRBG 272033Z AUTO 26005KT 10SM -RA BKN025 OVC034 11/06 A2979 RMK
     AO2 RAB20 P0000 T01110061=
KROG 272033Z 04007KT 4SM -SN BKN029 OVC035 M08/M13 A3051 RMK AO2
     P0000=
KVUO 272033Z AUTO 22004KT 10SM BKN027 OVC036 12/06 A2973 RMK AO2
     T01170056=
PAIK 272033Z AUTO 19004KT 10SM SCT025 OVC035 01/M01 A3020 RMK AO2
     FZRANO=
PAVL 272033Z AUTO 08012KT 1SM -SN BR FEW008 OVC014 M03/M04 A3004
     RMK AO2 P0000 T10331039 TSNO $=
####018000088####
SAUS70 KWBC 272100
METAR
KMAO 272055Z AUTO 00000KT 10SM CLR 11/M01 A3035 RMK AO2=
####018000459####
SAUS70 KWBC 272036
METAR
KBBP 272035Z AUTO 00000KT 10SM CLR 12/M03 A3034 RMK AO2=
KDVP 272033Z AUTO 00000KT 10SM CLR M11/M19 A3045 RMK AO2
     T11111189=
KFOZ 272033Z AUTO 25006KT 10SM CLR M06/M22 A3033 RMK AO2=
KLKR 272035Z AUTO 05003KT 10SM CLR 11/M03 A3034 RMK AO2=
KN03 272035Z AUTO 29007KT 10SM CLR M09/M17 A3043 RMK AO2=
KRZR 272035Z AUTO 03003KT 10SM CLR 01/M08 A3045 RMK=
KXVG 272036Z AUTO 24009KT 10SM CLR M07/M22 A3037 RMK AO2=
####018000089####
SPAU31 KWBC 272036
SPECI
YSNF 272030Z 10014KT 9999 VCSH SCT010 BKN013 22/21 Q1012=
####018000467####
SAAL31 KWBC 272000 RRB
METAR
DAAG 272030Z 35010KT 9999 -RA FEW013 SCT020TCU BKN036 11/08
     Q1021=
DAAT 272030Z 27004KT CAVOK 11/M14 Q1023=
DABB 272030Z 28011KT 1000 FEW026 SCT040 BKN100 11/10 Q1014=
DABC 272030Z 00000KT 8000 FEW010 BKN023 05/03 Q1015=
DABS 272030Z NIL=
DAON 272030Z 24010KT 9999 SCT026 13/09 Q1023=
DAOO 272030Z 24008KT 9999 FEW016 SCT233 14/12 Q1021=
DAUH 272030Z 24011KT 9999 FEW040 SCT100 17/08 Q1016=
DAUZ 272030Z NIL=
####018000696####
SAAO31 KWBC 272030
METAR
GCFV 272030Z 02019KT 350V050 9999 SCT025 17/13 Q1027=
GCHI NIL=
GCLA 272030Z 36014KT 9999 BKN035 17/12 Q1030=
GCLP 272030Z 36022KT 9999 SCT025 17/10 Q1028 NOSIG=
GCRR 272030Z NIL=
GCTS 272030Z 05010KT 020V080 9999 FEW023 17/11 Q1027 NOSIG=
GCXO 272030Z 31011KT 260V020 9999 FEW005 BKN012 12/11 Q1030
     NOSIG=
GEML NIL=
GMAA NIL=
GMAT NIL=
GMFF 272030Z NIL=
GMFO NIL=
GMME 272030Z 21001KT 6000 SCT023 10/08 Q1027 NOSIG=
GMMN 272030Z 36004KT 9999 SCT016 11/09 Q1028 NOSIG=
GMMX 272030Z 03005KT 9999 FEW100 15/09 Q1027 NOSIG=
GMOY NIL=
GMTA NIL=
GMTN NIL=
GMTT 272030Z 25008KT 8000 SCT016 SCT200 14/11 Q1027 NOSIG=
GSAI NIL=
####018000162####
SAAS32 KWBC 272030
METAR
RKPC NIL=
RKPK NIL=
RKSS NIL=
VHHH 272030Z 09024KT 9999 FEW010 SCT018 19/16 Q1014 NOSIG=
VMMC NIL=
ZJSY NIL=
ZKPY NIL=
####018000028####
SAAS31 KWBC 272030
NIL=
####018000405####
SAAS33 KWBC 272030
METAR
VBRR NIL=
VDPP NIL=
VDSR NIL=
VLVT NIL=
VTBA NIL=
VTBD NIL=
VTBU NIL=
VTCC NIL=
VTSP NIL=
VTSS NIL=
VVDN NIL=
VVGL NIL=
VVNB NIL=
VVTS NIL=
WBGG NIL=
WBKK NIL=
WMAM NIL=
WMKJ NIL=
WMKK NIL=
WMKP NIL=
WMSA NIL=
WPDL NIL=
WPEC NIL=
WSAP NIL=
WSSL NIL=
WSSS 272030Z 04006KT 360V060 9999 FEW018 BKN350 26/23 Q1009
     NOSIG=
####018000028####
SAAW31 KWBC 272030
NIL=
####018000995####
SAAW32 KWBC 272030
METAR
OEDF NIL=
OEDR NIL=
OEJN NIL=
OEMA NIL=
OERK NIL=
OIAA 272030Z NIL=
OIAW 272030Z 33004KT CAVOK 18/04 Q1016=
OIAW 272030Z NIL=
OIBB NIL=
OIBK 272030Z NIL=
OICC 272030Z NIL=
OICK NIL=
OICS NIL=
OIFM 272030Z 12004KT CAVOK M01/M09 Q1024 A3025=
OIFP NIL=
OIGG 272030Z NIL=
OIHH NIL=
OIII 272030Z 12004KT CAVOK 07/M07 Q1024 A3024 NOSIG=
OIIM NIL=
OIIP NIL=
OIIX NIL=
OIKB 272030Z 36006KT CAVOK 12/05 Q1015 A3000=
OIKK 272030Z NIL=
OIMM 272030Z NIL=
OINN NIL=
OINR NIL=
OINZ NIL=
OISM NIL=
OISS 272030Z 04004KT CAVOK 05/M09 Q1022 A3020=
OITL NIL=
OITR 272030Z 25006KT CAVOK 01/M06 Q1023=
OITT 272030Z 06004KT CAVOK 01/M04 Q1024 A3027=
OIYY 272030Z NIL=
OIZH 272030Z NIL=
OKBK 272030Z 27003KT CAVOK 13/01 Q1017 NOSIG=
ORBI 272030Z 30003KT CAVOK 11/02 Q1018=
ORBS NIL=
ORMM NIL=
OSAP NIL=
OSDI NIL=
OSLK NIL=
OTBD 272030Z 33008KT CAVOK 17/15 Q1017 NOSIG=
OTBH NIL=
OTMA NIL=
OTMS NIL=
####018000089####
SAAW32 KWBC 272000 RRC
METAR
OIMM 272020Z 15008KT 9999 BKN025 M01/M04 Q1027 A3035=
####018000028####
SAAW33 KWBC 272030
NIL=
####018001050####
SAAW34 KWBC 272015 RRB
METAR
UAAA 272030Z 15003MPS 2200 BR FU SCT100 M04/M07 Q1032 R88/CLRD65
     NOSIG=
UAAH 272030Z NIL=
UACC 272030Z 23004MPS CAVOK M13/M15 Q1033 R22/0/0070 NOSIG RMK
     QFE743/0991=
UACP 272030Z NIL=
UADD 272030Z NIL=
UAII 272030Z 09002MPS CAVOK 01/M02 Q1030 R28/0///70 NOSIG RMK
     QFE735/0980=
UAKK 272030Z 23005MPS 7000 OVC004 M09/M10 Q1033 R23/920555 NOSIG
     RMK QBB140 QFE727/0970=
UAOO 272030Z NIL=
UARR 272030Z NIL=
UASP 272030Z 24005MPS CAVOK M07/M11 Q1028 R21/0///60 NOSIG RMK
     QFE760/1013=
UASS 272030Z NIL=
UATE 272030Z 11007MPS CAVOK M02/M04 Q1030 R12/0///70 NOSIG RMK
     QFE770/1027=
UATG 272030Z 10004MPS 5000 BR NSC M06/M06 Q1033 R14/CLRD70 NOSIG
     RMK QFE777/1036=
UATT 272030Z 14002MPS 3000 BR NSC M17/M19 Q1037 R13/0///60 NOSIG
     RMK QFE758/1010=
UAUU 272030Z 22002MPS 4000 BR FEW200 M14/M16 Q1033 R15/CLRD60
     NOSIG RMK QFE758/1011=
UTDD 272030Z 28004MPS 9999 BKN026 BKN030 OVC051 03/01 Q1027
     R09/CLRD// NOSIG RMK QFE701/0935=
####018000568####
SACI32 KWBC 272000 RRC
METAR
ZBAA 272030Z 16002MPS 8000 -SN SCT010 M03/M04 Q1028 NOSIG=
ZBTJ 272030Z 19004MPS 6000 -SN OVC026 M02/M03 Q1029 NOSIG=
ZBYN 272030Z 14002MPS 2500 -SN BR NSC M04/M05 Q1023 NOSIG=
ZGGG 272030Z 09002MPS 9999 OVC020 20/17 Q1014 NOSIG=
ZSHC 272030Z 09003MPS 5000 SHRA BR FEW010 BKN023 05/03 Q1023
     NOSIG=
ZSPD 272030Z 05005MPS 9999 -RA BKN020 05/04 Q1025 NOSIG=
ZSSS 272030Z 06004MPS 9999 -RA BKN012 05/03 Q1024 NOSIG=
ZWWW 272030Z 18001MPS CAVOK M07/M09 Q1034 NOSIG=
ZYTL 272030Z 29002MPS CAVOK M03/M07 Q1029 NOSIG=
####018000686####
SAEE31 KWBC 272030
METAR
EPGD 272030Z 14003KT 8000 BKN033 04/03 Q1015=
EPKK 272030Z VRB01KT 5000 BR SCT033 BKN066 05/03 Q1015=
EPKT 272030Z 00000KT 3000 BR FEW021 BKN023 04/03 Q1015=
EPPO 272030Z 13002KT 8000 BKN043 07/03 Q1015=
EPQT NIL=
EPRZ 272030Z 13001KT 9999 OVC033 06/03 Q1015=
EPSC 272030Z 12003KT 3000 BR NSC 03/02 Q1014=
EPWA 272030Z 15003KT 130V190 8000 BKN037 05/03 Q1015 BECMG 5000
     BR=
EYSA NIL=
UKBB 272030Z 23002MPS 6000 FEW014 BKN020 03/02 Q1018 88190060
     NOSIG=
UKKK NIL=
UKLL 272030Z 13003MPS 9999 OVC031 05/03 Q1015 13CLRD80 NOSIG=
UKOO 272030Z 04003MPS CAVOK 08/06 Q1015 16090060 NOSIG=
UMII NIL=
UMMM NIL=
UMMS NIL=
####018000592####
SAEE32 KWBC 272030
METAR
LBBG 272030Z 13004KT 020V170 9999 FEW045 08/05 Q1010 NOSIG=
LBPD NIL=
LBSF 272030Z 27003KT 230V320 5000 BR SCT037 08/06 Q1010 NOSIG=
LBWN 272030Z 12004KT 030V200 CAVOK 10/05 Q1010 NOSIG=
LHBP 272030Z 04004KT 9999 OVC023 06/04 Q1015 NOSIG=
LHTA NIL=
LRAR 272030Z NIL=
LRBS 272030Z 05008KT 6000 FEW006 07/06 Q1013 NOSIG=
LRCK 272030Z 05011KT CAVOK 08/08 Q1012 NOSIG=
LROP 272030Z 05013KT CAVOK 07/06 Q1013 R88/09//95 NOSIG=
LRTC NIL=
LRTM 272030Z NIL=
LRTR 272030Z 01004KT 340V040 7000 NSC 07/07 Q1012=
LUCC NIL=
LUKK NIL=
LURN NIL=
####018001596####
SAEM31 KWBC 272030
METAR
KQLA NIL=
KQLH NIL=
KQLX NIL=
LATI NIL=
LDDU 272030Z 01007KT 340V050 9999 FEW050 11/05 Q1009 NOSIG=
LDDV NIL=
LDKT NIL=
LDOS 272030Z 36007KT 9999 -RA BKN010 OVC030 06/05 Q1014=
LDPL 272030Z VRB02KT CAVOK 02/01 Q1012 NOSIG=
LDRI 272030Z NIL=
LDSP 272030Z 31009KT 280V350 CAVOK 09/02 Q1011 NOSIG=
LDZA 272030Z 00000KT 9999 SCT033 OVC045 05/01 Q1014 NOSIG=
LDZD 272030Z VRB02KT CAVOK 05/00 Q1011 NOSIG=
LJLJ 272030Z 00000KT 9999 BKN028 04/01 Q1014 NOSIG=
LJMB 272030Z 00000KT 9999 FEW030 02/M00 Q1014=
LJPZ 272030Z 09001KT CAVOK 05/02 Q1013=
LKIB NIL=
LKMT 272030Z 18003KT 6000 BKN048 05/03 Q1015 NOSIG=
LKPR 272030Z 24004KT CAVOK M00/M02 Q1015 NOSIG=
LKTB 272030Z VRB02KT 9999 OVC037 05/01 Q1015 NOSIG=
LKTT NIL=
LOAV NIL=
LOIH NIL=
LOIJ NIL=
LOLW NIL=
LOWG NIL=
LOWH NIL=
LOWI NIL=
LOWK NIL=
LOWL NIL=
LOWS NIL=
LOWW NIL=
LOWZ NIL=
LQSA 272030Z VRB03KT 6000 SCT015 OVC025 05/03 Q1012 NOSIG=
LWOH NIL=
LWSK 272030Z 31002KT 8000 BKN040 OVC070 08/07 Q1010 NOSIG=
LYBE 272030Z 03003KT 7000 NSC 06/06 Q1013 NOSIG=
LYDU NIL=
LYLJ NIL=
LYMB NIL=
LYNI 272030Z 32009KT 9999 SCT040 09/05 Q1011=
LYOH NIL=
LYOS NIL=
LYPG 272030Z 36003KT 9999 FEW040 SCT080 09/08 Q1008 NOSIG=
LYPL NIL=
LYPR 272030Z NIL=
LYPZ NIL=
LYRI NIL=
LYSA NIL=
LYSK NIL=
LYSP NIL=
LYTI NIL=
LYTV 272030Z VRB02KT CAVOK 08/06 Q1008=
LYZA NIL=
LYZD NIL=
LZIB 272030Z VRB01KT 9999 BKN029 05/02 Q1016=
LZKZ 272030Z 34003KT 9999 BKN031 05/03 Q1015=
LZTT 272030Z VRB02KT 9999 BKN006 M00/M01 Q1014=
####018000028####
SAEW31 KWBC 272030
NIL=
####018000920####
SAFR31 KWBC 272030
METAR
LFAC NIL=
LFAT NIL=
LFBD 272030Z AUTO 26003KT 9999 NSC 05/02 Q1027=
LFBH 272030Z AUTO 25005KT 9999 NSC 07/03 Q1025=
LFBI 272030Z AUTO 23003KT 9999 NSC 03/00 Q1025=
LFBO 272030Z AUTO 31006KT 9999 NSC 06/M00 Q1026=
LFBP 272030Z AUTO 34002KT 9999 NSC 03/M00 Q1027=
LFBT 272030Z AUTO 25003KT 220V280 9999 NSC 02/M01 Q1027=
LFBZ 272030Z AUTO 33003KT 300V010 9999 SCT070 OVC160 08/03
     Q1028=
LFGJ NIL=
LFKB 272030Z 28004KT 250V310 9999 FEW033 SCT260 07/01 Q1012
     NOSIG=
LFKC 272030Z NIL=
LFKJ 272030Z AUTO 06004KT 030V090 9999 NSC 08/05 Q1013=
LFLB 272030Z AUTO 01014KT 9999 OVC033 05/00 Q1021=
LFLC 272030Z 31003KT 280V350 9999 SCT053 BKN066 05/M02 Q1023
     NOSIG=
LFLL 272030Z 34009KT CAVOK 04/00 Q1022 NOSIG=
LFLS 272030Z AUTO 36004KT 300V050 9999 OVC052 03/M01 Q1021=
LFLY 272030Z AUTO 35005KT 9999 NSC 04/M00 Q1022=
LFMD NIL=
LFMH NIL=
####018000134####
SPSA32 KWBC 272036
SPECI
SGAS 272035Z WIND 240/07KT VIS ABV10KM FBL TSRA CLD BKN600M
FEWCB1200M OVC2400M T26 DP24 QNH1009HPA=
####018001215####
SAFR32 KWBC 272030
METAR
LFML 272030Z 32023KT CAVOK 08/M01 Q1015 NOSIG=
LFMN 272030Z 32005KT CAVOK 09/04 Q1012 NOSIG=
LFMP 272030Z AUTO 31013KT 9999 FEW062 09/M04 Q1023=
LFMT 272030Z 33012KT CAVOK 08/M05 Q1020 NOSIG=
LFOB 272030Z AUTO 22002KT 9999 NSC 00/M02 Q1023=
LFOH 272030Z AUTO 18004KT 9999 NSC 05/02 Q1022=
LFOT NIL=
LFPB 272030Z AUTO 31002KT 9999 NSC 04/M02 Q1024=
LFPG 272030Z 30003KT CAVOK 04/M02 Q1023 NOSIG=
LFPN NIL=
LFPO 272030Z 29004KT CAVOK 02/M02 Q1024 NOSIG=
LFQQ 272030Z 23004KT CAVOK 03/00 Q1022 NOSIG=
LFRB 272030Z 18009KT 9999 BKN017 SCT033 OVC070 07/05 Q1020 BECMG
     RA=
LFRC NIL=
LFRD 272030Z AUTO 15006KT 9999 NSC 07/02 Q1022=
LFRG NIL=
LFRK NIL=
LFRN 272030Z AUTO 18006KT 9999 NSC 06/03 Q1023=
LFRO 272030Z AUTO 18008KT 150V210 9999 FEW028 SCT034 BKN062 06/03
     Q1021=
LFRQ NIL=
LFRS 272030Z 20004KT CAVOK 06/03 Q1024 NOSIG=
LFRT NIL=
LFRZ 272030Z AUTO 24004KT 9999 NSC 07/03 Q1024=
LFSB 272030Z 27009KT 9999 -RA FEW012 SCT035 BKN050 03/02 Q1021
     NOSIG=
LFSF NIL=
LFSN 272030Z AUTO 30004KT 270V340 9999 NSC 04/M01 Q1022=
LFSR NIL=
LFST 272030Z AUTO 28005KT 9999 BKN060 OVC070 04/01 Q1021=
LFTW NIL=
LFVP NIL=
####018001029####
SAFR41 KWBC 272030
METAR
LFAF NIL=
LFBA NIL=
LFBC 272030Z AUTO VRB01KT 5000 BR FEW034 SCT046 OVC072 05/04
     Q1027=
LFBL 272030Z AUTO 26003KT 9999 BKN043 BKN052 OVC072 03/M01
     Q1024=
LFBM 272030Z AUTO 30005KT 9999 NSC 04/00 Q1027=
LFKF 272030Z AUTO 00000KT 2700 BCFG NCD 04/03 Q1013=
LFLD NIL=
LFLV NIL=
LFOE 272030Z AUTO 18003KT 9999 NSC 01/M01 Q1023=
LFOP 272030Z AUTO 17003KT 9999 NSC 01/M02 Q1023=
LFPB 272030Z AUTO 31002KT 9999 NSC 04/M02 Q1024=
LFPG 272030Z 30003KT CAVOK 04/M02 Q1023 NOSIG=
LFPV 272030Z AUTO 31005KT 9999 NSC 04/M02 Q1023=
LFQB 272030Z AUTO 30004KT 9999 NSC 02/M02 Q1023=
LFQQ 272030Z 23004KT CAVOK 03/00 Q1022 NOSIG=
LFRH NIL=
LFRM 272030Z AUTO 00000KT 9999 NSC 04/M00 Q1024=
LFSC NIL=
LFSD NIL=
LFSI 272030Z AUTO 00000KT 9999 NSC 00/M02 Q1023=
LFSL 272030Z AUTO 00000KT 9999 NSC 03/M01 Q1024=
LFSO 272030Z AUTO 27004KT 9999 FEW048 01/M01 Q1021=
LFSX 272030Z AUTO 29002KT 9999 NSC 02/01 Q1022=
LFTH 272030Z AUTO VRB02KT 9999 NSC 07/03 Q1013=
####018000028####
SAHA31 KWBC 272030
NIL=
####018000352####
SAIE31 KWBC 272030
METAR
EICK 272030Z 21008KT 0600 R17/0900N R35/0700N -DZ FG BKN001 BKN002
     09/09 Q1009 BECMG 3000 SCT001 BKN004=
EIDB NIL=
EIDW 272030Z 20018G28KT 170V230 9999 FEW014 SCT017 BKN050 07/04
     Q1008 NOSIG=
EIKN 272030Z NIL=
EINN 272030Z 17013KT 8000 -DZ FEW008 BKN011 BKN015 08/07 Q1008
     TEMPO 5000 BKN007=
####018000239####
SAIQ31 KWBC 272030
METAR
KQAD NIL=
KQAE NIL=
KQEZ NIL=
KQMG NIL=
KQMH NIL=
KQTO NIL=
KQTU NIL=
KQTW NIL=
KQTX NIL=
KQTZ NIL=
KQVO NIL=
KQXJ NIL=
KQXN NIL=
ORBI 272030Z 30003KT CAVOK 11/02 Q1018=
ORER NIL=
####018000028####
SAIQ32 KWBC 272030
NIL=
####018000028####
SAJP31 KWBC 272030
NIL=
####018000028####
SAJP41 KWBC 272030
NIL=
####018000028####
SAJP42 KWBC 272030
NIL=
####018000028####
SAJP43 KWBC 272030
NIL=
####018000028####
SAJP44 KWBC 272030
NIL=
####018000028####
SAJP45 KWBC 272030
NIL=
####018000096####
SAKO31 KWBC 272000 RRA
METAR
RKSI 272030Z 06005KT 9999 FEW030 BKN150 M02/M09 Q1029 NOSIG=
####018000175####
SAMM31 KWBC 272030
METAR
LCEN NIL=
LCLK 272030Z 30002KT CAVOK 12/10 Q1012 NOSIG=
LCNC 272030Z NIL=
LCPH 272030Z 09003KT CAVOK 14/10 Q1013=
LCRA NIL=
LMML NIL=
####018000257####
SATS32 DTTA 272030
METAR DTMB 272030Z 15006KT CAVOK 12/09 Q1014 NOSIG=
METAR DTNH 272030Z AUTO 15005KT 5000NDV NCD 12/09 Q1014=
METAR DTTA 272030Z 00000KT 9999 FEW026TCU 10/08 Q1014 NOSIG=
METAR DTTJ 272030Z 23009KT 9999 FEW020 13/06 Q1015 NOSIG=
####018000081####
SAID32 WAMM 272030
METAR WAMM 272030Z 11001KT 9000 SCT021 24/23 Q1010 NOSIG=
####018000257####
SATS40 DTTA 272030
METAR DTMB 272030Z 15006KT CAVOK 12/09 Q1014 NOSIG=
METAR DTNH 272030Z AUTO 15005KT 5000NDV NCD 12/09 Q1014=
METAR DTTA 272030Z 00000KT 9999 FEW026TCU 10/08 Q1014 NOSIG=
METAR DTTJ 272030Z 23009KT 9999 FEW020 13/06 Q1015 NOSIG=
####018000696####
SARA31 KWBC 272000 RRE
METAR
UAAA 272030Z 15003MPS 2200 BR FU SCT100 M04/M07 Q1032 R88/CLRD65
     NOSIG=
UACC 272030Z 23004MPS CAVOK M13/M15 Q1033 R22/0/0070 NOSIG RMK
     QFE743/0991=
UAOO 272030Z NIL=
UARR 272030Z NIL=
UATE 272030Z 11007MPS CAVOK M02/M04 Q1030 R12/0///70 NOSIG RMK
     QFE770/1027=
UATG 272030Z 10004MPS 5000 BR NSC M06/M06 Q1033 R14/CLRD70 NOSIG
     RMK QFE777/1036=
UATT 272030Z 14002MPS 3000 BR NSC M17/M19 Q1037 R13/0///60 NOSIG
     RMK QFE758/1010=
UTDD 272030Z 28004MPS 9999 BKN026 BKN030 OVC051 03/01 Q1027
     R09/CLRD// NOSIG RMK QFE701/0935=
UTDL 272030Z 24002MPS 6000 OVC042 04/02 Q1029 NOSIG RMK
     QFE734/0979 88CLRD70=
####018001463####
SASP31 KWBC 272030
METAR
LEAL 272030Z 26003KT 210V310 CAVOK 11/06 Q1021 NOSIG=
LEAM 272030Z 36005KT 320V050 9999 FEW020 19/04 Q1019=
LEAS 272030Z 30003KT 270V330 9000 -RA FEW025 BKN042 08/06 Q1027
     TEMPO RA=
LEBB 272030Z 13003KT 080V160 9999 SCT032 08/05 Q1028 NOSIG=
LEBL 272030Z 21013KT 9999 FEW025 12/06 Q1019 NOSIG=
LECO 272030Z 22005KT 170V240 9999 OVC022 09/06 Q1029 NOSIG=
LEGE 272030Z 00000KT 9999 FEW060 03/M02 Q1020=
LEGR 272030Z 00000KT 9999 FEW030 10/06 Q1024=
LEIB 272030Z 36003KT CAVOK 07/05 Q1021 NOSIG=
LEJR 272030Z 22004KT CAVOK 12/12 Q1025=
LELC NIL=
LELL 272030Z NIL=
LEMD 272030Z 18006KT 140V220 CAVOK 09/M02 Q1024 NOSIG=
LEMG 272030Z 28012KT 250V320 9999 FEW050 17/07 Q1023 NOSIG=
LEMH 272030Z 01024G38KT 9999 FEW030 SCT040 09/03 Q1018=
LEPA 272030Z 00000KT 9999 FEW020 05/04 Q1020 NOSIG=
LEPP 272030Z 32006KT 9999 SCT030 04/01 Q1026=
LERS 272030Z VRB02KT CAVOK 11/M05 Q1019=
LESO 272030Z VRB02KT 9999 SCT040 BKN065 08/05 Q1028=
LEST 272030Z 26003KT 210V300 6000 FEW015 BKN021 07/05 Q1029
     NOSIG=
LETO NIL=
LEVC 272030Z 35018G28KT CAVOK 13/M04 Q1022 NOSIG=
LEVD 272030Z 02002KT CAVOK 06/M02 Q1024=
LEVS 272030Z NIL=
LEVT 272030Z 30005KT 9999 FEW025 SCT045 04/02 Q1027=
LEVX 272030Z 29003KT 260V320 9999 OVC027 09/06 Q1030 NOSIG=
LEXJ 272030Z 21003KT 9999 FEW032 OVC043 09/04 Q1028=
LEZG 272030Z 30020KT CAVOK 06/00 Q1024=
LEZL 272030Z VRB01KT CAVOK 13/09 Q1024 NOSIG=
####018000028####
SATS31 KWBC 272030
NIL=
####018001025####
SAXX99 KWBC 272000 RRW
METAR
CMGB 272030Z AUTO 26008KT M11/M22 RMK AO1 SOG 44 5004 SLP297
     T11101220=
CWBU 272000Z AUTO 19007KT M17/M21 RMK AO1 SOG 23 8009 SLP247
     T11671210=
LESA 272030Z NIL=
LFBG 272030Z AUTO 23002KT 9999 NSC 05/01 Q1026=
LFCR 272030Z AUTO 31007KT 9999 NSC 01/M03 Q1023=
LFJL 272030Z AUTO 26004KT 9999 FEW041 BKN064 OVC080 03/M01
     Q1022=
LFLX 272030Z AUTO 26004KT 9999 NSC 04/00 Q1024=
LFMI 272030Z AUTO 34028G39KT 9999 NSC 07/M02 Q1016=
LFMK 272030Z AUTO 30017KT 9999 SCT068 06/M00 Q1024=
LFMO 272030Z AUTO 35024G36KT 9999 NSC 06/M02 Q1018=
LFMU 272030Z AUTO 30017KT 9999 NSC 08/M04 Q1022=
LFMV 272030Z AUTO 34026KT 320V020 9999 NSC 07/M02 Q1017=
LFOA 272030Z AUTO 00000KT 9999 NSC 02/M03 Q1024=
LFOK 272030Z AUTO 29007KT 9999 NSC 01/M02 Q1023=
UACK 272030Z 27006MPS CAVOK M06/M11 Q1030 R20/410360 NOSIG RMK
     QFE748/0998=
UDYZ 272030Z 00000MPS 6000 FEW100 00/M04 Q1023 R09/0///70
     NOSIG=
ZYTX 272030Z 12002MPS CAVOK M06/M11 Q1028 NOSIG=
####018001718####
SAEW KAWN 272000 RRM
METAR LFAT 272030Z AUTO VRB03KT 9999 NSC 05/01 Q1022=
METAR LFBA 272030Z AUTO 28006KT 9999 NSC 06/M01 Q1026=
METAR LFBE 272030Z AUTO 26006KT 9999 NSC 06/01 Q1026=
METAR LFBI 272030Z AUTO 23003KT 9999 NSC 03/00 Q1025=
METAR LFBO 272030Z AUTO 31006KT 9999 NSC 06/M00 Q1026=
METAR LFBP 272030Z AUTO 34002KT 9999 NSC 03/M00 Q1027=
METAR LFGJ 272030Z AUTO 28002KT 9999 NSC 04/M00 Q1023=
METAR LFLL 272030Z 34009KT CAVOK 04/00 Q1022 NOSIG=
METAR LFMD 272030Z AUTO VRB03KT 9999 NSC 07/04 Q1013=
METAR LFMH 272030Z AUTO 32004KT 9999 FEW058 OVC068 03/M02 Q1022=
METAR LFMN 272030Z 32005KT CAVOK 09/04 Q1012 NOSIG=
METAR LFMP 272030Z AUTO 31013KT 9999 FEW062 09/M04 Q1023=
METAR LFOB 272030Z AUTO 22002KT 9999 NSC 00/M02 Q1023=
METAR LFOE 272030Z AUTO 18003KT 9999 NSC 01/M01 Q1023=
METAR LFOT 272030Z 25003KT CAVOK 04/M00 Q1024 NOSIG=
METAR LFPG 272030Z 30003KT CAVOK 04/M02 Q1023 NOSIG=
METAR LFPM 272030Z AUTO 30004KT 9999 NSC 03/M02 Q1023=
METAR LFPN 272030Z AUTO 29002KT 9999 NSC 02/M03 Q1023=
METAR LFPO 272030Z 29004KT CAVOK 02/M02 Q1024 NOSIG=
METAR LFQB 272030Z AUTO 30004KT 9999 NSC 02/M02 Q1023=
METAR LFQQ 272030Z 23004KT CAVOK 03/00 Q1022 NOSIG=
METAR LFRB 272030Z 18009KT 9999 BKN017 SCT033 OVC070 07/05 Q1020 BECMG
      RA=
METAR LFRC 272030Z AUTO 18007KT 9999 NSC 04/02 Q1021=
METAR LFRK 272030Z AUTO 23007KT 9999 NSC 03/01 Q1022=
METAR LFRQ 272030Z AUTO 18004KT 9999 FEW034 BKN072 OVC082 07/05 Q1022=
METAR LFRS 272030Z 20004KT CAVOK 06/03 Q1024 NOSIG=
METAR LFSD 272030Z AUTO 32004KT 9999 NSC 02/M02 Q1023=
METAR LFSL 272030Z AUTO 00000KT 9999 NSC 03/M01 Q1024=
METAR LFST 272030Z AUTO 28005KT 9999 BKN060 OVC070 04/01 Q1021=
####018001722####
SAEU KAWN 272000 RRX
METAR LFBA 272030Z AUTO 28006KT 9999 NSC 06/M01 Q1026=
METAR LFBE 272030Z AUTO 26006KT 9999 NSC 06/01 Q1026=
METAR LFBO 272030Z AUTO 31006KT 9999 NSC 06/M00 Q1026=
METAR LFBP 272030Z AUTO 34002KT 9999 NSC 03/M00 Q1027=
METAR LFGJ 272030Z AUTO 28002KT 9999 NSC 04/M00 Q1023=
METAR LFLL 272030Z 34009KT CAVOK 04/00 Q1022 NOSIG=
METAR LFMD 272030Z AUTO VRB03KT 9999 NSC 07/04 Q1013=
METAR LFMN 272030Z 32005KT CAVOK 09/04 Q1012 NOSIG=
METAR LFMP 272030Z AUTO 31013KT 9999 FEW062 09/M04 Q1023=
METAR LFOB 272030Z AUTO 22002KT 9999 NSC 00/M02 Q1023=
METAR LFOE 272030Z AUTO 18003KT 9999 NSC 01/M01 Q1023=
METAR LFOT 272030Z 25003KT CAVOK 04/M00 Q1024 NOSIG=
METAR LFPG 272030Z 30003KT CAVOK 04/M02 Q1023 NOSIG=
METAR LFPN 272030Z AUTO 29002KT 9999 NSC 02/M03 Q1023=
METAR LFPO 272030Z 29004KT CAVOK 02/M02 Q1024 NOSIG=
METAR LFQB 272030Z AUTO 30004KT 9999 NSC 02/M02 Q1023=
METAR LFQQ 272030Z 23004KT CAVOK 03/00 Q1022 NOSIG=
METAR LFRB 272030Z 18009KT 9999 BKN017 SCT033 OVC070 07/05 Q1020 BECMG
      RA=
METAR LFRC 272030Z AUTO 18007KT 9999 NSC 04/02 Q1021=
METAR LFRS 272030Z 20004KT CAVOK 06/03 Q1024 NOSIG=
METAR LFSL 272030Z AUTO 00000KT 9999 NSC 03/M01 Q1024=
METAR LFST 272030Z AUTO 28005KT 9999 BKN060 OVC070 04/01 Q1021=
METAR LRBM 272030Z AUTO 31003KT 9999NDV FEW023/// SCT210/// 06/05 Q1014=
METAR LRBS 272030Z 05008KT 6000 FEW006 07/06 Q1013 NOSIG=
METAR LRCK 272030Z 05011KT CAVOK 08/08 Q1012 NOSIG=
METAR LRCL 272030Z 00000KT CAVOK 06/06 Q1013=
METAR LROD 272030Z AUTO 02010KT 8000NDV OVC080/// 07/04 Q1014=
METAR LROP 272030Z 05013KT CAVOK 07/06 Q1013 R88/09//95 NOSIG=
METAR LRTR 272030Z 01004KT 340V040 7000 NSC 07/07 Q1012=
####018000540####
SAAE31 VTBB 272030
METAR VTBS 272030Z 18008KT 9999 FEW020 SCT300 28/23 Q1010 NOSIG=
METAR VTBD 272030Z 17004KT 140V200 9999 FEW020 SCT300 28/25 Q1009
NOSIG=
METAR VTCC 272030Z 11002KT 7000 NSC 18/10 Q1013 A2992 NOSIG=
METAR VTBU 272030Z 21003KT 5000 BR FEW020 SCT300 27/22 Q1009 A2982=
METAR VTSS 272030Z 00000KT 9999 FEW020 SCT300 23/22 Q1009
           A2982 NOSIG=
METAR VTSP 272030Z NIL=
METAR VLVT 272030Z NIL=
METAR VYMD 272030Z NIL=
METAR VYYY 272030Z NIL=
METAR VDPP 272030Z NIL=
METAR VDSR 272030Z NIL=
####018000417####
SAAE33 VTBB 272030
METAR VVTS 272030Z VRB03KT 9999 FEW020 26/22 Q1010 NOSIG =
METAR VVNB 272030Z 11006KT 3400 DZ BR FEW007 SCT013 BKN040 23/22
Q1010 NOSIG=
METAR VVDN 272030Z 23004KT 7000 FEW015 BKN060 23/21 Q1011 NOSIG=
METAR VVPB 272030Z 21003KT 8000 FEW020 SCT060 23/21 Q1010 NOSIG=
METAR VVCR 272030Z 06007KT 9999 FEW015 SCT050 26/24 Q1012 NOSIG=
METAR VVCT 272030Z NIL=
METAR VVPQ 272030Z NIL=
####018000098####
SANL33 EHDB 272025 RRA
METAR EHJR 272025Z AUTO 20015G17KT //// ///////// 05/02 Q1018
W06/H11=
####018000098####
SANL33 EHDB 272025 RRC
METAR EHSA 272025Z AUTO 23012G16KT //// ///////// 06/// Q1020
W///H11=
####018000098####
SANL33 EHDB 272025 RRB
METAR EHSC 272025Z AUTO 23011G12KT 9999 ///////// 05/03 Q1020
W06/H10=
####018000251####
SAUR31 UKMS 272030
METAR UKLR 272030Z NIL=
METAR UKLI 272030Z NIL=
METAR UKON 272030Z NIL=
METAR UKLU 272030Z NIL=
METAR UKKK 272030Z VRB01MPS 7000 OVC014 03/02 Q1017
         08290058  NOSIG=
METAR UKKM 272030Z NIL=
METAR UKLN 272030Z NIL=
####018000120####
SPCN41 CWAO 272033
SPECI CYKA 272033Z 26015G21KT 40SM FEW025 SCT050 BKN075 05/M01 A2999
 RMK CF1CU2AC4 SLP169=

####018000107####
SAXX70 KAWN 272000 RRO
METAR KQAZ 272030Z AUTO 13009KT 9999 CLR 21/M08 A3001 RMK CDP03565
      CLR=
####018000959####
SAZZ40 KAWN 272000 RRV
METAR BIKF 272030Z 05015KT 9999 FEW020 SCT130 OVC150 M00/M04 Q0977=
METAR LQBK 272030Z 31004KT 7000 -RA BKN015 OVC030 06/05 Q1014 NOSIG=
METAR OIAW 272030Z 33004KT CAVOK 18/04 Q1016=
METAR OIFM 272030Z 12004KT CAVOK M01/M09 Q1024 A3025=
METAR OIII 272030Z 12004KT CAVOK 07/M07 Q1024 A3024 NOSIG=
METAR OIKB 272030Z 36006KT CAVOK 12/05 Q1015 A3000=
METAR OIMM 272020Z 15008KT 9999 BKN025 M01/M04 Q1027 A3035=
METAR OISS 272025Z 04004KT CAVOK 05/M09 Q1022 A3020=
METAR OISS 272030Z 04004KT CAVOK 05/M09 Q1022 A3020=
METAR OITT 272020Z 06004KT CAVOK 01/M04 Q1024 A3027=
METAR OITT 272030Z 06004KT CAVOK 01/M04 Q1024 A3027=
METAR TFFF 272030Z AUTO 06009KT 9999 FEW031 SCT046 BKN052 25/22 Q1015=
METAR UGKO 272030Z 07039G50KT CAVOK 12/M00 Q1012 R07/09//70 NOSIG=
METAR UGSB 272030Z AUTO 31004KT 260V030 CAVOK 10/05 Q1012 R13/70D NOSIG=
METAR WSSS 272030Z 04006KT 360V060 9999 FEW018 BKN350 26/23 Q1009 NOSIG=
####018000223####
SAIE32 EIDB 272030
METAR EIDL 272030Z NIL=
METAR EIKY 272030Z 27004KT 9999 BKN012 OVC023 09/08 Q1009=
METAR EIME 272030Z NIL=
METAR EISG 272030Z NIL=
METAR EIWF 272030Z 21019KT 3000 DZ BKN004 07/07 Q1010 R21/1/////=
####018002118####
SAUS20 KNKA 272035
METAR KMWM 272033Z AUTO 00000KT 10SM CLR M11/M17 A3047 RMK AO2=
METAR KONA 272036Z AUTO 22004KT 10SM CLR M10/M18 A3057 RMK AO2=
METAR KONZ 272034Z AUTO 21007KT 10SM CLR M09/M19 A3056 RMK AO2=
METAR KORB 272033Z AUTO 25007KT 10SM CLR M07/M25 A3030 RMK AO2=
METAR KOSC 272032Z AUTO 24009KT 10SM CLR M06/M16 A3045 RMK AO2
 T10681168=
METAR KOVL 272033Z AUTO 24005KT 10SM CLR M10/M17 A3049 RMK AO2=
METAR KPCW 272033Z AUTO 23009KT 10SM CLR M08/M17 A3057 RMK AO2 $=
METAR KPEX 272034Z AUTO 19009KT 10SM CLR M11/M21 A3047 RMK AO2
 T11111210=
METAR KPNM 272034Z AUTO 24007KT 10SM CLR M08/M18 A3046 RMK AO2=
METAR KPOV 272036Z AUTO 33005KT 10SM BKN039 M10/M20 A3053 RMK AO2
 T10981199=
METAR KPQN 272034Z AUTO 24005KT 10SM CLR M12/M18 A3043 RMK AO2=
METAR KPWC 272034Z AUTO 27004KT 10SM CLR M08/M19 A3041 RMK AO2=
METAR KRMY 272034Z AUTO 25006KT 10SM BKN044 M09/M18 A3054 RMK AO2
 T10921180=
METAR KROS 272036Z AUTO 22005KT 10SM CLR M09/M19 A3048 RMK AO2
 T10901194=
METAR KROX 272034Z AUTO 23009KT 10SM CLR M10/M18 A3034 RMK AO2=
METAR KRRT 272034Z AUTO 24009KT 10SM CLR M11/M19 A3033 RMK AO2=
METAR KRZT 272035Z AUTO 35006KT 10SM CLR M07/M17 A3060 RMK AO2=
METAR KSAZ 272033Z AUTO 22006KT 10SM CLR M09/M20 A3041 RMK AO2=
METAR KSGS 272031Z AUTO 24007KT 10SM CLR M09/M18 A3052 RMK AO2
     T10901178=
METAR KSYM 272030Z AUTO 27004KT 10SM CLR M06/M16 A3058 RMK AO2=
METAR KSYN 272035Z AUTO 24008KT 10SM CLR M11/M18 A3052 RMK AO2
 T11081184=
METAR KTEW 272035Z AUTO 24006KT 220V280 10SM SCT041 M08/M18 A3053
 RMK AO2 T10811183=
METAR KTKC 272032Z AUTO 28005KT 10SM CLR M09/M17 A3047 RMK AO2
 T10941172=
METAR KTOB 272034Z AUTO 24007KT 10SM CLR M14/M18 A3050 RMK AO2=
METAR KTWM 272035Z AUTO 24010G15KT 10SM CLR M06/M18 A3035 RMK AO2=
METAR KULM 272033Z AUTO 24004KT 10SM CLR M12/M19 A3051 RMK AO2=
METAR KVVV 272033Z AUTO 00000KT 10SM CLR M09/M19 A3045 RMK AO2=
METAR KY63 272034Z AUTO 23004KT 10SM CLR M12/M17 A3044 RMK AO2
     T11171173=
METAR KY70 272033Z AUTO 26010G17KT 10SM OVC039 M07/M16 A3052 RMK
     AO2 T10751156=
####018002940####
SAUS20 KNKA 272035
METAR K04W 272033Z AUTO 21008KT 10SM CLR M08/M18 A3045 RMK AO2=
METAR K14Y 272038Z AUTO 22008KT 10SM CLR M09/M18 A3043 RMK AO2=
METAR K21D 272030Z AUTO 22007KT 10SM CLR M08/M16 A3051 RMK AO2=
METAR K9MN 272033Z AUTO 28006KT 10SM CLR M12/M18 A3052 RMK AO1
     T11181185=
METAR KAEL 272032Z AUTO 21007KT 10SM CLR M13/M18 A3052 RMK AO2=
METAR KAIT 272034Z AUTO 21009KT 10SM CLR M06/M24 A3039 RMK AO2=
METAR KAXV 272031Z AUTO 33003KT 10SM SCT044 M07/M17 A3059 RMK AO2=
METAR KBBB 272034Z AUTO 25004KT 10SM CLR M09/M18 A3047 RMK AO2=
METAR KBJI 272032Z AUTO 25007KT 10SM CLR M09/M21 A3036 RMK AO2
 T10921211=
METAR KCVH 272030Z AUTO 35007KT 10SM SCT028 BKN034 BKN040 17/12
 A2984 RMK AO1=
METAR KD39 272032Z AUTO 24009KT 10SM CLR M10/M19 A3045 RMK AO2
 T10981190=
METAR KD95 272033Z AUTO 25010KT 10SM CLR M09/M18 A3052 RMK AO2
 T10891183=
METAR KDLZ 272047Z AUTO 34007KT 10SM CLR M09/M18 A3058 RMK AO2=
METAR KDXX 272033Z AUTO 24004KT 10SM CLR M09/M18 A3047 RMK AO2=
METAR KDYT 272033Z AUTO 22011KT 10SM CLR M07/M19 A3043 RMK AO2=
METAR KELO 272033Z AUTO 28005KT 10SM CLR M07/M24 A3030 RMK AO2=
METAR KEVM 272032Z AUTO 25010KT 10SM CLR M08/M22 A3035 RMK AO2=
METAR KFBL 272034Z AUTO 22006KT 10SM CLR M12/M18 A3052 RMK AO2=
METAR KFFM 272034Z AUTO 23005KT 10SM CLR M10/M19 A3047 RMK AO2=
METAR KFGN 272034Z AUTO 26014KT 10SM CLR M08/M23 A3028 RMK AO2=
METAR KFKA 272035Z AUTO 26007KT 10SM CLR M14/M20 A3053 RMK AO2
     T11451204=
METAR KGDB 272033Z AUTO 24004KT 10SM CLR M09/M16 A3050 RMK AO2
 T10951164=
METAR KGHW 272033Z AUTO 22007KT 10SM CLR M10/M18 A3044 RMK AO2=
METAR KGYL 272035Z AUTO 24005KT 10SM CLR M10/M16 A3050 RMK AO2
 T11051165=
METAR KHCD 272032Z AUTO 23007KT 10SM CLR M10/M17 A3051 RMK AO2
 T11051172=
METAR KHZX 272028Z AUTO 22009KT 10SM CLR M07/M20 A3040 RMK AO2=
METAR KI69 272036Z AUTO 01003KT 10SM SCT046 SCT055 M05/M17 A3058
 RMK AO1=
METAR KIKW 272033Z AUTO 24010G15KT 10SM SCT039 M08/M17 A3051 RMK
 AO2 T10761168=
METAR KIMS 272033Z AUTO 34004KT 10SM CLR M05/M19 A3061 RMK AO1=
METAR KJKJ 272031Z AUTO 24008KT 10SM CLR M08/M21 A3044 RMK AO2=
METAR KJMR 272035Z AUTO 23006G14KT 10SM CLR M08/M18 A3047 RMK AO2=
METAR KLJF 272032Z AUTO 23003KT 10SM CLR M11/M18 A3049 RMK AO2=
METAR KLXL 272034Z AUTO 22007KT 183V253 10SM CLR M08/M21 A3045 RMK
 AO2=
METAR KLYV 272035Z AUTO 22004KT 10SM CLR M10/M17 A3048 RMK AO2=
METAR KMDS 272030Z AUTO 22007KT 10SM CLR M10/M17 A3041 RMK AO2=
METAR KMGG 272036Z AUTO 27005KT 10SM CLR M09/M17 A3049 RMK AO2
     T10901171=
METAR KMJQ 272033Z AUTO 25007KT 10SM CLR M11/M17 A3048 RMK AO2=
METAR KMOX 272033Z AUTO 20003KT 10SM CLR M09/M18 A3045 RMK AO2=
METAR KMQJ 272036Z AUTO 27004KT 10SM CLR M07/M24 A3059 RMK AO1=
METAR KMRT 272034Z AUTO 34006KT 10SM CLR M08/M19 A3057 RMK AO2
     T10821190=
METAR KMVE 272034Z AUTO 00000KT 10SM CLR M07/M16 A3049 RMK AO2=
####018000481####
SAMS31 WMKK 272030
METAR WBGG 272030Z 25002KT 8000 FEW020 BKN300 25/23 Q1009 NOSIG=
METAR WBKK 272030Z 11004KT 100V260 9999 FEW014 BKN270 25/22 Q1008 NOSIG=
METAR WBSB 272030Z 28001KT 9999 FEW004 BKN300 26/25 Q1009 NOSIG=
METAR WMKK 272030Z 10003KT 9999 FEW017CB SCT140 BKN280 26/22 Q1008 NOSIG=
METAR WMKP 272030Z 03004KT 8000 FEW025 SCT140 BKN270 27/23 Q1008 NOSIG=
METAR WSSL 272030Z NIL=
METAR WSSS 272030Z 04006KT 360V060 9999 FEW018 BKN350 26/23 Q1009 NOSIG=
####018000088####
SAUS46 KLOX 272036
MTRMWS
METAR KMWS 272030Z 23500G00KT MM/07 RMK SNOW DEPTH 1.00
####018000445####
SAAL31 DAAA 272030
METAR DAAG 272030Z 35010KT 9999 -RA FEW013 SCT020TCU BKN036 11/08
 Q1021=
METAR DAAT 272030Z 27004KT CAVOK 11/M14 Q1023=
METAR DABB 272030Z 28011KT 1000 FEW026 SCT040 BKN100 11/10 Q1014=
METAR DABC 272030Z 00000KT 8000 FEW010 BKN023 05/03 Q1015=
METAR DAON 272030Z 24010KT 9999 SCT026 13/09 Q1023=
METAR DAOO 272030Z 24008KT 9999 FEW016 SCT233 14/12 Q1021=
METAR DAUH 272030Z 24011KT 9999 FEW040 SCT100 17/08 Q1016=
####018001830####
SAUS20 KNKA 272035
METAR KSDY 272035Z AUTO 16009KT 10SM CLR M02/M15 A3009 RMK AO1=
METAR KSFM 272035Z AUTO 24006KT 10SM CLR M04/M21 A3031 RMK AO1=
METAR KSFZ 272035Z 32005KT 10SM CLR M04/M16 A3031 RMK AO1=
METAR KSGT 272035Z AUTO 36010KT 10SM BKN032 BKN100 M02/M09 A3057 RMK 
 AO1=
METAR KSKX 272035Z AUTO 25005KT 1/2SM OVC012 M07/M10 A2987 RMK AO1=
METAR KSLG 272035Z AUTO 06005KT 10SM OVC050 M07/M18 A3052 RMK AO1=
METAR KSOP 272035Z AUTO 05006KT 10SM CLR 09/M04 A3037 RMK AO1=
METAR KSQI 272035Z AUTO 25005KT 10SM CLR M11/M18 A3063 RMK AO1=
METAR KSTK 272030Z AUTO 17018G23KT 10SM BKN030 OVC036 M06/M12
     A3006 RMK AO2=
METAR KSUE 272035Z AUTO 24012G16KT 10SM CLR M09/M19 A3049 RMK AO1=
METAR KTEX 272035Z AUTO 30005KT 10SM SCT047 BKN060 M03/M14 A2974 
 RMK AO2 T10261143=
METAR KTHA 272035Z AUTO VRB06KT 10SM CLR 01/M12 A3045 RMK=
METAR KTME 272035Z AUTO 06009KT 8SM OVC020 05/00 A3035 RMK AO2=
METAR KTPL 272035Z AUTO 02010KT 10SM OVC019 M01/M06 A3035 RMK AO1=
METAR KTSP 272035Z AUTO 31016G25KT 9SM FEW021 OVC026 09/04 A2980 
 RMK AO2=
METAR KTVF 272035Z AUTO 21010KT 10SM CLR M11/M16 A3037 RMK AO1=
METAR KUDG 272035Z AUTO 32003KT 10SM CLR 12/M02 A3035 RMK AO1=
METAR KUTA 272035Z AUTO 03011G15KT 10SM SCT031 00/M06 A3051 RMK 
     AO2=
METAR KUYF 272035Z AUTO 34008KT 10SM SCT038 M10/M17 A3056 RMK AO2=
METAR KVBT 272035Z AUTO 06007KT 5SM SCT022 OVC035 M07/M15 A3051 RMK 
 AO1=
METAR KVIS 272035Z AUTO 00000KT 8SM FEW085 18/08 A2981 RMK AO1=
METAR KVTP 272035Z AUTO 3/4SM -SN OVC002 M08/M10 A2972 RMK AO2=
METAR KWVL 272035Z 31010G16KT CLR M05/M22 A3025 RMK AO1=
METAR KWWD 272035Z AUTO 28010G15KT 10SM BKN075 M02/M09 A3046 RMK AO1=
METAR KYKN 272035Z AUTO 18005KT 10SM CLR M07/M17 A3047 RMK AO1=
METAR K7N0 272035Z AUTO 03004KT 10SM CLR A3031 RMK AO1=
####018002948####
SAUS20 KNKA 272035
METAR KDWU 272035Z AUTO 07004KT 10SM OVC047 M03/M14 A3058 RMK AO1=
METAR KDYB 272035Z AUTO 03003KT 10SM CLR 11/02 A3036 RMK AO1=
METAR KDYR 272035Z 03011G15KT 10SM CLR M03/M14 A3058 RMK AO1=
METAR KE80 272035Z AUTO 13007KT 10SM OVC014 M01/M04 A2992 RMK AO2 
     T10101045=
METAR KEAR 272035Z 13004KT 10SM CLR M06/M20 A3037 RMK AO1=
METAR KEDC 272035Z AUTO 03011G16KT 10SM OVC024 02/M04 A3033 RMK AO2
=
METAR KEEN 272035Z AUTO 36008KT 10SM CLR M05/M21 A3033 RMK AO1=
METAR KEHR 272035Z AUTO 34006KT 310V010 10SM SCT034 M05/M13 A3061 
 RMK AO1=
METAR KEIK 272035Z AUTO 00000KT 10SM CLR M09/M13 A2994 RMK AO2
 T10901134=
METAR KESC 272035Z AUTO 18013KT 10SM CLR M09/M17 A3044 RMK AO1=
METAR KEWK 272035Z AUTO 00000KT 3SM BKN016 OVC025 M09/M15 A3050 RMK 
 AO1=
METAR KFAM 272035Z AUTO 00000KT 10SM CLR M07/M18 A3059 RMK AO1=
METAR KFGX 272035Z AUTO 35005KT 10SM CLR M06/M15 A3058 RMK AO2 
 T10641152=
METAR KFKL 272035Z AUTO 32009KT 10SM CLR M11/M21 A3049 RMK AO1=
METAR KFLP 272035Z 02004KT 10SM BKN060 M06/M18 A3056 RMK AO1=
METAR KFLY 272032Z AUTO 17008KT 2SM -SN OVC010 M12/M16 A2986 RMK
     AO2 VIS 1 1/2V4 T11241162=
METAR KFMH 272035Z AUTO 04004G10KT 10SM CLR M04/M14 A3034 RMK AO2 
 FZRANO=
METAR KFMM 272035Z AUTO 15018G21KT 10SM SCT025 OVC030 M08/M13 A3001
 RMK AO2 T10761132=
METAR KFNL 272035Z AUTO 00000KT 10SM BKN018 M10/M14 A2996 RMK AO1 
 P0008=
METAR KFOD 272035Z AUTO 23005KT 10SM CLR M12/M18 A3056 RMK AO1=
METAR KFRM 272035Z AUTO 23007KT 10SM CLR M11/M18 A3050 RMK AO1=
METAR KGAD 272035Z 03010KT 10SM CLR 04/M07 A3042 RMK AO1=
METAR KGAI 272035Z AUTO 32007KT 300V360 10SM CLR M02/M13 A3049 RMK 
 AO1=
METAR KGBD 272035Z AUTO 15010KT 7SM BKN027 OVC035 M08/M14 A3043 RMK 
 AO1=
METAR KGDV 272035Z AUTO 19014G19KT 10SM CLR M02/M14 A3003 RMK AO1=
METAR KGPZ 272035Z AUTO 23006KT 10SM CLR M08/M21 A3035 RMK AO1=
METAR KGUC 272035Z 23012G17KT 10SM CLR M01/M10 A2974 RMK AO1=
METAR KGXY 272035Z AUTO 17007KT 10SM BKN030 OVC037 M05/M13 A2995 RMK 
 AO1=
METAR KHDN 272035Z AUTO 24005KT 10SM CLR M03/M13 A2977 RMK AO1=
METAR KHEZ 272035Z AUTO 34009KT 10SM CLR 07/M03 A3037 RMK AO1=
METAR KHNB 272035Z AUTO 03005KT 10SM CLR M06/M14 A3061 RMK AO1=
METAR KHVS 272035Z AUTO 00000KT 10SM CLR 12/M01 A3034 RMK AO2=
METAR KHYS 272035Z AUTO 12009KT 10SM FEW041 FEW047 OVC060 M08/M18 
 A3041 RMK AO1=
METAR KHYW 272035Z AUTO 01005KT 7SM CLR 11/00 A3036 RMK AO2=
METAR KI67 272035Z AUTO 07007KT 10SM BKN048 M05/M16 A3060 RMK AO1=
METAR KILE 272035Z AUTO 03010KT 10SM OVC016 M01/M07 A3033 RMK AO1=
METAR KIWD 272035Z AUTO 28011KT 10SM CLR M10/M20 A3035 RMK AO1=
METAR KJHN 272035Z AUTO 14015KT 4SM -SN SCT009 BKN025 OVC050 
 M10/M13 A3024 RMK AO2 T10961129=
METAR KJHW 272035Z 28010KT 10SM CLR M13/M21 A3043 RMK AO1=
SPECI KLBB 272034Z 09010KT 2SM -SN FEW000 OVC014 M08/M12 A3022 RMK 
 AO2 SN FEW000 P0000 T10831117=
####018002937####
SAUS20 KNKA 272035
METAR KLBL 272035Z AUTO 14011KT 10SM FEW020 FEW029 BKN070 M09/M14 
 A3031 RMK AO1=
METAR KLCI 272035Z AUTO 27009KT 10SM CLR M06/M22 A3029 RMK AO1=
METAR KLEW 272035Z AUTO 31008KT 10SM CLR M05/M21 A3029 RMK AO1=
METAR KLMO 272034Z AUTO 00000KT 7SM BKN019 00/M13 A2996 RMK AO2
 T00001129=
METAR KLPC 272035Z AUTO 31014G22KT 10SM BKN023 OVC028 16/09 A2987 
 RMK AO1=
SPECI KLXV 272034Z AUTO 18006KT 1 1/4SM -SN BKN020 OVC030 M08/M12 
 A2965 RMK AO2 SNB00 P0000 T10781117=
METAR KM91 272035Z AUTO 07008KT 10SM CLR M03/M12 A3055 RMK=
METAR KMBL 272035Z AUTO 26012KT 10SM BKN028 M09/M17 A3052 RMK AO1=
METAR KMEZ 272035Z AUTO 36006KT 1 1/4SM BKN009 OVC013 M02/M06 A3048
 RMK AO2=
METAR KMJX 272035Z AUTO 29008KT 10SM CLR M01/M12 A3042 RMK AO1=
SPECI KMKO 272034Z AUTO 05008KT 2SM -SN BKN025 OVC034 M06/M11 A3055 
 RMK AO2 SNB05 P0000 T10611111=
METAR KMKT 272035Z AUTO 26007KT 10SM CLR M12/M21 A3053 RMK AO1=
METAR KMKY 272035Z AUTO 04012KT 10SM OVC017 19/13 A3012 RMK AO1=
METAR KMML 272035Z AUTO 25006KT 10SM CLR M11/M17 A3048 RMK AO1=
METAR KMNH 272036Z AUTO 20012KT 10SM CLR M10/M15 A2980 RMK AO2=
METAR KMNI 272035Z AUTO 00000KT 10SM CLR 12/M01 A3034 RMK AO2=
METAR KMNM 272035Z AUTO 23010G14KT 210V270 10SM CLR M08/M18 A3044 
 RMK AO1=
METAR KMRF 272035Z AUTO 07013KT 10SM OVC012 00/M04 A3004 RMK AO1=
METAR KMSV 272035Z AUTO 29011G18KT 10SM CLR M07/M18 A3032 RMK AO1=
METAR KMVN 272035Z AUTO 00000KT 10SM CLR M07/M15 A3063 RMK AO1=
METAR KOAJ 272035Z AUTO 33006KT 10SM FEW046 09/M01 A3038 RMK AO1=
METAR KOCH 272035Z AUTO 08008KT 030V110 10SM SCT100 04/M05 A3039 RMK 
 AO1=
METAR KOKK 272035Z AUTO 28008KT 10SM CLR M09/M14 A3059 RMK AO1=
METAR KOLU 272035Z AUTO 21006KT 10SM CLR M07/M20 A3048 RMK AO1=
METAR KOTG 272035Z AUTO 26007KT 10SM CLR M03/M18 A3048 RMK AO1=
METAR KPHT 272035Z AUTO 02006KT 10SM CLR M03/M13 A3054 RMK=
METAR KPIB 272035Z AUTO 02011G15KT 350V050 10SM CLR 08/M02 A3035 RMK 
 AO1=
METAR KPQI 272035Z AUTO 27011KT 10SM CLR M08/M26 A3017 RMK AO1=
METAR KPRX 272035Z 05008KT 1 3/4SM BKN012 BKN018 OVC026 M03/M07 
 A3049 RMK AO1=
METAR KPSO 272035Z AUTO 20007KT 1SM -SN OVC009 M02/M03 A2979 RMK 
 AO2 T10161030=
METAR KPTN 272035Z AUTO 05010KT 10SM CLR 11/02 A3031 RMK AO1=
METAR KPTV 272035Z AUTO 27005KT 9SM CLR 18/08 A2981 RMK AO1=
METAR KPVC 272035Z 33008KT 10SM CLR M05/M16 A3036 RMK AO1=
METAR KPVG 272035Z AUTO 05011G16KT 10SM BKN037 01/M04 A3046 RMK AO1=
METAR KPWG 272035Z AUTO 03011KT 10SM M01/M06 A3039 RMK AO1=
METAR KRCV 272035Z AUTO 07008KT 10SM BKN012 BKN070 M06/M10 A2976
 RMK AO2 T10581097=
METAR KRKD 272035Z AUTO 27009KT 10SM CLR M06/M20 A3030 RMK AO1=
METAR KRQO 272035Z AUTO 05006KT BKN014 BKN019 OVC060 M07/M11 A3046 
 RMK AO2 PWINO=
METAR KRUT 272035Z 02006KT 10SM CLR M08/M23 A3033 RMK AO1=
METAR KSBS 272035Z AUTO 00000KT 10SM CLR M02/M13 A2976 RMK AO1
 T10231132=
####018002988####
SAUS20 KNKA 272035
METAR K04V 272029Z AUTO 12005KT 4SM -SN OVC016 M03/M08 A2978 RMK
 AO2=
METAR K0A9 272035Z AUTO 24004KT 10SM UP OVC032 M02/M08 A3042 RMK=
METAR K0CO 272035Z AUTO 29016KT M1/4SM -SN OVC001 M15/M18 A2961
 RMK AO2=
METAR K1S5 272035Z AUTO 00000KT 10SM SCT025 BKN042 OVC060 08/03 
 A2976 RMK AO2 T00760033=
METAR K1V6 272035Z AUTO 11007KT 10SM CLR M07/M12 A2993 RMK AO2=
METAR K20V 272035Z AUTO 00000KT 10SM SCT037 OVC050 M02/M11 A2975
 RMK AO2=
METAR K2V5 272035Z AUTO 16016G21KT 10SM OVC030 M06/M13 A3015 RMK 
     AO2 T10651127=
METAR K33V 272035Z AUTO 00000KT 10SM CLR M08/M12 A2971 RMK AO2=
METAR K4BM 272036Z AUTO 22007KT 10SM SCT003 M07/M11 A2968 RMK AO2=
METAR K5SM 272035Z AUTO 24004KT 1 1/2SM -SN OVC005 M07/M08 RMK AO2=
METAR K7BM 272034Z AUTO 00000KT 10SM BKN045 OVC055 M07/M11 A2969
 RMK AO2=
METAR KAFJ 272035Z AUTO 26008KT 10SM CLR M08/M19 A3053 RMK AO1=
METAR KAIZ 272035Z AUTO 01004KT 10SM OVC100 M07/M18 A3055 RMK AO1=
METAR KALM 272035Z AUTO 16004KT 10SM OVC031 04/M04 A2997 RMK AO2=
METAR KAQP 272034Z AUTO 26003KT 10SM CLR M08/M19 A3047 RMK AO2=
METAR KAQX 272035Z AUTO VRB04KT 10SM CLR 12/01 A3033 RMK AO2=
METAR KARG 272035Z AUTO 02011KT 8SM CLR M04/M12 A3058 RMK AO1=
METAR KATS 272035Z AUTO 14010KT 10SM OVC014 M05/M06 A3016 RMK AO2=
METAR KAUO 272035Z AUTO 03011G14KT 10SM CLR 11/M04 A3035 RMK AO1=
METAR KBDU 272037Z AUTO 00000KT 3SM -SN OVC015 M08/M13 A2992 RMK
 AO2=
SPECI KBFD 272034Z AUTO 30011KT 5SM BLSN FEW001 M12/M21 A3036 RMK 
 AO2 T11171206=
METAR KBFW 272034Z AUTO 23005KT 10SM CLR M04/M23 A3033 RMK AO2=
METAR KBGF 272035Z AUTO 36008KT 10SM CLR 01/M10 A3046 RMK=
METAR KBHB 272035Z 29004KT 10SM CLR M04/M20 A3029 RMK AO1=
METAR KBID 272035Z AUTO 26012G16KT 10SM CLR M03/M12 A3035 RMK AO1=
METAR KBLM 272035Z AUTO 31012G15KT 10SM CLR M01/M13 A3041 RMK AO1=
METAR KBNL 272035Z AUTO 00000KT 10SM CLR 13/01 A3034 RMK AO2=
METAR KBTP 272035Z AUTO 29008KT 10SM CLR M10/M20 A3053 RMK AO1=
METAR KBVU 272035Z AUTO 06007KT 10SM CLR 17/M04 A2971 RMK AO2=
METAR KBVX 272035Z AUTO 07005KT 10SM SCT090 M03/M16 A3057 RMK AO1=
METAR KCCU 272035Z AUTO 29011G17KT 2SM -SN OVC006 M08/M13 A2963
 RMK AO2=
METAR KCDD 272028Z AUTO 23007KT 193V283 10SM CLR M08/M24 A3034 RMK
 AO2=
METAR KCDN 272035Z AUTO 00000KT 10SM CLR 12/M01 A3034 RMK AO2 TSNO=
METAR KCGZ 272035Z AUTO 22013G20KT 10SM CLR 24/M03 A2970 RMK AO1=
METAR KCIU 272035Z AUTO 23009G14KT 10SM CLR M09/M17 A3040 RMK AO1=
METAR KCOD 272035Z 03004KT 10SM CLR M08/M13 A2982 RMK AO1=
METAR KCPW 272034Z AUTO 21017G28KT 1/2SM SN OVC001 M12/M13 A2973
 RMK AO2 P0001=
METAR KCQW 272035Z AUTO 02005KT 10SM FEW050 11/M04 A3035 RMK AO2=
METAR KCVN 272035Z AUTO 14010KT 6SM OVC016 M10/M14 A3015 RMK AO1=
METAR KCWI 272035Z AUTO 29006KT 10SM CLR M13/M19 A3064 RMK AO1=
METAR KD57 272035Z AUTO 16012G19KT 10SM CLR M07/M15 A3017 RMK AO2=
METAR KDVL 272035Z AUTO 22010KT 10SM CLR M11/M17 A3030 RMK AO1=
####018000492####
SAMS31 WMKK 272030
METAR WBGG 272030Z 25002KT 8000 FEW020 BKN300 25/23 Q1009 NOSIG=
METAR WBKK 272030Z 11004KT 100V260 9999 FEW014 BKN270 25/22 Q1008
NOSIG=
METAR WBSB 272030Z 28001KT 9999 FEW004 BKN300 26/25 Q1009 NOSIG=
METAR WMKK 272030Z 10003KT 9999 FEW017CB SCT140 BKN280 26/22 Q1008 
NOSIG=
METAR WMKP 272030Z 03004KT 8000 FEW025 SCT140 BKN270 27/23 Q1008 
NOSIG=
METAR WSSL 272030Z NIL=
METAR WSSS 272030Z 04006KT 360V060 9999 FEW018 BKN350 26/23 Q1009 
NOSIG=
####018003735####
SAUS99 KWBC 272037
METAR
K04W 272033Z AUTO 21008KT 10SM CLR M08/M18 A3045 RMK AO2=
K14Y 272038Z AUTO 22008KT 10SM CLR M09/M18 A3043 RMK AO2=
K21D 272030Z AUTO 22007KT 10SM CLR M08/M16 A3051 RMK AO2=
K9MN 272033Z AUTO 28006KT 10SM CLR M12/M18 A3052 RMK AO1
     T11181185=
KAEL 272032Z AUTO 21007KT 10SM CLR M13/M18 A3052 RMK AO2=
KAIT 272034Z AUTO 21009KT 10SM CLR M06/M24 A3039 RMK AO2=
KAXV 272031Z AUTO 33003KT 10SM SCT044 M07/M17 A3059 RMK AO2=
KBBB 272034Z AUTO 25004KT 10SM CLR M09/M18 A3047 RMK AO2=
KBJI 272032Z AUTO 25007KT 10SM CLR M09/M21 A3036 RMK AO2
     T10921211=
KCVH 272030Z AUTO 35007KT 10SM SCT028 BKN034 BKN040 17/12 A2984
     RMK AO1=
KD39 272032Z AUTO 24009KT 10SM CLR M10/M19 A3045 RMK AO2
     T10981190=
KD95 272033Z AUTO 25010KT 10SM CLR M09/M18 A3052 RMK AO2
     T10891183=
KDLZ 272047Z AUTO 34007KT 10SM CLR M09/M18 A3058 RMK AO2=
KDXX 272033Z AUTO 24004KT 10SM CLR M09/M18 A3047 RMK AO2=
KDYT 272033Z AUTO 22011KT 10SM CLR M07/M19 A3043 RMK AO2=
KELO 272033Z AUTO 28005KT 10SM CLR M07/M24 A3030 RMK AO2=
KEVM 272032Z AUTO 25010KT 10SM CLR M08/M22 A3035 RMK AO2=
KFBL 272034Z AUTO 22006KT 10SM CLR M12/M18 A3052 RMK AO2=
KFFM 272034Z AUTO 23005KT 10SM CLR M10/M19 A3047 RMK AO2=
KFGN 272034Z AUTO 26014KT 10SM CLR M08/M23 A3028 RMK AO2=
KFKA 272035Z AUTO 26007KT 10SM CLR M14/M20 A3053 RMK AO2
     T11451204=
KGDB 272033Z AUTO 24004KT 10SM CLR M09/M16 A3050 RMK AO2
     T10951164=
KGHW 272033Z AUTO 22007KT 10SM CLR M10/M18 A3044 RMK AO2=
KGYL 272035Z AUTO 24005KT 10SM CLR M10/M16 A3050 RMK AO2
     T11051165=
KHCD 272032Z AUTO 23007KT 10SM CLR M10/M17 A3051 RMK AO2
     T11051172=
KHZX 272028Z AUTO 22009KT 10SM CLR M07/M20 A3040 RMK AO2=
KI69 272036Z AUTO 01003KT 10SM SCT046 SCT055 M05/M17 A3058 RMK
     AO1=
KIKW 272033Z AUTO 24010G15KT 10SM SCT039 M08/M17 A3051 RMK AO2
     T10761168=
KIMS 272033Z AUTO 34004KT 10SM CLR M05/M19 A3061 RMK AO1=
KJKJ 272031Z AUTO 24008KT 10SM CLR M08/M21 A3044 RMK AO2=
KJMR 272035Z AUTO 23006G14KT 10SM CLR M08/M18 A3047 RMK AO2=
KLJF 272032Z AUTO 23003KT 10SM CLR M11/M18 A3049 RMK AO2=
KLXL 272034Z AUTO 22007KT 183V253 10SM CLR M08/M21 A3045 RMK
     AO2=
KLYV 272035Z AUTO 22004KT 10SM CLR M10/M17 A3048 RMK AO2=
KMDS 272030Z AUTO 22007KT 10SM CLR M10/M17 A3041 RMK AO2=
KMGG 272036Z AUTO 27005KT 10SM CLR M09/M17 A3049 RMK AO2
     T10901171=
KMJQ 272033Z AUTO 25007KT 10SM CLR M11/M17 A3048 RMK AO2=
KMOX 272033Z AUTO 20003KT 10SM CLR M09/M18 A3045 RMK AO2=
KMQJ 272036Z AUTO 27004KT 10SM CLR M07/M24 A3059 RMK AO1=
KMRT 272034Z AUTO 34006KT 10SM CLR M08/M19 A3057 RMK AO2
     T10821190=
KMVE 272034Z AUTO 00000KT 10SM CLR M07/M16 A3049 RMK AO2=
KMWM 272033Z AUTO 00000KT 10SM CLR M11/M17 A3047 RMK AO2=
KONA 272036Z AUTO 22004KT 10SM CLR M10/M18 A3057 RMK AO2=
KONZ 272034Z AUTO 21007KT 10SM CLR M09/M19 A3056 RMK AO2=
KORB 272033Z AUTO 25007KT 10SM CLR M07/M25 A3030 RMK AO2=
KOSC 272032Z AUTO 24009KT 10SM CLR M06/M16 A3045 RMK AO2
     T10681168=
KOVL 272033Z AUTO 24005KT 10SM CLR M10/M17 A3049 RMK AO2=
KPCW 272033Z AUTO 23009KT 10SM CLR M08/M17 A3057 RMK AO2 $=
KPEX 272034Z AUTO 19009KT 10SM CLR M11/M21 A3047 RMK AO2
     T11111210=
KPNM 272034Z AUTO 24007KT 10SM CLR M08/M18 A3046 RMK AO2=
KPOV 272036Z AUTO 33005KT 10SM BKN039 M10/M20 A3053 RMK AO2
     T10981199=
KPQN 272034Z AUTO 24005KT 10SM CLR M12/M18 A3043 RMK AO2=
KPWC 272034Z AUTO 27004KT 10SM CLR M08/M19 A3041 RMK AO2=
KRMY 272034Z AUTO 25006KT 10SM BKN044 M09/M18 A3054 RMK AO2
     T10921180=
KROS 272036Z AUTO 22005KT 10SM CLR M09/M19 A3048 RMK AO2
     T10901194=
KROX 272034Z AUTO 23009KT 10SM CLR M10/M18 A3034 RMK AO2=
####018003710####
SAUS99 KWBC 272037 RRB
METAR
KLCI 272035Z AUTO 27009KT 10SM CLR M06/M22 A3029 RMK AO1=
KLEW 272035Z AUTO 31008KT 10SM CLR M05/M21 A3029 RMK AO1=
KLMO 272034Z AUTO 00000KT 7SM BKN019 00/M13 A2996 RMK AO2
     T00001129=
KLPC 272035Z AUTO 31014G22KT 10SM BKN023 OVC028 16/09 A2987 RMK
     AO1=
KM91 272035Z AUTO 07008KT 10SM CLR M03/M12 A3055 RMK=
KMBL 272035Z AUTO 26012KT 10SM BKN028 M09/M17 A3052 RMK AO1=
KMEZ 272035Z AUTO 36006KT 1 1/4SM BKN009 OVC013 M02/M06 A3048 RMK
     AO2=
KMJX 272035Z AUTO 29008KT 10SM CLR M01/M12 A3042 RMK AO1=
KMKT 272035Z AUTO 26007KT 10SM CLR M12/M21 A3053 RMK AO1=
KMKY 272035Z AUTO 04012KT 10SM OVC017 19/13 A3012 RMK AO1=
KMML 272035Z AUTO 25006KT 10SM CLR M11/M17 A3048 RMK AO1=
KMNH 272036Z AUTO 20012KT 10SM CLR M10/M15 A2980 RMK AO2=
KMNI 272035Z AUTO 00000KT 10SM CLR 12/M01 A3034 RMK AO2=
KMNM 272035Z AUTO 23010G14KT 210V270 10SM CLR M08/M18 A3044 RMK
     AO1=
KMRF 272035Z AUTO 07013KT 10SM OVC012 00/M04 A3004 RMK AO1=
KMSV 272035Z AUTO 29011G18KT 10SM CLR M07/M18 A3032 RMK AO1=
KMVN 272035Z AUTO 00000KT 10SM CLR M07/M15 A3063 RMK AO1=
KOAJ 272035Z AUTO 33006KT 10SM FEW046 09/M01 A3038 RMK AO1=
KOCH 272035Z AUTO 08008KT 030V110 10SM SCT100 04/M05 A3039 RMK
     AO1=
KOKK 272035Z AUTO 28008KT 10SM CLR M09/M14 A3059 RMK AO1=
KOLU 272035Z AUTO 21006KT 10SM CLR M07/M20 A3048 RMK AO1=
KOTG 272035Z AUTO 26007KT 10SM CLR M03/M18 A3048 RMK AO1=
KPHT 272035Z AUTO 02006KT 10SM CLR M03/M13 A3054 RMK=
KPIB 272035Z AUTO 02011G15KT 350V050 10SM CLR 08/M02 A3035 RMK
     AO1=
KPQI 272035Z AUTO 27011KT 10SM CLR M08/M26 A3017 RMK AO1=
KPRX 272035Z 05008KT 1 3/4SM BKN012 BKN018 OVC026 M03/M07 A3049
     RMK AO1=
KPSO 272035Z AUTO 20007KT 1SM -SN OVC009 M02/M03 A2979 RMK AO2
     T10161030=
KPTN 272035Z AUTO 05010KT 10SM CLR 11/02 A3031 RMK AO1=
KPTV 272035Z AUTO 27005KT 9SM CLR 18/08 A2981 RMK AO1=
KPVC 272035Z 33008KT 10SM CLR M05/M16 A3036 RMK AO1=
KPVG 272035Z AUTO 05011G16KT 10SM BKN037 01/M04 A3046 RMK AO1=
KPWG 272035Z AUTO 03011KT 10SM M01/M06 A3039 RMK AO1=
KRCV 272035Z AUTO 07008KT 10SM BKN012 BKN070 M06/M10 A2976 RMK AO2
     T10581097=
KRKD 272035Z AUTO 27009KT 10SM CLR M06/M20 A3030 RMK AO1=
KRQO 272035Z AUTO 05006KT BKN014 BKN019 OVC060 M07/M11 A3046 RMK
     AO2 PWINO=
KRUT 272035Z 02006KT 10SM CLR M08/M23 A3033 RMK AO1=
KSBS 272035Z AUTO 00000KT 10SM CLR M02/M13 A2976 RMK AO1
     T10231132=
KDWU 272035Z AUTO 07004KT 10SM OVC047 M03/M14 A3058 RMK AO1=
KDYB 272035Z AUTO 03003KT 10SM CLR 11/02 A3036 RMK AO1=
KDYR 272035Z 03011G15KT 10SM CLR M03/M14 A3058 RMK AO1=
KE80 272035Z AUTO 13007KT 10SM OVC014 M01/M04 A2992 RMK AO2
     T10101045=
KEAR 272035Z 13004KT 10SM CLR M06/M20 A3037 RMK AO1=
KEDC 272035Z AUTO 03011G16KT 10SM OVC024 02/M04 A3033 RMK AO2=
KEEN 272035Z AUTO 36008KT 10SM CLR M05/M21 A3033 RMK AO1=
KEHR 272035Z AUTO 34006KT 310V010 10SM SCT034 M05/M13 A3061 RMK
     AO1=
KEIK 272035Z AUTO 00000KT 10SM CLR M09/M13 A2994 RMK AO2
     T10901134=
KESC 272035Z AUTO 18013KT 10SM CLR M09/M17 A3044 RMK AO1=
KEWK 272035Z AUTO 00000KT 3SM BKN016 OVC025 M09/M15 A3050 RMK
     AO1=
KFAM 272035Z AUTO 00000KT 10SM CLR M07/M18 A3059 RMK AO1=
KFGX 272035Z AUTO 35005KT 10SM CLR M06/M15 A3058 RMK AO2
     T10641152=
KFKL 272035Z AUTO 32009KT 10SM CLR M11/M21 A3049 RMK AO1=
KFLP 272035Z 02004KT 10SM BKN060 M06/M18 A3056 RMK AO1=
KFLY 272032Z AUTO 17008KT 2SM -SN OVC010 M12/M16 A2986 RMK AO2 VIS
     1 1/2V4 T11241162=
KFMH 272035Z AUTO 04004G10KT 10SM CLR M04/M14 A3034 RMK AO2
     FZRANO=
KFMM 272035Z AUTO 15018G21KT 10SM SCT025 OVC030 M08/M13 A3001 RMK
     AO2 T10761132=
####018000422####
SPUS99 KWBC 272037
SPECI
KBFD 272034Z AUTO 30011KT 5SM BLSN FEW001 M12/M21 A3036 RMK AO2
     T11171206=
KLXV 272034Z AUTO 18006KT 1 1/4SM -SN BKN020 OVC030 M08/M12 A2965
     RMK AO2 SNB00 P0000 T10781117=
KMKO 272034Z AUTO 05008KT 2SM -SN BKN025 OVC034 M06/M11 A3055 RMK
     AO2 SNB05 P0000 T10611111=
KLBB 272034Z 09010KT 2SM -SN FEW000 OVC014 M08/M12 A3022 RMK AO2
     SN FEW000 P0000 T10831117=
####018003733####
SAUS99 KWBC 272037 RRA
METAR
KRRT 272034Z AUTO 24009KT 10SM CLR M11/M19 A3033 RMK AO2=
KRZT 272035Z AUTO 35006KT 10SM CLR M07/M17 A3060 RMK AO2=
KSAZ 272033Z AUTO 22006KT 10SM CLR M09/M20 A3041 RMK AO2=
KSGS 272031Z AUTO 24007KT 10SM CLR M09/M18 A3052 RMK AO2
     T10901178=
KSYM 272030Z AUTO 27004KT 10SM CLR M06/M16 A3058 RMK AO2=
KSYN 272035Z AUTO 24008KT 10SM CLR M11/M18 A3052 RMK AO2
     T11081184=
KTEW 272035Z AUTO 24006KT 220V280 10SM SCT041 M08/M18 A3053 RMK
     AO2 T10811183=
KTKC 272032Z AUTO 28005KT 10SM CLR M09/M17 A3047 RMK AO2
     T10941172=
KTOB 272034Z AUTO 24007KT 10SM CLR M14/M18 A3050 RMK AO2=
KTWM 272035Z AUTO 24010G15KT 10SM CLR M06/M18 A3035 RMK AO2=
KULM 272033Z AUTO 24004KT 10SM CLR M12/M19 A3051 RMK AO2=
KVVV 272033Z AUTO 00000KT 10SM CLR M09/M19 A3045 RMK AO2=
KY63 272034Z AUTO 23004KT 10SM CLR M12/M17 A3044 RMK AO2
     T11171173=
KY70 272033Z AUTO 26010G17KT 10SM OVC039 M07/M16 A3052 RMK AO2
     T10751156=
K04V 272029Z AUTO 12005KT 4SM -SN OVC016 M03/M08 A2978 RMK AO2=
K0A9 272035Z AUTO 24004KT 10SM UP OVC032 M02/M08 A3042 RMK=
K0CO 272035Z AUTO 29016KT M1/4SM -SN OVC001 M15/M18 A2961 RMK
     AO2=
K1S5 272035Z AUTO 00000KT 10SM SCT025 BKN042 OVC060 08/03 A2976
     RMK AO2 T00760033=
K1V6 272035Z AUTO 11007KT 10SM CLR M07/M12 A2993 RMK AO2=
K20V 272035Z AUTO 00000KT 10SM SCT037 OVC050 M02/M11 A2975 RMK
     AO2=
K2V5 272035Z AUTO 16016G21KT 10SM OVC030 M06/M13 A3015 RMK AO2
     T10651127=
K33V 272035Z AUTO 00000KT 10SM CLR M08/M12 A2971 RMK AO2=
K4BM 272036Z AUTO 22007KT 10SM SCT003 M07/M11 A2968 RMK AO2=
K5SM 272035Z AUTO 24004KT 1 1/2SM -SN OVC005 M07/M08 RMK AO2=
K7BM 272034Z AUTO 00000KT 10SM BKN045 OVC055 M07/M11 A2969 RMK
     AO2=
KAFJ 272035Z AUTO 26008KT 10SM CLR M08/M19 A3053 RMK AO1=
KAIZ 272035Z AUTO 01004KT 10SM OVC100 M07/M18 A3055 RMK AO1=
KALM 272035Z AUTO 16004KT 10SM OVC031 04/M04 A2997 RMK AO2=
KAQP 272034Z AUTO 26003KT 10SM CLR M08/M19 A3047 RMK AO2=
KAQX 272035Z AUTO VRB04KT 10SM CLR 12/01 A3033 RMK AO2=
KARG 272035Z AUTO 02011KT 8SM CLR M04/M12 A3058 RMK AO1=
KATS 272035Z AUTO 14010KT 10SM OVC014 M05/M06 A3016 RMK AO2=
KAUO 272035Z AUTO 03011G14KT 10SM CLR 11/M04 A3035 RMK AO1=
KBDU 272037Z AUTO 00000KT 3SM -SN OVC015 M08/M13 A2992 RMK AO2=
KBFW 272034Z AUTO 23005KT 10SM CLR M04/M23 A3033 RMK AO2=
KBGF 272035Z AUTO 36008KT 10SM CLR 01/M10 A3046 RMK=
KBHB 272035Z 29004KT 10SM CLR M04/M20 A3029 RMK AO1=
KBID 272035Z AUTO 26012G16KT 10SM CLR M03/M12 A3035 RMK AO1=
KBLM 272035Z AUTO 31012G15KT 10SM CLR M01/M13 A3041 RMK AO1=
KBNL 272035Z AUTO 00000KT 10SM CLR 13/01 A3034 RMK AO2=
KBTP 272035Z AUTO 29008KT 10SM CLR M10/M20 A3053 RMK AO1=
KBVU 272035Z AUTO 06007KT 10SM CLR 17/M04 A2971 RMK AO2=
KBVX 272035Z AUTO 07005KT 10SM SCT090 M03/M16 A3057 RMK AO1=
KCCU 272035Z AUTO 29011G17KT 2SM -SN OVC006 M08/M13 A2963 RMK
     AO2=
KCDD 272028Z AUTO 23007KT 193V283 10SM CLR M08/M24 A3034 RMK
     AO2=
KCDN 272035Z AUTO 00000KT 10SM CLR 12/M01 A3034 RMK AO2 TSNO=
KCGZ 272035Z AUTO 22013G20KT 10SM CLR 24/M03 A2970 RMK AO1=
KCIU 272035Z AUTO 23009G14KT 10SM CLR M09/M17 A3040 RMK AO1=
KCOD 272035Z 03004KT 10SM CLR M08/M13 A2982 RMK AO1=
KCPW 272034Z AUTO 21017G28KT 1/2SM SN OVC001 M12/M13 A2973 RMK AO2
     P0001=
KCQW 272035Z AUTO 02005KT 10SM FEW050 11/M04 A3035 RMK AO2=
KCVN 272035Z AUTO 14010KT 6SM OVC016 M10/M14 A3015 RMK AO1=
KCWI 272035Z AUTO 29006KT 10SM CLR M13/M19 A3064 RMK AO1=
KD57 272035Z AUTO 16012G19KT 10SM CLR M07/M15 A3017 RMK AO2=
KDVL 272035Z AUTO 22010KT 10SM CLR M11/M17 A3030 RMK AO1=
KLBL 272035Z AUTO 14011KT 10SM FEW020 FEW029 BKN070 M09/M14 A3031
     RMK AO1=
####018003066####
SAUS99 KWBC 272037 RRC
METAR
KFNL 272035Z AUTO 00000KT 10SM BKN018 M10/M14 A2996 RMK AO1
     P0008=
KFOD 272035Z AUTO 23005KT 10SM CLR M12/M18 A3056 RMK AO1=
KFRM 272035Z AUTO 23007KT 10SM CLR M11/M18 A3050 RMK AO1=
KGAD 272035Z 03010KT 10SM CLR 04/M07 A3042 RMK AO1=
KGAI 272035Z AUTO 32007KT 300V360 10SM CLR M02/M13 A3049 RMK
     AO1=
KGBD 272035Z AUTO 15010KT 7SM BKN027 OVC035 M08/M14 A3043 RMK
     AO1=
KGDV 272035Z AUTO 19014G19KT 10SM CLR M02/M14 A3003 RMK AO1=
KGPZ 272035Z AUTO 23006KT 10SM CLR M08/M21 A3035 RMK AO1=
KGUC 272035Z 23012G17KT 10SM CLR M01/M10 A2974 RMK AO1=
KGXY 272035Z AUTO 17007KT 10SM BKN030 OVC037 M05/M13 A2995 RMK
     AO1=
KHDN 272035Z AUTO 24005KT 10SM CLR M03/M13 A2977 RMK AO1=
KHEZ 272035Z AUTO 34009KT 10SM CLR 07/M03 A3037 RMK AO1=
KHNB 272035Z AUTO 03005KT 10SM CLR M06/M14 A3061 RMK AO1=
KHVS 272035Z AUTO 00000KT 10SM CLR 12/M01 A3034 RMK AO2=
KHYS 272035Z AUTO 12009KT 10SM FEW041 FEW047 OVC060 M08/M18 A3041
     RMK AO1=
KHYW 272035Z AUTO 01005KT 7SM CLR 11/00 A3036 RMK AO2=
KI67 272035Z AUTO 07007KT 10SM BKN048 M05/M16 A3060 RMK AO1=
KILE 272035Z AUTO 03010KT 10SM OVC016 M01/M07 A3033 RMK AO1=
KIWD 272035Z AUTO 28011KT 10SM CLR M10/M20 A3035 RMK AO1=
KJHN 272035Z AUTO 14015KT 4SM -SN SCT009 BKN025 OVC050 M10/M13
     A3024 RMK AO2 T10961129=
KJHW 272035Z 28010KT 10SM CLR M13/M21 A3043 RMK AO1=
KSDY 272035Z AUTO 16009KT 10SM CLR M02/M15 A3009 RMK AO1=
KSFM 272035Z AUTO 24006KT 10SM CLR M04/M21 A3031 RMK AO1=
KSFZ 272035Z 32005KT 10SM CLR M04/M16 A3031 RMK AO1=
KSGT 272035Z AUTO 36010KT 10SM BKN032 BKN100 M02/M09 A3057 RMK
     AO1=
KSKX 272035Z AUTO 25005KT 1/2SM OVC012 M07/M10 A2987 RMK AO1=
KSLG 272035Z AUTO 06005KT 10SM OVC050 M07/M18 A3052 RMK AO1=
KSOP 272035Z AUTO 05006KT 10SM CLR 09/M04 A3037 RMK AO1=
KSQI 272035Z AUTO 25005KT 10SM CLR M11/M18 A3063 RMK AO1=
KSTK 272030Z AUTO 17018G23KT 10SM BKN030 OVC036 M06/M12 A3006 RMK
     AO2=
KSUE 272035Z AUTO 24012G16KT 10SM CLR M09/M19 A3049 RMK AO1=
KTEX 272035Z AUTO 30005KT 10SM SCT047 BKN060 M03/M14 A2974 RMK AO2
     T10261143=
KTHA 272035Z AUTO VRB06KT 10SM CLR 01/M12 A3045 RMK=
KTME 272035Z AUTO 06009KT 8SM OVC020 05/00 A3035 RMK AO2=
KTPL 272035Z AUTO 02010KT 10SM OVC019 M01/M06 A3035 RMK AO1=
KTSP 272035Z AUTO 31016G25KT 9SM FEW021 OVC026 09/04 A2980 RMK
     AO2=
KTVF 272035Z AUTO 21010KT 10SM CLR M11/M16 A3037 RMK AO1=
KUDG 272035Z AUTO 32003KT 10SM CLR 12/M02 A3035 RMK AO1=
KUTA 272035Z AUTO 03011G15KT 10SM SCT031 00/M06 A3051 RMK AO2=
KUYF 272035Z AUTO 34008KT 10SM SCT038 M10/M17 A3056 RMK AO2=
KVBT 272035Z AUTO 06007KT 5SM SCT022 OVC035 M07/M15 A3051 RMK
     AO1=
KVIS 272035Z AUTO 00000KT 8SM FEW085 18/08 A2981 RMK AO1=
KVTP 272035Z AUTO 3/4SM -SN OVC002 M08/M10 A2972 RMK AO2=
KWVL 272035Z 31010G16KT CLR M05/M22 A3025 RMK AO1=
KWWD 272035Z AUTO 28010G15KT 10SM BKN075 M02/M09 A3046 RMK AO1=
KYKN 272035Z AUTO 18005KT 10SM CLR M07/M17 A3047 RMK AO1=
K7N0 272035Z AUTO 03004KT 10SM CLR A3031 RMK AO1=
####018001757####
SAUS20 KNKA 272036
METAR KLGD 272035Z AUTO 18009KT 10SM FEW027 SCT034 BKN075 08/00 
 A2968 RMK AO1=
METAR KLKV 272035Z 31008G15KT 10SM FEW012 SCT028 BKN037 04/00 A2968 
 RMK AO1=
METAR KLVN 272001Z AUTO 26006KT 10SM CLR M12/M19 A3052 RMK AO2=
METAR KLWA 272035Z AUTO 26011KT 10SM BKN036 M08/M16 A3057 RMK AO2
 T10771161=
METAR KMGN 272035Z AUTO 27009G14KT 10SM CLR M10/M16 A3046 RMK AO2
 T11031162=
METAR KMOP 272035Z AUTO 23010G16KT 10SM BKN040 M08/M16 A3050 RMK
 AO2 T10791165=
METAR KOEB 272035Z AUTO 25007KT 10SM OVC042 M09/M18 A3055 RMK AO2
 T10881176=
METAR KOTH 272035Z 24006KT 10SM FEW009 BKN022 OVC046 11/10 A2982 RMK 
 AO1 
 P0001=
METAR KOWA 272035Z AUTO 21007KT 10SM CLR M13/M19 A3052 RMK AO2
 PWINO=
METAR KOZW 272034Z AUTO 25010KT 10SM CLR M09/M18 A3053 RMK AO2
 T10931185=
METAR KPWT 272035Z AUTO 36009KT 10SM FEW027 OVC034 08/08 A2978 RMK 
 AO1 P0001=
METAR KPZQ 272034Z AUTO 29007G14KT 10SM CLR M08/M16 A3045 RMK AO2
 T10771165=
METAR KRGK 272031Z AUTO 28006KT 10SM CLR M09/M19 A3053 RMK AO2=
METAR KRNP 272035Z AUTO 26009KT 10SM CLR M08/M17 A3054 RMK AO2
 T10841167=
METAR KRQB 272034Z AUTO 28010G17KT 10SM SCT041 M08/M17 A3048 RMK
 AO2 T10761167=
METAR KSEM 272035Z AUTO 02010KT 10SM 10/M04 A3037 RMK AO2=
METAR KSGU 272035Z AUTO 28003KT 10SM FEW120 13/M04 A2972 RMK AO1=
METAR KSJX 272037Z AUTO 25012G16KT 10SM CLR M11/M16 A3045 RMK AO2
 T11101165=
METAR KSLH 272038Z AUTO 24010G14KT 10SM CLR M10/M17 A3045 RMK AO2
 T11021169=
METAR KSMN 272035Z AUTO 00000KT 10SM FEW050 FEW060 SCT070 01/M05 
 A2975 RMK AO1=
METAR KUKT 272035Z AUTO 31008KT 10SM CLR M04/M15 A3042 RMK AO1=
METAR KVLL 272035Z AUTO 31007KT 10SM SCT048 M06/M20 A3055 RMK AO2
     T10611200=
####018002930####
SAUS20 KNKA 272036
METAR K4I3 272036Z AUTO 27006KT 10SM SCT041 M08/M19 A3054 RMK AO2=
METAR KACB 272036Z AUTO 22007KT 10SM OVC031 M08/M16 A3049 RMK AO2
 T10781158=
METAR KADC 272035Z AUTO 24006KT 10SM CLR M11/M18 A3040 RMK AO2=
METAR KAMN 272031Z AUTO 27012KT 10SM BKN042 M08/M17 A3052 RMK AO2
 T10791169=
METAR KAUM 272035Z AUTO 21005KT 10SM CLR M13/M19 A3052 RMK AO2=
METAR KAWO 272035Z AUTO 01009KT 10SM OVC060 09/06 A2980 RMK AO1=
METAR KBAX 272034Z AUTO 25010G15KT 10SM CLR M10/M17 A3051 RMK AO2
 T11001166=
METAR KBDH 272035Z AUTO 28003KT 10SM CLR M11/M18 A3049 RMK AO2=
METAR KCAD 272035Z AUTO 23011G15KT 10SM SCT036 M09/M17 A3041 RMK
 AO2 T10931169=
METAR KCFS 272034Z AUTO 23010KT 10SM CLR M09/M17 A3052 RMK AO2
 T10891166=
METAR KCKC 272034Z AUTO 24006KT 10SM CLR M08/M25 A3026 RMK AO2=
METAR KCKN 272034Z AUTO 23010KT 10SM CLR M10/M15 A3041 RMK AO2=
METAR KCNB 272033Z AUTO 24006KT 10SM CLR M09/M17 A3047 RMK AO2
 T10901167=
METAR KCOE 272035Z AUTO 07006G14KT 10SM CLR 09/M03 A2977 RMK AO1=
METAR KCOQ 272036Z AUTO 25009G14KT 10SM CLR M08/M24 A3037 RMK AO2=
METAR KCQM 272035Z AUTO 25009G14KT 10SM CLR M07/M22 A3033 RMK AO2=
METAR KCVO 272035Z AUTO 17008KT 10SM FEW017 SCT031 BKN036 11/07 
 A2975 RMK AO1 P0001=
METAR KCVX 272034Z AUTO 25012G17KT 10SM SCT027 M10/M16 A3050 RMK
 AO2 T11051157=
METAR KDRM 272035Z AUTO 25008KT 230V290 10SM CLR M10/M17 A3042 RMK
 AO2 T11031166=
METAR KDTL 272035Z AUTO 27006KT 10SM CLR M09/M18 A3040 RMK AO2=
METAR KDUH 272034Z AUTO 28005KT 10SM CLR M08/M21 A3059 RMK AO2=
METAR KEDJ 272030Z AUTO 29009KT 10SM SCT037 M10/M17 A3056 RMK AO1=
METAR KENV 272035Z AUTO 11005KT 10SM OVC100 07/M03 A2972 RMK AO1=
METAR KERY 272035Z AUTO 24006KT 10SM CLR M10/M19 A3039 RMK AO2
     T10971190=
METAR KEUL 272035Z AUTO 12012KT 10SM FEW041 11/M02 A2970 RMK AO1=
METAR KFFX 272033Z AUTO 27009KT 10SM CLR M08/M18 A3052 RMK AO2
 T10811184=
METAR KFPK 272035Z AUTO 26009KT 10SM OVC042 M08/M18 A3052 RMK AO2
 T10801178=
METAR KFSE 272035Z AUTO 22010KT 10SM CLR M09/M17 A3039 RMK AO2=
METAR KGOV 272035Z AUTO 24010KT 10SM SCT035 M09/M17 A3043 RMK AO2
 T10871171=
METAR KHAF 272035Z AUTO 31017G21KT 7SM BKN016 OVC023 14/10 A2987
 RMK AO2=
METAR KHAI 272035Z AUTO 30003KT 10SM OVC039 M08/M15 A3056 RMK AO2
 T10801155=
METAR KHCO 272021Z AUTO 23012KT 10SM CLR M09/M16 A3036 RMK AO2=
METAR KHYX 272035Z AUTO 25009KT 10SM CLR M07/M15 A3054 RMK AO2=
METAR KIRS 272035Z AUTO 24004KT 10SM OVC044 M09/M17 A3055 RMK AO2=
METAR KISQ 272035Z AUTO 21007KT 10SM CLR M09/M18 A3042 RMK AO2
 T10911176=
METAR KJYG 272035Z AUTO 21006KT 10SM CLR M11/M17 A3053 RMK AO2=
METAR KJYM 272034Z AUTO 29006KT 10SM CLR M09/M19 A3053 RMK AO2
     T10891188=
METAR KKLS 272035Z 19006KT 10SM FEW022 SCT032 BKN100 12/07 A2975 RMK 
 AO1=
METAR KLDM 272035Z AUTO 25008KT 10SM SCT029 M09/M16 A3054 RMK AO2
     T10881161=
####018000995####
SACN60 CWAO 272000 RRD
PBN SA 2000 AUTO8 M M M M/-11/-13/2511/M/     M 63MM=
PCL SA 2000 AUTO8 M M M M/-10/-13/3411/M/     M 57MM=
PDB SA 2000 AUTO8 M M M M/-12/-16/3506/M/     M 98MM=
PEL SA 2000 AUTO8 M M M M/-09/-12/2610/M/     M 99MM=
PFA SA 2000 AUTO8 M M M M/-11/-14/MMMM/M/     M 97MM=
PFB SA 2000 AUTO8 M M M M/-07/-14/2503/M/     M 76MM=
PGC SA 2000 AUTO8 M M M M/-09/-13/3010/M/M M 53MM=
PHA SA 2000 AUTO8 M M M M/-11/-14/MMMM/M/     M 28MM=
PJT SA 2000 AUTO8 M M M M/-10/-13/2412/M/     M 20MM=
PNS SA 2000 AUTO8 M M M M/-11/-15/MMMM/M/     M 10MM=
PRF SA 2000 AUTO8 M M M M/-08/-12/2905/M/     M 22MM=
PSH SA 2000 AUTO8 M M M M/-11/-15/MMMM/M/     M 78MM=
PSW SA 2000 AUTO8 M M M M/-11/-12/2411/M/     PK WND 2518 1931Z M 15MM=
PTA SA 2000 AUTO8 M M M M/-11/-14/MMMM/M/     M 70MM=
PTC SA 2000 AUTO8 M M M M/-10/-13/MMMM/M/     M 40MM=
PVI SA 2000 AUTO8 M M M M/-11/-16/MMMM/M/     M 06MM=
PWT SA 2000 AUTO8 M M M M/-10/-14/MMMM/M/     M 49MM=

####018000089####
SACN74 CWAO 272000 RRE
NPL SA 2000 AUTO8 M M M 999/-33/-36/2002/M/     5004 93MM=

####018000084####
SACN98 CWAO 272000 RRF
XCD SA 2000 AUTO8 M M M M/-10/-12/1908/M/     M 73MM=

####018000197####
SACN82 CWAO 271900 RRE
MQP SA 1900 AUTO8 M M M 099/-31/-34/2103/M/M 2020 24MM=
MQQ SA 1900 AUTO8 M M M 027/-24/-26/2812/M/M 3008 56MM=
MQV SA 1900 AUTO8 M M M M/-29/-32/2009/M/M M 34MM=

####018000081####
SACN82 CWAO 272000 RRD
MQU SA 2000 AUTO8 M M M M/-27/-31/1907/M/M M 27MM=

####018000081####
SACN91 CWAO 272000 RRC
WIX SA 2000 AUTO8 M M M M/-12/-22/2708/M/M M 05MM=

####018000101####
SACN92 CWAO 272000 RRE
WKD SA 2000 AUTO8 M M M 188/-20/-24/2517/M/     PK WND MM24 3013 52MM=

####018000308####
SACN59 CWAO 272000 RRE
PBV SA 2000 AUTO8 M M M M/-10/-14/MMMM/M/     M 75MM=
PGL SA 2000 AUTO8 M M M M/-08/-11/3309/M/     M 96MM=
PTH SA 2000 AUTO8 M M M M/-11/-14/MMMM/M/     M 57MM=
PVA SA 2000 AUTO8 M M M M/-13/-16/MMMM/M/     M 93MM=
XHP SA 2000 AUTO8 M M M M/-10/-14/2806/M/     M 49MM=

####018000111####
SACN87 CWAO 272000 RRC
WWS SA 2000 AUTO8 M M M 231/-16/-20/2309/M/M PK WND 2517 1904Z SOG 56 8010 50MM=

####018000154####
SACN89 CWAO 272000 RRC
WDE SA 2000 AUTO8 M M M 170/-22/-26/2414/M/M 3016 55MM=
WDP SA 2000 AUTO8 M M M M/-20/-26/2712/M/     PK WND MM20 M 55MM=

####018000086####
SACN90 CWAO 272000 RRD
WEE SA 2000 AUTO8 M M M 211/-12/-22/MMMM/M/M 3002 49MM=

####018000122####
SPCN41 CWAO 272036
SPECI CYPW 272036Z 27005KT 40SM SCT013 BKN100 BKN230 08/05 A2986 RMK
 CF4AC1CI1 CI TR SLP115=

####018000218####
SANZ31 NZKL 272030
METAR NZAA 272030Z AUTO 09001KT 9999 NCD 20/15 Q1018 NOSIG=
METAR NZWN 272030Z AUTO 03015KT 9999 BKN028/// 18/12 Q1015 NOSIG=
METAR NZCH 272030Z AUTO 05005KT 010V080 9999 NCD 17/15 Q1012 NOSIG=
####018000261####
SABY31 UMMN 272030
METAR UMBB 272030Z NIL=
METAR UMGG 272030Z NIL=
METAR UMII 272030Z NIL=
METAR UMMG 272030Z NIL=
METAR UMMM 272030Z NIL=
METAR UMMS 272030Z 00000MPS 2100 -SN BR OVC002 00/00 Q1015
R31/290060 NOSIG RMK QBB080=
METAR UMOO 272030Z NIL=
####018000310####
SAUS20 KNKA 272036
METAR PADK 272036Z AUTO 35011KT 10SM BKN041 02/M04 A3011 RMK AO1=
METAR PAGL 272036Z AUTO 16018KT 10SM OVC022 M01/M03 A3022 RMK AO1=
METAR PAHP 272036Z AUTO 17019KT 9SM OVC004 M01/M03 A3014 RMK AO1=
METAR KCFJ 272035Z AUTO 35006KT 10SM CLR M10/M23 A3060 RMK AO2 
     T11001228=
####018002981####
SAUS20 KNKA 272036
METAR KHAE 272035Z AUTO 00000KT 10SM CLR M08/M22 A3063 RMK AO2=
METAR KHJH 272035Z AUTO 00000KT 10SM CLR M07/M20 A3047 RMK AO2 
 T10671198=
METAR KHZE 272035Z AUTO 17015G18KT 10SM CLR M06/M17 A3020 RMK AO2 =
METAR KIDI 272035Z AUTO 30007KT 10SM CLR M08/M18 A3050 RMK A01=
METAR KIFA 272035Z AUTO 27003KT 5SM HZ CLR M13/M18 A3058 RMK AO2 
 T11301185=
METAR KJFX 272035Z AUTO 05006KT 030V010 10SM CLR 06/M06 A3045 RMK 
 A02 P-128=
METAR KJKA 272035Z AUTO 06005G16KT 10SM CLR 13/00 A3028 RMK AO2 
 T01300000=
METAR KJYL 272035Z AUTO 06004KT 10SM CLR 12/04 A3034 RMK AO2 
 T01150036=
METAR KLCK 272035Z AUTO 27010KT 10SM OVC042 M07/M17 A3059 RMK AO2 
 T10751167=
METAR KMCD 272036Z AUTO 25010G21KT 10SM SCT021 M11/M16 A3045 RMK
 AO2 T11131164=
METAR KMCJ 272035Z AUTO 01007G15KT 7SM OVC018 05/00 A3030 RMK AO1 =
METAR KMKN 272035Z AUTO 03008KT 7SM OVC009 M05/M05 A3036 RMK AO2 
 T10471049=
METAR KMMI 272035Z AUTO VRB04KT 10SM CLR 00/M09 A3047 RMK=
SPECI KMOD 272035Z 29010KT 10SM SCT045 OVC060 19/07 A2979 RMK AO2 
 WSHFT 2015 T01890067=
METAR KMRC 272035Z AUTO 02008KT 01/M11 A3047 RMK=
METAR KMRN 272035Z AUTO 22006KT 10SM CLR 08/M09 A3037 RMK AO2 
     T00831088=
METAR KMZH 272035Z AUTO 27009KT 10SM CLR M07/M21 A3040 RMK AO2=
METAR KPAN 272035Z AUTO 20008G15KT 170V240 10SM OVC095 13/M05 A2979
 RMK AO2=
METAR KPCM 272035Z AUTO 07011KT 10SM OVC022 A3020 RMK AO2=
METAR KPHN 272038Z AUTO 29006KT 10SM CLR M09/M19 A3055 RMK AO2=
METAR KPVE 272035Z AUTO 03009KT 10SM CLR 00/M16 A3049 RMK=
METAR KPVF 272035Z AUTO 27003KT 10SM SCT023 BKN031 BKN037 11/04 
     A2979 RMK AO1 =
METAR KRBW 272035Z AUTO 02005KT 10SM CLR 12/02 A3035 RMK AO2=
METAR KRCX 272035Z AUTO 24008KT 10SM CLR M10/M21 A3046 RMK AO2 
 T10961210=
METAR KRKR 272035Z AUTO 04004KT 1SM -SN OVC012 M06/M09 A3056 RMK 
 AO2 T10561094=
METAR KSMS 272035Z AUTO 00000KT 10SM CLR 12/01 A3034 RMK AO2=
METAR KSNH 272035Z AUTO 34005KT 10SM CLR 03/M13 A3048 RMK=
METAR KSOW 272035Z AUTO 20019G29KT 10SM FEW075 OVC090 10/M08 A2978 
 RMK AO2=
METAR KSPL 272035Z AUTO 36008KT 1SM BKN042 15/13 A3014 RMK AO1=
METAR KSRB 272035Z AUTO 02007KT 10SM CLR M01/M11 A3047 RMK=
METAR KSTF 272035Z AUTO 07004KT 10SM CLR 04/M05 A3044 RMK AO2=
METAR KSYI 272035Z AUTO 35008KT 10SM CLR 01/M11 A3049 RMK=
METAR KTPF 272035Z AUTO 07010KT 10SM OVC022 18/12 A3018 RMK AO2=
METAR KTTF 272036Z AUTO 00000KT 10SM CLR M09/M18 A3057 RMK AO2=
METAR KUCY 272035Z AUTO 01008KT 10SM CLR M04/M11 A3056 RMK=
METAR KVCV 272035Z AUTO 27012G21KT 10SM CLR 18/01 A2972 RMK AO2=
METAR KVWU 272029Z AUTO 00000KT 10SM CLR M09/M17 A3036 RMK AO2=
METAR KW96 272035Z AUTO 06004KT 10SM SCT055 01/M05 A3045 RMK AO1 
 T00111049=
METAR KWDR 272035Z AUTO 35004KT 10SM CLR 11/M04 A3036 RMK AO1=
METAR KXLL 272035Z AUTO 28007G14KT 10SM CLR M02/M15 A3044 RMK AO2=
METAR PAAK 272036Z 29020G25KT 10SM FEW017 FEW029 OVC065 03/00 A2999 
 RMK AO1=
####018002944####
SAUS20 KNKA 272036
METAR K1II 272035Z AUTO 36009KT 10SM CLR M06/M16 A3060 RMK AO2=
METAR K3LF 272035Z AUTO 01003KT 10SM CLR M11/M20 A3063 RMK AO2 
 T11151201=
METAR K42J 272035Z AUTO 05011G16KT 9SM CLR 13/04 A3026 RMK AO1 TSNO
=
METAR K46D 272035Z AUTO 10SM CLR M11/M17 A3031 RMK AO2=
METAR K4M9 272035Z AUTO 05012KT 10SM M05/M12 A3059 RMK AO2=
METAR K6L4 272035Z AUTO 00000KT 10SM SCT040 OVC049 M07/M14 A3045 
 RMK AO2=
METAR KADH 272035Z AUTO 05003KT 1/2SM SN VV005 M07/M08 A3048 RMK 
 AO2=
METAR KAIB 272035Z AUTO 22010G14KT 10SM CLR 02/M05 A2980 RMK AO2=
SPECI KAST 272035Z AUTO 35003KT 1 3/4SM RA BR BKN018 OVC024 09/08 
 A2971 RMK AO2 RAB08 CIG 013 RWY 08 P0003 T00940078=
METAR KAVC 272036Z AUTO 29006KT 10SM CLR 05/M08 A3045 RMK AO2 
 T00501083=
METAR KBCB 272035Z AUTO 31010G15KT 10SM CLR M02/M12 A3039 RMK AO2 
 T10201117=
METAR KBDN 272035Z AUTO 07004KT 2SM -RA BKN011 BKN020 OVC024 03/02 
 A2966 RMK AO2 VSBY 1 1/4V4 P0009=
METAR KBMT 272035Z AUTO 02004KT 10SM CLR 11/00 A3032 RMK AO2 
 T01051004=
METAR KBXA 272035Z AUTO 07010G14KT 10SM 10/00 A3034 RMK AO2 
 T00981002=
METAR KCEY 272035Z AUTO 02006KT 10SM CLR M04/M13 A3056 RMK AO1 =
METAR KCGC 272035Z AUTO 04009G14KT 020V080 10SM CLR 18/06 A3019 RMK
 AO2 LTG DSNT S=
METAR KCMD 272035Z AUTO 34006KT 10SM CLR 01/M08 A3045 RMK AO2 
 T00111080=
METAR KCVC 272035Z AUTO 32005KT 10SM CLR 12/M05 A3032 RMK AO2=
METAR KDKB 272035Z AUTO 25006KT 10SM CLR M13/M20 A3059 RMK AO2 
 T11301200=
METAR KDRI 272035Z AUTO 00000KT 10SM CLR 10/M02 A3035 RMK AO2 
 T01021025=
METAR KETC 272035Z AUTO 36005KT 10SM CLR 09/M03 A3040 RMK AO2 
     T00921035=
METAR KETH 272036Z AUTO 20004KT 10SM CLR M11/M18 A3048 RMK AO2=
SPECI KEYW 272035Z 03010KT 10SM BKN009 23/20 A3007 RMK AO2 T02280200=
METAR KF05 272035Z AUTO 07008KT 7SM OVC014 M06/M11 A3045 RMK AO1 
 T10641115=
METAR KFBR 272035Z AUTO 11005KT 10SM SCT015 OVC090 M03/M08 A2977 
 RMK AO2 T10351077=
METAR KFKR 272035Z AUTO 30005KT 10SM CLR M07/M17 A3060 RMK AO2 
 T10751174=
METAR KFKS 272036Z AUTO 23007KT 10SM OVC026 M09/M14 A3050 RMK AO2
 T10921143=
SPECI KFPR 272035Z 35007KT 2SM -RA OVC007 15/14 A3015 RMK AO2 RAB15 
 P0002 T01500139=
METAR KFYJ 272035Z AUTO 36003KT 10SM SCT026 SCT037 02/M06 A3048 
 RMK AO2 T00221058=
METAR KFYM 272035Z AUTO 06009KT 10SM CLR 00/M10 RMK=
SPECI KGCK 272035Z 17014KT 4SM HZ BKN023 OVC032 M10/M14 A3030 RMK 
 AO2 SNE35 P0000 T11001139=
METAR KGKT 272035Z AUTO 00000KT 10SM CLR 01/M08 A3045 RMK=
SPECI KGLD 272035Z AUTO 16018KT 2SM -SN FEW016 OVC026 M08/M12 A3019 
 RMK AO2 UPE1954SNB13 P0000 T10831122=
SPECI KGRR 272035Z 26012KT 1 1/4SM R26L/3500VP6000FT -SN BKN019 
 OVC035 M08/M12 A3054 RMK AO2 SNB06 P0000 T10831122=
METAR KGYB 272035Z AUTO 04006KT 10SM OVC021 04/M01 A3036 RMK AO2 
 T00351011=
METAR KGYI 272035Z AUTO 04011KT 2SM -SN OVC008 M04/M05 A3046 RMK 
 AO2 T10421051=
####018000531####
SAJP51 RJTD 272030
METAR RJAA 272030Z 31011KT CAVOK 03/M07 Q1020 NOSIG=
METAR RJBB 272030Z 34012KT 9999 FEW025 SCT050 BKN/// 04/M03 Q1026
           NOSIG=
METAR RJCC 272030Z 35010KT 9999 -SHSN FEW015 BKN020 BKN/// M02/M07
           Q1016=
METAR RJFF 272030Z VRB02KT 9999 FEW040 SCT045 BKN/// 03/M03 Q1026=
METAR RJGG 272030Z 32020KT 9999 FEW025 05/M02 Q1024 NOSIG=
METAR RJTT 272030Z 31015KT CAVOK 04/M07 Q1020 NOSIG=
METAR ROAH 272030Z 11013KT 080V140 9999 -RA FEW015 SCT030 BKN050
           19/15 Q1017=
####018000080####
SAUS90 KWBC 272038
METAR KMWS 272030Z 23500G00KT MM/07 RMK SNOW DEPTH 1.00=
####018000081####
SPPR00 SPIM 272030
SPECI SPZO 272030Z VRB03KT 9999 SCT050 SCT150 17/04 Q1028=
####018001476####
SPZZ40 KAWN 272037 RRI
SPECI CWOB 272034Z AUTO 03011KT M23/ A2936=
SPECI CYGV 272034Z AUTO 26017G23KT 9SM FEW025 M16/M21 A2998 RMK PRESRR
      SLP156=
SPECI CYKA 272033Z 26015G21KT 40SM FEW025 SCT050 BKN075 05/M01 A2999
      RMK CF1CU2AC4 SLP169=
SPECI CYPW 272036Z 27005KT 40SM SCT013 BKN100 BKN230 08/05 A2986 RMK
      CF4AC1CI1 CI TR SLP115=
SPECI CZUM 272034Z AUTO 28008G17KT 2 1/2SM -SN FEW023 BKN030 OVC037
      M24/M29 A2971 RMK SLP121=
SPECI CZUM 272035Z AUTO 27008G17KT 3SM -SN FEW023 OVC030 M24/M29 A2971
      RMK SLP121=
SPECI KAFF 272036Z AUTO 15011KT 4SM HZ OVC017 M12/M17 A2985 RMK AO2
      SNE31=
SPECI KFCS 272032Z 11005KT 1/2SM BR BKN004 OVC025 M11/M15 A2991 RMK
      AO2A SNE27 BKN V OVC=
SPECI KGRF 272034Z 02003KT 3SM RA BR BKN004 OVC028 09/09 A2974 RMK
      AO2A TWR VIS 1 1/2 $=
SPECI KIAB 272034Z AUTO 13005KT 2SM -SN FEW002 SCT009 OVC023 M09/M13
      A3050 RMK AO2 VIS 2V2 1/2 CIG 004 RWY19=
SPECI KSKF 272030Z 03010KT 4SM -DZ BR BKN009 OVC015 00/00 A3025 RMK
      AO2A TWR VIS 3 RAE18DZB18 CIG 009V014 $=
SPECI RODN 272033Z AUTO 08012KT 6SM R05/5000FT -DZ BR OVC005 17/16
      A3007 RMK AO2 DZB33 $=
SPECI RODN 272035Z AUTO 09012KT 6SM R05/5000FT -DZ BR OVC004 17/16
      A3007 RMK AO2 DZB33 CIG 004V006 $=
SPECI SGAS 272033Z 22005KT 180V250 9999 -TSRA BKN020 FEW040CB OVC080
      26/24 Q1009=
SPECI SGAS 272035Z=
SPECI YSNF 272030Z 10014KT 9999 VCSH SCT010 BKN013 22/21 Q1012=
####018003698####
SAUS99 KWBC 272038
METAR
K4I3 272036Z AUTO 27006KT 10SM SCT041 M08/M19 A3054 RMK AO2=
KACB 272036Z AUTO 22007KT 10SM OVC031 M08/M16 A3049 RMK AO2
     T10781158=
KADC 272035Z AUTO 24006KT 10SM CLR M11/M18 A3040 RMK AO2=
KAMN 272031Z AUTO 27012KT 10SM BKN042 M08/M17 A3052 RMK AO2
     T10791169=
KAUM 272035Z AUTO 21005KT 10SM CLR M13/M19 A3052 RMK AO2=
KAWO 272035Z AUTO 01009KT 10SM OVC060 09/06 A2980 RMK AO1=
KBAX 272034Z AUTO 25010G15KT 10SM CLR M10/M17 A3051 RMK AO2
     T11001166=
KBDH 272035Z AUTO 28003KT 10SM CLR M11/M18 A3049 RMK AO2=
KCAD 272035Z AUTO 23011G15KT 10SM SCT036 M09/M17 A3041 RMK AO2
     T10931169=
KCFS 272034Z AUTO 23010KT 10SM CLR M09/M17 A3052 RMK AO2
     T10891166=
KCKC 272034Z AUTO 24006KT 10SM CLR M08/M25 A3026 RMK AO2=
KCKN 272034Z AUTO 23010KT 10SM CLR M10/M15 A3041 RMK AO2=
KCNB 272033Z AUTO 24006KT 10SM CLR M09/M17 A3047 RMK AO2
     T10901167=
KCOE 272035Z AUTO 07006G14KT 10SM CLR 09/M03 A2977 RMK AO1=
KCOQ 272036Z AUTO 25009G14KT 10SM CLR M08/M24 A3037 RMK AO2=
KCQM 272035Z AUTO 25009G14KT 10SM CLR M07/M22 A3033 RMK AO2=
KCVO 272035Z AUTO 17008KT 10SM FEW017 SCT031 BKN036 11/07 A2975
     RMK AO1 P0001=
KCVX 272034Z AUTO 25012G17KT 10SM SCT027 M10/M16 A3050 RMK AO2
     T11051157=
KDRM 272035Z AUTO 25008KT 230V290 10SM CLR M10/M17 A3042 RMK AO2
     T11031166=
KDTL 272035Z AUTO 27006KT 10SM CLR M09/M18 A3040 RMK AO2=
KDUH 272034Z AUTO 28005KT 10SM CLR M08/M21 A3059 RMK AO2=
KEDJ 272030Z AUTO 29009KT 10SM SCT037 M10/M17 A3056 RMK AO1=
KENV 272035Z AUTO 11005KT 10SM OVC100 07/M03 A2972 RMK AO1=
KERY 272035Z AUTO 24006KT 10SM CLR M10/M19 A3039 RMK AO2
     T10971190=
KEUL 272035Z AUTO 12012KT 10SM FEW041 11/M02 A2970 RMK AO1=
KFFX 272033Z AUTO 27009KT 10SM CLR M08/M18 A3052 RMK AO2
     T10811184=
KFPK 272035Z AUTO 26009KT 10SM OVC042 M08/M18 A3052 RMK AO2
     T10801178=
KFSE 272035Z AUTO 22010KT 10SM CLR M09/M17 A3039 RMK AO2=
KGOV 272035Z AUTO 24010KT 10SM SCT035 M09/M17 A3043 RMK AO2
     T10871171=
KHAF 272035Z AUTO 31017G21KT 7SM BKN016 OVC023 14/10 A2987 RMK
     AO2=
KHAI 272035Z AUTO 30003KT 10SM OVC039 M08/M15 A3056 RMK AO2
     T10801155=
KHCO 272021Z AUTO 23012KT 10SM CLR M09/M16 A3036 RMK AO2=
KHYX 272035Z AUTO 25009KT 10SM CLR M07/M15 A3054 RMK AO2=
KIRS 272035Z AUTO 24004KT 10SM OVC044 M09/M17 A3055 RMK AO2=
KISQ 272035Z AUTO 21007KT 10SM CLR M09/M18 A3042 RMK AO2
     T10911176=
KJYG 272035Z AUTO 21006KT 10SM CLR M11/M17 A3053 RMK AO2=
KJYM 272034Z AUTO 29006KT 10SM CLR M09/M19 A3053 RMK AO2
     T10891188=
KKLS 272035Z 19006KT 10SM FEW022 SCT032 BKN100 12/07 A2975 RMK
     AO1=
KLDM 272035Z AUTO 25008KT 10SM SCT029 M09/M16 A3054 RMK AO2
     T10881161=
KLGD 272035Z AUTO 18009KT 10SM FEW027 SCT034 BKN075 08/00 A2968
     RMK AO1=
KLKV 272035Z 31008G15KT 10SM FEW012 SCT028 BKN037 04/00 A2968 RMK
     AO1=
KLVN 272001Z AUTO 26006KT 10SM CLR M12/M19 A3052 RMK AO2=
KLWA 272035Z AUTO 26011KT 10SM BKN036 M08/M16 A3057 RMK AO2
     T10771161=
KMGN 272035Z AUTO 27009G14KT 10SM CLR M10/M16 A3046 RMK AO2
     T11031162=
KMOP 272035Z AUTO 23010G16KT 10SM BKN040 M08/M16 A3050 RMK AO2
     T10791165=
KOEB 272035Z AUTO 25007KT 10SM OVC042 M09/M18 A3055 RMK AO2
     T10881176=
KOTH 272035Z 24006KT 10SM FEW009 BKN022 OVC046 11/10 A2982 RMK AO1
     P0001=
KOWA 272035Z AUTO 21007KT 10SM CLR M13/M19 A3052 RMK AO2 PWINO=
KOZW 272034Z AUTO 25010KT 10SM CLR M09/M18 A3053 RMK AO2
     T10931185=
KPWT 272035Z AUTO 36009KT 10SM FEW027 OVC034 08/08 A2978 RMK AO1
     P0001=
KPZQ 272034Z AUTO 29007G14KT 10SM CLR M08/M16 A3045 RMK AO2
     T10771165=
####018003742####
SAUS99 KWBC 272038 RRA
METAR
KRGK 272031Z AUTO 28006KT 10SM CLR M09/M19 A3053 RMK AO2=
KRNP 272035Z AUTO 26009KT 10SM CLR M08/M17 A3054 RMK AO2
     T10841167=
KRQB 272034Z AUTO 28010G17KT 10SM SCT041 M08/M17 A3048 RMK AO2
     T10761167=
KSEM 272035Z AUTO 02010KT 10SM 10/M04 A3037 RMK AO2=
KSGU 272035Z AUTO 28003KT 10SM FEW120 13/M04 A2972 RMK AO1=
KSJX 272037Z AUTO 25012G16KT 10SM CLR M11/M16 A3045 RMK AO2
     T11101165=
KSLH 272038Z AUTO 24010G14KT 10SM CLR M10/M17 A3045 RMK AO2
     T11021169=
KSMN 272035Z AUTO 00000KT 10SM FEW050 FEW060 SCT070 01/M05 A2975
     RMK AO1=
KUKT 272035Z AUTO 31008KT 10SM CLR M04/M15 A3042 RMK AO1=
KVLL 272035Z AUTO 31007KT 10SM SCT048 M06/M20 A3055 RMK AO2
     T10611200=
PADK 272036Z AUTO 35011KT 10SM BKN041 02/M04 A3011 RMK AO1=
PAGL 272036Z AUTO 16018KT 10SM OVC022 M01/M03 A3022 RMK AO1=
PAHP 272036Z AUTO 17019KT 9SM OVC004 M01/M03 A3014 RMK AO1=
KCFJ 272035Z AUTO 35006KT 10SM CLR M10/M23 A3060 RMK AO2
     T11001228=
KHAE 272035Z AUTO 00000KT 10SM CLR M08/M22 A3063 RMK AO2=
KHJH 272035Z AUTO 00000KT 10SM CLR M07/M20 A3047 RMK AO2
     T10671198=
KHZE 272035Z AUTO 17015G18KT 10SM CLR M06/M17 A3020 RMK AO2=
KIDI 272035Z AUTO 30007KT 10SM CLR M08/M18 A3050 RMK A01=
KIFA 272035Z AUTO 27003KT 5SM HZ CLR M13/M18 A3058 RMK AO2
     T11301185=
KJFX 272035Z AUTO 05006KT 030V010 10SM CLR 06/M06 A3045 RMK A02
     P-128=
KJKA 272035Z AUTO 06005G16KT 10SM CLR 13/00 A3028 RMK AO2
     T01300000=
KJYL 272035Z AUTO 06004KT 10SM CLR 12/04 A3034 RMK AO2
     T01150036=
KLCK 272035Z AUTO 27010KT 10SM OVC042 M07/M17 A3059 RMK AO2
     T10751167=
KMCD 272036Z AUTO 25010G21KT 10SM SCT021 M11/M16 A3045 RMK AO2
     T11131164=
KMCJ 272035Z AUTO 01007G15KT 7SM OVC018 05/00 A3030 RMK AO1=
KMKN 272035Z AUTO 03008KT 7SM OVC009 M05/M05 A3036 RMK AO2
     T10471049=
KMMI 272035Z AUTO VRB04KT 10SM CLR 00/M09 A3047 RMK=
KMRC 272035Z AUTO 02008KT 01/M11 A3047 RMK=
KMRN 272035Z AUTO 22006KT 10SM CLR 08/M09 A3037 RMK AO2
     T00831088=
KMZH 272035Z AUTO 27009KT 10SM CLR M07/M21 A3040 RMK AO2=
KPAN 272035Z AUTO 20008G15KT 170V240 10SM OVC095 13/M05 A2979 RMK
     AO2=
KPCM 272035Z AUTO 07011KT 10SM OVC022 A3020 RMK AO2=
KPHN 272038Z AUTO 29006KT 10SM CLR M09/M19 A3055 RMK AO2=
KPVE 272035Z AUTO 03009KT 10SM CLR 00/M16 A3049 RMK=
KPVF 272035Z AUTO 27003KT 10SM SCT023 BKN031 BKN037 11/04 A2979
     RMK AO1=
KRBW 272035Z AUTO 02005KT 10SM CLR 12/02 A3035 RMK AO2=
KRCX 272035Z AUTO 24008KT 10SM CLR M10/M21 A3046 RMK AO2
     T10961210=
KRKR 272035Z AUTO 04004KT 1SM -SN OVC012 M06/M09 A3056 RMK AO2
     T10561094=
KSMS 272035Z AUTO 00000KT 10SM CLR 12/01 A3034 RMK AO2=
KSNH 272035Z AUTO 34005KT 10SM CLR 03/M13 A3048 RMK=
KSOW 272035Z AUTO 20019G29KT 10SM FEW075 OVC090 10/M08 A2978 RMK
     AO2=
KSPL 272035Z AUTO 36008KT 1SM BKN042 15/13 A3014 RMK AO1=
KSRB 272035Z AUTO 02007KT 10SM CLR M01/M11 A3047 RMK=
KSTF 272035Z AUTO 07004KT 10SM CLR 04/M05 A3044 RMK AO2=
KSYI 272035Z AUTO 35008KT 10SM CLR 01/M11 A3049 RMK=
KTPF 272035Z AUTO 07010KT 10SM OVC022 18/12 A3018 RMK AO2=
KTTF 272036Z AUTO 00000KT 10SM CLR M09/M18 A3057 RMK AO2=
KUCY 272035Z AUTO 01008KT 10SM CLR M04/M11 A3056 RMK=
KVCV 272035Z AUTO 27012G21KT 10SM CLR 18/01 A2972 RMK AO2=
KVWU 272029Z AUTO 00000KT 10SM CLR M09/M17 A3036 RMK AO2=
KW96 272035Z AUTO 06004KT 10SM SCT055 01/M05 A3045 RMK AO1
     T00111049=
KWDR 272035Z AUTO 35004KT 10SM CLR 11/M04 A3036 RMK AO1=
KXLL 272035Z AUTO 28007G14KT 10SM CLR M02/M15 A3044 RMK AO2=
PAAK 272036Z 29020G25KT 10SM FEW017 FEW029 OVC065 03/00 A2999 RMK
     AO1=
K1II 272035Z AUTO 36009KT 10SM CLR M06/M16 A3060 RMK AO2=
####018002143####
SAUS99 KWBC 272038 RRB
METAR
K3LF 272035Z AUTO 01003KT 10SM CLR M11/M20 A3063 RMK AO2
     T11151201=
K42J 272035Z AUTO 05011G16KT 9SM CLR 13/04 A3026 RMK AO1 TSNO=
K46D 272035Z AUTO 10SM CLR M11/M17 A3031 RMK AO2=
K4M9 272035Z AUTO 05012KT 10SM M05/M12 A3059 RMK AO2=
K6L4 272035Z AUTO 00000KT 10SM SCT040 OVC049 M07/M14 A3045 RMK
     AO2=
KADH 272035Z AUTO 05003KT 1/2SM SN VV005 M07/M08 A3048 RMK AO2=
KAIB 272035Z AUTO 22010G14KT 10SM CLR 02/M05 A2980 RMK AO2=
KAVC 272036Z AUTO 29006KT 10SM CLR 05/M08 A3045 RMK AO2
     T00501083=
KBCB 272035Z AUTO 31010G15KT 10SM CLR M02/M12 A3039 RMK AO2
     T10201117=
KBDN 272035Z AUTO 07004KT 2SM -RA BKN011 BKN020 OVC024 03/02 A2966
     RMK AO2 VSBY 1 1/4V4 P0009=
KBMT 272035Z AUTO 02004KT 10SM CLR 11/00 A3032 RMK AO2
     T01051004=
KBXA 272035Z AUTO 07010G14KT 10SM 10/00 A3034 RMK AO2
     T00981002=
KCEY 272035Z AUTO 02006KT 10SM CLR M04/M13 A3056 RMK AO1=
KCGC 272035Z AUTO 04009G14KT 020V080 10SM CLR 18/06 A3019 RMK AO2
     LTG DSNT S=
KCMD 272035Z AUTO 34006KT 10SM CLR 01/M08 A3045 RMK AO2
     T00111080=
KCVC 272035Z AUTO 32005KT 10SM CLR 12/M05 A3032 RMK AO2=
KDKB 272035Z AUTO 25006KT 10SM CLR M13/M20 A3059 RMK AO2
     T11301200=
KDRI 272035Z AUTO 00000KT 10SM CLR 10/M02 A3035 RMK AO2
     T01021025=
KETC 272035Z AUTO 36005KT 10SM CLR 09/M03 A3040 RMK AO2
     T00921035=
KETH 272036Z AUTO 20004KT 10SM CLR M11/M18 A3048 RMK AO2=
KF05 272035Z AUTO 07008KT 7SM OVC014 M06/M11 A3045 RMK AO1
     T10641115=
KFBR 272035Z AUTO 11005KT 10SM SCT015 OVC090 M03/M08 A2977 RMK AO2
     T10351077=
KFKR 272035Z AUTO 30005KT 10SM CLR M07/M17 A3060 RMK AO2
     T10751174=
KFKS 272036Z AUTO 23007KT 10SM OVC026 M09/M14 A3050 RMK AO2
     T10921143=
KFYJ 272035Z AUTO 36003KT 10SM SCT026 SCT037 02/M06 A3048 RMK AO2
     T00221058=
KFYM 272035Z AUTO 06009KT 10SM CLR 00/M10 RMK=
KGKT 272035Z AUTO 00000KT 10SM CLR 01/M08 A3045 RMK=
KGYB 272035Z AUTO 04006KT 10SM OVC021 04/M01 A3036 RMK AO2
     T00351011=
KGYI 272035Z AUTO 04011KT 2SM -SN OVC008 M04/M05 A3046 RMK AO2
     T10421051=
####018000099####
SACN92 KWBC 272038
METAR CWKD 272000Z AUTO 25017KT M20/M24 RMK AO1 24 3013 SLP188
T11951242=
####018000106####
SAXX60 KWBC 272038
METAR
KMRT 272034Z AUTO 34006KT 10SM CLR M08/M19 A3057 RMK AO2
     T10821190=
####018003735####
SAUS70 KWBC 272038 RRB
METAR
KMNM 272035Z AUTO 23010G14KT 210V270 10SM CLR M08/M18 A3044 RMK
     AO1=
KMRF 272035Z AUTO 07013KT 10SM OVC012 00/M04 A3004 RMK AO1=
KMSV 272035Z AUTO 29011G18KT 10SM CLR M07/M18 A3032 RMK AO1=
KMVN 272035Z AUTO 00000KT 10SM CLR M07/M15 A3063 RMK AO1=
KOAJ 272035Z AUTO 33006KT 10SM FEW046 09/M01 A3038 RMK AO1=
KOCH 272035Z AUTO 08008KT 030V110 10SM SCT100 04/M05 A3039 RMK
     AO1=
KOKK 272035Z AUTO 28008KT 10SM CLR M09/M14 A3059 RMK AO1=
KOLU 272035Z AUTO 21006KT 10SM CLR M07/M20 A3048 RMK AO1=
KOTG 272035Z AUTO 26007KT 10SM CLR M03/M18 A3048 RMK AO1=
KPHT 272035Z AUTO 02006KT 10SM CLR M03/M13 A3054 RMK=
KPIB 272035Z AUTO 02011G15KT 350V050 10SM CLR 08/M02 A3035 RMK
     AO1=
KPQI 272035Z AUTO 27011KT 10SM CLR M08/M26 A3017 RMK AO1=
KPRX 272035Z 05008KT 1 3/4SM BKN012 BKN018 OVC026 M03/M07 A3049
     RMK AO1=
KPSO 272035Z AUTO 20007KT 1SM -SN OVC009 M02/M03 A2979 RMK AO2
     T10161030=
KPTN 272035Z AUTO 05010KT 10SM CLR 11/02 A3031 RMK AO1=
KPTV 272035Z AUTO 27005KT 9SM CLR 18/08 A2981 RMK AO1=
KPVC 272035Z 33008KT 10SM CLR M05/M16 A3036 RMK AO1=
KPVG 272035Z AUTO 05011G16KT 10SM BKN037 01/M04 A3046 RMK AO1=
KPWG 272035Z AUTO 03011KT 10SM M01/M06 A3039 RMK AO1=
KRCV 272035Z AUTO 07008KT 10SM BKN012 BKN070 M06/M10 A2976 RMK AO2
     T10581097=
KRKD 272035Z AUTO 27009KT 10SM CLR M06/M20 A3030 RMK AO1=
KRQO 272035Z AUTO 05006KT BKN014 BKN019 OVC060 M07/M11 A3046 RMK
     AO2 PWINO=
KRUT 272035Z 02006KT 10SM CLR M08/M23 A3033 RMK AO1=
KSBS 272035Z AUTO 00000KT 10SM CLR M02/M13 A2976 RMK AO1
     T10231132=
KDYB 272035Z AUTO 03003KT 10SM CLR 11/02 A3036 RMK AO1=
KDYR 272035Z 03011G15KT 10SM CLR M03/M14 A3058 RMK AO1=
KE80 272035Z AUTO 13007KT 10SM OVC014 M01/M04 A2992 RMK AO2
     T10101045=
KEDC 272035Z AUTO 03011G16KT 10SM OVC024 02/M04 A3033 RMK AO2=
KEEN 272035Z AUTO 36008KT 10SM CLR M05/M21 A3033 RMK AO1=
KEHR 272035Z AUTO 34006KT 310V010 10SM SCT034 M05/M13 A3061 RMK
     AO1=
KEIK 272035Z AUTO 00000KT 10SM CLR M09/M13 A2994 RMK AO2
     T10901134=
KESC 272035Z AUTO 18013KT 10SM CLR M09/M17 A3044 RMK AO1=
KEWK 272035Z AUTO 00000KT 3SM BKN016 OVC025 M09/M15 A3050 RMK
     AO1=
KFAM 272035Z AUTO 00000KT 10SM CLR M07/M18 A3059 RMK AO1=
KFGX 272035Z AUTO 35005KT 10SM CLR M06/M15 A3058 RMK AO2
     T10641152=
KFKL 272035Z AUTO 32009KT 10SM CLR M11/M21 A3049 RMK AO1=
KFLP 272035Z 02004KT 10SM BKN060 M06/M18 A3056 RMK AO1=
KFLY 272032Z AUTO 17008KT 2SM -SN OVC010 M12/M16 A2986 RMK AO2 VIS
     1 1/2V4 T11241162=
KFMH 272035Z AUTO 04004G10KT 10SM CLR M04/M14 A3034 RMK AO2
     FZRANO=
KFMM 272035Z AUTO 15018G21KT 10SM SCT025 OVC030 M08/M13 A3001 RMK
     AO2 T10761132=
KFNL 272035Z AUTO 00000KT 10SM BKN018 M10/M14 A2996 RMK AO1
     P0008=
KFOD 272035Z AUTO 23005KT 10SM CLR M12/M18 A3056 RMK AO1=
KFRM 272035Z AUTO 23007KT 10SM CLR M11/M18 A3050 RMK AO1=
KGAD 272035Z 03010KT 10SM CLR 04/M07 A3042 RMK AO1=
KGAI 272035Z AUTO 32007KT 300V360 10SM CLR M02/M13 A3049 RMK
     AO1=
KGBD 272035Z AUTO 15010KT 7SM BKN027 OVC035 M08/M14 A3043 RMK
     AO1=
KGDV 272035Z AUTO 19014G19KT 10SM CLR M02/M14 A3003 RMK AO1=
KGUC 272035Z 23012G17KT 10SM CLR M01/M10 A2974 RMK AO1=
KGXY 272035Z AUTO 17007KT 10SM BKN030 OVC037 M05/M13 A2995 RMK
     AO1=
KHDN 272035Z AUTO 24005KT 10SM CLR M03/M13 A2977 RMK AO1=
KHEZ 272035Z AUTO 34009KT 10SM CLR 07/M03 A3037 RMK AO1=
KHNB 272035Z AUTO 03005KT 10SM CLR M06/M14 A3061 RMK AO1=
KHVS 272035Z AUTO 00000KT 10SM CLR 12/M01 A3034 RMK AO2=
KHYS 272035Z AUTO 12009KT 10SM FEW041 FEW047 OVC060 M08/M18 A3041
     RMK AO1=
KHYW 272035Z AUTO 01005KT 7SM CLR 11/00 A3036 RMK AO2=
####018003749####
SAUS70 KWBC 272038
METAR
K04W 272033Z AUTO 21008KT 10SM CLR M08/M18 A3045 RMK AO2=
K14Y 272038Z AUTO 22008KT 10SM CLR M09/M18 A3043 RMK AO2=
K21D 272030Z AUTO 22007KT 10SM CLR M08/M16 A3051 RMK AO2=
KAEL 272032Z AUTO 21007KT 10SM CLR M13/M18 A3052 RMK AO2=
KAIT 272034Z AUTO 21009KT 10SM CLR M06/M24 A3039 RMK AO2=
KAXV 272031Z AUTO 33003KT 10SM SCT044 M07/M17 A3059 RMK AO2=
KBBB 272034Z AUTO 25004KT 10SM CLR M09/M18 A3047 RMK AO2=
KBJI 272032Z AUTO 25007KT 10SM CLR M09/M21 A3036 RMK AO2
     T10921211=
KCVH 272030Z AUTO 35007KT 10SM SCT028 BKN034 BKN040 17/12 A2984
     RMK AO1=
KD39 272032Z AUTO 24009KT 10SM CLR M10/M19 A3045 RMK AO2
     T10981190=
KD95 272033Z AUTO 25010KT 10SM CLR M09/M18 A3052 RMK AO2
     T10891183=
KDXX 272033Z AUTO 24004KT 10SM CLR M09/M18 A3047 RMK AO2=
KDYT 272033Z AUTO 22011KT 10SM CLR M07/M19 A3043 RMK AO2=
KELO 272033Z AUTO 28005KT 10SM CLR M07/M24 A3030 RMK AO2=
KEVM 272032Z AUTO 25010KT 10SM CLR M08/M22 A3035 RMK AO2=
KFBL 272034Z AUTO 22006KT 10SM CLR M12/M18 A3052 RMK AO2=
KFFM 272034Z AUTO 23005KT 10SM CLR M10/M19 A3047 RMK AO2=
KFGN 272034Z AUTO 26014KT 10SM CLR M08/M23 A3028 RMK AO2=
KFKA 272035Z AUTO 26007KT 10SM CLR M14/M20 A3053 RMK AO2
     T11451204=
KGDB 272033Z AUTO 24004KT 10SM CLR M09/M16 A3050 RMK AO2
     T10951164=
KGHW 272033Z AUTO 22007KT 10SM CLR M10/M18 A3044 RMK AO2=
KGYL 272035Z AUTO 24005KT 10SM CLR M10/M16 A3050 RMK AO2
     T11051165=
KHCD 272032Z AUTO 23007KT 10SM CLR M10/M17 A3051 RMK AO2
     T11051172=
KHZX 272028Z AUTO 22009KT 10SM CLR M07/M20 A3040 RMK AO2=
KI69 272036Z AUTO 01003KT 10SM SCT046 SCT055 M05/M17 A3058 RMK
     AO1=
KJKJ 272031Z AUTO 24008KT 10SM CLR M08/M21 A3044 RMK AO2=
KJMR 272035Z AUTO 23006G14KT 10SM CLR M08/M18 A3047 RMK AO2=
KLJF 272032Z AUTO 23003KT 10SM CLR M11/M18 A3049 RMK AO2=
KLXL 272034Z AUTO 22007KT 183V253 10SM CLR M08/M21 A3045 RMK
     AO2=
KMDS 272030Z AUTO 22007KT 10SM CLR M10/M17 A3041 RMK AO2=
KMGG 272036Z AUTO 27005KT 10SM CLR M09/M17 A3049 RMK AO2
     T10901171=
KMJQ 272033Z AUTO 25007KT 10SM CLR M11/M17 A3048 RMK AO2=
KMOX 272033Z AUTO 20003KT 10SM CLR M09/M18 A3045 RMK AO2=
KMQJ 272036Z AUTO 27004KT 10SM CLR M07/M24 A3059 RMK AO1=
KMVE 272034Z AUTO 00000KT 10SM CLR M07/M16 A3049 RMK AO2=
KMWM 272033Z AUTO 00000KT 10SM CLR M11/M17 A3047 RMK AO2=
KONA 272036Z AUTO 22004KT 10SM CLR M10/M18 A3057 RMK AO2=
KONZ 272034Z AUTO 21007KT 10SM CLR M09/M19 A3056 RMK AO2=
KORB 272033Z AUTO 25007KT 10SM CLR M07/M25 A3030 RMK AO2=
KOSC 272032Z AUTO 24009KT 10SM CLR M06/M16 A3045 RMK AO2
     T10681168=
KOVL 272033Z AUTO 24005KT 10SM CLR M10/M17 A3049 RMK AO2=
KPCW 272033Z AUTO 23009KT 10SM CLR M08/M17 A3057 RMK AO2 $=
KPEX 272034Z AUTO 19009KT 10SM CLR M11/M21 A3047 RMK AO2
     T11111210=
KPNM 272034Z AUTO 24007KT 10SM CLR M08/M18 A3046 RMK AO2=
KPQN 272034Z AUTO 24005KT 10SM CLR M12/M18 A3043 RMK AO2=
KPWC 272034Z AUTO 27004KT 10SM CLR M08/M19 A3041 RMK AO2=
KRMY 272034Z AUTO 25006KT 10SM BKN044 M09/M18 A3054 RMK AO2
     T10921180=
KROX 272034Z AUTO 23009KT 10SM CLR M10/M18 A3034 RMK AO2=
KRRT 272034Z AUTO 24009KT 10SM CLR M11/M19 A3033 RMK AO2=
KRZT 272035Z AUTO 35006KT 10SM CLR M07/M17 A3060 RMK AO2=
KSAZ 272033Z AUTO 22006KT 10SM CLR M09/M20 A3041 RMK AO2=
KSGS 272031Z AUTO 24007KT 10SM CLR M09/M18 A3052 RMK AO2
     T10901178=
KSYM 272030Z AUTO 27004KT 10SM CLR M06/M16 A3058 RMK AO2=
KTEW 272035Z AUTO 24006KT 220V280 10SM SCT041 M08/M18 A3053 RMK
     AO2 T10811183=
KTOB 272034Z AUTO 24007KT 10SM CLR M14/M18 A3050 RMK AO2=
KTWM 272035Z AUTO 24010G15KT 10SM CLR M06/M18 A3035 RMK AO2=
KULM 272033Z AUTO 24004KT 10SM CLR M12/M19 A3051 RMK AO2=
####018000121####
SACN87 KWBC 272038
METAR CWWS 272000Z AUTO 23009KT M16/M20 RMK AO1 SOG 56 8010 PK WND
25017/1904 SLP231 T11551200=
####018000087####
SACN90 KWBC 272038
METAR CWEE 272000Z AUTO M12/M22 RMK AO1 SLP211 T11241219 53002=
####018000719####
SPUS99 KWBC 272038
SPECI
KMOD 272035Z 29010KT 10SM SCT045 OVC060 19/07 A2979 RMK AO2 WSHFT
     2015 T01890067=
KAST 272035Z AUTO 35003KT 1 3/4SM RA BR BKN018 OVC024 09/08 A2971
     RMK AO2 RAB08 CIG 013 RWY 08 P0003 T00940078=
KEYW 272035Z 03010KT 10SM BKN009 23/20 A3007 RMK AO2 T02280200=
KFPR 272035Z 35007KT 2SM -RA OVC007 15/14 A3015 RMK AO2 RAB15
     P0002 T01500139=
KGCK 272035Z 17014KT 4SM HZ BKN023 OVC032 M10/M14 A3030 RMK AO2
     SNE35 P0000 T11001139=
KGLD 272035Z AUTO 16018KT 2SM -SN FEW016 OVC026 M08/M12 A3019 RMK
     AO2 UPE1954SNB13 P0000 T10831122=
KGRR 272035Z 26012KT 1 1/4SM R26L/3500VP6000FT -SN BKN019 OVC035
     M08/M12 A3054 RMK AO2 SNB06 P0000 T10831122=
####018000082####
SACN91 KWBC 272038
METAR CWIX 272000Z AUTO 27008KT M12/M22 RMK AO1 T11201215=
####018000476####
SPUS80 KWBC 272038
SPECI
KLXV 272034Z AUTO 18006KT 1 1/4SM -SN BKN020 OVC030 M08/M12 A2965
     RMK AO2 SNB00 P0000 T10781117=
KLBB 272034Z 09010KT 2SM -SN FEW000 OVC014 M08/M12 A3022 RMK AO2
     SN FEW000 P0000 T10831117=
KAST 272035Z AUTO 35003KT 1 3/4SM RA BR BKN018 OVC024 09/08 A2971
     RMK AO2 RAB08 CIG 013 RWY 08 P0003 T00940078=
KGRR 272035Z 26012KT 1 1/4SM R26L/3500VP6000FT -SN BKN019 OVC035
     M08/M12 A3054 RMK AO2 SNB06 P0000 T10831122=
####018003677####
SAUS70 KWBC 272038 RRE
METAR
KMZH 272035Z AUTO 27009KT 10SM CLR M07/M21 A3040 RMK AO2=
KPAN 272035Z AUTO 20008G15KT 170V240 10SM OVC095 13/M05 A2979 RMK
     AO2=
KPCM 272035Z AUTO 07011KT 10SM OVC022 A3020 RMK AO2=
KPHN 272038Z AUTO 29006KT 10SM CLR M09/M19 A3055 RMK AO2=
KPVE 272035Z AUTO 03009KT 10SM CLR 00/M16 A3049 RMK=
KPVF 272035Z AUTO 27003KT 10SM SCT023 BKN031 BKN037 11/04 A2979
     RMK AO1=
KRBW 272035Z AUTO 02005KT 10SM CLR 12/02 A3035 RMK AO2=
KRCX 272035Z AUTO 24008KT 10SM CLR M10/M21 A3046 RMK AO2
     T10961210=
KRKR 272035Z AUTO 04004KT 1SM -SN OVC012 M06/M09 A3056 RMK AO2
     T10561094=
KSNH 272035Z AUTO 34005KT 10SM CLR 03/M13 A3048 RMK=
KSPL 272035Z AUTO 36008KT 1SM BKN042 15/13 A3014 RMK AO1=
KSRB 272035Z AUTO 02007KT 10SM CLR M01/M11 A3047 RMK=
KSTF 272035Z AUTO 07004KT 10SM CLR 04/M05 A3044 RMK AO2=
KSYI 272035Z AUTO 35008KT 10SM CLR 01/M11 A3049 RMK=
KTPF 272035Z AUTO 07010KT 10SM OVC022 18/12 A3018 RMK AO2=
KTTF 272036Z AUTO 00000KT 10SM CLR M09/M18 A3057 RMK AO2=
KUCY 272035Z AUTO 01008KT 10SM CLR M04/M11 A3056 RMK=
KVCV 272035Z AUTO 27012G21KT 10SM CLR 18/01 A2972 RMK AO2=
KVWU 272029Z AUTO 00000KT 10SM CLR M09/M17 A3036 RMK AO2=
KW96 272035Z AUTO 06004KT 10SM SCT055 01/M05 A3045 RMK AO1
     T00111049=
KWDR 272035Z AUTO 35004KT 10SM CLR 11/M04 A3036 RMK AO1=
KXLL 272035Z AUTO 28007G14KT 10SM CLR M02/M15 A3044 RMK AO2=
PAAK 272036Z 29020G25KT 10SM FEW017 FEW029 OVC065 03/00 A2999 RMK
     AO1=
K1II 272035Z AUTO 36009KT 10SM CLR M06/M16 A3060 RMK AO2=
K3LF 272035Z AUTO 01003KT 10SM CLR M11/M20 A3063 RMK AO2
     T11151201=
K42J 272035Z AUTO 05011G16KT 9SM CLR 13/04 A3026 RMK AO1 TSNO=
K46D 272035Z AUTO 10SM CLR M11/M17 A3031 RMK AO2=
K4M9 272035Z AUTO 05012KT 10SM M05/M12 A3059 RMK AO2=
K6L4 272035Z AUTO 00000KT 10SM SCT040 OVC049 M07/M14 A3045 RMK
     AO2=
KADH 272035Z AUTO 05003KT 1/2SM SN VV005 M07/M08 A3048 RMK AO2=
KAIB 272035Z AUTO 22010G14KT 10SM CLR 02/M05 A2980 RMK AO2=
KAVC 272036Z AUTO 29006KT 10SM CLR 05/M08 A3045 RMK AO2
     T00501083=
KBCB 272035Z AUTO 31010G15KT 10SM CLR M02/M12 A3039 RMK AO2
     T10201117=
KBDN 272035Z AUTO 07004KT 2SM -RA BKN011 BKN020 OVC024 03/02 A2966
     RMK AO2 VSBY 1 1/4V4 P0009=
KBMT 272035Z AUTO 02004KT 10SM CLR 11/00 A3032 RMK AO2
     T01051004=
KBXA 272035Z AUTO 07010G14KT 10SM 10/00 A3034 RMK AO2
     T00981002=
KCEY 272035Z AUTO 02006KT 10SM CLR M04/M13 A3056 RMK AO1=
KCGC 272035Z AUTO 04009G14KT 020V080 10SM CLR 18/06 A3019 RMK AO2
     LTG DSNT S=
KCMD 272035Z AUTO 34006KT 10SM CLR 01/M08 A3045 RMK AO2
     T00111080=
KCVC 272035Z AUTO 32005KT 10SM CLR 12/M05 A3032 RMK AO2=
KDKB 272035Z AUTO 25006KT 10SM CLR M13/M20 A3059 RMK AO2
     T11301200=
KDRI 272035Z AUTO 00000KT 10SM CLR 10/M02 A3035 RMK AO2
     T01021025=
KETC 272035Z AUTO 36005KT 10SM CLR 09/M03 A3040 RMK AO2
     T00921035=
KETH 272036Z AUTO 20004KT 10SM CLR M11/M18 A3048 RMK AO2=
KF05 272035Z AUTO 07008KT 7SM OVC014 M06/M11 A3045 RMK AO1
     T10641115=
KFBR 272035Z AUTO 11005KT 10SM SCT015 OVC090 M03/M08 A2977 RMK AO2
     T10351077=
KFKR 272035Z AUTO 30005KT 10SM CLR M07/M17 A3060 RMK AO2
     T10751174=
KFKS 272036Z AUTO 23007KT 10SM OVC026 M09/M14 A3050 RMK AO2
     T10921143=
KFYJ 272035Z AUTO 36003KT 10SM SCT026 SCT037 02/M06 A3048 RMK AO2
     T00221058=
KFYM 272035Z AUTO 06009KT 10SM CLR 00/M10 RMK=
KGKT 272035Z AUTO 00000KT 10SM CLR 01/M08 A3045 RMK=
KGYB 272035Z AUTO 04006KT 10SM OVC021 04/M01 A3036 RMK AO2
     T00351011=
KGYI 272035Z AUTO 04011KT 2SM -SN OVC008 M04/M05 A3046 RMK AO2
     T10421051=
####018000089####
SAUS70 KWBC 272100
METAR
KDLZ 272047Z AUTO 34007KT 10SM CLR M09/M18 A3058 RMK AO2=
####018002463####
SAAK41 KNKA 272036
METAR PAAK 272036Z 29020G25KT 10SM FEW017 FEW029 OVC065 03/00 A2999 
 RMK AO1=
METAR PABL 272036Z AUTO 18016G26KT 10SM SCT025 SCT030 BKN042 01/M04 
 A3018 RMK AO1=
METAR PABV 272036Z AUTO 00000KT 10SM CLR M05/M06 A3046 RMK AO1=
METAR PADK 272036Z AUTO 35011KT 10SM BKN041 02/M04 A3011 RMK AO1=
METAR PAEM 272036Z AUTO 16018G23KT 10SM BKN009 OVC034 M01/M03 A3016 
 RMK AO1=
METAR PAFE 272036Z AUTO 00000KT 10SM CLR 06/M01 A3042 RMK AO1=
METAR PAFM 272036Z AUTO 20007KT 9SM BKN014 OVC023 M01/M02 A3026 RMK 
 AO1=
METAR PAGL 272036Z AUTO 16018KT 10SM OVC022 M01/M03 A3022 RMK AO1=
METAR PAGS 272036Z AUTO 00000KT 10SM CLR 05/M02 A3044 RMK AO1 PNO=
METAR PAHL 272036Z AUTO 17008KT 10SM OVC028 M01/M04 A3031 RMK AO1=
METAR PAHP 272036Z AUTO 17019KT 9SM OVC004 M01/M03 A3014 RMK AO1=
METAR PAHY 272036Z AUTO 10SM CLR 08/M03 A3031 RMK AO1=
METAR PAII 272036Z AUTO 13008KT 10SM BKN075 OVC080 02/01 A3032 RMK 
 AO1=
METAR PAIN 272036Z AUTO 00000KT 10SM CLR M09/M13 A3040 RMK AO1=
METAR PAJC 272036Z AUTO 14007G14KT 9SM BKN012 OVC020 03/00 A3028 RMK 
 AO1 P0002=
METAR PAKK 272036Z AUTO 19013KT 10SM OVC021 A3023 RMK AO1=
METAR PAKP 272036Z AUTO 23012KT 7SM FEW016 BKN095 M06/M10 A3014 RMK 
 AO1=
METAR PAMD 272036Z 11006KT 10SM OVC013 05/03 A3045 RMK AO1=
METAR PAMH 272036Z AUTO 00000KT 10SM CLR M12/M14 A3036 RMK AO1=
METAR PAMM 272036Z AUTO 34008KT 10SM CLR 08/M04 A3032 RMK AO1=
METAR PANI 272036Z AUTO 12008KT 10SM CLR M05/M08 A3033 RMK AO1=
METAR PANV 272036Z AUTO 16006KT 10SM OVC020 M02/M06 A3027 RMK AO1=
METAR PAPH 272036Z AUTO 14018KT 10SM OVC075 04/M02 A3025 RMK AO1=
METAR PARC 272036Z AUTO 00000KT 10SM CLR M20/ A3011 RMK AO1=
METAR PASD 272036Z 04004KT 10SM SCT012 BKN016 OVC020 04/04 A3020 RMK 
 AO1 
 WEA: -RA (KH)=
METAR PASK 272036Z AUTO 21014G21KT 10SM OVC060 01/M02 A3020 RMK AO1=
METAR PASL 272036Z AUTO 15005KT 10SM OVC009 M05/M11 A3039 RMK AO1=
METAR PASM 272036Z AUTO 16013G18KT 10SM SCT014 OVC030 M02/M06 A3022 
 RMK AO1=
METAR PATG 272036Z AUTO 08004KT 10SM OVC014 01/M02 A3031 RMK AO1=
METAR PAUN 272036Z AUTO 17010KT 10SM OVC024 M01/M04 A3029 RMK AO1=
METAR PAWG 272036Z 32009KT 10SM CLR 06/M03 A3039 RMK AO1 
 WEA:NONE (KB)=
METAR PAWS 272036Z AUTO 00000KT 10SM CLR M03/M09 A3042 RMK AO1=
METAR PAZK 272036Z AUTO 07005KT 10SM CLR M12/M13 A3035 RMK AO1=
METAR PFYU 272036Z 24008KT 10SM CLR M02/M06 A3032 RMK AO1 
 SCT CI ABV 120=
####018000101####
SPCN48 CWAO 272037
SPECI CYAH 272037Z AUTO 25008KT 2SM HZ OVC025 M22/M26 A2985 RMK
 SLP151=

####018000665####
SPUS70 KWBC 272038
SPECI
KBFD 272034Z AUTO 30011KT 5SM BLSN FEW001 M12/M21 A3036 RMK AO2
     T11171206=
KMKO 272034Z AUTO 05008KT 2SM -SN BKN025 OVC034 M06/M11 A3055 RMK
     AO2 SNB05 P0000 T10611111=
KMOD 272035Z 29010KT 10SM SCT045 OVC060 19/07 A2979 RMK AO2 WSHFT
     2015 T01890067=
KEYW 272035Z 03010KT 10SM BKN009 23/20 A3007 RMK AO2 T02280200=
KFPR 272035Z 35007KT 2SM -RA OVC007 15/14 A3015 RMK AO2 RAB15
     P0002 T01500139=
KGCK 272035Z 17014KT 4SM HZ BKN023 OVC032 M10/M14 A3030 RMK AO2
     SNE35 P0000 T11001139=
KGLD 272035Z AUTO 16018KT 2SM -SN FEW016 OVC026 M08/M12 A3019 RMK
     AO2 UPE1954SNB13 P0000 T10831122=
####018001272####
SAUS80 KWBC 272038
METAR
K9MN 272033Z AUTO 28006KT 10SM CLR M12/M18 A3052 RMK AO1
     T11181185=
KIKW 272033Z AUTO 24010G15KT 10SM SCT039 M08/M17 A3051 RMK AO2
     T10761168=
KLYV 272035Z AUTO 22004KT 10SM CLR M10/M17 A3048 RMK AO2=
KPOV 272036Z AUTO 33005KT 10SM BKN039 M10/M20 A3053 RMK AO2
     T10981199=
KROS 272036Z AUTO 22005KT 10SM CLR M09/M19 A3048 RMK AO2
     T10901194=
KSYN 272035Z AUTO 24008KT 10SM CLR M11/M18 A3052 RMK AO2
     T11081184=
KTKC 272032Z AUTO 28005KT 10SM CLR M09/M17 A3047 RMK AO2
     T10941172=
KMWS 272030Z 23500G00KT MM/07 RMK SNOW DEPTH 1.00=
K4BM 272036Z AUTO 22007KT 10SM SCT003 M07/M11 A2968 RMK AO2=
KDVL 272035Z AUTO 22010KT 10SM CLR M11/M17 A3030 RMK AO1=
KDWU 272035Z AUTO 07004KT 10SM OVC047 M03/M14 A3058 RMK AO1=
KEAR 272035Z 13004KT 10SM CLR M06/M20 A3037 RMK AO1=
KGPZ 272035Z AUTO 23006KT 10SM CLR M08/M21 A3035 RMK AO1=
KPZQ 272034Z AUTO 29007G14KT 10SM CLR M08/M16 A3045 RMK AO2
     T10771165=
PADK 272036Z AUTO 35011KT 10SM BKN041 02/M04 A3011 RMK AO1=
KMKN 272035Z AUTO 03008KT 7SM OVC009 M05/M05 A3036 RMK AO2
     T10471049=
KSMS 272035Z AUTO 00000KT 10SM CLR 12/01 A3034 RMK AO2=
KSOW 272035Z AUTO 20019G29KT 10SM FEW075 OVC090 10/M08 A2978 RMK
     AO2=
####018003737####
SAUS70 KWBC 272038 RRC
METAR
KI67 272035Z AUTO 07007KT 10SM BKN048 M05/M16 A3060 RMK AO1=
KILE 272035Z AUTO 03010KT 10SM OVC016 M01/M07 A3033 RMK AO1=
KIWD 272035Z AUTO 28011KT 10SM CLR M10/M20 A3035 RMK AO1=
KJHW 272035Z 28010KT 10SM CLR M13/M21 A3043 RMK AO1=
KSDY 272035Z AUTO 16009KT 10SM CLR M02/M15 A3009 RMK AO1=
KSFM 272035Z AUTO 24006KT 10SM CLR M04/M21 A3031 RMK AO1=
KSFZ 272035Z 32005KT 10SM CLR M04/M16 A3031 RMK AO1=
KSGT 272035Z AUTO 36010KT 10SM BKN032 BKN100 M02/M09 A3057 RMK
     AO1=
KSKX 272035Z AUTO 25005KT 1/2SM OVC012 M07/M10 A2987 RMK AO1=
KSLG 272035Z AUTO 06005KT 10SM OVC050 M07/M18 A3052 RMK AO1=
KSOP 272035Z AUTO 05006KT 10SM CLR 09/M04 A3037 RMK AO1=
KSQI 272035Z AUTO 25005KT 10SM CLR M11/M18 A3063 RMK AO1=
KSTK 272030Z AUTO 17018G23KT 10SM BKN030 OVC036 M06/M12 A3006 RMK
     AO2=
KSUE 272035Z AUTO 24012G16KT 10SM CLR M09/M19 A3049 RMK AO1=
KTEX 272035Z AUTO 30005KT 10SM SCT047 BKN060 M03/M14 A2974 RMK AO2
     T10261143=
KTHA 272035Z AUTO VRB06KT 10SM CLR 01/M12 A3045 RMK=
KTME 272035Z AUTO 06009KT 8SM OVC020 05/00 A3035 RMK AO2=
KTPL 272035Z AUTO 02010KT 10SM OVC019 M01/M06 A3035 RMK AO1=
KTSP 272035Z AUTO 31016G25KT 9SM FEW021 OVC026 09/04 A2980 RMK
     AO2=
KTVF 272035Z AUTO 21010KT 10SM CLR M11/M16 A3037 RMK AO1=
KUDG 272035Z AUTO 32003KT 10SM CLR 12/M02 A3035 RMK AO1=
KUTA 272035Z AUTO 03011G15KT 10SM SCT031 00/M06 A3051 RMK AO2=
KUYF 272035Z AUTO 34008KT 10SM SCT038 M10/M17 A3056 RMK AO2=
KVBT 272035Z AUTO 06007KT 5SM SCT022 OVC035 M07/M15 A3051 RMK
     AO1=
KVIS 272035Z AUTO 00000KT 8SM FEW085 18/08 A2981 RMK AO1=
KVTP 272035Z AUTO 3/4SM -SN OVC002 M08/M10 A2972 RMK AO2=
KWVL 272035Z 31010G16KT CLR M05/M22 A3025 RMK AO1=
KWWD 272035Z AUTO 28010G15KT 10SM BKN075 M02/M09 A3046 RMK AO1=
KYKN 272035Z AUTO 18005KT 10SM CLR M07/M17 A3047 RMK AO1=
K7N0 272035Z AUTO 03004KT 10SM CLR A3031 RMK AO1=
K4I3 272036Z AUTO 27006KT 10SM SCT041 M08/M19 A3054 RMK AO2=
KACB 272036Z AUTO 22007KT 10SM OVC031 M08/M16 A3049 RMK AO2
     T10781158=
KADC 272035Z AUTO 24006KT 10SM CLR M11/M18 A3040 RMK AO2=
KAMN 272031Z AUTO 27012KT 10SM BKN042 M08/M17 A3052 RMK AO2
     T10791169=
KAUM 272035Z AUTO 21005KT 10SM CLR M13/M19 A3052 RMK AO2=
KAWO 272035Z AUTO 01009KT 10SM OVC060 09/06 A2980 RMK AO1=
KBAX 272034Z AUTO 25010G15KT 10SM CLR M10/M17 A3051 RMK AO2
     T11001166=
KBDH 272035Z AUTO 28003KT 10SM CLR M11/M18 A3049 RMK AO2=
KCAD 272035Z AUTO 23011G15KT 10SM SCT036 M09/M17 A3041 RMK AO2
     T10931169=
KCFS 272034Z AUTO 23010KT 10SM CLR M09/M17 A3052 RMK AO2
     T10891166=
KCKC 272034Z AUTO 24006KT 10SM CLR M08/M25 A3026 RMK AO2=
KCKN 272034Z AUTO 23010KT 10SM CLR M10/M15 A3041 RMK AO2=
KCNB 272033Z AUTO 24006KT 10SM CLR M09/M17 A3047 RMK AO2
     T10901167=
KCOE 272035Z AUTO 07006G14KT 10SM CLR 09/M03 A2977 RMK AO1=
KCOQ 272036Z AUTO 25009G14KT 10SM CLR M08/M24 A3037 RMK AO2=
KCQM 272035Z AUTO 25009G14KT 10SM CLR M07/M22 A3033 RMK AO2=
KCVO 272035Z AUTO 17008KT 10SM FEW017 SCT031 BKN036 11/07 A2975
     RMK AO1 P0001=
KCVX 272034Z AUTO 25012G17KT 10SM SCT027 M10/M16 A3050 RMK AO2
     T11051157=
KDRM 272035Z AUTO 25008KT 230V290 10SM CLR M10/M17 A3042 RMK AO2
     T11031166=
KDTL 272035Z AUTO 27006KT 10SM CLR M09/M18 A3040 RMK AO2=
KDUH 272034Z AUTO 28005KT 10SM CLR M08/M21 A3059 RMK AO2=
KEDJ 272030Z AUTO 29009KT 10SM SCT037 M10/M17 A3056 RMK AO1=
KENV 272035Z AUTO 11005KT 10SM OVC100 07/M03 A2972 RMK AO1=
KERY 272035Z AUTO 24006KT 10SM CLR M10/M19 A3039 RMK AO2
     T10971190=
KEUL 272035Z AUTO 12012KT 10SM FEW041 11/M02 A2970 RMK AO1=
KFFX 272033Z AUTO 27009KT 10SM CLR M08/M18 A3052 RMK AO2
     T10811184=
####018000517####
SPXX60 KWBC 272038
SPECI
KAFF 272036Z AUTO 15011KT 4SM HZ OVC017 M12/M17 A2985 RMK AO2
     SNE31=
KFCS 272032Z 11005KT 1/2SM BR BKN004 OVC025 M11/M15 A2991 RMK AO2A
     SNE27 BKN V OVC=
KGRF 272034Z 02003KT 3SM RA BR BKN004 OVC028 09/09 A2974 RMK AO2A
     TWR VIS 1 1/2 $=
KIAB 272034Z AUTO 13005KT 2SM -SN FEW002 SCT009 OVC023 M09/M13
     A3050 RMK AO2 VIS 2V2 1/2 CIG 004 RWY19=
KSKF 272030Z 03010KT 4SM -DZ BR BKN009 OVC015 00/00 A3025 RMK AO2A
     TWR VIS 3 RAE18DZB18 CIG 009V014 $=
####018003703####
SAUS70 KWBC 272038 RRA
METAR
KVVV 272033Z AUTO 00000KT 10SM CLR M09/M19 A3045 RMK AO2=
KY63 272034Z AUTO 23004KT 10SM CLR M12/M17 A3044 RMK AO2
     T11171173=
KY70 272033Z AUTO 26010G17KT 10SM OVC039 M07/M16 A3052 RMK AO2
     T10751156=
K04V 272029Z AUTO 12005KT 4SM -SN OVC016 M03/M08 A2978 RMK AO2=
K0A9 272035Z AUTO 24004KT 10SM UP OVC032 M02/M08 A3042 RMK=
K0CO 272035Z AUTO 29016KT M1/4SM -SN OVC001 M15/M18 A2961 RMK
     AO2=
K1S5 272035Z AUTO 00000KT 10SM SCT025 BKN042 OVC060 08/03 A2976
     RMK AO2 T00760033=
K1V6 272035Z AUTO 11007KT 10SM CLR M07/M12 A2993 RMK AO2=
K20V 272035Z AUTO 00000KT 10SM SCT037 OVC050 M02/M11 A2975 RMK
     AO2=
K2V5 272035Z AUTO 16016G21KT 10SM OVC030 M06/M13 A3015 RMK AO2
     T10651127=
K33V 272035Z AUTO 00000KT 10SM CLR M08/M12 A2971 RMK AO2=
K5SM 272035Z AUTO 24004KT 1 1/2SM -SN OVC005 M07/M08 RMK AO2=
K7BM 272034Z AUTO 00000KT 10SM BKN045 OVC055 M07/M11 A2969 RMK
     AO2=
KAFJ 272035Z AUTO 26008KT 10SM CLR M08/M19 A3053 RMK AO1=
KAIZ 272035Z AUTO 01004KT 10SM OVC100 M07/M18 A3055 RMK AO1=
KALM 272035Z AUTO 16004KT 10SM OVC031 04/M04 A2997 RMK AO2=
KAQP 272034Z AUTO 26003KT 10SM CLR M08/M19 A3047 RMK AO2=
KAQX 272035Z AUTO VRB04KT 10SM CLR 12/01 A3033 RMK AO2=
KARG 272035Z AUTO 02011KT 8SM CLR M04/M12 A3058 RMK AO1=
KATS 272035Z AUTO 14010KT 10SM OVC014 M05/M06 A3016 RMK AO2=
KAUO 272035Z AUTO 03011G14KT 10SM CLR 11/M04 A3035 RMK AO1=
KBDU 272037Z AUTO 00000KT 3SM -SN OVC015 M08/M13 A2992 RMK AO2=
KBFW 272034Z AUTO 23005KT 10SM CLR M04/M23 A3033 RMK AO2=
KBGF 272035Z AUTO 36008KT 10SM CLR 01/M10 A3046 RMK=
KBHB 272035Z 29004KT 10SM CLR M04/M20 A3029 RMK AO1=
KBID 272035Z AUTO 26012G16KT 10SM CLR M03/M12 A3035 RMK AO1=
KBLM 272035Z AUTO 31012G15KT 10SM CLR M01/M13 A3041 RMK AO1=
KBNL 272035Z AUTO 00000KT 10SM CLR 13/01 A3034 RMK AO2=
KBTP 272035Z AUTO 29008KT 10SM CLR M10/M20 A3053 RMK AO1=
KBVU 272035Z AUTO 06007KT 10SM CLR 17/M04 A2971 RMK AO2=
KBVX 272035Z AUTO 07005KT 10SM SCT090 M03/M16 A3057 RMK AO1=
KCCU 272035Z AUTO 29011G17KT 2SM -SN OVC006 M08/M13 A2963 RMK
     AO2=
KCDD 272028Z AUTO 23007KT 193V283 10SM CLR M08/M24 A3034 RMK
     AO2=
KCDN 272035Z AUTO 00000KT 10SM CLR 12/M01 A3034 RMK AO2 TSNO=
KCGZ 272035Z AUTO 22013G20KT 10SM CLR 24/M03 A2970 RMK AO1=
KCIU 272035Z AUTO 23009G14KT 10SM CLR M09/M17 A3040 RMK AO1=
KCOD 272035Z 03004KT 10SM CLR M08/M13 A2982 RMK AO1=
KCPW 272034Z AUTO 21017G28KT 1/2SM SN OVC001 M12/M13 A2973 RMK AO2
     P0001=
KCQW 272035Z AUTO 02005KT 10SM FEW050 11/M04 A3035 RMK AO2=
KCVN 272035Z AUTO 14010KT 6SM OVC016 M10/M14 A3015 RMK AO1=
KCWI 272035Z AUTO 29006KT 10SM CLR M13/M19 A3064 RMK AO1=
KD57 272035Z AUTO 16012G19KT 10SM CLR M07/M15 A3017 RMK AO2=
KLBL 272035Z AUTO 14011KT 10SM FEW020 FEW029 BKN070 M09/M14 A3031
     RMK AO1=
KLCI 272035Z AUTO 27009KT 10SM CLR M06/M22 A3029 RMK AO1=
KLEW 272035Z AUTO 31008KT 10SM CLR M05/M21 A3029 RMK AO1=
KLMO 272034Z AUTO 00000KT 7SM BKN019 00/M13 A2996 RMK AO2
     T00001129=
KLPC 272035Z AUTO 31014G22KT 10SM BKN023 OVC028 16/09 A2987 RMK
     AO1=
KM91 272035Z AUTO 07008KT 10SM CLR M03/M12 A3055 RMK=
KMBL 272035Z AUTO 26012KT 10SM BKN028 M09/M17 A3052 RMK AO1=
KMEZ 272035Z AUTO 36006KT 1 1/4SM BKN009 OVC013 M02/M06 A3048 RMK
     AO2=
KMJX 272035Z AUTO 29008KT 10SM CLR M01/M12 A3042 RMK AO1=
KMKT 272035Z AUTO 26007KT 10SM CLR M12/M21 A3053 RMK AO1=
KMKY 272035Z AUTO 04012KT 10SM OVC017 19/13 A3012 RMK AO1=
KMML 272035Z AUTO 25006KT 10SM CLR M11/M17 A3048 RMK AO1=
KMNH 272036Z AUTO 20012KT 10SM CLR M10/M15 A2980 RMK AO2=
KMNI 272035Z AUTO 00000KT 10SM CLR 12/M01 A3034 RMK AO2=
####018003713####
SAUS70 KWBC 272038 RRD
METAR
KFPK 272035Z AUTO 26009KT 10SM OVC042 M08/M18 A3052 RMK AO2
     T10801178=
KFSE 272035Z AUTO 22010KT 10SM CLR M09/M17 A3039 RMK AO2=
KGOV 272035Z AUTO 24010KT 10SM SCT035 M09/M17 A3043 RMK AO2
     T10871171=
KHAF 272035Z AUTO 31017G21KT 7SM BKN016 OVC023 14/10 A2987 RMK
     AO2=
KHAI 272035Z AUTO 30003KT 10SM OVC039 M08/M15 A3056 RMK AO2
     T10801155=
KHCO 272021Z AUTO 23012KT 10SM CLR M09/M16 A3036 RMK AO2=
KHYX 272035Z AUTO 25009KT 10SM CLR M07/M15 A3054 RMK AO2=
KIRS 272035Z AUTO 24004KT 10SM OVC044 M09/M17 A3055 RMK AO2=
KISQ 272035Z AUTO 21007KT 10SM CLR M09/M18 A3042 RMK AO2
     T10911176=
KJYG 272035Z AUTO 21006KT 10SM CLR M11/M17 A3053 RMK AO2=
KJYM 272034Z AUTO 29006KT 10SM CLR M09/M19 A3053 RMK AO2
     T10891188=
KKLS 272035Z 19006KT 10SM FEW022 SCT032 BKN100 12/07 A2975 RMK
     AO1=
KLDM 272035Z AUTO 25008KT 10SM SCT029 M09/M16 A3054 RMK AO2
     T10881161=
KLGD 272035Z AUTO 18009KT 10SM FEW027 SCT034 BKN075 08/00 A2968
     RMK AO1=
KLKV 272035Z 31008G15KT 10SM FEW012 SCT028 BKN037 04/00 A2968 RMK
     AO1=
KLVN 272001Z AUTO 26006KT 10SM CLR M12/M19 A3052 RMK AO2=
KLWA 272035Z AUTO 26011KT 10SM BKN036 M08/M16 A3057 RMK AO2
     T10771161=
KMGN 272035Z AUTO 27009G14KT 10SM CLR M10/M16 A3046 RMK AO2
     T11031162=
KMOP 272035Z AUTO 23010G16KT 10SM BKN040 M08/M16 A3050 RMK AO2
     T10791165=
KOEB 272035Z AUTO 25007KT 10SM OVC042 M09/M18 A3055 RMK AO2
     T10881176=
KOTH 272035Z 24006KT 10SM FEW009 BKN022 OVC046 11/10 A2982 RMK AO1
     P0001=
KOWA 272035Z AUTO 21007KT 10SM CLR M13/M19 A3052 RMK AO2 PWINO=
KOZW 272034Z AUTO 25010KT 10SM CLR M09/M18 A3053 RMK AO2
     T10931185=
KPWT 272035Z AUTO 36009KT 10SM FEW027 OVC034 08/08 A2978 RMK AO1
     P0001=
KRGK 272031Z AUTO 28006KT 10SM CLR M09/M19 A3053 RMK AO2=
KRNP 272035Z AUTO 26009KT 10SM CLR M08/M17 A3054 RMK AO2
     T10841167=
KRQB 272034Z AUTO 28010G17KT 10SM SCT041 M08/M17 A3048 RMK AO2
     T10761167=
KSEM 272035Z AUTO 02010KT 10SM 10/M04 A3037 RMK AO2=
KSGU 272035Z AUTO 28003KT 10SM FEW120 13/M04 A2972 RMK AO1=
KSJX 272037Z AUTO 25012G16KT 10SM CLR M11/M16 A3045 RMK AO2
     T11101165=
KSLH 272038Z AUTO 24010G14KT 10SM CLR M10/M17 A3045 RMK AO2
     T11021169=
KSMN 272035Z AUTO 00000KT 10SM FEW050 FEW060 SCT070 01/M05 A2975
     RMK AO1=
KUKT 272035Z AUTO 31008KT 10SM CLR M04/M15 A3042 RMK AO1=
KVLL 272035Z AUTO 31007KT 10SM SCT048 M06/M20 A3055 RMK AO2
     T10611200=
PAGL 272036Z AUTO 16018KT 10SM OVC022 M01/M03 A3022 RMK AO1=
PAHP 272036Z AUTO 17019KT 9SM OVC004 M01/M03 A3014 RMK AO1=
KCFJ 272035Z AUTO 35006KT 10SM CLR M10/M23 A3060 RMK AO2
     T11001228=
KHAE 272035Z AUTO 00000KT 10SM CLR M08/M22 A3063 RMK AO2=
KHJH 272035Z AUTO 00000KT 10SM CLR M07/M20 A3047 RMK AO2
     T10671198=
KHZE 272035Z AUTO 17015G18KT 10SM CLR M06/M17 A3020 RMK AO2=
KIDI 272035Z AUTO 30007KT 10SM CLR M08/M18 A3050 RMK A01=
KIFA 272035Z AUTO 27003KT 5SM HZ CLR M13/M18 A3058 RMK AO2
     T11301185=
KJFX 272035Z AUTO 05006KT 030V010 10SM CLR 06/M06 A3045 RMK A02
     P-128=
KJKA 272035Z AUTO 06005G16KT 10SM CLR 13/00 A3028 RMK AO2
     T01300000=
KJYL 272035Z AUTO 06004KT 10SM CLR 12/04 A3034 RMK AO2
     T01150036=
KLCK 272035Z AUTO 27010KT 10SM OVC042 M07/M17 A3059 RMK AO2
     T10751167=
KMCD 272036Z AUTO 25010G21KT 10SM SCT021 M11/M16 A3045 RMK AO2
     T11131164=
KMCJ 272035Z AUTO 01007G15KT 7SM OVC018 05/00 A3030 RMK AO1=
KMMI 272035Z AUTO VRB04KT 10SM CLR 00/M09 A3047 RMK=
KMRC 272035Z AUTO 02008KT 01/M11 A3047 RMK=
KMRN 272035Z AUTO 22006KT 10SM CLR 08/M09 A3037 RMK AO2
     T00831088=
####018000094####
SAAS31 KWBC 272030 RRA
METAR
VTBS 272030Z 18008KT 9999 FEW020 SCT300 28/23 Q1010 NOSIG=
####018000889####
SAAS33 KWBC 272030 RRA
METAR
VDPP 272030Z NIL=
VDSR 272030Z NIL=
VLVT 272030Z NIL=
VTBD 272030Z 17004KT 140V200 9999 FEW020 SCT300 28/25 Q1009
     NOSIG=
VTBU 272030Z 21003KT 5000 BR FEW020 SCT300 27/22 Q1009 A2982=
VTCC 272030Z 11002KT 7000 NSC 18/10 Q1013 A2992 NOSIG=
VTSP 272030Z NIL=
VTSS 272030Z 00000KT 9999 FEW020 SCT300 23/22 Q1009 A2982
     NOSIG=
VVDN 272030Z 23004KT 7000 FEW015 BKN060 23/21 Q1011 NOSIG=
VVNB 272030Z 11006KT 3400 DZ BR FEW007 SCT013 BKN040 23/22 Q1010
     NOSIG=
VVTS 272030Z VRB03KT 9999 FEW020 26/22 Q1010 NOSIG=
WBGG 272030Z 25002KT 8000 FEW020 BKN300 25/23 Q1009 NOSIG=
WBKK 272030Z 11004KT 100V260 9999 FEW014 BKN270 25/22 Q1008
     NOSIG=
WMKK 272030Z 10003KT 9999 FEW017CB SCT140 BKN280 26/22 Q1008
     NOSIG=
WMKP 272030Z 03004KT 8000 FEW025 SCT140 BKN270 27/23 Q1008
     NOSIG=
WSSL 272030Z NIL=
####018000082####
SAAW32 KWBC 272030 RRA
METAR
OISS 272025Z 04004KT CAVOK 05/M09 Q1022 A3020=
####018000082####
SAAW32 KWBC 272000 RRD
METAR
OITT 272020Z 06004KT CAVOK 01/M04 Q1024 A3027=
####018000117####
SPJP31 KWBC 272038
SPECI
RODN 272033Z AUTO 08012KT 6SM R05/5000FT -DZ BR OVC005 17/16 A3007
RMK AO2 DZB33 $=
####018000129####
SPJP31 KWBC 272038
SPECI
RODN 272035Z AUTO 09012KT 6SM R05/5000FT -DZ BR OVC004 17/16 A3007
RMK AO2 DZB33 CIG 004V006 $=
####018000228####
SAEE31 KWBC 272030 RRA
METAR
UKKK 272030Z VRB01MPS 7000 OVC014 03/02 Q1017 08290058 NOSIG=
UMII 272030Z NIL=
UMMM 272030Z NIL=
UMMS 272030Z 00000MPS 2100 -SN BR OVC002 00/00 Q1015 R31/290060
     NOSIG RMK QBB080=
####018000135####
SAFR41 KWBC 272030 RRA
METAR
LFBA 272030Z AUTO 28006KT 9999 NSC 06/M01 Q1026=
LFSD 272030Z AUTO 32004KT 9999 NSC 02/M02 Q1023=
####018000307####
SAFR32 KWBC 272030 RRA
METAR
LFOT 272030Z 25003KT CAVOK 04/M00 Q1024 NOSIG=
LFPN 272030Z AUTO 29002KT 9999 NSC 02/M03 Q1023=
LFRC 272030Z AUTO 18007KT 9999 NSC 04/02 Q1021=
LFRK 272030Z AUTO 23007KT 9999 NSC 03/01 Q1022=
LFRQ 272030Z AUTO 18004KT 9999 FEW034 BKN072 OVC082 07/05
     Q1022=
####018000087####
SAID31 KWBC 272000 RRD
METAR
WAMM 272030Z 11001KT 9000 SCT021 24/23 Q1010 NOSIG=
####018000245####
SAFR31 KWBC 272030 RRA
METAR
LFAT 272030Z AUTO VRB03KT 9999 NSC 05/01 Q1022=
LFGJ 272030Z AUTO 28002KT 9999 NSC 04/M00 Q1023=
LFMD 272030Z AUTO VRB03KT 9999 NSC 07/04 Q1013=
LFMH 272030Z AUTO 32004KT 9999 FEW058 OVC068 03/M02 Q1022=
####018000271####
SAIO31 KWBC 272000 RRF
METAR
VYMD 272030Z NIL=
VYYY 272030Z NIL=
WBGG 272030Z 25002KT 8000 FEW020 BKN300 25/23 Q1009 NOSIG=
WBKK 272030Z 11004KT 100V260 9999 FEW014 BKN270 25/22 Q1008
     NOSIG=
WBSB 272030Z 28001KT 9999 FEW004 BKN300 26/25 Q1009 NOSIG=
####018000108####
SAIQ32 KWBC 272030 RRA
METAR
KQAZ 272030Z AUTO 13009KT 9999 CLR 21/M08 A3001 RMK CDP03565
     CLR=
####018000084####
SPSA31 KWBC 272038
SPECI
SPZO 272030Z VRB03KT 9999 SCT050 SCT150 17/04 Q1028=
####018000117####
SPXX62 KWBC 272038
SPECI
RODN 272033Z AUTO 08012KT 6SM R05/5000FT -DZ BR OVC005 17/16 A3007
RMK AO2 DZB33 $=
####018000129####
SPXX62 KWBC 272038
SPECI
RODN 272035Z AUTO 09012KT 6SM R05/5000FT -DZ BR OVC004 17/16 A3007
RMK AO2 DZB33 CIG 004V006 $=
####018000208####
SAJP31 KWBC 272030 RRA
METAR
RJAA 272030Z 31011KT CAVOK 03/M07 Q1020 NOSIG=
RJCC 272030Z 35010KT 9999 -SHSN FEW015 BKN020 BKN/// M02/M07
     Q1016=
RJTT 272030Z 31015KT CAVOK 04/M07 Q1020 NOSIG=
####018000215####
SANZ31 KWBC 272000 RRA
METAR
NZAA 272030Z AUTO 09001KT 9999 NCD 20/15 Q1018 NOSIG=
NZCH 272030Z AUTO 05005KT 010V080 9999 NCD 17/15 Q1012 NOSIG=
NZWN 272030Z AUTO 03015KT 9999 BKN028/// 18/12 Q1015 NOSIG=
####018000224####
SARA31 KWBC 272000 RRF
METAR
UMBB 272030Z NIL=
UMGG 272030Z NIL=
UMII 272030Z NIL=
UMMG 272030Z NIL=
UMMM 272030Z NIL=
UMMS 272030Z 00000MPS 2100 -SN BR OVC002 00/00 Q1015 R31/290060
     NOSIG RMK QBB080=
####018000084####
SAIN90 VOCI 272030
METAR VOCI 272030Z 00000KT 4000 HZ FEW100 26/21 Q1009 NOSIG=
####018000235####
SARE20 FMEE 272030
METAR FMCZ 272030Z AUTO 31008KT 9999 FEW012/// BKN100/// 27/25
Q1009=
METAR FMEE 272030Z AUTO 00000KT 9999 NSC 24/21 Q1008=
METAR FMEP 272030Z AUTO 05005KT 9999 SCT022/// BKN029/// BKN035///
25/20 Q1009=
####018000192####
SATS31 KWBC 272030 RRA
METAR
DTMB 272030Z 15006KT CAVOK 12/09 Q1014 NOSIG=
DTTA 272030Z 00000KT 9999 FEW026TCU 10/08 Q1014 NOSIG=
DTTJ 272030Z 23009KT 9999 FEW020 13/06 Q1015 NOSIG=
####018000217####
SAUR31 KWBC 271950 RRB
METAR
UKKK 272030Z VRB01MPS 7000 OVC014 03/02 Q1017 08290058 NOSIG=
UKKM 272030Z NIL=
UKLI 272030Z NIL=
UKLN 272030Z NIL=
UKLR 272030Z NIL=
UKLU 272030Z NIL=
UKON 272030Z NIL=
####018000278####
SAXX99 KWBC 272000 RRX
METAR
LFBE 272030Z AUTO 26006KT 9999 NSC 06/01 Q1026=
RJBB 272030Z 34012KT 9999 FEW025 SCT050 BKN/// 04/M03 Q1026
     NOSIG=
RJGG 272030Z 32020KT 9999 FEW025 05/M02 Q1024 NOSIG=
UMOO 272030Z NIL=
UTO8 M M M 999/-33/-36/2002/M/ 5004 93MM=
####018000089####
SPUS44 KWBC 272038
SPECI
KLBB 272034Z 09010KT 2SM -SN FEW000 OVC014 M08/M12 A3022=
####018000098####
SPUS53 KWBC 272038
SPECI
KLXV 272034Z AUTO 18006KT 1 1/4SM -SN BKN020 OVC030 M08/M12 A2965=
####018000089####
SPUS81 KWBC 272038
SPECI
KLBB 272034Z 09010KT 2SM -SN FEW000 OVC014 M08/M12 A3022=
####018000098####
SPUS81 KWBC 272038
SPECI
KLXV 272034Z AUTO 18006KT 1 1/4SM -SN BKN020 OVC030 M08/M12 A2965=
####018000421####
SAUK KAWN 272000 RRG
METAR EGPU 272020Z AUTO 19031KT 2600 -SHRA FEW005/// BKN008/// 06/05
      Q1000=
METAR EICK 272030Z 21008KT 0600 R17/0900N R35/0700N -DZ FG BKN001 BKN002
      09/09 Q1009 BECMG 3000 SCT001 BKN004=
METAR EIDW 272030Z 20018G28KT 170V230 9999 FEW014 SCT017 BKN050 07/04
      Q1008 NOSIG=
METAR EINN 272030Z 17013KT 8000 -DZ FEW008 BKN011 BKN015 08/07 Q1008
      TEMPO 5000 BKN007=
####018000093####
SAGL KAWN 272000 RRB
METAR BIKF 272030Z 05015KT 9999 FEW020 SCT130 OVC150 M00/M04 Q0977=
####018002944####
SAUS20 KNKA 272037
METAR K05U 272035Z AUTO 26004KT 3SM SCT026 BKN034 03/M04 A2971 RMK
 AO1=
METAR K19A 272035Z AUTO 30004KT 10SM CLR 10/M05 A3033 RMK AO2=
METAR K1A5 272035Z AUTO 00000KT 10SM 07/M14 A3032 RMK AO2 
 T00671138=
METAR K1A9 272035Z AUTO 04005KT 10SM CLR 09/M03 A3035 RMK AO2 
 T00911026=
METAR K1K1 272035Z AUTO 15004KT 2SM -SN SCT023 OVC035 M09/M14 
 A3050 RMK AO2 T10911136=
METAR K1P1 272035Z AUTO 28009G14KT 10SM CLR M06/M19 A3032 RMK AO2 
 T10591188=
METAR K2D5 272035Z AUTO 19009KT 10SM M10/M16 A3039 RMK AO2 =
METAR K2I0 272035Z AUTO 02007KT 10SM CLR M04/M13 A3060 RMK AO2 
 T10411130=
METAR K36U 272035Z AUTO 27003KT 10SM SCT044 BKN050 OVC100 03/M06 
 A2973 RMK AO2=
METAR K3D2 272035Z AUTO 25009KT 10SM CLR M09/M20 A3044 RMK AO2 
 T10921200=
METAR K3I2 272035Z AUTO 00000KT 10SM SCT043 M03/M14 A3059 RMK AO2=
METAR K3J7 272035Z AUTO 25004KT 10SM CLR 13/00 A3028 RMK AO2=
METAR K40J 272035Z AUTO 04010G17KT 10SM CLR 12/05 A3027 RMK AO2 
 T01170048=
METAR K4A9 272035Z AUTO 03005KT 10SM CLR 03/M11 A3041 RMK AO2=
METAR K4O4 272035Z AUTO 04004KT 1SM OVC008 M02/M06 A3050 RMK AO2=
METAR K5C1 272035Z AUTO 03007KT 3SM OVC006 00/M01 A3027 RMK AO1=
METAR K5T9 272035Z AUTO 05005KT 1 3/4SM BR SCT007 OVC016 02/01
 A3026 RMK A01=
METAR K65S 272035Z AUTO 09004KT 10SM OVC050 05/M08 A2988 RMK AO2=
METAR K6A2 272035Z AUTO 34004KT 10SM CLR 11/M03 A3033 RMK AO2=
METAR K6I2 272030Z AUTO 30003KT 10SM CLR M04/M16 A3057 RMK AO2=
METAR K7W4 272035Z AUTO 05003KT 10SM OVC050 02/M08 A3043 RMK AO1 
 T00181085=
METAR K82C 272035Z AUTO 27007KT 10SM CLR M09/M20 A3051 RMK AO2 
     T10881199=
METAR K82V 272035Z AUTO 18016G21KT 7SM OVC028 M08/M14 A2995 RMK 
 AO2=
METAR KAAA 272035Z AUTO 00000KT 10SM BKN027 M09/M16 A3066 RMK AO2 
 T10931157=
METAR KACQ 272019Z AUTO 21007KT 10SM CLR M11/M17 A3054 RMK AO2=
METAR KAEJ 272035Z AUTO 00000KT 7SM SCT011 BKN018 OVC070 M09/M13 
 A2975 RMK AO2 T10901134=
METAR KAJG 272035Z AUTO 34005KT 10SM CLR M05/M16 A3063 RMK AO2=
METAR KAJZ 272035Z AUTO 21004KT 10SM SCT007 BKN038 OVC060 02/00 
 A2979 RMK AO2 P0001 T00211002=
METAR KANW 272035Z AUTO 19012G17KT 10SM CLR M05/M20 A3025 RMK AO2 
 T10471200=
METAR KASN 272035Z AUTO 36006KT 10SM CLR 06/M04 A3042 RMK AO2 
 T00611042=
METAR KASW 272035Z AUTO 28005KT 10SM OVC036 M08/M15 A3057 RMK AO2=
METAR KAUN 272035Z AUTO 23006KT 10SM FEW032 14/07 A2977 RMK AO1=
METAR KAVK 272035Z AUTO 10007KT 3SM -SN CLR M09/M13 A3049 RMK AO2
 P0001=
METAR KAXS 272035Z AUTO 06009KT 2SM -SN OVC007 M07/M10 A3046 RMK 
 AO2 VIS 1 1/4V3 T10701103=
METAR KAXX 272035Z AUTO 24012G18KT 1SM -SN OVC009 M04/M07 A2980 
 RMK AO2 T10401071=
METAR KAYS 272035Z AUTO 05011G15KT 10SM CLR 13/04 A3031 RMK AO2 
 T01340042=
METAR KAZC 272035Z AUTO 25004KT 10SM OVC060 10/M05 A2975 RMK AO2 
 T01011055=
METAR KBAC 272035Z AUTO 21009KT 10SM CLR M11/M17 A3036 RMK AO2 =
####018002977####
SAUS20 KNKA 272037
METAR KBBD 272035Z AUTO 06008KT 3SM BR OVC009 M03/M04 A3028 RMK=
METAR KBCK 272035Z AUTO 26009KT 10SM CLR M09/M22 A3053 RMK AO2 
 T10911219=
METAR KBDG 272035Z AUTO 00000KT 10SM OVC014 00/M03 A2987 RMK AO1 
 T10011028=
METAR KBEA 272035Z AUTO 05010G15KT 10SM OVC020 10/04 A3023 RMK 
 AO2 T00950042=
METAR KBGE 272035Z AUTO 09007KT 10SM CLR 15/05 A3030 RMK AO2=
METAR KBHC 272035Z AUTO 06007KT 030V100 10SM SCT037 12/03 A3031 
 RMK AO2=
METAR KBKS 272035Z AUTO 04008KT 10SM OVC018 12/06 A3019 RMK AO1 
 T01190061=
METAR KBPC 272035Z AUTO 14009KT 10SM -SN OVC023 M07/M12 A3031 RMK 
 AO2=
METAR KBTA 272035Z AUTO 18003KT 10SM CLR M08/M15 A3051 RMK AO2 
 T10821153=
METAR KBVS 272035Z AUTO 34005KT 10SM BKN038 OVC055 08/08 A2983 
 RMK A01 P001=
METAR KBXK 272035Z AUTO 16005KT 10SM CLR 22/M02 A2969 RMK AO1=
METAR KBYY 272035Z AUTO 04011G16KT 7SM OVC017 06/03 A3030 RMK AO2 
 T00700034=
METAR KCCO 272035Z AUTO 36008KT 10SM CLR 09/M02 A3034 RMK AO2 
 T00941025=
METAR KCKF 272035Z AUTO 01007KT 10SM CLR 14/01 A3031 RMK AO2 
 T01400011=
METAR KCLI 272035Z AUTO 25008KT 10SM CLR M08/M21 A3048 RMK AO2=
METAR KCLK 272035Z AUTO 7SM -SN OVC018 M07/M12 A3045 RMK AO2 TSNO=
METAR KCLW 272035Z AUTO 06010KT 10SM OVC028 17/10 A3016 RMK AO2=
SPECI KCMA 272036Z 21009KT 10SM SCT023 BKN031 OVC038 18/10 A2981 RMK 
 AO2 T01780100=
METAR KCNI 272035Z AUTO 29006KT 10SM CLR 05/M08 A3036 RMK AO2=
METAR KCRX 272035Z AUTO 02007G15KT 10SM CLR 03/M11 A3048 RMK AO2=
METAR KCWV 272035Z AUTO 07006KT 10SM CLR 12/03 A3033 RMK AO2=
METAR KCXP 272035Z AUTO 26017G25KT 10SM FEW080 11/M07 A2968 RMK AO2
=
METAR KCZT 272035Z AUTO 04006KT 2 1/2SM DZ BKN006 OVC013 02/01 
 A3026 RMK AO2=
METAR KD50 272035Z AUTO 18008KT 10SM CLR M09/M16 A3013 RMK AO2 =
METAR KDPL 272035Z AUTO 01003KT 7SM SCT050 10/M03 A3039 RMK AO2 
 T00951030=
METAR KDUA 272035Z AUTO 04010KT 2 1/2SM -SN BKN010 OVC014 M03/M06 
 A3048 RMK AO2=
METAR KDUX 272035Z AUTO 15008KT 5SM -SN BKN010 OVC016 M07/M13 
 A3020 RMK AO2 T10721133=
METAR KDVO 272035Z AUTO 27010G18KT CLR 16/09 A2982 RMK AO2=
METAR KDZB 272035Z AUTO 05006KT 3SM UP BKN010 OVC017 00/M02 A3031 
 RMK AO2 T10021022=
METAR KE16 272035Z AUTO 25004KT 10SM BKN035 BKN043 BKN055 15/10
 A2985 RMK AO2=
METAR KECS 272035Z AUTO 14016G25KT 10SM OVC029 M07/M13 A2997 RMK 
     AO2=
METAR KEDE 272035Z AUTO 04006KT 10SM SCT043 08/M01 A3039 RMK AO2 
 T00781009=
METAR KEDN 272035Z AUTO 35010G14KT 10SM CLR 12/00 A3029 RMK AO2=
METAR KEDU 272035Z AUTO 28003KT 10SM CLR 18/05 A2976 RMK AO1=
METAR KEHO 272035Z AUTO 20004KT 10SM CLR 09/M05 A3034 RMK AO2 
 T00861052=
METAR KEHY 272035Z AUTO 10SM CLR M03/M11 A2970 RMK AO2=
METAR KELK 272035Z AUTO 08008KT 4SM -SN OVC016 M08/M12 A3045 RMK 
 AO2=
METAR KEQA 272035Z AUTO 12005KT 2SM -SN OVC023 M07/M13 A3050 RMK 
 AO2=
METAR KFEP 272035Z AUTO 22006KT 10SM CLR M12/M19 A3060 RMK AO2 
 T11221195=
####018000108####
SARA31 RUMS 272030
METAR UEEE 272030Z 00000MPS 5000 -SN OVC100 M26/M28 Q1014 NOSIG RMK
QFE751 23490150=
####018000503####
SARA32 RUMS 272030
METAR UHBB 272030Z NIL=
METAR UHHH 272030Z 20002MPS CAVOK M18/M19 Q1023 NOSIG RMK QFE760/1014
23090060=
METAR UHMA 272030Z NIL=
METAR UHMD 272030Z NIL=
METAR UHMM 272030Z NIL=
METAR UHPP 272030Z 01005MPS 010V080 9999 SCT020CB BKN046 M09/M15
Q1015 NOSIG RMK MT OBSC QFE758/1011 SC070=
METAR UHSS 272030Z 36009MPS 9999 SCT020CB M08/M11 Q1016 NOSIG RMK MT
OBSC QFE761/1015 01820342=
METAR UHWW 272030Z VRB02MPS 9999 SKC M09/M15 Q1030 NOSIG RMK 530005
QFE771/1028 25450255=
####018000467####
SARA36 RUMS 272030
METAR UWUU 272030Z 13002MPS CAVOK M11/M13 Q1036 141///50 NOSIG RMK
QFE766/1021=
METAR USCC 272030Z 28005MPS CAVOK M04/M13 Q1032 27000060 NOSIG RMK
QFE754=
METAR USNN 272030Z 35003MPS 9999 BKN005 M03/M03 Q1020 TEMPO 2000 BR
BKN005 RMK QFE760 QBB150 21490734=
METAR USRR 272030Z 32004MPS 7000 SCT010 BKN021 M03/M04 Q1022 TEMPO
2000 BR BKN003 RMK QFE761 25////35=
METAR USSS 272030Z 28004MPS CAVOK M02/M06 Q1031 7611//60 NOSIG RMK
QFE753=
####018000822####
SARA34 RUMS 272030
METAR UNAA 272030Z 24008MPS 9999 SCT030CB OVC066 M01/M10 Q1022 NOSIG
RMK QFE744 20190055=
METAR UNBB 272030Z 23010MPS 9999 DRSN BKN013 M04/M07 Q1024 NOSIG RMK
QFE745/0994 24450551=
METAR UNEE 272030Z 18002MPS 0900 R23/P1500 +SHSN OVC005CB M05/M05
Q1019 NOSIG RMK QFE741 23451037=
METAR UNKL 272030Z 24006G09MPS 7000 -SHSN SCT033CB OVC083 M04/M08
Q1017 NOSIG RMK QFE737 29////40=
METAR UNNT 272030Z 23007MPS 9999 BKN009 OVC020 M04/M06 Q1021 25490150
16490150 NOSIG RMK QFE756/1008=
METAR UNOO 272030Z 27004MPS CAVOK M05/M08 Q1023 25810550 NOSIG RMK
QFE759=
METAR UNTT 272030Z NIL=
METAR USTR 272030Z 32005MPS CAVOK M02/M07 Q1030 NOSIG RMK QFE762/1017
21CLRD65 30CLRD65=
METAR USHH 272030Z 30002G05MPS 260V340 9999 SCT022 OVC080 M03/M05
Q1027 TEMPO 0800 FZFG VV003 RMK QFE766 24////40=
####018000628####
SARS36 RUMS 272030
METAR ULAA 272030Z 18004G07MPS 140V240 8000 OVC007 M02/M02 Q1023
26920565 TEMPO 0300 FZFG OVC002 RMK QFE766/1021=
METAR ULMM 272030Z 20003G09MPS 150V240 9999 BKN025 00/M05 Q1008 NOSIG
RMK QFE749 13190055=
METAR ULOO 272030Z 07002MPS P6000 OVC015 01/00 Q1017 19190060 NOSIG
RMK QFE758=
METAR ULPB 272030Z NIL=
METAR UMKK 272030Z VRB01MPS 5000 BR OVC011 03/02 Q1016 R24/19//60
NOSIG RMK QFE761/1015=
METAR UUOO 272030Z 14005G08MPS 0300 R30/0750V1000U FG VV001 01/00
Q1023 NOSIG RMK 30801042 QBB040=
METAR UUYY 272030Z 00000MPS 6000 SCT200 M09/M10 Q1028 TEMPO 2000 BR
FU 01CLRD61 RMK QFE761/1015=
####018000101####
SARA35 RUMS 272030
METAR USCM 272030Z VRB02MPS 8000 SKC M02/M23 Q1033 NOSIG 19090060 RMK
QFE736=
####018000207####
SARS31 RUMS 272030
METAR ULWC 272030Z NIL=
METAR UUBP 272030Z NIL=
METAR UUOB 272030Z NIL=
METAR UUOK 272030Z NIL=
METAR UWGG 272030Z 14002MPS 5000 -SN OVC010 00/M01 Q1027 NOSIG
18190040 RMK QFE763=
####018000789####
SARS35 RUMS 272030
METAR USPP 272030Z 21004MPS CAVOK M06/M08 Q1032 21090060 NOSIG RMK
QFE763/1017=
METAR UWKD 272030Z 16004MPS 9999 OVC005 M05/M05 Q1032 R11/7/0045
TEMPO 2000 BR OVC005 RMK QFE763/1018=
METAR UWKE 272030Z 20006MPS 0500 R21/1200N FZFG VV002 M06/M07 Q1033
NOSIG RMK  QBB060 QFE757/1010 21190060=
METAR UWKS 272030Z 17006MPS 9999 OVC013 M03/M04 Q1029 NOSIG RMK
QFE757 24920555=
METAR UWLW 272030Z NIL=
METAR UWOR 272030Z NIL=
METAR UWOO 272030Z 00000MPS 0100 R08/0300N FZFG VV001 M19/M22 Q1037
08810252 NOSIG RMK QBB030 QFE767/1023=
METAR UWSS 272030Z 12002MPS 2000 FZDZ BR OVC004 M05/M05 Q1031
12390141 TEMPO 0500 FZFG RMK QFE761=
METAR UWWW 272030Z 18002MPS 0700 R23/1300U FZFG VV002 M07/M08 Q1034
23350040 15//99// TEMPO 0400 FZFG RMK QBB060 QFE764/1019=
####018000342####
SARA33 RUMS 272030
METAR UIAA 272030Z NIL=
METAR UIBB 272030Z 23005MPS 5000 -SHSN BKN020CB OVC100 M08/M10 Q1013
NOSIG RMK QFE716/0955 30490240=
METAR UIII 272030Z VRB01MPS CAVOK M18/M20 Q1020 TEMPO 1500 BR FU RMK
QFE720/0960 30450150=
METAR UIUU 272030Z VRB01MPS 5000 BR FEW043CB BKN100 M20/M22 Q1020
NOSIG RMK QFE720/0960 26820550=
####018000557####
SARS33 RUMS 272030
METAR ULLI 272030Z 11001MPS 2100 BR BKN001 OVC040 M00/M00 Q1018
60////// 10190055 TEMPO 0500 FZFG RMK QBB050 OBST OBSC=
METAR UUBW 272030Z 12006MPS 1200 R30/1200N BR OVC003 01/01 Q1021
NOSIG RMK QBB100=
METAR UUDD 272030Z 15005MPS 2500 BR OVC002 01/01 Q1020 64290095
14290095 TEMPO 1000 BR=
METAR UUDL 272030Z NIL=
METAR UUEE 272030Z 09005MPS 2500 BR OVC003 00/00 Q1020 07290145
57290151 TEMPO 1000 BR OVC002=
METAR UUWW 272030Z 12005MPS 1500 BR OVC002 00/00 Q1019 06290050 TEMPO
0700 FG RMK QBB060=
METAR UUMO 272030Z NIL=
####018000189####
SAAK41 KNKA 272037
METAR PAAD 272035Z AUTO 27021KT 6SM BR SCT029 BKN120 M05/M06 A3014
 RMK AO2=
METAR PAUT 272035Z AUTO 10009KT 7SM BKN007 OVC012 04/04 A3007 RMK 
 AO2 T00410040=
####018001891####
SAUS20 KNKA 272037
METAR KSVC 272035Z AUTO 14010G17KT 10SM CLR 08/M04 A2990 RMK AO2=
SPECI KSWO 272036Z 06005KT 3SM -SN OVC036 M08/M14 A3052 RMK AO2 SFC 
 VIS 4 P0000 T10781144=
METAR KSZT 272035Z AUTO 02013G18KT 10SM BKN065 07/M05 A2984 RMK 
 AO2=
METAR KTMK 272035Z AUTO 00000KT 3SM RA SCT016 BKN029 OVC090 11/08 
 A2973 RMK AO2 P0001=
METAR KTTA 272035Z AUTO 34006KT 10SM CLR 08/M03 A3038 RMK AO2 
 T00811030=
METAR KTYQ 272035Z AUTO 31005KT 10SM CLR M09/M19 A3060 RMK AO2 
 T10911190=
METAR KUSE 272035Z AUTO 26009KT 10SM CLR M09/M20 A3058 RMK AO2=
METAR KUVA 272035Z AUTO 04007KT 3SM BR BKN007 OVC013 02/01 A3027 
 RMK AO2 T00150005=
METAR KVBW 272035Z AUTO 03005KT 10SM CLR 01/M11 A3037 RMK AO2 
 T00051113=
METAR KVDI 272035Z AUTO 08006KT 10SM CLR 12/03 A3032 RMK AO2=
METAR KVJI 272035Z AUTO 29005KT 10SM BKN032 OVC039 00/M09 A3040 
 RMK AO2 T00011093=
METAR KVKS 272040Z AUTO 35009KT 10SM CLR 05/M03 A3040 RMK A01=
METAR KVTI 272035Z AUTO 25004KT 10SM CLR M12/M18 A3062 RMK AO2 
 T11221184=
METAR KW31 272035Z AUTO 29006KT 10SM CLR 06/M09 A3039 RMK AO1 
 T00561093=
METAR KW43 272035Z AUTO 19010G17KT 10SM CLR M05/M12 A2993 RMK AO2=
METAR KW63 272035Z AUTO 33004KT 10SM CLR 05/M07 A3040 RMK AO1=
METAR KW81 272035Z AUTO 27006KT 10SM CLR 05/M10 A3040 RMK AO1 
 T00531100=
METAR KXBP 272035Z AUTO 05007KT 2SM -SN OVC010 M05/M06 A3046 RMK 
 AO2 VIS 1 1/2V3 T10511061=
SPECI KXNA 272036Z 07007KT 2 1/2SM -SN BKN031 OVC036 M07/M14 A3050 
 RMK AO2 VIS 1 3/4V5 SNB19 P0000 T10721139=
METAR KZPH 272035Z AUTO 00000KT 10SM OVC023 15/07 A3020 RMK AO2 LTG
 DSNT SE AND S=
METAR PAAD 272035Z AUTO 27021KT 6SM BR SCT029 BKN120 M05/M06 A3014
 RMK AO2=
METAR PAUT 272035Z AUTO 10009KT 7SM BKN007 OVC012 04/04 A3007 RMK 
 AO2 T00410040=
METAR K5A6 272035Z AUTO 05009KT 10SM CLR 03/M04 A3043 RMK AO2 
     T00271043=
####018002923####
SAUS20 KNKA 272037
METAR KFOT 272035Z AUTO 34010KT 10SM FEW014 SCT050 10/09 A2989 RMK
 AO1 P0005=
METAR KFRR 272035Z AUTO 31011G14KT 10SM SCT060 00/M13 A3042 RMK 
 AO1=
METAR KFTN 272130Z AUTO 01007KT BKN006 OVC011 02/02 A3026 RMK AO1=
METAR KFVX 272035Z AUTO 28004KT 10SM CLR 08/M10 A3039 RMK AO2 
 T00801103=
METAR KFWZ 272035Z AUTO 22009KT 10SM CLR M06/M11 RMK AO2=
METAR KGCM 272035Z AUTO 05009KT 3SM -SN M08/M11 A3058 RMK AO2 SKY 
 OBSCURED=
METAR KGEV 272035Z AUTO 28006KT 10SM CLR M01/M12 A3029 RMK AO2 
 T10121122=
METAR KGOO 272040Z AUTO 29007KT 10SM BKN031 BKN046 10/02 A2977 RMK
 AO1=
METAR KGZL 272035Z AUTO 09007KT 3/4SM -SN VV005 M06/M10 A3054 RMK 
 AO2=
METAR KHBI 272035Z AUTO 00000KT 10SM SCT049 05/M05 A3040 RMK AO2 
 T00531046=
METAR KHHF 272035Z AUTO 12009KT 4SM -SN OVC021 M08/M11 A3035 RMK 
 AO2 T10761111=
METAR KHNZ 272035Z AUTO 00000KT 10SM SCT055 05/M09 A3039 RMK AO2 
 T00541086=
METAR KHVE 272035Z AUTO 00000KT 10SM CLR 07/M05 A2977 RMK AO2=
METAR KI39 272035Z AUTO 05004KT 10SM SCT033 M06/M14 A3056 RMK AO2=
METAR KICL 272035Z AUTO 00000KT 10SM CLR M07/M17 A3057 RMK AO2=
METAR KIFP 272035Z AUTO 33009KT 10SM CLR 20/M03 A2967 RMK AO2
 PWINO=
METAR KIGQ 272035Z AUTO 26009KT 10SM CLR M09/M19 A3060 RMK AO2 
 T10931190=
METAR KIPJ 272035Z AUTO 34003KT 10SM SCT050 09/M05 A3034 RMK AO2 
 T00901049=
METAR KIXA 272035Z AUTO 34005KT 10SM CLR 07/M05 A3039 RMK AO2=
METAR KJNX 272035Z AUTO 00000KT 10SM CLR 09/M03 A3038 RMK AO2=
METAR KJSV 272035Z AUTO 07003KT 1SM -SN OVC007 M05/M08 A3056 RMK 
 AO2=
METAR KJTC 272035Z AUTO 22019G25KT 10SM FEW045 BKN080 OVC090
     10/M09 A2979 RMK AO2=
METAR KLHB 272035Z AUTO 03005KT 10SM SCT028 OVC050 03/M03 A3039 
 RMK AO2 T00261032=
METAR KLHM 272035Z AUTO 17009KT 10SM CLR 18/07 A2976 RMK AO1=
METAR KLNC 272035Z AUTO 04011KT 10SM -DZ BKN014 OVC050 M02/M06 
 A3043 RMK AO2 T10211057=
METAR KLOM 272035Z AUTO 27006KT 10SM CLR M01/M13 A3042 RMK AO1=
METAR KLUA 272035Z AUTO 31004KT 10SM CLR 03/M10 A3041 RMK AO2=
METAR KLUM 272035Z AUTO 25005KT 10SM CLR M10/M18 A3052 RMK AO2 
 T10971185=
METAR KLVL 272035Z AUTO 33008KT 10SM BKN055 05/M06 A3039 RMK AO1 
 T00531065=
METAR KLZZ 272035Z AUTO 03007KT 3SM BR BKN010 OVC015 M01/M02 A3032 
 RMK AO2 T10101020=
METAR KMCC 272035Z AUTO 19005KT 10SM SCT037 17/08 A2978 RMK AO2=
METAR KMCX 272035Z AUTO 28005KT 10SM CLR M10/M17 A3062 RMK AO2 
 T10991174=
METAR KMDQ 272035Z AUTO 36008KT 10SM CLR 02/M11 A3046 RMK AO2=
METAR KMEV 272035Z AUTO 27014G25KT 10SM BKN070 OVC085 09/M08 A2971
 RMK AO2=
METAR KMFV 272035Z AUTO 34008G16KT 10SM BKN026 OVC033 00/M05 
 A3046 RMK AO2=
METAR KMHV 272035Z AUTO 23015G21KT 10SM SCT042 OVC049 14/04 A2976
 RMK AO1=
METAR KMKS 272055Z AUTO 01006KT 10SM CLR 11/00 A3034 RMK AO2=
METAR KMNZ 272035Z AUTO 03009KT 4SM BR OVC006 M03/M03 A3035 RMK 
 AO2 T10351035=
####018002941####
SAUS20 KNKA 272037
METAR KMQB 272035Z AUTO 31005KT 10SM CLR M13/M18 A3067 RMK AO2 
 T11261184=
METAR KMQS 272035Z AUTO 33011G15KT 10SM CLR M03/M12 A3042 RMK AO2=
METAR KMVH 272035Z AUTO 33010G16KT 10SM FEW036 M06/M15 A2988 RMK
 A01=
METAR KN38 272035Z AUTO VRB05G11KT 10SM CLR M08/M19 A3035 RMK AO2=
METAR KO69 272035Z AUTO 26016G22KT 10SM FEW050 15/09 A2983 RMK AO1=
METAR KO86 272030Z AUTO 16010G14KT 10SM FEW060 SCT070 12/03 A2972
 RMK AO1=
METAR KOBE 272035Z AUTO 01010G15KT 5SM BR BKN008 BKN022 OVC027 
 13/12 A3016 RMK AO2 LTG DSNT N AND W=
METAR KOKV 272035Z AUTO 30016KT 10SM CLR 00/M16 A3044 RMK AO2=
METAR KOLE 272035Z AUTO 29008G14KT 5SM HZ CLR M11/M21 A3035 RMK 
 AO2=
METAR KONX 272035Z AUTO 04009KT 10SM BKN044 03/M05 A3042 RMK AO2 
 T00331053=
METAR KOWP 272035Z AUTO 05007KT 1 1/2SM -SN OVC012 M07/M11 A3052 
 RMK AO2 T10681110=
METAR KOXI 272035Z AUTO 26007KT 10SM M09/M27 A3060 RMK AO1=
METAR KP08 272035Z AUTO 23009G19KT 190V260 10SM CLR 23/M02 A2971
     RMK AO2=
METAR KPBH 272035Z AUTO 23008KT 10SM CLR M10/M20 A3038 RMK AO2 
 T11011205=
METAR KPCZ 272035Z AUTO 27007G15KT 10SM CLR M07/M20 A3050 RMK AO2 
 T10661203=
METAR KPEZ 272035Z AUTO 01009KT 10SM -SN OVC021 04/M02 A3028 RMK 
 AO2 T00351023=
METAR KPRO 272035Z AUTO 00000KT 10SM M11/M16 A3058 RMK AO2 
 T11111163=
METAR KPSN 272035Z AUTO 04006KT 10SM OVC080 01/M06 A3042 RMK AO2 
 T00141060=
METAR KPUJ 272035Z AUTO 32006KT 10SM CLR 06/M03 A3037 RMK AO2=
METAR KPVJ 272035Z AUTO 05005KT 1SM -SN OVC010 M08/M10 A3048 RMK 
 AO2 P0001 T10781099=
METAR KRCE 272035Z AUTO 07007KT 5SM -SN FEW013 M08/M10 A3048 RMK 
 AO2 P0006=
METAR KRCZ 272035Z AUTO 22004KT 10SM 10/M02 A3035 RMK AO2 
 T01001025=
METAR KRNC 272035Z AUTO VRB04KT 10SM CLR M01/M11 A3047 RMK=
METAR KRNV 272035Z AUTO 05013G17KT 10SM CLR 01/M04 A3046 RMK AO2 
 T00131040=
METAR KRPD 272035Z AUTO 26005KT 10SM CLR M11/M20 A3049 RMK AO2 
 T11061204=
METAR KRSN 272035Z AUTO 01007KT 10SM OVC090 03/M05 A3049 RMK AO2 
 T00311050=
SPECI KRTN 272036Z AUTO 19014KT 1 3/4SM -SN OVC012 M10/M13 A2993 RMK 
 AO2 P0000 T11001128=
METAR KRTS 272035Z AUTO 27018G25KT 10SM FEW070 FEW100 09/M05 A2967
 RMK AO2=
METAR KRYW 272035Z AUTO 04009KT 4SM UP OVC018 00/M03 A3030 RMK 
 AO2 T00001030=
METAR KRZL 272035Z AUTO 28004KT 10SM CLR M08/M17 A3061 RMK AO2=
METAR KS39 272040Z AUTO 27006KT 10SM FEW017 SCT022 BKN033 05/02
 A2967 RMK AO2=
METAR KSAA 272035Z AUTO 00000KT 10SM SCT060 M03/M11 A2975 RMK AO2=
METAR KSCD 272035Z AUTO 02005KT 10SM CLR 07/M04 A3040 RMK AO2 
     T00681039=
METAR KSEP 272035Z AUTO 02008KT 7SM OVC010 M05/M06 A3039 RMK AO2 
 T10471065=
METAR KSIF 272035Z AUTO 31003KT 10SM CLR 07/M08 A3038 RMK AO2 
 T00651081=
METAR KSJS 272035Z AUTO 03006KT 10SM BKN043 M03/M13 A3052 RMK AO2 
 T10341133=
METAR KSNL 272035Z AUTO 04003KT 1 1/4SM -SN VV007 M05/M07 A3051 
 RMK AO2=
####018000119####
SPCN52 CWAO 272038
SPECI CZUM 272038Z AUTO 27009G15KT 6SM -SN FEW023 BKN030 OVC035
 M24/M29 A2972 RMK SLP122=

####018003677####
SAUS99 KWBC 272039
METAR
PAAK 272036Z 29020G25KT 10SM FEW017 FEW029 OVC065 03/00 A2999 RMK
     AO1=
PABL 272036Z AUTO 18016G26KT 10SM SCT025 SCT030 BKN042 01/M04
     A3018 RMK AO1=
PABV 272036Z AUTO 00000KT 10SM CLR M05/M06 A3046 RMK AO1=
PADK 272036Z AUTO 35011KT 10SM BKN041 02/M04 A3011 RMK AO1=
PAEM 272036Z AUTO 16018G23KT 10SM BKN009 OVC034 M01/M03 A3016 RMK
     AO1=
PAFE 272036Z AUTO 00000KT 10SM CLR 06/M01 A3042 RMK AO1=
PAFM 272036Z AUTO 20007KT 9SM BKN014 OVC023 M01/M02 A3026 RMK
     AO1=
PAGL 272036Z AUTO 16018KT 10SM OVC022 M01/M03 A3022 RMK AO1=
PAGS 272036Z AUTO 00000KT 10SM CLR 05/M02 A3044 RMK AO1 PNO=
PAHL 272036Z AUTO 17008KT 10SM OVC028 M01/M04 A3031 RMK AO1=
PAHP 272036Z AUTO 17019KT 9SM OVC004 M01/M03 A3014 RMK AO1=
PAHY 272036Z AUTO 10SM CLR 08/M03 A3031 RMK AO1=
PAII 272036Z AUTO 13008KT 10SM BKN075 OVC080 02/01 A3032 RMK
     AO1=
PAIN 272036Z AUTO 00000KT 10SM CLR M09/M13 A3040 RMK AO1=
PAJC 272036Z AUTO 14007G14KT 9SM BKN012 OVC020 03/00 A3028 RMK AO1
     P0002=
PAKK 272036Z AUTO 19013KT 10SM OVC021 A3023 RMK AO1=
PAKP 272036Z AUTO 23012KT 7SM FEW016 BKN095 M06/M10 A3014 RMK
     AO1=
PAMD 272036Z 11006KT 10SM OVC013 05/03 A3045 RMK AO1=
PAMH 272036Z AUTO 00000KT 10SM CLR M12/M14 A3036 RMK AO1=
PAMM 272036Z AUTO 34008KT 10SM CLR 08/M04 A3032 RMK AO1=
PANI 272036Z AUTO 12008KT 10SM CLR M05/M08 A3033 RMK AO1=
PANV 272036Z AUTO 16006KT 10SM OVC020 M02/M06 A3027 RMK AO1=
PAPH 272036Z AUTO 14018KT 10SM OVC075 04/M02 A3025 RMK AO1=
PARC 272036Z AUTO 00000KT 10SM CLR M20/ A3011 RMK AO1=
PASD 272036Z 04004KT 10SM SCT012 BKN016 OVC020 04/04 A3020 RMK AO1
     WEA: -RA (KH)=
PASK 272036Z AUTO 21014G21KT 10SM OVC060 01/M02 A3020 RMK AO1=
PASL 272036Z AUTO 15005KT 10SM OVC009 M05/M11 A3039 RMK AO1=
PASM 272036Z AUTO 16013G18KT 10SM SCT014 OVC030 M02/M06 A3022 RMK
     AO1=
PATG 272036Z AUTO 08004KT 10SM OVC014 01/M02 A3031 RMK AO1=
PAUN 272036Z AUTO 17010KT 10SM OVC024 M01/M04 A3029 RMK AO1=
PAWG 272036Z 32009KT 10SM CLR 06/M03 A3039 RMK AO1 WEA:NONE
     (KB)=
PAWS 272036Z AUTO 00000KT 10SM CLR M03/M09 A3042 RMK AO1=
PAZK 272036Z AUTO 07005KT 10SM CLR M12/M13 A3035 RMK AO1=
PFYU 272036Z 24008KT 10SM CLR M02/M06 A3032 RMK AO1 SCT CI ABV
     120=
K05U 272035Z AUTO 26004KT 3SM SCT026 BKN034 03/M04 A2971 RMK
     AO1=
K19A 272035Z AUTO 30004KT 10SM CLR 10/M05 A3033 RMK AO2=
K1A5 272035Z AUTO 00000KT 10SM 07/M14 A3032 RMK AO2 T00671138=
K1A9 272035Z AUTO 04005KT 10SM CLR 09/M03 A3035 RMK AO2
     T00911026=
K1K1 272035Z AUTO 15004KT 2SM -SN SCT023 OVC035 M09/M14 A3050 RMK
     AO2 T10911136=
K1P1 272035Z AUTO 28009G14KT 10SM CLR M06/M19 A3032 RMK AO2
     T10591188=
K2D5 272035Z AUTO 19009KT 10SM M10/M16 A3039 RMK AO2=
K2I0 272035Z AUTO 02007KT 10SM CLR M04/M13 A3060 RMK AO2
     T10411130=
K36U 272035Z AUTO 27003KT 10SM SCT044 BKN050 OVC100 03/M06 A2973
     RMK AO2=
K3D2 272035Z AUTO 25009KT 10SM CLR M09/M20 A3044 RMK AO2
     T10921200=
K3I2 272035Z AUTO 00000KT 10SM SCT043 M03/M14 A3059 RMK AO2=
K3J7 272035Z AUTO 25004KT 10SM CLR 13/00 A3028 RMK AO2=
K40J 272035Z AUTO 04010G17KT 10SM CLR 12/05 A3027 RMK AO2
     T01170048=
K4A9 272035Z AUTO 03005KT 10SM CLR 03/M11 A3041 RMK AO2=
K4O4 272035Z AUTO 04004KT 1SM OVC008 M02/M06 A3050 RMK AO2=
K5C1 272035Z AUTO 03007KT 3SM OVC006 00/M01 A3027 RMK AO1=
K5T9 272035Z AUTO 05005KT 1 3/4SM BR SCT007 OVC016 02/01 A3026 RMK
     A01=
K65S 272035Z AUTO 09004KT 10SM OVC050 05/M08 A2988 RMK AO2=
K6A2 272035Z AUTO 34004KT 10SM CLR 11/M03 A3033 RMK AO2=
K6I2 272030Z AUTO 30003KT 10SM CLR M04/M16 A3057 RMK AO2=
####018003741####
SAUS99 KWBC 272039 RRA
METAR
K7W4 272035Z AUTO 05003KT 10SM OVC050 02/M08 A3043 RMK AO1
     T00181085=
K82C 272035Z AUTO 27007KT 10SM CLR M09/M20 A3051 RMK AO2
     T10881199=
K82V 272035Z AUTO 18016G21KT 7SM OVC028 M08/M14 A2995 RMK AO2=
KAAA 272035Z AUTO 00000KT 10SM BKN027 M09/M16 A3066 RMK AO2
     T10931157=
KACQ 272019Z AUTO 21007KT 10SM CLR M11/M17 A3054 RMK AO2=
KAEJ 272035Z AUTO 00000KT 7SM SCT011 BKN018 OVC070 M09/M13 A2975
     RMK AO2 T10901134=
KAJG 272035Z AUTO 34005KT 10SM CLR M05/M16 A3063 RMK AO2=
KAJZ 272035Z AUTO 21004KT 10SM SCT007 BKN038 OVC060 02/00 A2979
     RMK AO2 P0001 T00211002=
KANW 272035Z AUTO 19012G17KT 10SM CLR M05/M20 A3025 RMK AO2
     T10471200=
KASN 272035Z AUTO 36006KT 10SM CLR 06/M04 A3042 RMK AO2
     T00611042=
KASW 272035Z AUTO 28005KT 10SM OVC036 M08/M15 A3057 RMK AO2=
KAUN 272035Z AUTO 23006KT 10SM FEW032 14/07 A2977 RMK AO1=
KAVK 272035Z AUTO 10007KT 3SM -SN CLR M09/M13 A3049 RMK AO2
     P0001=
KAXS 272035Z AUTO 06009KT 2SM -SN OVC007 M07/M10 A3046 RMK AO2 VIS
     1 1/4V3 T10701103=
KAXX 272035Z AUTO 24012G18KT 1SM -SN OVC009 M04/M07 A2980 RMK AO2
     T10401071=
KAYS 272035Z AUTO 05011G15KT 10SM CLR 13/04 A3031 RMK AO2
     T01340042=
KAZC 272035Z AUTO 25004KT 10SM OVC060 10/M05 A2975 RMK AO2
     T01011055=
KBAC 272035Z AUTO 21009KT 10SM CLR M11/M17 A3036 RMK AO2=
KBBD 272035Z AUTO 06008KT 3SM BR OVC009 M03/M04 A3028 RMK=
KBCK 272035Z AUTO 26009KT 10SM CLR M09/M22 A3053 RMK AO2
     T10911219=
KBDG 272035Z AUTO 00000KT 10SM OVC014 00/M03 A2987 RMK AO1
     T10011028=
KBEA 272035Z AUTO 05010G15KT 10SM OVC020 10/04 A3023 RMK AO2
     T00950042=
KBGE 272035Z AUTO 09007KT 10SM CLR 15/05 A3030 RMK AO2=
KBHC 272035Z AUTO 06007KT 030V100 10SM SCT037 12/03 A3031 RMK
     AO2=
KBKS 272035Z AUTO 04008KT 10SM OVC018 12/06 A3019 RMK AO1
     T01190061=
KBPC 272035Z AUTO 14009KT 10SM -SN OVC023 M07/M12 A3031 RMK
     AO2=
KBTA 272035Z AUTO 18003KT 10SM CLR M08/M15 A3051 RMK AO2
     T10821153=
KBVS 272035Z AUTO 34005KT 10SM BKN038 OVC055 08/08 A2983 RMK A01
     P001=
KBXK 272035Z AUTO 16005KT 10SM CLR 22/M02 A2969 RMK AO1=
KBYY 272035Z AUTO 04011G16KT 7SM OVC017 06/03 A3030 RMK AO2
     T00700034=
KCCO 272035Z AUTO 36008KT 10SM CLR 09/M02 A3034 RMK AO2
     T00941025=
KCKF 272035Z AUTO 01007KT 10SM CLR 14/01 A3031 RMK AO2
     T01400011=
KCLI 272035Z AUTO 25008KT 10SM CLR M08/M21 A3048 RMK AO2=
KCLK 272035Z AUTO 7SM -SN OVC018 M07/M12 A3045 RMK AO2 TSNO=
KCLW 272035Z AUTO 06010KT 10SM OVC028 17/10 A3016 RMK AO2=
KCNI 272035Z AUTO 29006KT 10SM CLR 05/M08 A3036 RMK AO2=
KCRX 272035Z AUTO 02007G15KT 10SM CLR 03/M11 A3048 RMK AO2=
KCWV 272035Z AUTO 07006KT 10SM CLR 12/03 A3033 RMK AO2=
KCXP 272035Z AUTO 26017G25KT 10SM FEW080 11/M07 A2968 RMK AO2=
KCZT 272035Z AUTO 04006KT 2 1/2SM DZ BKN006 OVC013 02/01 A3026 RMK
     AO2=
KD50 272035Z AUTO 18008KT 10SM CLR M09/M16 A3013 RMK AO2=
KDPL 272035Z AUTO 01003KT 7SM SCT050 10/M03 A3039 RMK AO2
     T00951030=
KDUA 272035Z AUTO 04010KT 2 1/2SM -SN BKN010 OVC014 M03/M06 A3048
     RMK AO2=
KDUX 272035Z AUTO 15008KT 5SM -SN BKN010 OVC016 M07/M13 A3020 RMK
     AO2 T10721133=
KDVO 272035Z AUTO 27010G18KT CLR 16/09 A2982 RMK AO2=
KDZB 272035Z AUTO 05006KT 3SM UP BKN010 OVC017 00/M02 A3031 RMK
     AO2 T10021022=
KE16 272035Z AUTO 25004KT 10SM BKN035 BKN043 BKN055 15/10 A2985
     RMK AO2=
KECS 272035Z AUTO 14016G25KT 10SM OVC029 M07/M13 A2997 RMK AO2=
KEDE 272035Z AUTO 04006KT 10SM SCT043 08/M01 A3039 RMK AO2
     T00781009=
KEDN 272035Z AUTO 35010G14KT 10SM CLR 12/00 A3029 RMK AO2=
KEDU 272035Z AUTO 28003KT 10SM CLR 18/05 A2976 RMK AO1=
####018003693####
SAUS99 KWBC 272039 RRB
METAR
KEHO 272035Z AUTO 20004KT 10SM CLR 09/M05 A3034 RMK AO2
     T00861052=
KEHY 272035Z AUTO 10SM CLR M03/M11 A2970 RMK AO2=
KELK 272035Z AUTO 08008KT 4SM -SN OVC016 M08/M12 A3045 RMK AO2=
KEQA 272035Z AUTO 12005KT 2SM -SN OVC023 M07/M13 A3050 RMK AO2=
KFEP 272035Z AUTO 22006KT 10SM CLR M12/M19 A3060 RMK AO2
     T11221195=
PAAD 272035Z AUTO 27021KT 6SM BR SCT029 BKN120 M05/M06 A3014 RMK
     AO2=
PAUT 272035Z AUTO 10009KT 7SM BKN007 OVC012 04/04 A3007 RMK AO2
     T00410040=
KFOT 272035Z AUTO 34010KT 10SM FEW014 SCT050 10/09 A2989 RMK AO1
     P0005=
KFRR 272035Z AUTO 31011G14KT 10SM SCT060 00/M13 A3042 RMK AO1=
KFTN 272130Z AUTO 01007KT BKN006 OVC011 02/02 A3026 RMK AO1=
KFVX 272035Z AUTO 28004KT 10SM CLR 08/M10 A3039 RMK AO2
     T00801103=
KFWZ 272035Z AUTO 22009KT 10SM CLR M06/M11 RMK AO2=
KGCM 272035Z AUTO 05009KT 3SM -SN M08/M11 A3058 RMK AO2 SKY
     OBSCURED=
KGEV 272035Z AUTO 28006KT 10SM CLR M01/M12 A3029 RMK AO2
     T10121122=
KGOO 272040Z AUTO 29007KT 10SM BKN031 BKN046 10/02 A2977 RMK
     AO1=
KGZL 272035Z AUTO 09007KT 3/4SM -SN VV005 M06/M10 A3054 RMK
     AO2=
KHBI 272035Z AUTO 00000KT 10SM SCT049 05/M05 A3040 RMK AO2
     T00531046=
KHHF 272035Z AUTO 12009KT 4SM -SN OVC021 M08/M11 A3035 RMK AO2
     T10761111=
KHNZ 272035Z AUTO 00000KT 10SM SCT055 05/M09 A3039 RMK AO2
     T00541086=
KHVE 272035Z AUTO 00000KT 10SM CLR 07/M05 A2977 RMK AO2=
KI39 272035Z AUTO 05004KT 10SM SCT033 M06/M14 A3056 RMK AO2=
KICL 272035Z AUTO 00000KT 10SM CLR M07/M17 A3057 RMK AO2=
KIFP 272035Z AUTO 33009KT 10SM CLR 20/M03 A2967 RMK AO2 PWINO=
KIGQ 272035Z AUTO 26009KT 10SM CLR M09/M19 A3060 RMK AO2
     T10931190=
KIPJ 272035Z AUTO 34003KT 10SM SCT050 09/M05 A3034 RMK AO2
     T00901049=
KIXA 272035Z AUTO 34005KT 10SM CLR 07/M05 A3039 RMK AO2=
KJNX 272035Z AUTO 00000KT 10SM CLR 09/M03 A3038 RMK AO2=
KJSV 272035Z AUTO 07003KT 1SM -SN OVC007 M05/M08 A3056 RMK AO2=
KJTC 272035Z AUTO 22019G25KT 10SM FEW045 BKN080 OVC090 10/M09
     A2979 RMK AO2=
KLHB 272035Z AUTO 03005KT 10SM SCT028 OVC050 03/M03 A3039 RMK AO2
     T00261032=
KLHM 272035Z AUTO 17009KT 10SM CLR 18/07 A2976 RMK AO1=
KLNC 272035Z AUTO 04011KT 10SM -DZ BKN014 OVC050 M02/M06 A3043 RMK
     AO2 T10211057=
KLOM 272035Z AUTO 27006KT 10SM CLR M01/M13 A3042 RMK AO1=
KLUA 272035Z AUTO 31004KT 10SM CLR 03/M10 A3041 RMK AO2=
KLUM 272035Z AUTO 25005KT 10SM CLR M10/M18 A3052 RMK AO2
     T10971185=
KLVL 272035Z AUTO 33008KT 10SM BKN055 05/M06 A3039 RMK AO1
     T00531065=
KLZZ 272035Z AUTO 03007KT 3SM BR BKN010 OVC015 M01/M02 A3032 RMK
     AO2 T10101020=
KMCC 272035Z AUTO 19005KT 10SM SCT037 17/08 A2978 RMK AO2=
KMCX 272035Z AUTO 28005KT 10SM CLR M10/M17 A3062 RMK AO2
     T10991174=
KMDQ 272035Z AUTO 36008KT 10SM CLR 02/M11 A3046 RMK AO2=
KMEV 272035Z AUTO 27014G25KT 10SM BKN070 OVC085 09/M08 A2971 RMK
     AO2=
KMFV 272035Z AUTO 34008G16KT 10SM BKN026 OVC033 00/M05 A3046 RMK
     AO2=
KMHV 272035Z AUTO 23015G21KT 10SM SCT042 OVC049 14/04 A2976 RMK
     AO1=
KMKS 272055Z AUTO 01006KT 10SM CLR 11/00 A3034 RMK AO2=
KMNZ 272035Z AUTO 03009KT 4SM BR OVC006 M03/M03 A3035 RMK AO2
     T10351035=
KSVC 272035Z AUTO 14010G17KT 10SM CLR 08/M04 A2990 RMK AO2=
KSZT 272035Z AUTO 02013G18KT 10SM BKN065 07/M05 A2984 RMK AO2=
KTMK 272035Z AUTO 00000KT 3SM RA SCT016 BKN029 OVC090 11/08 A2973
     RMK AO2 P0001=
KTTA 272035Z AUTO 34006KT 10SM CLR 08/M03 A3038 RMK AO2
     T00811030=
KTYQ 272035Z AUTO 31005KT 10SM CLR M09/M19 A3060 RMK AO2
     T10911190=
KUSE 272035Z AUTO 26009KT 10SM CLR M09/M20 A3058 RMK AO2=
####018003672####
SAUS99 KWBC 272039 RRC
METAR
KUVA 272035Z AUTO 04007KT 3SM BR BKN007 OVC013 02/01 A3027 RMK AO2
     T00150005=
KVBW 272035Z AUTO 03005KT 10SM CLR 01/M11 A3037 RMK AO2
     T00051113=
KVDI 272035Z AUTO 08006KT 10SM CLR 12/03 A3032 RMK AO2=
KVJI 272035Z AUTO 29005KT 10SM BKN032 OVC039 00/M09 A3040 RMK AO2
     T00011093=
KVKS 272040Z AUTO 35009KT 10SM CLR 05/M03 A3040 RMK A01=
KVTI 272035Z AUTO 25004KT 10SM CLR M12/M18 A3062 RMK AO2
     T11221184=
KW31 272035Z AUTO 29006KT 10SM CLR 06/M09 A3039 RMK AO1
     T00561093=
KW43 272035Z AUTO 19010G17KT 10SM CLR M05/M12 A2993 RMK AO2=
KW63 272035Z AUTO 33004KT 10SM CLR 05/M07 A3040 RMK AO1=
KW81 272035Z AUTO 27006KT 10SM CLR 05/M10 A3040 RMK AO1
     T00531100=
KXBP 272035Z AUTO 05007KT 2SM -SN OVC010 M05/M06 A3046 RMK AO2 VIS
     1 1/2V3 T10511061=
KZPH 272035Z AUTO 00000KT 10SM OVC023 15/07 A3020 RMK AO2 LTG DSNT
     SE AND S=
PAAD 272035Z AUTO 27021KT 6SM BR SCT029 BKN120 M05/M06 A3014 RMK
     AO2=
PAUT 272035Z AUTO 10009KT 7SM BKN007 OVC012 04/04 A3007 RMK AO2
     T00410040=
K5A6 272035Z AUTO 05009KT 10SM CLR 03/M04 A3043 RMK AO2
     T00271043=
KMQB 272035Z AUTO 31005KT 10SM CLR M13/M18 A3067 RMK AO2
     T11261184=
KMQS 272035Z AUTO 33011G15KT 10SM CLR M03/M12 A3042 RMK AO2=
KMVH 272035Z AUTO 33010G16KT 10SM FEW036 M06/M15 A2988 RMK A01=
KN38 272035Z AUTO VRB05G11KT 10SM CLR M08/M19 A3035 RMK AO2=
KO69 272035Z AUTO 26016G22KT 10SM FEW050 15/09 A2983 RMK AO1=
KO86 272030Z AUTO 16010G14KT 10SM FEW060 SCT070 12/03 A2972 RMK
     AO1=
KOBE 272035Z AUTO 01010G15KT 5SM BR BKN008 BKN022 OVC027 13/12
     A3016 RMK AO2 LTG DSNT N AND W=
KOKV 272035Z AUTO 30016KT 10SM CLR 00/M16 A3044 RMK AO2=
KOLE 272035Z AUTO 29008G14KT 5SM HZ CLR M11/M21 A3035 RMK AO2=
KONX 272035Z AUTO 04009KT 10SM BKN044 03/M05 A3042 RMK AO2
     T00331053=
KOWP 272035Z AUTO 05007KT 1 1/2SM -SN OVC012 M07/M11 A3052 RMK AO2
     T10681110=
KOXI 272035Z AUTO 26007KT 10SM M09/M27 A3060 RMK AO1=
KP08 272035Z AUTO 23009G19KT 190V260 10SM CLR 23/M02 A2971 RMK
     AO2=
KPBH 272035Z AUTO 23008KT 10SM CLR M10/M20 A3038 RMK AO2
     T11011205=
KPCZ 272035Z AUTO 27007G15KT 10SM CLR M07/M20 A3050 RMK AO2
     T10661203=
KPEZ 272035Z AUTO 01009KT 10SM -SN OVC021 04/M02 A3028 RMK AO2
     T00351023=
KPRO 272035Z AUTO 00000KT 10SM M11/M16 A3058 RMK AO2 T11111163=
KPSN 272035Z AUTO 04006KT 10SM OVC080 01/M06 A3042 RMK AO2
     T00141060=
KPUJ 272035Z AUTO 32006KT 10SM CLR 06/M03 A3037 RMK AO2=
KPVJ 272035Z AUTO 05005KT 1SM -SN OVC010 M08/M10 A3048 RMK AO2
     P0001 T10781099=
KRCE 272035Z AUTO 07007KT 5SM -SN FEW013 M08/M10 A3048 RMK AO2
     P0006=
KRCZ 272035Z AUTO 22004KT 10SM 10/M02 A3035 RMK AO2 T01001025=
KRNC 272035Z AUTO VRB04KT 10SM CLR M01/M11 A3047 RMK=
KRNV 272035Z AUTO 05013G17KT 10SM CLR 01/M04 A3046 RMK AO2
     T00131040=
KRPD 272035Z AUTO 26005KT 10SM CLR M11/M20 A3049 RMK AO2
     T11061204=
KRSN 272035Z AUTO 01007KT 10SM OVC090 03/M05 A3049 RMK AO2
     T00311050=
KRTS 272035Z AUTO 27018G25KT 10SM FEW070 FEW100 09/M05 A2967 RMK
     AO2=
KRYW 272035Z AUTO 04009KT 4SM UP OVC018 00/M03 A3030 RMK AO2
     T00001030=
KRZL 272035Z AUTO 28004KT 10SM CLR M08/M17 A3061 RMK AO2=
KS39 272040Z AUTO 27006KT 10SM FEW017 SCT022 BKN033 05/02 A2967
     RMK AO2=
KSAA 272035Z AUTO 00000KT 10SM SCT060 M03/M11 A2975 RMK AO2=
KSCD 272035Z AUTO 02005KT 10SM CLR 07/M04 A3040 RMK AO2
     T00681039=
KSEP 272035Z AUTO 02008KT 7SM OVC010 M05/M06 A3039 RMK AO2
     T10471065=
KSIF 272035Z AUTO 31003KT 10SM CLR 07/M08 A3038 RMK AO2
     T00651081=
####018000189####
SAUS99 KWBC 272039 RRD
METAR
KSJS 272035Z AUTO 03006KT 10SM BKN043 M03/M13 A3052 RMK AO2
     T10341133=
KSNL 272035Z AUTO 04003KT 1 1/4SM -SN VV007 M05/M07 A3051 RMK
     AO2=
####018000416####
SPUS99 KWBC 272039
SPECI
KCMA 272036Z 21009KT 10SM SCT023 BKN031 OVC038 18/10 A2981 RMK AO2
     T01780100=
KSWO 272036Z 06005KT 3SM -SN OVC036 M08/M14 A3052 RMK AO2 SFC VIS
     4 P0000 T10781144=
KXNA 272036Z 07007KT 2 1/2SM -SN BKN031 OVC036 M07/M14 A3050 RMK
     AO2 VIS 1 3/4V5 SNB19 P0000 T10721139=
KRTN 272036Z AUTO 19014KT 1 3/4SM -SN OVC012 M10/M13 A2993 RMK AO2
     P0000 T11001128=
####018000087####
SAAK32 KWBC 272000 RRB
METAR
PADK 272036Z AUTO 35011KT 10SM BKN041 02/M04 A3011=
####018000080####
SPUS42 KWBC 272039
SPECI
KFPR 272035Z 35007KT 2SM -RA OVC007 15/14 A3015=
####018000077####
SPUS42 KWBC 272039
SPECI
KEYW 272035Z 03010KT 10SM BKN009 23/20 A3007=
####018000136####
SAUS41 KWBC 272000 RRD
METAR
KPQI 272035Z AUTO 27011KT 10SM CLR M08/M26 A3017=
KWDR 272035Z AUTO 35004KT 10SM CLR 11/M04 A3036=
####018000933####
SARS32 RUMS 272030
METAR URKA 272030Z NIL=
METAR URKK 272030Z 07008G11MPS CAVOK 05/03 Q1015 NOSIG RMK QFE758
SC065=
METAR URML 272030Z NIL=
METAR URMM 272030Z 11009G12MPS 3500 -DZ BR OVC003 03/02 Q1017
R12/290050 NOSIG RMK QBB110 MT OBSC QFE735/0980=
METAR URMN 272030Z NIL=
METAR URMO 272030Z NIL=
METAR URMT 272030Z 11009G12MPS 0150 R07/0450N FG VV001 02/02 Q1016
NOSIG RMK QBB040 OBST OBSC QFE722 SC060=
METAR URRR 272030Z 10009G12MPS P8000 BKN009 BKN100 03/02 Q1020
04CLRD70 TEMPO 09012G17MPS=
METAR URSS 272030Z 07004MPS 9999 BKN230 10/02 Q1010 NOSIG RMK
R02/05005MPS QFE757 06000070 02//////=
METAR URWA 272030Z 08004MPS 8000 SCT003 M03/M04 Q1029 NOSIG RMK
QBB100 OBST OBSC QFE773/1031 SC060=
METAR URWI 272030Z NIL=
METAR URWW 272030Z 08005MPS 0600 R11/P1500 FZFG OVC003 M01/M01 Q1027
NOSIG RMK QBB090 OBST OBSC 11290055=
METAR URFF 272030Z 07006MPS CAVOK 10/04 Q1012 01010065 NOSIG=
####018000113####
SPUS43 KWBC 272039
SPECI
KGRR 272035Z 26012KT 1 1/4SM R26L/3500VP6000FT -SN BKN019 OVC035
M08/M12 A3054=
####018000244####
SAUS43 KWBC 272000 RRF
METAR
KCIU 272035Z AUTO 23009G14KT 10SM CLR M09/M17 A3040=
KDKB 272035Z AUTO 25006KT 10SM CLR M13/M20 A3059=
KELO 272033Z AUTO 28005KT 10SM CLR M07/M24 A3030=
KPHN 272038Z AUTO 29006KT 10SM CLR M09/M19 A3055=
####018000088####
SAUS44 KWBC 272000 RRD
METAR
KGDV 272035Z AUTO 19014G19KT 10SM CLR M02/M14 A3003=
####018000088####
SPUS53 KWBC 272039
SPECI
KGCK 272035Z 17014KT 4SM HZ BKN023 OVC032 M10/M14 A3030=
####018000094####
SPUS53 KWBC 272039
SPECI
KGLD 272035Z AUTO 16018KT 2SM -SN FEW016 OVC026 M08/M12 A3019=
####018000098####
SPUS54 KWBC 272039
SPECI
KAST 272035Z AUTO 35003KT 1 3/4SM RA BR BKN018 OVC024 09/08 A2971=
####018000235####
SAUS53 KWBC 272000 RRH
METAR
KDVL 272035Z AUTO 22010KT 10SM CLR M11/M17 A3030=
KEAR 272035Z 13004KT 10SM CLR M06/M20 A3037=
KGPZ 272035Z AUTO 23006KT 10SM CLR M08/M21 A3035=
KUDG 272035Z AUTO 32003KT 10SM CLR 12/M02 A3035=
####018000130####
SAUS54 KWBC 272000 RRE
METAR
KMWS 272030Z 23500G00KT MM/07=
KSOW 272035Z AUTO 20019G29KT 10SM FEW075 OVC090 10/M08 A2978=
####018000098####
SPUS81 KWBC 272039
SPECI
KAST 272035Z AUTO 35003KT 1 3/4SM RA BR BKN018 OVC024 09/08 A2971=
####018000231####
SAAO32 GOOY 272030
METAR GABS 272030Z 05007KT 4000 DU NSC 26/M09 Q1015 NOSIG=
METAR GAGO 272030Z NIL=
METAR GAKY 272030Z NIL=
METAR GAKL 272030Z NIL=
METAR GAMB 272030Z NIL=
METAR GANR 272030Z NIL=
METAR GATB 272030Z NIL=
####018000113####
SPUS81 KWBC 272039
SPECI
KGRR 272035Z 26012KT 1 1/4SM R26L/3500VP6000FT -SN BKN019 OVC035
M08/M12 A3054=
####018000089####
SPAG SARI 272035
SPECI SARI 272035Z  18008KT 9999  SCT020 BKN070
25/23 Q1011 RETS=
####018001613####
SARS18 KAWN 272000 RRG
METAR UAAA 272030Z 15003MPS 2200 BR FU SCT100 M04/M07 Q1032 R88/65D
      NOSIG=
METAR UACC 272030Z 23004MPS CAVOK M13/M15 Q1033 R22/0/0070 NOSIG RMK
      QFE743/0991=
METAR UATE 272030Z 11007MPS CAVOK M02/M04 Q1030 R12/0///70 NOSIG RMK
      QFE770/1027=
METAR UATT 272030Z 14002MPS 3000 BR NSC M17/M19 Q1037 R13/0///60 NOSIG
      RMK QFE758/1010=
METAR UHPP 272030Z 01005MPS 010V080 9999 SCT020CB BKN046 M09/M15 Q1015
      NOSIG RMK MT OBSC QFE758/1011 SC070=
METAR UHSS 272030Z 36009MPS 9999 SCT020CB M08/M11 Q1016 NOSIG RMK MT
      OBSC QFE761/1015 01820342=
METAR UHWW 272030Z VRB02MPS 9999 SKC M09/M15 Q1030 NOSIG RMK 530005
      QFE771/1028 25450255=
METAR UIII 272030Z VRB01MPS CAVOK M18/M20 Q1020 TEMPO 1500 BR FU RMK
      QFE720/0960 30450150=
METAR UKKK 272030Z VRB01MPS 7000 OVC014 03/02 Q1017 08290058 NOSIG=
METAR ULLI 272030Z 11001MPS 2100 BR BKN001 OVC040 M00/M00 Q1018 60//////
      10190055 TEMPO 0500 FZFG RMK QBB050 OBST OBSC=
METAR UMMS 272030Z 00000MPS 2100 -SN BR OVC002 00/00 Q1015 R31/290060
      NOSIG RMK QBB080=
METAR UTDD 272030Z 28004MPS 9999 BKN026 BKN030 OVC051 03/01 Q1027 R09/D
      NOSIG RMK QFE701/0935=
METAR UUEE 272030Z 09005MPS 2500 BR OVC003 00/00 Q1020 07290145 57290151
      TEMPO 1000 BR OVC002=
METAR UUWW 272030Z 12005MPS 1500 BR OVC002 00/00 Q1019 06290050 TEMPO
      0700 FG RMK QBB060=
METAR UWKD 272030Z 16004MPS 9999 OVC005 M05/M05 Q1032 R11/7/0045 TEMPO
      2000 BR OVC005 RMK QFE763/1018=
METAR VTBD 272030Z 17004KT 140V200 9999 FEW020 SCT300 28/25 Q1009 NOSIG=
####018000090####
SAXX60 KAWN 272000 RRC
METAR RJTT 272030Z 31015KT CAVOK 04/M07 Q1020 NOSIG RMK A3014=
####018000520####
SPUS17 KAWN 272039 RRF
SPECI KAFF 272036Z AUTO 15011KT 4SM HZ OVC017 M12/M17 A2985 RMK AO2
      SNE31=
SPECI KAFF 272037Z AUTO 15011KT 4SM -SN OVC017 M12/M17 A2985 RMK AO2
      SNE31SNB37=
SPECI KFCS 272032Z 11005KT 1/2SM BR BKN004 OVC025 M11/M15 A2991 RMK
      AO2A SNE27 BKN V OVC=
SPECI KGRF 272034Z 02003KT 3SM RA BR BKN004 OVC028 09/09 A2974 RMK
      AO2A TWR VIS 1 1/2 $=
SPECI KIAB 272034Z AUTO 13005KT 2SM -SN FEW002 SCT009 OVC023 M09/M13
      A3050 RMK AO2 VIS 2V2 1/2 CIG 004 RWY19=
####018000549####
SAXN17 KAWN 272000 RRK
METAR RJAA 272030Z 31011KT CAVOK 03/M07 Q1020 NOSIG RMK A3015 P/RR=
METAR RJCC 272030Z 35010KT 9999 -SHSN FEW015 BKN020 BKN/// M02/M07
      Q1016 RMK 1ST015 6CU020 A3002=
METAR RJFF 272030Z VRB02KT 9999 FEW040 SCT045 BKN/// 03/M03 Q1026 RMK
      1CU040 3SC045 A3032=
METAR RJTT 272030Z 31015KT CAVOK 04/M07 Q1020 NOSIG RMK A3014=
METAR ROAH 272030Z 11013KT 080V140 9999 -RA FEW015 SCT030 BKN050 19/15
      Q1017 RMK 1CU015 3SC030 6SC050 A3005=
METAR ZGGG 272030Z 09002MPS 9999 OVC020 20/17 Q1014 NOSIG=
####018000189####
SAAO31 GOOY 272030
METAR FHAW 272030Z NIL=
METAR GGOV 272030Z NIL=
METAR DIAP 272030Z 21004KT 9000 FEW012 FEW020CB 27/26 Q1011 NOSIG=
METAR DIBK 272030Z NIL=
METAR DIYO 272030Z NIL=
####018000231####
SAAO30 GOOY 272030
METAR GOOY 272030Z 02008KT 2100  DU NSC 23/10 Q1011 NOSIG=
METAR GOGS 272030Z NIL=
METAR GOOK 272030Z NIL=
METAR GOSS 272030Z NIL=
METAR GOTK 272030Z NIL=
METAR GOTT 272030Z NIL=
METAR GOGG 272030Z NIL=
####018000283####
SAAO33 GOOY 272030
METAR GQPP 272030Z NIL=
METAR GQNN 272030Z 07011KT 2500 BLSA NSC 27/M11 Q1015 NOSIG=
METAR GQPA 272030Z NIL=
METAR GQNI 272030Z NIL=
METAR GQPZ 272030Z NIL=
METAR GUCY 272030Z NIL=
METAR GUXN 272030Z NIL=
METAR GULB 272030Z NIL=
METAR GUNZ 272030Z NIL=
####018002984####
SAUS20 KNKA 272038
METAR K0E0 272035Z AUTO 14009KT 10SM OVC009 M08/M11 A2996 RMK AO2 
 T10791109=
METAR K0F2 272035Z AUTO 03003KT 1 1/4SM -SN BKN012 BKN021 OVC027 
 M06/M08 A3043 RMK AO2 T10601076=
METAR K0V4 272035Z AUTO 32006KT 10SM CLR 05/M07 A3040 RMK AO1 
 T00531068=
METAR K0VG 272035Z AUTO 00000KT 10SM CLR 00/M12 A3047 RMK AO2=
METAR K11R 272035Z AUTO 06005KT 10SM BKN024 06/00 A3034 RMK AO2 
 T00610000=
METAR K1A6 272035Z AUTO 01007KT 10SM CLR M01/M12 A3049 RMK AO2 
 T10151117=
METAR K1H2 272035Z AUTO 30005KT 10SM CLR M09/M18 A3065 RMK AO2 
 T10861185=
METAR K1L0 272035Z AUTO 04006KT 10SM CLR 12/02 A3033 RMK AO2 
 T01180017=
METAR K2G9 272035Z AUTO 29011KT 10SM SCT030 M11/M18 A3038 RMK AO2=
METAR K3R7 272035Z AUTO 04007KT 10SM CLR 09/00 A3033 RMK AO2 
 T00880002=
METAR K54J 272035Z AUTO 03010KT 10SM CLR 14/00 A3028 RMK AO2 
 T01351003=
METAR K66R 272035Z AUTO 07008KT 7SM OVC018 06/02 A3029 RMK AO2 
     T00600015=
METAR K6B0 272035Z AUTO 34003KT 10SM CLR M07/M22 A3036 RMK AO2 
 T10701220=
METAR K6R3 272033Z AUTO 00000KT 10SM SCT100 09/01 A3035 RMK AO2=
METAR K7L2 272035Z AUTO 17014KT 10SM CLR M09/M16 A3028 RMK AO2=
METAR K8W2 272035Z AUTO 30004KT 10SM BKN055 00/M13 A3040 RMK AO1 
 T10011127=
METAR KADU 272035Z AUTO 00000KT 10SM CLR M11/M18 A3054 RMK AO2=
METAR KAFK 272035Z AUTO 11007KT 10SM CLR M07/M20 A3052 RMK AO2 
 T10691199=
METAR KAFP 272035Z AUTO 33004KT 10SM CLR 11/M03 A3036 RMK AO2 
 T01061026=
METAR KAHQ 272035Z AUTO 17004KT 10SM CLR M07/M17 A3051 RMK AO2 
 T10751174=
METAR KAIO 272035Z AUTO 00000KT 10SM CLR M11/M18 A3055 RMK AO2=
METAR KALX 272035Z AUTO 01009KT 10SM CLR 10/M06 A3035 RMK AO2 
 T01001065=
METAR KAPY 272035Z AUTO 35007KT 10SM OVC013 05/01 A3022 RMK AO2 
 T00500014=
METAR KAQO 272035Z AUTO 06008KT 8SM OVC017 00/M03 A3036 RMK AO2=
METAR KATP 272035Z AUTO 08019KT 10SM SCT032 BKN039 17/10 A3017 RMK
 A01=
METAR KAVQ 272035Z AUTO 21011KT 190V250 10SM CLR 24/M03 A2972 RMK 
 AO2 T02351035=
METAR KBBF 272035Z AUTO 08022KT 6SM HZ FEW020 SCT025 14/10 A3019
 RMK A01=
METAR KBQX 272035Z AUTO 07018G24KT 10SM SCT018 BKN024 OVC031 12/08
     A3024 RMK A01=
METAR KBWD 272035Z AUTO 04007KT 5SM BR OVC012 M04/M06 A3035 RMK AO2
=
METAR KC29 272035Z AUTO 21007KT 10SM CLR M08/M21 A3053 RMK AO1 
     T10761210=
METAR KCDA 272035Z AUTO 26008G14KT 10SM CLR M09/M25 A3030 RMK AO2 
 T10901255=
METAR KCIR 272035Z AUTO 04006KT 10SM CLR M03/M12 A3061 RMK AO2 
 T10311117=
METAR KCOM 272035Z AUTO 04009KT 5SM BR OVC009 M04/M05 A3033 RMK 
     AO2 T10451055=
METAR KCPK 272035Z AUTO 01009KT 10SM OVC050 03/M02 A3044 RMK AO2=
METAR KCQB 272035Z AUTO 09007KT 1SM -SN OVC009 M06/M07 A3052 RMK 
 AO2=
METAR KCQF 272035Z AUTO 02010G18KT 10SM CLR 12/00 A3028 RMK AO2=
METAR KCRH 272035Z AUTO 07017KT 9SM BKN023 OVC028 09/05 A3029 RMK
 A01=
METAR KCUH 272035Z AUTO 07005KT 1 1/4SM -SN OVC007 M07/M10 A3053 
 RMK AO2=
####018000115####
SAAK41 KNKA 272038
SPECI PADE 272037Z AUTO VRB03KT 10SM SCT019 BKN025 06/M03 A3011 RMK 
 AO2 T00611033 TSNO=
####018002986####
SAUS20 KNKA 272038
METAR KMZG 272035Z AUTO 05016G23KT 5SM HZ BKN022 BKN028 16/11
 A3020 RMK A01=
METAR KOCW 272035Z AUTO 36008KT 10SM CLR 08/M01 A3040 RMK AO2 
 T00801013=
METAR KOJA 272035Z AUTO 06008KT 7SM -SN OVC017 M08/M12 A3044 RMK 
 AO2=
METAR KOLG 272035Z AUTO 22008KT 10SM CLR M08/M20 A3041 RMK AO1=
METAR KONM 272035Z AUTO 12008KT 10SM 02/00 A2991 RMK AO2 T00201001=
METAR KONP 272035Z AUTO 21006KT 7SM RA SCT004 BKN012 BKN023 10/08 
 A2977 RMK AO2 P0001=
METAR KOPN 272035Z AUTO 01006KT 320V050 10SM CLR 13/M02 A3033 RMK 
 AO2=
METAR KORG 272035Z AUTO 04007KT 10SM CLR 10/00 A3033 RMK AO2 
 T01040003=
METAR KPBX 272035Z AUTO 30003KT 10SM OVC037 M06/M13 A3050 RMK AO2 
 T10561135=
METAR KPDC 272035Z AUTO 24009KT 10SM CLR M11/M21 A3059 RMK AO2 
     T11111208=
METAR KPEQ 272035Z AUTO 06011KT 5SM BR OVC008 M04/M05 A3022 RMK 
 AO2 T10361047=
METAR KPGV 272035Z AUTO 36006KT 10SM CLR 08/M03 A3039 RMK AO2=
METAR KPLU 272035Z AUTO 00000KT 10SM -DZ SCT010 SCT044 10/10 
 A2974 RMK AO2=
METAR KPPO 272035Z AUTO 22006KT 10SM CLR M07/M18 A3058 RMK AO2 
 T10751177=
METAR KPPQ 272035Z AUTO 22003KT 10SM CLR M10/M19 A3064 RMK AO2 
 T11001187=
METAR KPTS 272035Z AUTO 11005KT 10SM OVC046 M06/M16 A3054 RMK AO2 
 T10621157=
METAR KPTT 272035Z AUTO 14006KT 1 1/2SM -SN BKN010 OVC014 M09/M13 
     A3044 RMK AO2=
METAR KRCM 272035Z AUTO 01005KT 10SM OVC080 M07/M17 A3058 RMK AO2=
METAR KRHP 272035Z AUTO 24008KT 10SM CLR 04/M03 A3034 RMK AO2 
 T00351028=
METAR KRPH 272035Z AUTO 03004KT 7SM SCT014 BKN019 OVC047 M05/M07 
 A3041 RMK AO2 T10511071=
METAR KRPJ 272035Z AUTO 22009KT 10SM CLR M13/M18 A3061 RMK AO2 
 T11281179=
METAR KRRL 272035Z AUTO 22009G14KT 10SM CLR M10/M20 A3043 RMK AO2 
     T11011201=
METAR KRSV 272035Z AUTO 32005KT 10SM CLR M07/M16 A3064 RMK AO2 
 T10741157=
METAR KS25 272035Z AUTO 16012KT 10SM CLR M05/M15 A3008 RMK AO2 =
METAR KSDA 272035Z AUTO 00000KT 10SM CLR M08/M17 A3056 RMK AO2=
METAR KSFY 272035Z AUTO 26006KT 10SM CLR M11/M21 A3062 RMK AO2 
 T11081207=
METAR KSHD 272035Z AUTO 03005KT 10SM CLR 01/M11 A3039 RMK AO2 
 T00091109=
METAR KSLO 272035Z AUTO 35005KT 10SM CLR M08/M17 A3063 RMK AO2 
 T10771168=
METAR KSLR 272035Z AUTO 03009G15KT 5SM -SN SCT011 BKN016 OVC034 
 M02/M05 A3049 RMK AO2 T10251050=
METAR KSOA 272035Z AUTO 06007KT 7SM BKN009 OVC012 M01/M02 A3027 
 RMK AO2=
METAR KSPR 272035Z AUTO 06023G29KT 6SM HZ BKN017 OVC021 10/06
 A3025 RMK A01=
METAR KSQE 272035Z AUTO 06020G27KT 9SM BKN021 OVC030 14/10 A3022
 RMK A01=
METAR KSUT 272035Z AUTO 00000KT 10SM CLR 09/01 A3036 RMK AO2 
     T00890014=
METAR KT20 272035Z AUTO 03007KT 7SM OVC016 05/01 A3029 RMK AO2 
 T00490009=
METAR KTIP 272035Z AUTO 30005KT 10SM CLR M09/M17 A3061 RMK AO2 
 T10871171=
METAR KTKV 272035Z AUTO 00000KT 10SM CLR M09/M21 A3039 RMK AO2 
 T10891212=
METAR KTNB 272035Z AUTO 30013G16KT 10SM CLR M02/M09 A3030 RMK AO2 
 T10171091=
####018002917####
SAUS20 KNKA 272038
METAR KCUL 272035Z AUTO 36005KT 10SM CLR M05/M11 A3063 RMK AO2 
 T10511113=
METAR KCVW 272035Z AUTO 05011KT 10SM CLR 09/01 A3034 RMK A01=
METAR KCWC 272035Z AUTO 05009KT 7SM BKN017 OVC023 M05/M08 A3047 
 RMK AO2 T10531082=
METAR KDLP 272035Z AUTO 07011G19KT 10SM FEW021 OVC028 12/05 A3025
 RMK A01=
METAR KDNS 272035Z AUTO 18003KT 10SM CLR M12/M20 A3052 RMK AO2=
METAR KDNV 272035Z AUTO 31004KT 10SM CLR M09/M17 A3059 RMK AO2 
 T10911174=
METAR KDQH 272035Z AUTO 06007KT 10SM BKN031 12/04 A3032 RMK AO2=
METAR KDUC 272035Z AUTO 05008KT 7SM BKN014 BKN025 OVC035 M06/M08 
 A3046 RMK AO2=
METAR KDVK 272035Z AUTO 04003KT 10SM SCT032 M06/M15 A3057 RMK AO2=
METAR KEBG 272035Z AUTO 35008KT 10SM BKN025 OVC034 16/08 A3017 
 RMK AO2 T01570084=
METAR KEHC 272035Z AUTO 05022KT 10SM FEW018 10/06 A3025 RMK A01=
METAR KEIR 272035Z AUTO 06023G29KT 8SM OVC020 09/05 A3027 RMK A01=
METAR KEMK 272035Z AUTO 05024KT 10SM OVC023 16/10 A3020 RMK A01=
METAR KEOK 272035Z AUTO 26003KT 10SM CLR M10/M19 A3063 RMK AO2=
METAR KERV 272035Z AUTO 03008KT 3SM UP BKN009 OVC013 00/M01 A3025 
 RMK AO2 T10051015=
METAR KEYF 272035Z AUTO 00000KT 10SM CLR 11/M01 A3036 RMK AO2 
 T01111010=
METAR KEZM 272035Z AUTO 02004KT 10SM CLR 14/04 A3033 RMK AO2 
 T01400037=
METAR KEZS 272035Z AUTO 26010G16KT 10SM CLR M07/M21 A3048 RMK AO2 
 T10701208=
METAR KF44 272035Z AUTO 04006KT 10SM OVC080 00/M08 A3042 RMK AO2=
METAR KF46 272035Z AUTO 03014G19KT 7SM BKN008 BKN013 OVC030 
 M02/M04 A3041 RMK AO2 T10251045=
METAR KFET 272035Z AUTO 17004KT 10SM CLR M07/M16 A3051 RMK AO2 
 T10681158=
METAR KFHB 272035Z AUTO 03012G18KT 10SM CLR 12/06 A3029 RMK AO1=
METAR KFKN 272035Z AUTO 04009KT 10SM SCT060 03/M03 A3042 RMK AO2 
 T00251032=
METAR KFSO 272035Z AUTO 02003KT 10SM CLR M09/M22 A3039 RMK AO2 
 T10891216=
METAR KGAO 272035Z AUTO 02007G15KT 10SM CLR 12/02 A3031 RMK AO2 
 T01160016=
METAR KGBK 272035Z AUTO 04023G30KT 10SM SCT029 BKN039 OVC046 17/11
 A3015 RMK A01=
METAR KGDJ 272035Z AUTO 36006KT 7SM -SN OVC014 M03/M06 A3043 RMK 
 AO2 T10311056=
METAR KGGI 272035Z AUTO 00000KT 10SM CLR M13/M20 A3060 RMK AO2 
 T11331196=
METAR KGHB 272035Z AUTO 06021G29KT 9SM OVC023 14/10 A3022 RMK A01=
METAR KGIC 272035Z AUTO 08005KT 10SM CLR 07/M01 A2973 RMK AO1 
 T00661014=
SPECI KGKY 272037Z 04010KT 2SM -SN BKN012 BKN018 OVC033 M02/M06 
 A3042 RMK AO2 P0001 T10221061=
METAR KGMJ 272035Z AUTO 07005KT 1 3/4SM -SN BKN010 BKN015 OVC023 
 M06/M11 A3057 RMK AO2=
METAR KGNC 272035Z AUTO 13011KT 7SM -SN OVC014 M06/M09 A3021 RMK 
 AO2 T10641090=
METAR KGRY 272040Z AUTO 09012G24KT 050V160 10SM FEW029 BKN040
 16/09 A3018 RMK A01=
METAR KGUL 272035Z AUTO 9SM OVC033 16/10 A3015 RMK A01=
METAR KGVX 272035Z AUTO 06020KT 9SM BKN020 OVC024 11/07 A3027 RMK
 A01=
METAR KGWB 272035Z AUTO 30004KT 10SM CLR M07/M19 A3058 RMK AO2=
####018001002####
SAUS20 KNKA 272038
METAR KTOC 272035Z AUTO 00000KT 10SM CLR 11/M07 A3032 RMK AO2 
 T01111071=
METAR KTQH 272035Z AUTO 09006KT 1 1/2SM -SN BKN007 OVC012 M06/M11 
 A3054 RMK AO2 VIS 1V5=
METAR KTVK 272035Z AUTO 00000KT 10SM CLR M11/M18 A3059 RMK AO2=
METAR KUBE 272035Z AUTO 28006KT 10SM CLR M11/M20 A3045 RMK AO2=
METAR KVAF 272035Z AUTO 07020KT 6SM HZ SCT023 BKN036 OVC046 15/11
 A3018 RMK A01=
METAR KVBS 272035Z AUTO 12010G16KT 10SM BKN025 07/01 A3031 RMK A01=
METAR KVKY 272035Z AUTO 07019G25KT 10SM BKN023 11/06 A3028 RMK A01=
METAR KVOA 272035Z AUTO 05022KT 10SM BKN027 12/06 A3025 RMK A01=
METAR KVQT 272035Z AUTO 07019G24KT 8SM FEW015 OVC022 11/08 A3024
     RMK A01=
METAR KW75 272035Z AUTO 35005KT 10SM BKN031 OVC038 00/M06 A3046 
 RMK AO1 T10051065=
METAR KXIH 272035Z AUTO 08017KT OVC018 08/03 A3030 RMK A01=
METAR KXPY 272035Z AUTO 04016G23KT 9SM OVC022 09/04 A3032 RMK A01=
METAR KXSA 272035Z AUTO 33005KT 10SM CLR 01/M11 A3047 RMK AO2 
 T00141112=
####018002961####
SAUS20 KNKA 272038
METAR KHDE 272035Z AUTO 14007KT 10SM BKN090 BKN120 M06/M20 A3035 
 RMK AO2 T10641205=
SPECI KHDO 272037Z AUTO 05011KT 2 1/2SM -RA BR SCT006 OVC011 01/01 
 A3028 RMK AO2 P0000 T00110011 $=
METAR KHHV 272035Z AUTO 08018KT 9SM CLR 18/10 A3018 RMK A01=
METAR KHLX 272035Z AUTO 31011G14KT 10SM CLR M01/M10 A3032 RMK AO2 
 T10151096=
METAR KHQI 272035Z AUTO 04023KT 9SM OVC017 13/10 A3023 RMK A01=
METAR KHQU 272035Z AUTO 32003KT 10SM CLR 14/03 A3036 RMK AO1 
 T01400032=
METAR KHSB 272035Z AUTO 02006KT 10SM SCT029 SCT080 M06/M12 A3064 
 RMK AO2 T10571118=
METAR KHZL 272035Z AUTO 28007KT 10SM CLR M06/M16 A3036 RMK AO2=
METAR KI16 272035Z AUTO 10SM SCT035 M02/M10 A3050 RMK AO2 
 T10181103=
METAR KIBM 272035Z AUTO 16019G24KT 3SM -SN SCT009 SCT013 OVC031 
 M08/M12 A2996 RMK AO2 T10821123=
METAR KIER 272035Z AUTO 02006KT 10SM CLR 06/M03 A3041 RMK AO2 
 T00621033=
METAR KIIY 272035Z AUTO 00000KT 10SM CLR 14/03 A3032 RMK AO2=
METAR KIKK 272035Z AUTO 26005KT 10SM CLR M11/M18 A3063 RMK AO2 
 T11111176=
METAR KIKT 272035Z AUTO 05012G25KT 10SM BKN028 BKN032 14/08 A3020
 RMK A01=
METAR KIKV 272035Z AUTO 00000KT 10SM CLR M12/M19 A3060 RMK AO2=
METAR KINF 272035Z AUTO 05009KT 10SM BKN040 18/04 A3019 RMK AO2 LTG
      DSNT S=
METAR KIOB 272035Z AUTO 00000KT 10SM SCT033 M06/M13 A3058 RMK AO2=
METAR KIPN 272035Z AUTO 06021KT 10SM BKN026 OVC031 15/09 A3020 RMK
 A01=
METAR KJAS 272035Z AUTO 00000KT 10SM BKN100 08/M02 A3037 RMK AO2 
 T00841017=
METAR KJDD 272035Z AUTO 03007KT 10SM BKN060 BKN075 00/M10 A3045 
 RMK AO2=
METAR KJFZ 272035Z AUTO 28005KT 10SM OVC025 M04/M12 A3038 RMK AO2 
 T10451123=
METAR KJSO 272035Z AUTO 04007KT 10SM OVC080 00/M06 A3040 RMK AO2 
 T00051065=
METAR KJWG 272035Z AUTO 04008KT 10SM -SN SCT024 SCT037 OVC065 
 M08/M12 A3046 RMK AO2 T10801119=
METAR KJWY 272035Z AUTO 04008KT 7SM BKN013 BKN021 OVC050 M02/M04 
 A3041 RMK AO2 T10211042=
METAR KJXI 272035Z AUTO 04009KT 10SM BKN050 OVC065 M01/M09 A3044 
 RMK AO2 T10111089=
METAR KL18 272035Z AUTO 23012G17KT 10SM BKN027 BKN034 OVC043 
     17/10 A2982 RMK AO2=
METAR KLCG 272035Z AUTO 15007KT 10SM CLR M07/M16 A3048 RMK AO2 
 T10731163=
METAR KLCQ 272035Z AUTO 06006KT 10SM CLR 10/02 A3028 RMK AO2=
METAR KLNN 272035Z AUTO 30007KT 10SM CLR M11/M17 A3059 RMK AO1 
 T11081169=
METAR KLUD 272035Z AUTO 04007KT 1 3/4SM -SN OVC006 M05/M07 A3042 
 RMK AO2 T10531074=
METAR KM30 272035Z AUTO 05005KT 10SM SCT038 M03/M12 A3059 RMK AO2 
 T10341120=
METAR KMAN 272035Z AUTO 14010KT 10SM CLR 10/02 A2969 RMK AO1 =
METAR KMDJ 272035Z AUTO 06020G28KT 10SM OVC022 12/08 A3028 RMK A01=
METAR KMGR 272035Z AUTO 06005KT 10SM CLR 11/04 A3030 RMK AO2=
METAR KMIS 272035Z AUTO 07021KT 8SM BKN024 11/05 A3027 RMK A01=
METAR KMOR 272035Z AUTO 28003KT 10SM CLR 00/M09 A3045 RMK=
METAR KMWO 272035Z AUTO 35007KT 320V020 10SM BKN043 M06/M18 A3061 
 RMK AO2 T10601184=
####018003734####
SAUS99 KWBC 272040 RRA
METAR
KIKT 272035Z AUTO 05012G25KT 10SM BKN028 BKN032 14/08 A3020 RMK
     A01=
KIKV 272035Z AUTO 00000KT 10SM CLR M12/M19 A3060 RMK AO2=
KINF 272035Z AUTO 05009KT 10SM BKN040 18/04 A3019 RMK AO2 LTG DSNT
     S=
KIOB 272035Z AUTO 00000KT 10SM SCT033 M06/M13 A3058 RMK AO2=
KIPN 272035Z AUTO 06021KT 10SM BKN026 OVC031 15/09 A3020 RMK
     A01=
KJAS 272035Z AUTO 00000KT 10SM BKN100 08/M02 A3037 RMK AO2
     T00841017=
KJDD 272035Z AUTO 03007KT 10SM BKN060 BKN075 00/M10 A3045 RMK
     AO2=
KJFZ 272035Z AUTO 28005KT 10SM OVC025 M04/M12 A3038 RMK AO2
     T10451123=
KJSO 272035Z AUTO 04007KT 10SM OVC080 00/M06 A3040 RMK AO2
     T00051065=
KJWG 272035Z AUTO 04008KT 10SM -SN SCT024 SCT037 OVC065 M08/M12
     A3046 RMK AO2 T10801119=
KJWY 272035Z AUTO 04008KT 7SM BKN013 BKN021 OVC050 M02/M04 A3041
     RMK AO2 T10211042=
KJXI 272035Z AUTO 04009KT 10SM BKN050 OVC065 M01/M09 A3044 RMK AO2
     T10111089=
KL18 272035Z AUTO 23012G17KT 10SM BKN027 BKN034 OVC043 17/10 A2982
     RMK AO2=
KLCG 272035Z AUTO 15007KT 10SM CLR M07/M16 A3048 RMK AO2
     T10731163=
KLCQ 272035Z AUTO 06006KT 10SM CLR 10/02 A3028 RMK AO2=
KLNN 272035Z AUTO 30007KT 10SM CLR M11/M17 A3059 RMK AO1
     T11081169=
KLUD 272035Z AUTO 04007KT 1 3/4SM -SN OVC006 M05/M07 A3042 RMK AO2
     T10531074=
KM30 272035Z AUTO 05005KT 10SM SCT038 M03/M12 A3059 RMK AO2
     T10341120=
KMAN 272035Z AUTO 14010KT 10SM CLR 10/02 A2969 RMK AO1=
KMDJ 272035Z AUTO 06020G28KT 10SM OVC022 12/08 A3028 RMK A01=
KMGR 272035Z AUTO 06005KT 10SM CLR 11/04 A3030 RMK AO2=
KMIS 272035Z AUTO 07021KT 8SM BKN024 11/05 A3027 RMK A01=
KMOR 272035Z AUTO 28003KT 10SM CLR 00/M09 A3045 RMK=
KMWO 272035Z AUTO 35007KT 320V020 10SM BKN043 M06/M18 A3061 RMK
     AO2 T10601184=
KCUL 272035Z AUTO 36005KT 10SM CLR M05/M11 A3063 RMK AO2
     T10511113=
KCVW 272035Z AUTO 05011KT 10SM CLR 09/01 A3034 RMK A01=
KCWC 272035Z AUTO 05009KT 7SM BKN017 OVC023 M05/M08 A3047 RMK AO2
     T10531082=
KDLP 272035Z AUTO 07011G19KT 10SM FEW021 OVC028 12/05 A3025 RMK
     A01=
KDNS 272035Z AUTO 18003KT 10SM CLR M12/M20 A3052 RMK AO2=
KDNV 272035Z AUTO 31004KT 10SM CLR M09/M17 A3059 RMK AO2
     T10911174=
KDQH 272035Z AUTO 06007KT 10SM BKN031 12/04 A3032 RMK AO2=
KDUC 272035Z AUTO 05008KT 7SM BKN014 BKN025 OVC035 M06/M08 A3046
     RMK AO2=
KDVK 272035Z AUTO 04003KT 10SM SCT032 M06/M15 A3057 RMK AO2=
KEBG 272035Z AUTO 35008KT 10SM BKN025 OVC034 16/08 A3017 RMK AO2
     T01570084=
KEHC 272035Z AUTO 05022KT 10SM FEW018 10/06 A3025 RMK A01=
KEIR 272035Z AUTO 06023G29KT 8SM OVC020 09/05 A3027 RMK A01=
KEMK 272035Z AUTO 05024KT 10SM OVC023 16/10 A3020 RMK A01=
KEOK 272035Z AUTO 26003KT 10SM CLR M10/M19 A3063 RMK AO2=
KERV 272035Z AUTO 03008KT 3SM UP BKN009 OVC013 00/M01 A3025 RMK
     AO2 T10051015=
KEYF 272035Z AUTO 00000KT 10SM CLR 11/M01 A3036 RMK AO2
     T01111010=
KEZM 272035Z AUTO 02004KT 10SM CLR 14/04 A3033 RMK AO2
     T01400037=
KEZS 272035Z AUTO 26010G16KT 10SM CLR M07/M21 A3048 RMK AO2
     T10701208=
KF44 272035Z AUTO 04006KT 10SM OVC080 00/M08 A3042 RMK AO2=
KF46 272035Z AUTO 03014G19KT 7SM BKN008 BKN013 OVC030 M02/M04
     A3041 RMK AO2 T10251045=
KFET 272035Z AUTO 17004KT 10SM CLR M07/M16 A3051 RMK AO2
     T10681158=
KFHB 272035Z AUTO 03012G18KT 10SM CLR 12/06 A3029 RMK AO1=
KFKN 272035Z AUTO 04009KT 10SM SCT060 03/M03 A3042 RMK AO2
     T00251032=
KFSO 272035Z AUTO 02003KT 10SM CLR M09/M22 A3039 RMK AO2
     T10891216=
KGAO 272035Z AUTO 02007G15KT 10SM CLR 12/02 A3031 RMK AO2
     T01160016=
KGBK 272035Z AUTO 04023G30KT 10SM SCT029 BKN039 OVC046 17/11 A3015
     RMK A01=
####018003708####
SAUS99 KWBC 272040
METAR
K0E0 272035Z AUTO 14009KT 10SM OVC009 M08/M11 A2996 RMK AO2
     T10791109=
K0F2 272035Z AUTO 03003KT 1 1/4SM -SN BKN012 BKN021 OVC027 M06/M08
     A3043 RMK AO2 T10601076=
K0V4 272035Z AUTO 32006KT 10SM CLR 05/M07 A3040 RMK AO1
     T00531068=
K0VG 272035Z AUTO 00000KT 10SM CLR 00/M12 A3047 RMK AO2=
K11R 272035Z AUTO 06005KT 10SM BKN024 06/00 A3034 RMK AO2
     T00610000=
K1A6 272035Z AUTO 01007KT 10SM CLR M01/M12 A3049 RMK AO2
     T10151117=
K1H2 272035Z AUTO 30005KT 10SM CLR M09/M18 A3065 RMK AO2
     T10861185=
K1L0 272035Z AUTO 04006KT 10SM CLR 12/02 A3033 RMK AO2
     T01180017=
K2G9 272035Z AUTO 29011KT 10SM SCT030 M11/M18 A3038 RMK AO2=
K3R7 272035Z AUTO 04007KT 10SM CLR 09/00 A3033 RMK AO2
     T00880002=
K54J 272035Z AUTO 03010KT 10SM CLR 14/00 A3028 RMK AO2
     T01351003=
K66R 272035Z AUTO 07008KT 7SM OVC018 06/02 A3029 RMK AO2
     T00600015=
K6B0 272035Z AUTO 34003KT 10SM CLR M07/M22 A3036 RMK AO2
     T10701220=
K6R3 272033Z AUTO 00000KT 10SM SCT100 09/01 A3035 RMK AO2=
K7L2 272035Z AUTO 17014KT 10SM CLR M09/M16 A3028 RMK AO2=
K8W2 272035Z AUTO 30004KT 10SM BKN055 00/M13 A3040 RMK AO1
     T10011127=
KADU 272035Z AUTO 00000KT 10SM CLR M11/M18 A3054 RMK AO2=
KAFK 272035Z AUTO 11007KT 10SM CLR M07/M20 A3052 RMK AO2
     T10691199=
KAFP 272035Z AUTO 33004KT 10SM CLR 11/M03 A3036 RMK AO2
     T01061026=
KAHQ 272035Z AUTO 17004KT 10SM CLR M07/M17 A3051 RMK AO2
     T10751174=
KAIO 272035Z AUTO 00000KT 10SM CLR M11/M18 A3055 RMK AO2=
KALX 272035Z AUTO 01009KT 10SM CLR 10/M06 A3035 RMK AO2
     T01001065=
KAPY 272035Z AUTO 35007KT 10SM OVC013 05/01 A3022 RMK AO2
     T00500014=
KAQO 272035Z AUTO 06008KT 8SM OVC017 00/M03 A3036 RMK AO2=
KATP 272035Z AUTO 08019KT 10SM SCT032 BKN039 17/10 A3017 RMK
     A01=
KAVQ 272035Z AUTO 21011KT 190V250 10SM CLR 24/M03 A2972 RMK AO2
     T02351035=
KBBF 272035Z AUTO 08022KT 6SM HZ FEW020 SCT025 14/10 A3019 RMK
     A01=
KBQX 272035Z AUTO 07018G24KT 10SM SCT018 BKN024 OVC031 12/08 A3024
     RMK A01=
KBWD 272035Z AUTO 04007KT 5SM BR OVC012 M04/M06 A3035 RMK AO2=
KC29 272035Z AUTO 21007KT 10SM CLR M08/M21 A3053 RMK AO1
     T10761210=
KCDA 272035Z AUTO 26008G14KT 10SM CLR M09/M25 A3030 RMK AO2
     T10901255=
KCIR 272035Z AUTO 04006KT 10SM CLR M03/M12 A3061 RMK AO2
     T10311117=
KCOM 272035Z AUTO 04009KT 5SM BR OVC009 M04/M05 A3033 RMK AO2
     T10451055=
KCPK 272035Z AUTO 01009KT 10SM OVC050 03/M02 A3044 RMK AO2=
KCQB 272035Z AUTO 09007KT 1SM -SN OVC009 M06/M07 A3052 RMK AO2=
KCQF 272035Z AUTO 02010G18KT 10SM CLR 12/00 A3028 RMK AO2=
KCRH 272035Z AUTO 07017KT 9SM BKN023 OVC028 09/05 A3029 RMK
     A01=
KCUH 272035Z AUTO 07005KT 1 1/4SM -SN OVC007 M07/M10 A3053 RMK
     AO2=
KHDE 272035Z AUTO 14007KT 10SM BKN090 BKN120 M06/M20 A3035 RMK AO2
     T10641205=
KHHV 272035Z AUTO 08018KT 9SM CLR 18/10 A3018 RMK A01=
KHLX 272035Z AUTO 31011G14KT 10SM CLR M01/M10 A3032 RMK AO2
     T10151096=
KHQI 272035Z AUTO 04023KT 9SM OVC017 13/10 A3023 RMK A01=
KHQU 272035Z AUTO 32003KT 10SM CLR 14/03 A3036 RMK AO1
     T01400032=
KHSB 272035Z AUTO 02006KT 10SM SCT029 SCT080 M06/M12 A3064 RMK AO2
     T10571118=
KHZL 272035Z AUTO 28007KT 10SM CLR M06/M16 A3036 RMK AO2=
KI16 272035Z AUTO 10SM SCT035 M02/M10 A3050 RMK AO2 T10181103=
KIBM 272035Z AUTO 16019G24KT 3SM -SN SCT009 SCT013 OVC031 M08/M12
     A2996 RMK AO2 T10821123=
KIER 272035Z AUTO 02006KT 10SM CLR 06/M03 A3041 RMK AO2
     T00621033=
KIIY 272035Z AUTO 00000KT 10SM CLR 14/03 A3032 RMK AO2=
KIKK 272035Z AUTO 26005KT 10SM CLR M11/M18 A3063 RMK AO2
     T11111176=
####018003669####
SAUS99 KWBC 272040 RRB
METAR
KGDJ 272035Z AUTO 36006KT 7SM -SN OVC014 M03/M06 A3043 RMK AO2
     T10311056=
KGGI 272035Z AUTO 00000KT 10SM CLR M13/M20 A3060 RMK AO2
     T11331196=
KGHB 272035Z AUTO 06021G29KT 9SM OVC023 14/10 A3022 RMK A01=
KGIC 272035Z AUTO 08005KT 10SM CLR 07/M01 A2973 RMK AO1
     T00661014=
KGMJ 272035Z AUTO 07005KT 1 3/4SM -SN BKN010 BKN015 OVC023 M06/M11
     A3057 RMK AO2=
KGNC 272035Z AUTO 13011KT 7SM -SN OVC014 M06/M09 A3021 RMK AO2
     T10641090=
KGRY 272040Z AUTO 09012G24KT 050V160 10SM FEW029 BKN040 16/09
     A3018 RMK A01=
KGUL 272035Z AUTO 9SM OVC033 16/10 A3015 RMK A01=
KGVX 272035Z AUTO 06020KT 9SM BKN020 OVC024 11/07 A3027 RMK
     A01=
KGWB 272035Z AUTO 30004KT 10SM CLR M07/M19 A3058 RMK AO2=
KMZG 272035Z AUTO 05016G23KT 5SM HZ BKN022 BKN028 16/11 A3020 RMK
     A01=
KOCW 272035Z AUTO 36008KT 10SM CLR 08/M01 A3040 RMK AO2
     T00801013=
KOJA 272035Z AUTO 06008KT 7SM -SN OVC017 M08/M12 A3044 RMK AO2=
KOLG 272035Z AUTO 22008KT 10SM CLR M08/M20 A3041 RMK AO1=
KONM 272035Z AUTO 12008KT 10SM 02/00 A2991 RMK AO2 T00201001=
KONP 272035Z AUTO 21006KT 7SM RA SCT004 BKN012 BKN023 10/08 A2977
     RMK AO2 P0001=
KOPN 272035Z AUTO 01006KT 320V050 10SM CLR 13/M02 A3033 RMK
     AO2=
KORG 272035Z AUTO 04007KT 10SM CLR 10/00 A3033 RMK AO2
     T01040003=
KPBX 272035Z AUTO 30003KT 10SM OVC037 M06/M13 A3050 RMK AO2
     T10561135=
KPDC 272035Z AUTO 24009KT 10SM CLR M11/M21 A3059 RMK AO2
     T11111208=
KPEQ 272035Z AUTO 06011KT 5SM BR OVC008 M04/M05 A3022 RMK AO2
     T10361047=
KPGV 272035Z AUTO 36006KT 10SM CLR 08/M03 A3039 RMK AO2=
KPLU 272035Z AUTO 00000KT 10SM -DZ SCT010 SCT044 10/10 A2974 RMK
     AO2=
KPPO 272035Z AUTO 22006KT 10SM CLR M07/M18 A3058 RMK AO2
     T10751177=
KPPQ 272035Z AUTO 22003KT 10SM CLR M10/M19 A3064 RMK AO2
     T11001187=
KPTS 272035Z AUTO 11005KT 10SM OVC046 M06/M16 A3054 RMK AO2
     T10621157=
KPTT 272035Z AUTO 14006KT 1 1/2SM -SN BKN010 OVC014 M09/M13 A3044
     RMK AO2=
KRCM 272035Z AUTO 01005KT 10SM OVC080 M07/M17 A3058 RMK AO2=
KRHP 272035Z AUTO 24008KT 10SM CLR 04/M03 A3034 RMK AO2
     T00351028=
KRPH 272035Z AUTO 03004KT 7SM SCT014 BKN019 OVC047 M05/M07 A3041
     RMK AO2 T10511071=
KRPJ 272035Z AUTO 22009KT 10SM CLR M13/M18 A3061 RMK AO2
     T11281179=
KRRL 272035Z AUTO 22009G14KT 10SM CLR M10/M20 A3043 RMK AO2
     T11011201=
KRSV 272035Z AUTO 32005KT 10SM CLR M07/M16 A3064 RMK AO2
     T10741157=
KS25 272035Z AUTO 16012KT 10SM CLR M05/M15 A3008 RMK AO2=
KSDA 272035Z AUTO 00000KT 10SM CLR M08/M17 A3056 RMK AO2=
KSFY 272035Z AUTO 26006KT 10SM CLR M11/M21 A3062 RMK AO2
     T11081207=
KSHD 272035Z AUTO 03005KT 10SM CLR 01/M11 A3039 RMK AO2
     T00091109=
KSLO 272035Z AUTO 35005KT 10SM CLR M08/M17 A3063 RMK AO2
     T10771168=
KSLR 272035Z AUTO 03009G15KT 5SM -SN SCT011 BKN016 OVC034 M02/M05
     A3049 RMK AO2 T10251050=
KSOA 272035Z AUTO 06007KT 7SM BKN009 OVC012 M01/M02 A3027 RMK
     AO2=
KSPR 272035Z AUTO 06023G29KT 6SM HZ BKN017 OVC021 10/06 A3025 RMK
     A01=
KSQE 272035Z AUTO 06020G27KT 9SM BKN021 OVC030 14/10 A3022 RMK
     A01=
KSUT 272035Z AUTO 00000KT 10SM CLR 09/01 A3036 RMK AO2
     T00890014=
KT20 272035Z AUTO 03007KT 7SM OVC016 05/01 A3029 RMK AO2
     T00490009=
KTIP 272035Z AUTO 30005KT 10SM CLR M09/M17 A3061 RMK AO2
     T10871171=
KTKV 272035Z AUTO 00000KT 10SM CLR M09/M21 A3039 RMK AO2
     T10891212=
KTNB 272035Z AUTO 30013G16KT 10SM CLR M02/M09 A3030 RMK AO2
     T10171091=
KTOC 272035Z AUTO 00000KT 10SM CLR 11/M07 A3032 RMK AO2
     T01111071=
####018000321####
SPUS99 KWBC 272040
SPECI
PADE 272037Z AUTO VRB03KT 10SM SCT019 BKN025 06/M03 A3011 RMK AO2
     T00611033 TSNO=
KHDO 272037Z AUTO 05011KT 2 1/2SM -RA BR SCT006 OVC011 01/01 A3028
     RMK AO2 P0000 T00110011 $=
KGKY 272037Z 04010KT 2SM -SN BKN012 BKN018 OVC033 M02/M06 A3042
     RMK AO2 P0001 T10221061=
####018000876####
SAUS99 KWBC 272040 RRC
METAR
KTQH 272035Z AUTO 09006KT 1 1/2SM -SN BKN007 OVC012 M06/M11 A3054
     RMK AO2 VIS 1V5=
KTVK 272035Z AUTO 00000KT 10SM CLR M11/M18 A3059 RMK AO2=
KUBE 272035Z AUTO 28006KT 10SM CLR M11/M20 A3045 RMK AO2=
KVAF 272035Z AUTO 07020KT 6SM HZ SCT023 BKN036 OVC046 15/11 A3018
     RMK A01=
KVBS 272035Z AUTO 12010G16KT 10SM BKN025 07/01 A3031 RMK A01=
KVKY 272035Z AUTO 07019G25KT 10SM BKN023 11/06 A3028 RMK A01=
KVOA 272035Z AUTO 05022KT 10SM BKN027 12/06 A3025 RMK A01=
KVQT 272035Z AUTO 07019G24KT 8SM FEW015 OVC022 11/08 A3024 RMK
     A01=
KW75 272035Z AUTO 35005KT 10SM BKN031 OVC038 00/M06 A3046 RMK AO1
     T10051065=
KXIH 272035Z AUTO 08017KT OVC018 08/03 A3030 RMK A01=
KXPY 272035Z AUTO 04016G23KT 9SM OVC022 09/04 A3032 RMK A01=
KXSA 272035Z AUTO 33005KT 10SM CLR 01/M11 A3047 RMK AO2
     T00141112=
####018000053####
SAAF32 KWBC 272000 RRF
METAR
FHAW 272030Z NIL=
####018000053####
SAAF31 KWBC 272000 RRC
METAR
DIBK 272030Z NIL=
####018003679####
SAUS70 KWBC 272040
METAR
PAAK 272036Z 29020G25KT 10SM FEW017 FEW029 OVC065 03/00 A2999 RMK
     AO1=
PABL 272036Z AUTO 18016G26KT 10SM SCT025 SCT030 BKN042 01/M04
     A3018 RMK AO1=
PABV 272036Z AUTO 00000KT 10SM CLR M05/M06 A3046 RMK AO1=
PAEM 272036Z AUTO 16018G23KT 10SM BKN009 OVC034 M01/M03 A3016 RMK
     AO1=
PAFE 272036Z AUTO 00000KT 10SM CLR 06/M01 A3042 RMK AO1=
PAFM 272036Z AUTO 20007KT 9SM BKN014 OVC023 M01/M02 A3026 RMK
     AO1=
PAGL 272036Z AUTO 16018KT 10SM OVC022 M01/M03 A3022 RMK AO1=
PAGS 272036Z AUTO 00000KT 10SM CLR 05/M02 A3044 RMK AO1 PNO=
PAHL 272036Z AUTO 17008KT 10SM OVC028 M01/M04 A3031 RMK AO1=
PAHP 272036Z AUTO 17019KT 9SM OVC004 M01/M03 A3014 RMK AO1=
PAHY 272036Z AUTO 10SM CLR 08/M03 A3031 RMK AO1=
PAII 272036Z AUTO 13008KT 10SM BKN075 OVC080 02/01 A3032 RMK
     AO1=
PAIN 272036Z AUTO 00000KT 10SM CLR M09/M13 A3040 RMK AO1=
PAJC 272036Z AUTO 14007G14KT 9SM BKN012 OVC020 03/00 A3028 RMK AO1
     P0002=
PAKK 272036Z AUTO 19013KT 10SM OVC021 A3023 RMK AO1=
PAKP 272036Z AUTO 23012KT 7SM FEW016 BKN095 M06/M10 A3014 RMK
     AO1=
PAMD 272036Z 11006KT 10SM OVC013 05/03 A3045 RMK AO1=
PAMH 272036Z AUTO 00000KT 10SM CLR M12/M14 A3036 RMK AO1=
PAMM 272036Z AUTO 34008KT 10SM CLR 08/M04 A3032 RMK AO1=
PANI 272036Z AUTO 12008KT 10SM CLR M05/M08 A3033 RMK AO1=
PANV 272036Z AUTO 16006KT 10SM OVC020 M02/M06 A3027 RMK AO1=
PAPH 272036Z AUTO 14018KT 10SM OVC075 04/M02 A3025 RMK AO1=
PARC 272036Z AUTO 00000KT 10SM CLR M20/ A3011 RMK AO1=
PASD 272036Z 04004KT 10SM SCT012 BKN016 OVC020 04/04 A3020 RMK AO1
     WEA: -RA (KH)=
PASK 272036Z AUTO 21014G21KT 10SM OVC060 01/M02 A3020 RMK AO1=
PASL 272036Z AUTO 15005KT 10SM OVC009 M05/M11 A3039 RMK AO1=
PASM 272036Z AUTO 16013G18KT 10SM SCT014 OVC030 M02/M06 A3022 RMK
     AO1=
PATG 272036Z AUTO 08004KT 10SM OVC014 01/M02 A3031 RMK AO1=
PAUN 272036Z AUTO 17010KT 10SM OVC024 M01/M04 A3029 RMK AO1=
PAWG 272036Z 32009KT 10SM CLR 06/M03 A3039 RMK AO1 WEA:NONE
     (KB)=
PAWS 272036Z AUTO 00000KT 10SM CLR M03/M09 A3042 RMK AO1=
PAZK 272036Z AUTO 07005KT 10SM CLR M12/M13 A3035 RMK AO1=
PFYU 272036Z 24008KT 10SM CLR M02/M06 A3032 RMK AO1 SCT CI ABV
     120=
K05U 272035Z AUTO 26004KT 3SM SCT026 BKN034 03/M04 A2971 RMK
     AO1=
K19A 272035Z AUTO 30004KT 10SM CLR 10/M05 A3033 RMK AO2=
K1A5 272035Z AUTO 00000KT 10SM 07/M14 A3032 RMK AO2 T00671138=
K1A9 272035Z AUTO 04005KT 10SM CLR 09/M03 A3035 RMK AO2
     T00911026=
K1K1 272035Z AUTO 15004KT 2SM -SN SCT023 OVC035 M09/M14 A3050 RMK
     AO2 T10911136=
K1P1 272035Z AUTO 28009G14KT 10SM CLR M06/M19 A3032 RMK AO2
     T10591188=
K2D5 272035Z AUTO 19009KT 10SM M10/M16 A3039 RMK AO2=
K36U 272035Z AUTO 27003KT 10SM SCT044 BKN050 OVC100 03/M06 A2973
     RMK AO2=
K3I2 272035Z AUTO 00000KT 10SM SCT043 M03/M14 A3059 RMK AO2=
K3J7 272035Z AUTO 25004KT 10SM CLR 13/00 A3028 RMK AO2=
K4A9 272035Z AUTO 03005KT 10SM CLR 03/M11 A3041 RMK AO2=
K4O4 272035Z AUTO 04004KT 1SM OVC008 M02/M06 A3050 RMK AO2=
K5C1 272035Z AUTO 03007KT 3SM OVC006 00/M01 A3027 RMK AO1=
K65S 272035Z AUTO 09004KT 10SM OVC050 05/M08 A2988 RMK AO2=
K6A2 272035Z AUTO 34004KT 10SM CLR 11/M03 A3033 RMK AO2=
K7W4 272035Z AUTO 05003KT 10SM OVC050 02/M08 A3043 RMK AO1
     T00181085=
K82V 272035Z AUTO 18016G21KT 7SM OVC028 M08/M14 A2995 RMK AO2=
KAAA 272035Z AUTO 00000KT 10SM BKN027 M09/M16 A3066 RMK AO2
     T10931157=
KACQ 272019Z AUTO 21007KT 10SM CLR M11/M17 A3054 RMK AO2=
KAEJ 272035Z AUTO 00000KT 7SM SCT011 BKN018 OVC070 M09/M13 A2975
     RMK AO2 T10901134=
KAJG 272035Z AUTO 34005KT 10SM CLR M05/M16 A3063 RMK AO2=
####018003740####
SAUS70 KWBC 272040 RRA
METAR
KAJZ 272035Z AUTO 21004KT 10SM SCT007 BKN038 OVC060 02/00 A2979
     RMK AO2 P0001 T00211002=
KANW 272035Z AUTO 19012G17KT 10SM CLR M05/M20 A3025 RMK AO2
     T10471200=
KASN 272035Z AUTO 36006KT 10SM CLR 06/M04 A3042 RMK AO2
     T00611042=
KASW 272035Z AUTO 28005KT 10SM OVC036 M08/M15 A3057 RMK AO2=
KAUN 272035Z AUTO 23006KT 10SM FEW032 14/07 A2977 RMK AO1=
KAVK 272035Z AUTO 10007KT 3SM -SN CLR M09/M13 A3049 RMK AO2
     P0001=
KAXS 272035Z AUTO 06009KT 2SM -SN OVC007 M07/M10 A3046 RMK AO2 VIS
     1 1/4V3 T10701103=
KAXX 272035Z AUTO 24012G18KT 1SM -SN OVC009 M04/M07 A2980 RMK AO2
     T10401071=
KAZC 272035Z AUTO 25004KT 10SM OVC060 10/M05 A2975 RMK AO2
     T01011055=
KBAC 272035Z AUTO 21009KT 10SM CLR M11/M17 A3036 RMK AO2=
KBBD 272035Z AUTO 06008KT 3SM BR OVC009 M03/M04 A3028 RMK=
KBCK 272035Z AUTO 26009KT 10SM CLR M09/M22 A3053 RMK AO2
     T10911219=
KBDG 272035Z AUTO 00000KT 10SM OVC014 00/M03 A2987 RMK AO1
     T10011028=
KBEA 272035Z AUTO 05010G15KT 10SM OVC020 10/04 A3023 RMK AO2
     T00950042=
KBGE 272035Z AUTO 09007KT 10SM CLR 15/05 A3030 RMK AO2=
KBHC 272035Z AUTO 06007KT 030V100 10SM SCT037 12/03 A3031 RMK
     AO2=
KBKS 272035Z AUTO 04008KT 10SM OVC018 12/06 A3019 RMK AO1
     T01190061=
KBPC 272035Z AUTO 14009KT 10SM -SN OVC023 M07/M12 A3031 RMK
     AO2=
KBTA 272035Z AUTO 18003KT 10SM CLR M08/M15 A3051 RMK AO2
     T10821153=
KBVS 272035Z AUTO 34005KT 10SM BKN038 OVC055 08/08 A2983 RMK A01
     P001=
KBXK 272035Z AUTO 16005KT 10SM CLR 22/M02 A2969 RMK AO1=
KBYY 272035Z AUTO 04011G16KT 7SM OVC017 06/03 A3030 RMK AO2
     T00700034=
KCCO 272035Z AUTO 36008KT 10SM CLR 09/M02 A3034 RMK AO2
     T00941025=
KCKF 272035Z AUTO 01007KT 10SM CLR 14/01 A3031 RMK AO2
     T01400011=
KCLK 272035Z AUTO 7SM -SN OVC018 M07/M12 A3045 RMK AO2 TSNO=
KCLW 272035Z AUTO 06010KT 10SM OVC028 17/10 A3016 RMK AO2=
KCNI 272035Z AUTO 29006KT 10SM CLR 05/M08 A3036 RMK AO2=
KCRX 272035Z AUTO 02007G15KT 10SM CLR 03/M11 A3048 RMK AO2=
KCWV 272035Z AUTO 07006KT 10SM CLR 12/03 A3033 RMK AO2=
KCXP 272035Z AUTO 26017G25KT 10SM FEW080 11/M07 A2968 RMK AO2=
KCZT 272035Z AUTO 04006KT 2 1/2SM DZ BKN006 OVC013 02/01 A3026 RMK
     AO2=
KD50 272035Z AUTO 18008KT 10SM CLR M09/M16 A3013 RMK AO2=
KDPL 272035Z AUTO 01003KT 7SM SCT050 10/M03 A3039 RMK AO2
     T00951030=
KDUA 272035Z AUTO 04010KT 2 1/2SM -SN BKN010 OVC014 M03/M06 A3048
     RMK AO2=
KDUX 272035Z AUTO 15008KT 5SM -SN BKN010 OVC016 M07/M13 A3020 RMK
     AO2 T10721133=
KDVO 272035Z AUTO 27010G18KT CLR 16/09 A2982 RMK AO2=
KDZB 272035Z AUTO 05006KT 3SM UP BKN010 OVC017 00/M02 A3031 RMK
     AO2 T10021022=
KE16 272035Z AUTO 25004KT 10SM BKN035 BKN043 BKN055 15/10 A2985
     RMK AO2=
KECS 272035Z AUTO 14016G25KT 10SM OVC029 M07/M13 A2997 RMK AO2=
KEDE 272035Z AUTO 04006KT 10SM SCT043 08/M01 A3039 RMK AO2
     T00781009=
KEDN 272035Z AUTO 35010G14KT 10SM CLR 12/00 A3029 RMK AO2=
KEHO 272035Z AUTO 20004KT 10SM CLR 09/M05 A3034 RMK AO2
     T00861052=
KEHY 272035Z AUTO 10SM CLR M03/M11 A2970 RMK AO2=
KELK 272035Z AUTO 08008KT 4SM -SN OVC016 M08/M12 A3045 RMK AO2=
KEQA 272035Z AUTO 12005KT 2SM -SN OVC023 M07/M13 A3050 RMK AO2=
KFEP 272035Z AUTO 22006KT 10SM CLR M12/M19 A3060 RMK AO2
     T11221195=
PAAD 272035Z AUTO 27021KT 6SM BR SCT029 BKN120 M05/M06 A3014 RMK
     AO2=
PAUT 272035Z AUTO 10009KT 7SM BKN007 OVC012 04/04 A3007 RMK AO2
     T00410040=
KFOT 272035Z AUTO 34010KT 10SM FEW014 SCT050 10/09 A2989 RMK AO1
     P0005=
KFRR 272035Z AUTO 31011G14KT 10SM SCT060 00/M13 A3042 RMK AO1=
KFTN 272130Z AUTO 01007KT BKN006 OVC011 02/02 A3026 RMK AO1=
####018003745####
SAUS70 KWBC 272040 RRB
METAR
KFVX 272035Z AUTO 28004KT 10SM CLR 08/M10 A3039 RMK AO2
     T00801103=
KFWZ 272035Z AUTO 22009KT 10SM CLR M06/M11 RMK AO2=
KGCM 272035Z AUTO 05009KT 3SM -SN M08/M11 A3058 RMK AO2 SKY
     OBSCURED=
KGEV 272035Z AUTO 28006KT 10SM CLR M01/M12 A3029 RMK AO2
     T10121122=
KGOO 272040Z AUTO 29007KT 10SM BKN031 BKN046 10/02 A2977 RMK
     AO1=
KGZL 272035Z AUTO 09007KT 3/4SM -SN VV005 M06/M10 A3054 RMK
     AO2=
KHBI 272035Z AUTO 00000KT 10SM SCT049 05/M05 A3040 RMK AO2
     T00531046=
KHHF 272035Z AUTO 12009KT 4SM -SN OVC021 M08/M11 A3035 RMK AO2
     T10761111=
KHNZ 272035Z AUTO 00000KT 10SM SCT055 05/M09 A3039 RMK AO2
     T00541086=
KHVE 272035Z AUTO 00000KT 10SM CLR 07/M05 A2977 RMK AO2=
KI39 272035Z AUTO 05004KT 10SM SCT033 M06/M14 A3056 RMK AO2=
KICL 272035Z AUTO 00000KT 10SM CLR M07/M17 A3057 RMK AO2=
KIFP 272035Z AUTO 33009KT 10SM CLR 20/M03 A2967 RMK AO2 PWINO=
KIGQ 272035Z AUTO 26009KT 10SM CLR M09/M19 A3060 RMK AO2
     T10931190=
KIPJ 272035Z AUTO 34003KT 10SM SCT050 09/M05 A3034 RMK AO2
     T00901049=
KIXA 272035Z AUTO 34005KT 10SM CLR 07/M05 A3039 RMK AO2=
KJSV 272035Z AUTO 07003KT 1SM -SN OVC007 M05/M08 A3056 RMK AO2=
KLHB 272035Z AUTO 03005KT 10SM SCT028 OVC050 03/M03 A3039 RMK AO2
     T00261032=
KLHM 272035Z AUTO 17009KT 10SM CLR 18/07 A2976 RMK AO1=
KLNC 272035Z AUTO 04011KT 10SM -DZ BKN014 OVC050 M02/M06 A3043 RMK
     AO2 T10211057=
KLOM 272035Z AUTO 27006KT 10SM CLR M01/M13 A3042 RMK AO1=
KLUA 272035Z AUTO 31004KT 10SM CLR 03/M10 A3041 RMK AO2=
KLUM 272035Z AUTO 25005KT 10SM CLR M10/M18 A3052 RMK AO2
     T10971185=
KLVL 272035Z AUTO 33008KT 10SM BKN055 05/M06 A3039 RMK AO1
     T00531065=
KMCX 272035Z AUTO 28005KT 10SM CLR M10/M17 A3062 RMK AO2
     T10991174=
KMDQ 272035Z AUTO 36008KT 10SM CLR 02/M11 A3046 RMK AO2=
KMEV 272035Z AUTO 27014G25KT 10SM BKN070 OVC085 09/M08 A2971 RMK
     AO2=
KMFV 272035Z AUTO 34008G16KT 10SM BKN026 OVC033 00/M05 A3046 RMK
     AO2=
KMHV 272035Z AUTO 23015G21KT 10SM SCT042 OVC049 14/04 A2976 RMK
     AO1=
KMNZ 272035Z AUTO 03009KT 4SM BR OVC006 M03/M03 A3035 RMK AO2
     T10351035=
KSVC 272035Z AUTO 14010G17KT 10SM CLR 08/M04 A2990 RMK AO2=
KSZT 272035Z AUTO 02013G18KT 10SM BKN065 07/M05 A2984 RMK AO2=
KTMK 272035Z AUTO 00000KT 3SM RA SCT016 BKN029 OVC090 11/08 A2973
     RMK AO2 P0001=
KTTA 272035Z AUTO 34006KT 10SM CLR 08/M03 A3038 RMK AO2
     T00811030=
KTYQ 272035Z AUTO 31005KT 10SM CLR M09/M19 A3060 RMK AO2
     T10911190=
KUSE 272035Z AUTO 26009KT 10SM CLR M09/M20 A3058 RMK AO2=
KUVA 272035Z AUTO 04007KT 3SM BR BKN007 OVC013 02/01 A3027 RMK AO2
     T00150005=
KVDI 272035Z AUTO 08006KT 10SM CLR 12/03 A3032 RMK AO2=
KVJI 272035Z AUTO 29005KT 10SM BKN032 OVC039 00/M09 A3040 RMK AO2
     T00011093=
KVKS 272040Z AUTO 35009KT 10SM CLR 05/M03 A3040 RMK A01=
KW31 272035Z AUTO 29006KT 10SM CLR 06/M09 A3039 RMK AO1
     T00561093=
KW43 272035Z AUTO 19010G17KT 10SM CLR M05/M12 A2993 RMK AO2=
KW63 272035Z AUTO 33004KT 10SM CLR 05/M07 A3040 RMK AO1=
KW81 272035Z AUTO 27006KT 10SM CLR 05/M10 A3040 RMK AO1
     T00531100=
KXBP 272035Z AUTO 05007KT 2SM -SN OVC010 M05/M06 A3046 RMK AO2 VIS
     1 1/2V3 T10511061=
KZPH 272035Z AUTO 00000KT 10SM OVC023 15/07 A3020 RMK AO2 LTG DSNT
     SE AND S=
PAAD 272035Z AUTO 27021KT 6SM BR SCT029 BKN120 M05/M06 A3014 RMK
     AO2=
PAUT 272035Z AUTO 10009KT 7SM BKN007 OVC012 04/04 A3007 RMK AO2
     T00410040=
KMQB 272035Z AUTO 31005KT 10SM CLR M13/M18 A3067 RMK AO2
     T11261184=
KMQS 272035Z AUTO 33011G15KT 10SM CLR M03/M12 A3042 RMK AO2=
KMVH 272035Z AUTO 33010G16KT 10SM FEW036 M06/M15 A2988 RMK A01=
####018000089####
SPAG31 KWBC 272040
SPECI
SARI 272035Z 18008KT 9999 SCT020 BKN070 25/23 Q1011 RETS=
####018003704####
SAUS70 KWBC 272040 RRC
METAR
KN38 272035Z AUTO VRB05G11KT 10SM CLR M08/M19 A3035 RMK AO2=
KO69 272035Z AUTO 26016G22KT 10SM FEW050 15/09 A2983 RMK AO1=
KOBE 272035Z AUTO 01010G15KT 5SM BR BKN008 BKN022 OVC027 13/12
     A3016 RMK AO2 LTG DSNT N AND W=
KOKV 272035Z AUTO 30016KT 10SM CLR 00/M16 A3044 RMK AO2=
KOLE 272035Z AUTO 29008G14KT 5SM HZ CLR M11/M21 A3035 RMK AO2=
KONX 272035Z AUTO 04009KT 10SM BKN044 03/M05 A3042 RMK AO2
     T00331053=
KOWP 272035Z AUTO 05007KT 1 1/2SM -SN OVC012 M07/M11 A3052 RMK AO2
     T10681110=
KOXI 272035Z AUTO 26007KT 10SM M09/M27 A3060 RMK AO1=
KPBH 272035Z AUTO 23008KT 10SM CLR M10/M20 A3038 RMK AO2
     T11011205=
KPCZ 272035Z AUTO 27007G15KT 10SM CLR M07/M20 A3050 RMK AO2
     T10661203=
KPEZ 272035Z AUTO 01009KT 10SM -SN OVC021 04/M02 A3028 RMK AO2
     T00351023=
KPRO 272035Z AUTO 00000KT 10SM M11/M16 A3058 RMK AO2 T11111163=
KPUJ 272035Z AUTO 32006KT 10SM CLR 06/M03 A3037 RMK AO2=
KPVJ 272035Z AUTO 05005KT 1SM -SN OVC010 M08/M10 A3048 RMK AO2
     P0001 T10781099=
KRCE 272035Z AUTO 07007KT 5SM -SN FEW013 M08/M10 A3048 RMK AO2
     P0006=
KRCZ 272035Z AUTO 22004KT 10SM 10/M02 A3035 RMK AO2 T01001025=
KRNC 272035Z AUTO VRB04KT 10SM CLR M01/M11 A3047 RMK=
KRNV 272035Z AUTO 05013G17KT 10SM CLR 01/M04 A3046 RMK AO2
     T00131040=
KRPD 272035Z AUTO 26005KT 10SM CLR M11/M20 A3049 RMK AO2
     T11061204=
KRSN 272035Z AUTO 01007KT 10SM OVC090 03/M05 A3049 RMK AO2
     T00311050=
KRTS 272035Z AUTO 27018G25KT 10SM FEW070 FEW100 09/M05 A2967 RMK
     AO2=
KRYW 272035Z AUTO 04009KT 4SM UP OVC018 00/M03 A3030 RMK AO2
     T00001030=
KRZL 272035Z AUTO 28004KT 10SM CLR M08/M17 A3061 RMK AO2=
KSAA 272035Z AUTO 00000KT 10SM SCT060 M03/M11 A2975 RMK AO2=
KSCD 272035Z AUTO 02005KT 10SM CLR 07/M04 A3040 RMK AO2
     T00681039=
KSIF 272035Z AUTO 31003KT 10SM CLR 07/M08 A3038 RMK AO2
     T00651081=
KSJS 272035Z AUTO 03006KT 10SM BKN043 M03/M13 A3052 RMK AO2
     T10341133=
KSNL 272035Z AUTO 04003KT 1 1/4SM -SN VV007 M05/M07 A3051 RMK
     AO2=
K0E0 272035Z AUTO 14009KT 10SM OVC009 M08/M11 A2996 RMK AO2
     T10791109=
K0F2 272035Z AUTO 03003KT 1 1/4SM -SN BKN012 BKN021 OVC027 M06/M08
     A3043 RMK AO2 T10601076=
K0V4 272035Z AUTO 32006KT 10SM CLR 05/M07 A3040 RMK AO1
     T00531068=
K0VG 272035Z AUTO 00000KT 10SM CLR 00/M12 A3047 RMK AO2=
K11R 272035Z AUTO 06005KT 10SM BKN024 06/00 A3034 RMK AO2
     T00610000=
K1A6 272035Z AUTO 01007KT 10SM CLR M01/M12 A3049 RMK AO2
     T10151117=
K1H2 272035Z AUTO 30005KT 10SM CLR M09/M18 A3065 RMK AO2
     T10861185=
K1L0 272035Z AUTO 04006KT 10SM CLR 12/02 A3033 RMK AO2
     T01180017=
K3R7 272035Z AUTO 04007KT 10SM CLR 09/00 A3033 RMK AO2
     T00880002=
K54J 272035Z AUTO 03010KT 10SM CLR 14/00 A3028 RMK AO2
     T01351003=
K66R 272035Z AUTO 07008KT 7SM OVC018 06/02 A3029 RMK AO2
     T00600015=
K6B0 272035Z AUTO 34003KT 10SM CLR M07/M22 A3036 RMK AO2
     T10701220=
K6R3 272033Z AUTO 00000KT 10SM SCT100 09/01 A3035 RMK AO2=
K7L2 272035Z AUTO 17014KT 10SM CLR M09/M16 A3028 RMK AO2=
K8W2 272035Z AUTO 30004KT 10SM BKN055 00/M13 A3040 RMK AO1
     T10011127=
KADU 272035Z AUTO 00000KT 10SM CLR M11/M18 A3054 RMK AO2=
KAFK 272035Z AUTO 11007KT 10SM CLR M07/M20 A3052 RMK AO2
     T10691199=
KAFP 272035Z AUTO 33004KT 10SM CLR 11/M03 A3036 RMK AO2
     T01061026=
KAHQ 272035Z AUTO 17004KT 10SM CLR M07/M17 A3051 RMK AO2
     T10751174=
KAIO 272035Z AUTO 00000KT 10SM CLR M11/M18 A3055 RMK AO2=
KALX 272035Z AUTO 01009KT 10SM CLR 10/M06 A3035 RMK AO2
     T01001065=
KAQO 272035Z AUTO 06008KT 8SM OVC017 00/M03 A3036 RMK AO2=
####018003711####
SAUS70 KWBC 272040 RRD
METAR
KATP 272035Z AUTO 08019KT 10SM SCT032 BKN039 17/10 A3017 RMK
     A01=
KBBF 272035Z AUTO 08022KT 6SM HZ FEW020 SCT025 14/10 A3019 RMK
     A01=
KBQX 272035Z AUTO 07018G24KT 10SM SCT018 BKN024 OVC031 12/08 A3024
     RMK A01=
KBWD 272035Z AUTO 04007KT 5SM BR OVC012 M04/M06 A3035 RMK AO2=
KC29 272035Z AUTO 21007KT 10SM CLR M08/M21 A3053 RMK AO1
     T10761210=
KCDA 272035Z AUTO 26008G14KT 10SM CLR M09/M25 A3030 RMK AO2
     T10901255=
KCOM 272035Z AUTO 04009KT 5SM BR OVC009 M04/M05 A3033 RMK AO2
     T10451055=
KCPK 272035Z AUTO 01009KT 10SM OVC050 03/M02 A3044 RMK AO2=
KCQB 272035Z AUTO 09007KT 1SM -SN OVC009 M06/M07 A3052 RMK AO2=
KCQF 272035Z AUTO 02010G18KT 10SM CLR 12/00 A3028 RMK AO2=
KCRH 272035Z AUTO 07017KT 9SM BKN023 OVC028 09/05 A3029 RMK
     A01=
KCUH 272035Z AUTO 07005KT 1 1/4SM -SN OVC007 M07/M10 A3053 RMK
     AO2=
KCVW 272035Z AUTO 05011KT 10SM CLR 09/01 A3034 RMK A01=
KCWC 272035Z AUTO 05009KT 7SM BKN017 OVC023 M05/M08 A3047 RMK AO2
     T10531082=
KDLP 272035Z AUTO 07011G19KT 10SM FEW021 OVC028 12/05 A3025 RMK
     A01=
KDNS 272035Z AUTO 18003KT 10SM CLR M12/M20 A3052 RMK AO2=
KDNV 272035Z AUTO 31004KT 10SM CLR M09/M17 A3059 RMK AO2
     T10911174=
KDQH 272035Z AUTO 06007KT 10SM BKN031 12/04 A3032 RMK AO2=
KDUC 272035Z AUTO 05008KT 7SM BKN014 BKN025 OVC035 M06/M08 A3046
     RMK AO2=
KEBG 272035Z AUTO 35008KT 10SM BKN025 OVC034 16/08 A3017 RMK AO2
     T01570084=
KEHC 272035Z AUTO 05022KT 10SM FEW018 10/06 A3025 RMK A01=
KEIR 272035Z AUTO 06023G29KT 8SM OVC020 09/05 A3027 RMK A01=
KEMK 272035Z AUTO 05024KT 10SM OVC023 16/10 A3020 RMK A01=
KEOK 272035Z AUTO 26003KT 10SM CLR M10/M19 A3063 RMK AO2=
KERV 272035Z AUTO 03008KT 3SM UP BKN009 OVC013 00/M01 A3025 RMK
     AO2 T10051015=
KEYF 272035Z AUTO 00000KT 10SM CLR 11/M01 A3036 RMK AO2
     T01111010=
KEZM 272035Z AUTO 02004KT 10SM CLR 14/04 A3033 RMK AO2
     T01400037=
KEZS 272035Z AUTO 26010G16KT 10SM CLR M07/M21 A3048 RMK AO2
     T10701208=
KF44 272035Z AUTO 04006KT 10SM OVC080 00/M08 A3042 RMK AO2=
KF46 272035Z AUTO 03014G19KT 7SM BKN008 BKN013 OVC030 M02/M04
     A3041 RMK AO2 T10251045=
KFET 272035Z AUTO 17004KT 10SM CLR M07/M16 A3051 RMK AO2
     T10681158=
KFHB 272035Z AUTO 03012G18KT 10SM CLR 12/06 A3029 RMK AO1=
KFKN 272035Z AUTO 04009KT 10SM SCT060 03/M03 A3042 RMK AO2
     T00251032=
KFSO 272035Z AUTO 02003KT 10SM CLR M09/M22 A3039 RMK AO2
     T10891216=
KGAO 272035Z AUTO 02007G15KT 10SM CLR 12/02 A3031 RMK AO2
     T01160016=
KGDJ 272035Z AUTO 36006KT 7SM -SN OVC014 M03/M06 A3043 RMK AO2
     T10311056=
KGGI 272035Z AUTO 00000KT 10SM CLR M13/M20 A3060 RMK AO2
     T11331196=
KGHB 272035Z AUTO 06021G29KT 9SM OVC023 14/10 A3022 RMK A01=
KGMJ 272035Z AUTO 07005KT 1 3/4SM -SN BKN010 BKN015 OVC023 M06/M11
     A3057 RMK AO2=
KGNC 272035Z AUTO 13011KT 7SM -SN OVC014 M06/M09 A3021 RMK AO2
     T10641090=
KGRY 272040Z AUTO 09012G24KT 050V160 10SM FEW029 BKN040 16/09
     A3018 RMK A01=
KGUL 272035Z AUTO 9SM OVC033 16/10 A3015 RMK A01=
KGVX 272035Z AUTO 06020KT 9SM BKN020 OVC024 11/07 A3027 RMK
     A01=
KGWB 272035Z AUTO 30004KT 10SM CLR M07/M19 A3058 RMK AO2=
KHDE 272035Z AUTO 14007KT 10SM BKN090 BKN120 M06/M20 A3035 RMK AO2
     T10641205=
KHHV 272035Z AUTO 08018KT 9SM CLR 18/10 A3018 RMK A01=
KHLX 272035Z AUTO 31011G14KT 10SM CLR M01/M10 A3032 RMK AO2
     T10151096=
KHQI 272035Z AUTO 04023KT 9SM OVC017 13/10 A3023 RMK A01=
KHQU 272035Z AUTO 32003KT 10SM CLR 14/03 A3036 RMK AO1
     T01400032=
KHSB 272035Z AUTO 02006KT 10SM SCT029 SCT080 M06/M12 A3064 RMK AO2
     T10571118=
####018003695####
SAUS70 KWBC 272040 RRE
METAR
KHZL 272035Z AUTO 28007KT 10SM CLR M06/M16 A3036 RMK AO2=
KI16 272035Z AUTO 10SM SCT035 M02/M10 A3050 RMK AO2 T10181103=
KIBM 272035Z AUTO 16019G24KT 3SM -SN SCT009 SCT013 OVC031 M08/M12
     A2996 RMK AO2 T10821123=
KIER 272035Z AUTO 02006KT 10SM CLR 06/M03 A3041 RMK AO2
     T00621033=
KIIY 272035Z AUTO 00000KT 10SM CLR 14/03 A3032 RMK AO2=
KIKK 272035Z AUTO 26005KT 10SM CLR M11/M18 A3063 RMK AO2
     T11111176=
KIKT 272035Z AUTO 05012G25KT 10SM BKN028 BKN032 14/08 A3020 RMK
     A01=
KIKV 272035Z AUTO 00000KT 10SM CLR M12/M19 A3060 RMK AO2=
KINF 272035Z AUTO 05009KT 10SM BKN040 18/04 A3019 RMK AO2 LTG DSNT
     S=
KIOB 272035Z AUTO 00000KT 10SM SCT033 M06/M13 A3058 RMK AO2=
KIPN 272035Z AUTO 06021KT 10SM BKN026 OVC031 15/09 A3020 RMK
     A01=
KJAS 272035Z AUTO 00000KT 10SM BKN100 08/M02 A3037 RMK AO2
     T00841017=
KJDD 272035Z AUTO 03007KT 10SM BKN060 BKN075 00/M10 A3045 RMK
     AO2=
KJFZ 272035Z AUTO 28005KT 10SM OVC025 M04/M12 A3038 RMK AO2
     T10451123=
KJSO 272035Z AUTO 04007KT 10SM OVC080 00/M06 A3040 RMK AO2
     T00051065=
KJWG 272035Z AUTO 04008KT 10SM -SN SCT024 SCT037 OVC065 M08/M12
     A3046 RMK AO2 T10801119=
KJWY 272035Z AUTO 04008KT 7SM BKN013 BKN021 OVC050 M02/M04 A3041
     RMK AO2 T10211042=
KJXI 272035Z AUTO 04009KT 10SM BKN050 OVC065 M01/M09 A3044 RMK AO2
     T10111089=
KL18 272035Z AUTO 23012G17KT 10SM BKN027 BKN034 OVC043 17/10 A2982
     RMK AO2=
KLCG 272035Z AUTO 15007KT 10SM CLR M07/M16 A3048 RMK AO2
     T10731163=
KLCQ 272035Z AUTO 06006KT 10SM CLR 10/02 A3028 RMK AO2=
KLNN 272035Z AUTO 30007KT 10SM CLR M11/M17 A3059 RMK AO1
     T11081169=
KLUD 272035Z AUTO 04007KT 1 3/4SM -SN OVC006 M05/M07 A3042 RMK AO2
     T10531074=
KM30 272035Z AUTO 05005KT 10SM SCT038 M03/M12 A3059 RMK AO2
     T10341120=
KMAN 272035Z AUTO 14010KT 10SM CLR 10/02 A2969 RMK AO1=
KMDJ 272035Z AUTO 06020G28KT 10SM OVC022 12/08 A3028 RMK A01=
KMGR 272035Z AUTO 06005KT 10SM CLR 11/04 A3030 RMK AO2=
KMIS 272035Z AUTO 07021KT 8SM BKN024 11/05 A3027 RMK A01=
KMOR 272035Z AUTO 28003KT 10SM CLR 00/M09 A3045 RMK=
KMWO 272035Z AUTO 35007KT 320V020 10SM BKN043 M06/M18 A3061 RMK
     AO2 T10601184=
KMZG 272035Z AUTO 05016G23KT 5SM HZ BKN022 BKN028 16/11 A3020 RMK
     A01=
KOCW 272035Z AUTO 36008KT 10SM CLR 08/M01 A3040 RMK AO2
     T00801013=
KOJA 272035Z AUTO 06008KT 7SM -SN OVC017 M08/M12 A3044 RMK AO2=
KOLG 272035Z AUTO 22008KT 10SM CLR M08/M20 A3041 RMK AO1=
KONM 272035Z AUTO 12008KT 10SM 02/00 A2991 RMK AO2 T00201001=
KONP 272035Z AUTO 21006KT 7SM RA SCT004 BKN012 BKN023 10/08 A2977
     RMK AO2 P0001=
KOPN 272035Z AUTO 01006KT 320V050 10SM CLR 13/M02 A3033 RMK
     AO2=
KORG 272035Z AUTO 04007KT 10SM CLR 10/00 A3033 RMK AO2
     T01040003=
KPBX 272035Z AUTO 30003KT 10SM OVC037 M06/M13 A3050 RMK AO2
     T10561135=
KPDC 272035Z AUTO 24009KT 10SM CLR M11/M21 A3059 RMK AO2
     T11111208=
KPEQ 272035Z AUTO 06011KT 5SM BR OVC008 M04/M05 A3022 RMK AO2
     T10361047=
KPGV 272035Z AUTO 36006KT 10SM CLR 08/M03 A3039 RMK AO2=
KPLU 272035Z AUTO 00000KT 10SM -DZ SCT010 SCT044 10/10 A2974 RMK
     AO2=
KPPO 272035Z AUTO 22006KT 10SM CLR M07/M18 A3058 RMK AO2
     T10751177=
KPPQ 272035Z AUTO 22003KT 10SM CLR M10/M19 A3064 RMK AO2
     T11001187=
KPTT 272035Z AUTO 14006KT 1 1/2SM -SN BKN010 OVC014 M09/M13 A3044
     RMK AO2=
KRCM 272035Z AUTO 01005KT 10SM OVC080 M07/M17 A3058 RMK AO2=
KRHP 272035Z AUTO 24008KT 10SM CLR 04/M03 A3034 RMK AO2
     T00351028=
KRPH 272035Z AUTO 03004KT 7SM SCT014 BKN019 OVC047 M05/M07 A3041
     RMK AO2 T10511071=
####018000253####
SAXX60 KWBC 272040
METAR
KMCC 272035Z AUTO 19005KT 10SM SCT037 17/08 A2978 RMK AO2=
KAPY 272035Z AUTO 35007KT 10SM OVC013 05/01 A3022 RMK AO2
     T00500014=
KGBK 272035Z AUTO 04023G30KT 10SM SCT029 BKN039 OVC046 17/11 A3015
     RMK A01=
####018002025####
SAUS70 KWBC 272040 RRF
METAR
KRPJ 272035Z AUTO 22009KT 10SM CLR M13/M18 A3061 RMK AO2
     T11281179=
KRRL 272035Z AUTO 22009G14KT 10SM CLR M10/M20 A3043 RMK AO2
     T11011201=
KRSV 272035Z AUTO 32005KT 10SM CLR M07/M16 A3064 RMK AO2
     T10741157=
KS25 272035Z AUTO 16012KT 10SM CLR M05/M15 A3008 RMK AO2=
KSDA 272035Z AUTO 00000KT 10SM CLR M08/M17 A3056 RMK AO2=
KSHD 272035Z AUTO 03005KT 10SM CLR 01/M11 A3039 RMK AO2
     T00091109=
KSLO 272035Z AUTO 35005KT 10SM CLR M08/M17 A3063 RMK AO2
     T10771168=
KSLR 272035Z AUTO 03009G15KT 5SM -SN SCT011 BKN016 OVC034 M02/M05
     A3049 RMK AO2 T10251050=
KSPR 272035Z AUTO 06023G29KT 6SM HZ BKN017 OVC021 10/06 A3025 RMK
     A01=
KSQE 272035Z AUTO 06020G27KT 9SM BKN021 OVC030 14/10 A3022 RMK
     A01=
KSUT 272035Z AUTO 00000KT 10SM CLR 09/01 A3036 RMK AO2
     T00890014=
KT20 272035Z AUTO 03007KT 7SM OVC016 05/01 A3029 RMK AO2
     T00490009=
KTIP 272035Z AUTO 30005KT 10SM CLR M09/M17 A3061 RMK AO2
     T10871171=
KTNB 272035Z AUTO 30013G16KT 10SM CLR M02/M09 A3030 RMK AO2
     T10171091=
KTOC 272035Z AUTO 00000KT 10SM CLR 11/M07 A3032 RMK AO2
     T01111071=
KTQH 272035Z AUTO 09006KT 1 1/2SM -SN BKN007 OVC012 M06/M11 A3054
     RMK AO2 VIS 1V5=
KTVK 272035Z AUTO 00000KT 10SM CLR M11/M18 A3059 RMK AO2=
KUBE 272035Z AUTO 28006KT 10SM CLR M11/M20 A3045 RMK AO2=
KVAF 272035Z AUTO 07020KT 6SM HZ SCT023 BKN036 OVC046 15/11 A3018
     RMK A01=
KVBS 272035Z AUTO 12010G16KT 10SM BKN025 07/01 A3031 RMK A01=
KVKY 272035Z AUTO 07019G25KT 10SM BKN023 11/06 A3028 RMK A01=
KVOA 272035Z AUTO 05022KT 10SM BKN027 12/06 A3025 RMK A01=
KVQT 272035Z AUTO 07019G24KT 8SM FEW015 OVC022 11/08 A3024 RMK
     A01=
KW75 272035Z AUTO 35005KT 10SM BKN031 OVC038 00/M06 A3046 RMK AO1
     T10051065=
KXIH 272035Z AUTO 08017KT OVC018 08/03 A3030 RMK A01=
KXPY 272035Z AUTO 04016G23KT 9SM OVC022 09/04 A3032 RMK A01=
KXSA 272035Z AUTO 33005KT 10SM CLR 01/M11 A3047 RMK AO2
     T00141112=
####018000087####
SAUS70 KWBC 272100
METAR
KMKS 272055Z AUTO 01006KT 10SM CLR 11/00 A3034 RMK AO2=
####018001588####
SAUS80 KWBC 272040
METAR
PADK 272036Z AUTO 35011KT 10SM BKN041 02/M04 A3011 RMK AO1=
K2I0 272035Z AUTO 02007KT 10SM CLR M04/M13 A3060 RMK AO2
     T10411130=
K40J 272035Z AUTO 04010G17KT 10SM CLR 12/05 A3027 RMK AO2
     T01170048=
KAYS 272035Z AUTO 05011G15KT 10SM CLR 13/04 A3031 RMK AO2
     T01340042=
KCLI 272035Z AUTO 25008KT 10SM CLR M08/M21 A3048 RMK AO2=
KEDU 272035Z AUTO 28003KT 10SM CLR 18/05 A2976 RMK AO1=
KJNX 272035Z AUTO 00000KT 10SM CLR 09/M03 A3038 RMK AO2=
KLZZ 272035Z AUTO 03007KT 3SM BR BKN010 OVC015 M01/M02 A3032 RMK
     AO2 T10101020=
KVTI 272035Z AUTO 25004KT 10SM CLR M12/M18 A3062 RMK AO2
     T11221184=
KO86 272030Z AUTO 16010G14KT 10SM FEW060 SCT070 12/03 A2972 RMK
     AO1=
KPSN 272035Z AUTO 04006KT 10SM OVC080 01/M06 A3042 RMK AO2
     T00141060=
KS39 272040Z AUTO 27006KT 10SM FEW017 SCT022 BKN033 05/02 A2967
     RMK AO2=
KSEP 272035Z AUTO 02008KT 7SM OVC010 M05/M06 A3039 RMK AO2
     T10471065=
KCIR 272035Z AUTO 04006KT 10SM CLR M03/M12 A3061 RMK AO2
     T10311117=
KCUL 272035Z AUTO 36005KT 10SM CLR M05/M11 A3063 RMK AO2
     T10511113=
KDVK 272035Z AUTO 04003KT 10SM SCT032 M06/M15 A3057 RMK AO2=
KGIC 272035Z AUTO 08005KT 10SM CLR 07/M01 A2973 RMK AO1
     T00661014=
KPTS 272035Z AUTO 11005KT 10SM OVC046 M06/M16 A3054 RMK AO2
     T10621157=
KSFY 272035Z AUTO 26006KT 10SM CLR M11/M21 A3062 RMK AO2
     T11081207=
KSOA 272035Z AUTO 06007KT 7SM BKN009 OVC012 M01/M02 A3027 RMK
     AO2=
KTKV 272035Z AUTO 00000KT 10SM CLR M09/M21 A3039 RMK AO2
     T10891212=
####018000708####
SPUS70 KWBC 272040
SPECI
KCMA 272036Z 21009KT 10SM SCT023 BKN031 OVC038 18/10 A2981 RMK AO2
     T01780100=
KSWO 272036Z 06005KT 3SM -SN OVC036 M08/M14 A3052 RMK AO2 SFC VIS
     4 P0000 T10781144=
KXNA 272036Z 07007KT 2 1/2SM -SN BKN031 OVC036 M07/M14 A3050 RMK
     AO2 VIS 1 3/4V5 SNB19 P0000 T10721139=
KRTN 272036Z AUTO 19014KT 1 3/4SM -SN OVC012 M10/M13 A2993 RMK AO2
     P0000 T11001128=
PADE 272037Z AUTO VRB03KT 10SM SCT019 BKN025 06/M03 A3011 RMK AO2
     T00611033 TSNO=
KGKY 272037Z 04010KT 2SM -SN BKN012 BKN018 OVC033 M02/M06 A3042
     RMK AO2 P0001 T10221061=
KHDO 272037Z AUTO 05011KT 2 1/2SM -RA BR SCT006 OVC011 01/01 A3028
     RMK AO2 P0000 T00110011 $=
####018000228####
SAAO32 KWBC 272000 RRC
METAR
GABS 272030Z 05007KT 4000 DU NSC 26/M09 Q1015 NOSIG=
GAGO 272030Z NIL=
GAKY 272030Z NIL=
GAMB 272030Z NIL=
GANR 272030Z NIL=
GATB 272030Z NIL=
GQNI 272030Z NIL=
GQPP 272030Z NIL=
####018000193####
SAAO33 KWBC 272000 RRC
METAR
GGOV 272030Z NIL=
GOGG 272030Z NIL=
GOGS 272030Z NIL=
GOSS 272030Z NIL=
GOTT 272030Z NIL=
GUCY 272030Z NIL=
GULB 272030Z NIL=
GUNZ 272030Z NIL=
####018000090####
SAAS31 KWBC 272030 RRB
METAR
VOCI 272030Z 00000KT 4000 HZ FEW100 26/21 Q1009 NOSIG=
####018000149####
SAIO31 KWBC 272000 RRG
METAR
FMCZ 272030Z AUTO 31008KT 9999 FEW012/// BKN100/// 27/25 Q1009=
FMEE 272030Z AUTO 00000KT 9999 NSC 24/21 Q1008=
####018000257####
SAJP31 KWBC 272030 RRB
METAR
RJAA 272030Z 31011KT CAVOK 03/M07 Q1020 NOSIG RMK A3015 P/RR=
RJCC 272030Z 35010KT 9999 -SHSN FEW015 BKN020 BKN/// M02/M07 Q1016
     RMK 1ST015 6CU020 A3002=
RJTT 272030Z 31015KT CAVOK 04/M07 Q1020 NOSIG RMK A3014=
####018000123####
SAUS46 KMFR 272039
MTRSXT
SPECI KSXT 272038Z AUTO 00000KT 10SM FEW003 BKN007 BKN070 03/02 
A2974 RMK AO2 T00330022
####018000532####
SARS31 KWBC 272000 RRC
METAR
ULLI 272030Z 11001MPS 2100 BR BKN001 OVC040 M00/M00 Q1018 60//////
     10190055 TEMPO 0500 FZFG RMK QBB050 OBST OBSC=
ULMM 272030Z 20003G09MPS 150V240 9999 BKN025 00/M05 Q1008 NOSIG
     RMK QFE749 13190055=
UUDD 272030Z 15005MPS 2500 BR OVC002 01/01 Q1020 64290095 14290095
     TEMPO 1000 BR=
UUEE 272030Z 09005MPS 2500 BR OVC003 00/00 Q1020 07290145 57290151
     TEMPO 1000 BR OVC002=
UUWW 272030Z 12005MPS 1500 BR OVC002 00/00 Q1019 06290050 TEMPO
     0700 FG RMK QBB060=
####018001405####
SARA31 KWBC 272000 RRG
METAR
UEEE 272030Z 00000MPS 5000 -SN OVC100 M26/M28 Q1014 NOSIG RMK
     QFE751 23490150=
UHHH 272030Z 20002MPS CAVOK M18/M19 Q1023 NOSIG RMK QFE760/1014
     23090060=
UHMA 272030Z NIL=
UHMD 272030Z NIL=
UHMM 272030Z NIL=
UHPP 272030Z 01005MPS 010V080 9999 SCT020CB BKN046 M09/M15 Q1015
     NOSIG RMK MT OBSC QFE758/1011 SC070=
UHSS 272030Z 36009MPS 9999 SCT020CB M08/M11 Q1016 NOSIG RMK MT
     OBSC QFE761/1015 01820342=
UHWW 272030Z VRB02MPS 9999 SKC M09/M15 Q1030 NOSIG RMK 530005
     QFE771/1028 25450255=
UIAA 272030Z NIL=
UIBB 272030Z 23005MPS 5000 -SHSN BKN020CB OVC100 M08/M10 Q1013
     NOSIG RMK QFE716/0955 30490240=
UIII 272030Z VRB01MPS CAVOK M18/M20 Q1020 TEMPO 1500 BR FU RMK
     QFE720/0960 30450150=
UIUU 272030Z VRB01MPS 5000 BR FEW043CB BKN100 M20/M22 Q1020 NOSIG
     RMK QFE720/0960 26820550=
ULAA 272030Z 18004G07MPS 140V240 8000 OVC007 M02/M02 Q1023
     26920565 TEMPO 0300 FZFG OVC002 RMK QFE766/1021=
UNAA 272030Z 24008MPS 9999 SCT030CB OVC066 M01/M10 Q1022 NOSIG RMK
     QFE744 20190055=
UNNT 272030Z 23007MPS 9999 BKN009 OVC020 M04/M06 Q1021 25490150
     16490150 NOSIG RMK QFE756/1008=
USNN 272030Z 35003MPS 9999 BKN005 M03/M03 Q1020 TEMPO 2000 BR
     BKN005 RMK QFE760 QBB150 21490734=
UUEE 272030Z 09005MPS 2500 BR OVC003 00/00 Q1020 07290145 57290151
     TEMPO 1000 BR OVC002=
####018000576####
SARS33 KWBC 272000 RRB
METAR
USCC 272030Z 28005MPS CAVOK M04/M13 Q1032 27000060 NOSIG RMK
     QFE754=
USNN 272030Z 35003MPS 9999 BKN005 M03/M03 Q1020 TEMPO 2000 BR
     BKN005 RMK QFE760 QBB150 21490734=
USPP 272030Z 21004MPS CAVOK M06/M08 Q1032 21090060 NOSIG RMK
     QFE763/1017=
USRR 272030Z 32004MPS 7000 SCT010 BKN021 M03/M04 Q1022 TEMPO 2000
     BR BKN003 RMK QFE761 25////35=
USSS 272030Z 28004MPS CAVOK M02/M06 Q1031 7611//60 NOSIG RMK
     QFE753=
USTR 272030Z 32005MPS CAVOK M02/M07 Q1030 NOSIG RMK QFE762/1017
     21CLRD65 30CLRD65=
####018000804####
SARS32 KWBC 272000 RRB
METAR
URKA 272030Z NIL=
URKK 272030Z 07008G11MPS CAVOK 05/03 Q1015 NOSIG RMK QFE758
     SC065=
URMM 272030Z 11009G12MPS 3500 -DZ BR OVC003 03/02 Q1017 R12/290050
     NOSIG RMK QBB110 MT OBSC QFE735/0980=
URMN 272030Z NIL=
URMT 272030Z 11009G12MPS 0150 R07/0450N FG VV001 02/02 Q1016 NOSIG
     RMK QBB040 OBST OBSC QFE722 SC060=
URRR 272030Z 10009G12MPS P8000 BKN009 BKN100 03/02 Q1020 04CLRD70
     TEMPO 09012G17MPS=
URSS 272030Z 07004MPS 9999 BKN230 10/02 Q1010 NOSIG RMK
     R02/05005MPS QFE757 06000070 02//////=
URWA 272030Z 08004MPS 8000 SCT003 M03/M04 Q1029 NOSIG RMK QBB100
     OBST OBSC QFE773/1031 SC060=
URWI 272030Z NIL=
URWW 272030Z 08005MPS 0600 R11/P1500 FZFG OVC003 M01/M01 Q1027
     NOSIG RMK QBB090 OBST OBSC 11290055=
####018001193####
SARS41 KWBC 272000 RRB
METAR
UUBP 272030Z NIL=
UUEE 272030Z 09005MPS 2500 BR OVC003 00/00 Q1020 07290145 57290151
     TEMPO 1000 BR OVC002=
UUOO 272030Z 14005G08MPS 0300 R30/0750V1000U FG VV001 01/00 Q1023
     NOSIG RMK 30801042 QBB040=
UUWW 272030Z 12005MPS 1500 BR OVC002 00/00 Q1019 06290050 TEMPO
     0700 FG RMK QBB060=
UUYY 272030Z 00000MPS 6000 SCT200 M09/M10 Q1028 TEMPO 2000 BR FU
     01CLRD61 RMK QFE761/1015=
UWGG 272030Z 14002MPS 5000 -SN OVC010 00/M01 Q1027 NOSIG 18190040
     RMK QFE763=
UWKD 272030Z 16004MPS 9999 OVC005 M05/M05 Q1032 R11/7/0045 TEMPO
     2000 BR OVC005 RMK QFE763/1018=
UWKE 272030Z 20006MPS 0500 R21/1200N FZFG VV002 M06/M07 Q1033
     NOSIG RMK QBB060 QFE757/1010 21190060=
UWLW 272030Z NIL=
UWOO 272030Z 00000MPS 0100 R08/0300N FZFG VV001 M19/M22 Q1037
     08810252 NOSIG RMK QBB030 QFE767/1023=
UWSS 272030Z 12002MPS 2000 FZDZ BR OVC004 M05/M05 Q1031 12390141
     TEMPO 0500 FZFG RMK QFE761=
UWUU 272030Z 13002MPS CAVOK M11/M13 Q1036 141///50 NOSIG RMK
     QFE766/1021=
UWWW 272030Z 18002MPS 0700 R23/1300U FZFG VV002 M07/M08 Q1034
     23350040 15//99// TEMPO 0400 FZFG RMK QBB060 QFE764/1019=
####018000769####
SAXX99 KWBC 272000 RRX
METAR
FMEP 272030Z AUTO 05005KT 9999 SCT022/// BKN029/// BKN035/// 25/20
     Q1009=
K4O4 272035Z AUTO 04004KT 1SM OVC008 M02/M06 A3050 RMK AO2=
ULOO 272030Z 07002MPS P6000 OVC015 01/00 Q1017 19190060 NOSIG RMK
     QFE758=
UMKK 272030Z VRB01MPS 5000 BR OVC011 03/02 Q1016 R24/19//60 NOSIG
     RMK QFE761/1015=
UNBB 272030Z 23010MPS 9999 DRSN BKN013 M04/M07 Q1024 NOSIG RMK
     QFE745/0994 24450551=
UNEE 272030Z 18002MPS 0900 R23/P1500 +SHSN OVC005CB M05/M05 Q1019
     NOSIG RMK QFE741 23451037=
UNKL 272030Z 24006G09MPS 7000 -SHSN SCT033CB OVC083 M04/M08 Q1017
     NOSIG RMK QFE737 29////40=
UNOO 272030Z 27004MPS CAVOK M05/M08 Q1023 25810550 NOSIG RMK
     QFE759=
URML 272030Z NIL=
UWOR 272030Z NIL=
####018000422####
SAEE31 LOWM 272030
METAR UACK 272030Z 27006MPS CAVOK M06/M11 Q1030 R20/410360
NOSIG RMK QFE748/0998=
METAR UACP 272030Z NIL=
METAR UAII 272030Z 09002MPS CAVOK 01/M02 Q1030 R28/0///70
NOSIG RMK QFE735/0980=
METAR UADD 272030Z NIL=
METAR UASK 272030Z NIL=
METAR UASP 272030Z 24005MPS CAVOK M07/M11 Q1028 R21/0///60
NOSIG RMK QFE760/1013=
METAR UAKD 272030Z NIL=
METAR UAOO 272030Z NIL=
METAR UARR 272030Z NIL=
####018000465####
SAHK31 VHHH 272030
METAR VHHH 272030Z 09024KT 9999 FEW010 SCT018 19/16 Q1014 NOSIG=
METAR RCTP 272030Z 03012KT 9000 -DZ SCT003 BKN006 BKN012 16/15
Q1019 NOSIG RMK A3010=
METAR RCKH 272030Z NIL=
METAR RCSS 272030Z NIL=
METAR RCMQ 272030Z 01009KT 1000 R36/1400U BR BKN002 OVC010 15/14 
Q1017 RMK A3004=
METAR RCNN 272030Z 36008KT 8000 FEW010 BKN018 BKN040 19/16 Q1016 
RMK A3001=
METAR VMMC 272030Z 10020KT 9999 FEW015 SCT035 18/17 Q1014 NOSIG=
####018000119####
SPCN44 CWAO 272037
SPECI CYED 272037Z 33009KT 5SM -SHSN OVC022 M11/M16 A3019 RMK SC8 DA-670FT VIS LWR N SLP275=

####018000368####
SAPO31 LPMG 272030
METAR LPBJ 272030Z NIL=
METAR LPFR 272030Z 30011KT CAVOK 13/09 Q1026=
METAR LPMA 272030Z 02013KT 350V070 9999 SCT015 14/12 Q1033 RS04017KT
0502016G26KT 2302013G23KT=
METAR LPPR 272030Z 34009KT 9999 FEW040 11/07 Q1029=
METAR LPPS 272030Z 04011KT 350V070 9999 SCT014 BKN030 15/13 Q1033=
METAR LPPT 272030Z 34019G29KT 9999 FEW020 11/07 Q1029=
####018001248####
SAAU31 YBBN 272030
METAR YPAD 272030Z 02010KT CAVOK 26/12 Q1002
RMK 5AC110
NOSIG=
METAR YBAS 272030Z 30001KT CAVOK 23/06 Q1007
RMK 2AC120 6AC160=
METAR YBBN 272030Z 14001KT 9999 FEW018 SCT065 24/21 Q1010=
METAR YBCS 272030Z 24003KT 9999 FEW024 BKN300 24/23 Q1007=
METAR YSCB 272030Z 11002KT 9999 MIFG BKN190 15/14 Q1012=
METAR YPXM 272030Z NIL=
METAR YPCC 272030Z AUTO 09011KT 9999 // OVC041 25/23 Q1009=
METAR YCFS 272030Z AUTO 33001KT 9999 // NCD 21/20 Q1010=
METAR YPDN 272030Z 21008KT 9999 FEW018 SCT075 BKN250 24/22 Q1006=
METAR YBCG 272030Z AUTO 22004KT 9999 // SCT097 22/21 Q1010=
METAR YHID 272030Z AUTO 33006KT 9999 -RA SCT012 SCT093 SCT110 25/25
Q1007 RERA=
METAR YPJT 272030Z AUTO 17006KT 9999 // NCD 17/13 Q1014=
METAR YPKU 272030Z AUTO 00000KT 9999 // NCD 26/25 Q1006=
METAR YPLM 272030Z AUTO 22010KT 9999 // NCD 25/20 Q1007=
METAR YMML 272030Z 36012KT CAVOK 20/12 Q1006
RMK 3AC115 7CU140
FM2200 36018G28KT CAVOK
FM2100 MOD TURB BLW 5000FT=
METAR YPPH 272030Z 14011KT CAVOK 19/13 Q1014=
METAR YSSY 272030Z 07005KT CAVOK 22/19 Q1010
NOSIG=
METAR YSTW 272030Z AUTO 15006KT 9999 // NCD 19/15 Q1011=
METAR YPTN 272030Z AUTO 35004KT 9999 // NCD 24/22 Q1006=
METAR YBTL 272030Z 00000KT 9999 FEW020 27/24 Q1006=
####018000244####
SAPO32 LPMG 272030
METAR LPAZ 272030Z 28005KT 9999 BKN030 13/07 Q1038=
METAR LPFL 272030Z NIL=
METAR LPHR 272030Z 22014KT 9999 FEW018 BKN040 17/13 Q1036=
METAR LPLA 272030Z NIL=
METAR LPPD 272030Z 24008KT 9999 FEW025 BKN040 15/09 Q1037=
####018001206####
SAAU32 YBBN 272030
METAR YAMB 272030Z AUTO 00000KT 9999 // SCT024 BKN031 OVC037 22/21
Q1010=
METAR YMAV 272030Z AUTO 03007KT 9999 // NCD 17/15 Q1005=
METAR YBRM 272030Z AUTO 36002KT 9999 // SCT020 BKN025 BKN035 26/26
Q1006=
METAR YCIN 272030Z AUTO 23004KT //// // ////// 25/25 Q1006=
METAR YSDU 272030Z AUTO 10009KT 9999 // NCD 20/17 Q1010=
METAR YFRT 272030Z AUTO 21015KT //// // ////// 21/21 Q1008=
METAR YGEL 272030Z AUTO 15011KT 9999 // NCD 17/15 Q1011=
METAR YPGV 272030Z AUTO 26004KT 9999 // NCD 25/23 Q1006=
METAR YBHM 272030Z AUTO 27001KT 9999 // NCD 25/22 Q1008=
METAR YMHB 272030Z 04007KT 9999 SCT030 BKN180 14/08 Q1005=
METAR YPKG 272030Z AUTO 15009KT 9999 // BKN024 20/14 Q1013=
METAR YMLT 272030Z AUTO 09002KT 9999 // SCT028 10/08 Q1007=
METAR YBMA 272030Z AUTO 00000KT 9999 // NCD 24/23 Q1007=
METAR YSNF 272030Z 10014KT 9999 VCSH SCT010 BKN013 22/21 Q1012=
METAR YPEA 272030Z NIL=
METAR YPPD 272030Z AUTO 24005KT 9999 // NCD 27/24 Q1006=
METAR YSRI 272030Z AUTO 00000KT 0300 // OVC001 19/18 Q1010
RMK AUTO OBSCURATION CODES REMOVED=
METAR YBRK 272030Z 13003KT 9999 FEW016 23/22 Q1008=
METAR YWLM 272030Z NIL=
METAR YPWR 272030Z AUTO 36011KT 9999 // NCD 27/04 Q1005=
####018000690####
SAEU KAWN 272000 RRX
METAR LFAT 272030Z AUTO VRB03KT 9999 NSC 05/01 Q1022=
METAR LFLN 272030Z AUTO 36003KT 9999 NSC 04/M01 Q1023=
METAR LFLW 272030Z AUTO 32003KT 9999 NSC 01/M03 Q1022=
METAR LFMH 272030Z AUTO 32004KT 9999 FEW058 OVC068 03/M02 Q1022=
METAR LFPM 272030Z AUTO 30004KT 9999 NSC 03/M02 Q1023=
METAR LFRH 272030Z AUTO 22009KT 9999 SCT023 OVC031 08/04 Q1023=
METAR LFRK 272030Z AUTO 23007KT 9999 NSC 03/01 Q1022=
METAR LFRQ 272030Z AUTO 18004KT 9999 FEW034 BKN072 OVC082 07/05 Q1022=
METAR LFRT 272030Z AUTO 22005KT 180V260 9999 NSC 06/02 Q1022=
METAR LFSD 272030Z AUTO 32004KT 9999 NSC 02/M02 Q1023=
METAR LFTW 272030Z AUTO 34012KT 9999 NSC 06/M03 Q1019=
####018000324####
SAEW KAWN 272000 RRN
METAR LFLN 272030Z AUTO 36003KT 9999 NSC 04/M01 Q1023=
METAR LFLW 272030Z AUTO 32003KT 9999 NSC 01/M03 Q1022=
METAR LFRH 272030Z AUTO 22009KT 9999 SCT023 OVC031 08/04 Q1023=
METAR LFRT 272030Z AUTO 22005KT 180V260 9999 NSC 06/02 Q1022=
METAR LFTW 272030Z AUTO 34012KT 9999 NSC 06/M03 Q1019=
####018000131####
SAUS17 KAWN 271800 RRL
METAR KNCA 271756Z 02008KT 10SM SCT034 08/M01 A3036 RMK AO2 SLP284
      T00831006 10083 20000 50002=
####018000357####
SPNA14 KAWN 272040 RRE
SPECI KSKF 272030Z 03010KT 4SM -DZ BR BKN009 OVC015 00/00 A3025 RMK
      AO2A TWR VIS 3 RAE18DZB18 CIG 009V014 $=
SPECI KSKF 272035Z 03010KT 3SM -DZ BR BKN009 OVC014 01/00 A3025 RMK
      AO2A TWR VIS 3 RAE18DZB18 $=
SPECI KTTS 272038Z AUTO 35014KT 5SM -RA BR OVC006 13/11 A3019 RMK AO2
      DZE08RAB08 CIG 006V008 $=
####018000131####
SAZZ40 KAWN 271800 RRX
METAR KNCA 271756Z 02008KT 10SM SCT034 08/M01 A3036 RMK AO2 SLP284
      T00831006 10083 20000 50002=
####018000131####
SANA35 KAWN 271800 RRI
METAR KNCA 271756Z 02008KT 10SM SCT034 08/M01 A3036 RMK AO2 SLP284
      T00831006 10083 20000 50002=
