####018000112####
SPUS90 KWBC 272020
SPECI KMEH 272016Z AUTO 00000KT 10SM BKN014 OVC060 05/02 A2967 RMK
     AO2 T00500017=
####018000717####
SAEU KAWN 272000 RRT
METAR EDHL 272020Z 28004KT 9999 BKN015 04/03 Q1016 RMK ATIS ECH=
METAR EDVE 272020Z 30007KT 9999 FEW013 OVC065 04/04 Q1017=
METAR EDVK 272020Z 28009KT 9000 FEW026 OVC038 03/02 Q1018 RMK ATIS
      G=
METAR EGLL 271950Z 20009KT 180V250 CAVOK 06/02 Q1019 NOSIG=
METAR ENHV 271950Z 21017KT 9999 -RASN FEW016 BKN022 02/M01 Q0998=
METAR LATI 272020Z VRB02KT 9999 SCT085 09/07 Q1008 NOSIG=
METAR LHPA 272015Z 11002MPS 9999 BKN020 05/01 Q1015 NOSIG RMK WHT=
METAR LRBC 272000Z VRB02KT 0300 R34/0550N FG VV001 07/07 Q1016 RMK
      R16/210195=
METAR LRIA 272000Z 26004KT 3500 BR NSC 04/04 Q1016 RMK R14/19//95=
METAR LROP 272000Z 05011KT CAVOK 07/06 Q1013 RMK R88/09//95 NOSIG=
####018000201####
SAZZ40 KAWN 272000 RRS
METAR DAUI 272000Z 18008KT CAVOK 18/M01 Q1021=
METAR KFMH 272015Z AUTO VRB03KT 10SM CLR M04/M15 A3034 RMK AO2 FZRANO=
METAR OEKK 272000Z 32005KT CAVOK 10/02 Q1020 NOSIG=
####018000194####
SAAK41 KNKA 272018
SPECI PAJZ 272018Z AUTO 00000KT 10SM SCT013 M04/M05 A3042 RMK AO2 
 TSNO $=
SPECI PAOO 272017Z AUTO 14022KT 8SM SCT009 SCT016 OVC037 M01/M02 
 A3018 RMK AO2 TSNO $=
####018000106####
SAHW31 KMSC 272018
SPECI PHNY 272017Z AUTO 30008KT 10SM FEW008 SCT014 26/20 A3005 RMK 
 AO2 TSNO $=
####018002925####
SAUS20 KNKA 272018
METAR K0E0 272015Z AUTO 15008KT 10SM -SN OVC011 M08/M11 A2997 RMK 
 AO2 T10791110=
METAR K0F2 272015Z AUTO 03007KT 1SM -SN BKN010 OVC015 M06/M08 
 A3043 RMK AO2 T10591076=
METAR K0V4 272015Z AUTO 31006KT 10SM CLR 05/M07 A3040 RMK AO1 
 T00511071=
METAR K0VG 272015Z AUTO 02004KT 10SM CLR 00/M12 A3046 RMK AO2=
METAR K11R 272015Z AUTO 03005KT 10SM BKN024 06/00 A3035 RMK AO2 
 T00600000=
METAR K1A6 272015Z AUTO 36004KT 10SM CLR M02/M12 A3048 RMK AO2 
 T10161116=
METAR K1H2 272015Z AUTO 00000KT 10SM CLR M09/M19 A3065 RMK AO2 
 T10881190=
METAR K1L0 272015Z AUTO 36007KT 7SM CLR 11/02 A3033 RMK AO2 
 T01120016=
METAR K2G9 272015Z AUTO 28009G15KT 10SM CLR M11/M18 A3038 RMK AO2=
METAR K3LF 272015Z AUTO 00000KT 10SM CLR M12/M20 A3064 RMK AO2 
 T11161198=
METAR K3R7 272015Z AUTO 06007KT 030V100 10SM CLR 09/00 A3034 RMK 
 AO2 T00890002=
METAR K54J 272015Z AUTO 05011KT 10SM CLR 13/00 A3028 RMK AO2 
 T01321003=
METAR K66R 272015Z AUTO 06009G16KT 7SM OVC016 06/02 A3030 RMK AO2 
     T00570017=
METAR K6B0 272015Z AUTO 00000KT 10SM CLR M07/M22 A3036 RMK AO2 
 T10721223=
METAR K6R3 272013Z AUTO 00000KT 10SM SCT100 08/00 A3036 RMK AO2=
METAR K7L2 272015Z AUTO 17012G17KT 10SM CLR M09/M16 A3028 RMK AO2=
METAR K8W2 272015Z AUTO 03009KT 10SM OVC055 00/M13 A3039 RMK AO1 
 T00001129=
METAR KA08 272015Z AUTO 02007KT 350V060 10SM CLR 08/M03 A3037 RMK 
     AO2 T00751033=
METAR KADU 272015Z AUTO 00000KT 10SM CLR M11/M18 A3055 RMK AO2=
METAR KAFK 272015Z AUTO 10003KT 10SM CLR M07/M19 A3053 RMK AO2 
 T10741192=
METAR KAFP 272015Z AUTO 32003KT 10SM CLR 10/M03 A3035 RMK AO2 
 T01021029=
METAR KAHQ 272015Z AUTO 00000KT 10SM CLR M08/M18 A3052 RMK AO2 
 T10761182=
METAR KAIO 272015Z AUTO 00000KT 10SM CLR M11/M18 A3056 RMK AO2=
METAR KALX 272015Z AUTO 36007KT 10SM CLR 10/M06 A3036 RMK AO2 
 T00951064=
METAR KAPY 272015Z AUTO 35009KT 10SM OVC013 05/01 A3023 RMK AO2 
 T00500013=
METAR KAQO 272015Z AUTO 05009KT 5SM HZ OVC017 00/M03 A3036 RMK 
 AO2=
METAR KARM 272015Z AUTO 03010KT 7SM OVC017 06/02 A3032 RMK AO2 
 T00570020=
METAR KASL 272015Z AUTO 05006KT 10SM SCT055 BKN070 BKN080 01/M06 
 A3047 RMK AO1 T00061064=
METAR KATP 272015Z AUTO 09020G25KT 10SM BKN030 OVC038 17/10 A3017
 RMK A01=
METAR KAUH 272015Z AUTO 17007KT 10SM CLR M06/M20 A3042 RMK AO2 
 T10631199=
METAR KAVQ 272015Z AUTO 25006KT 10SM CLR 23/M04 A2973 RMK AO2 
 T02341038=
METAR KAWG 272015Z AUTO 00000KT 10SM CLR M12/M18 A3063 RMK AO2=
METAR KAXA 272015Z AUTO 23005KT 10SM SCT015 M12/M18 A3054 RMK AO2=
METAR KAXH 272015Z AUTO 02007KT 7SM OVC020 09/06 A3035 RMK AO2 
 T00910058=
METAR KBBF 272015Z AUTO 08023KT 6SM HZ BKN019 BKN024 14/09 A3019
 RMK A01=
METAR KBIE 272015Z AUTO 09003KT 10SM SCT120 M07/M19 A3050 RMK AO2 
 T10731191=
METAR KBIJ 272015Z AUTO 10007KT 030V110 10SM CLR 15/02 A3030 RMK 
 AO2=
####018000081####
SAIN90 VECC 272020
METAR VECC 272020Z 21009KT 2600 HZ NSC 25/21 Q1010 NOSIG=
####018001285####
SACI51 RJTD 272000
METAR ZBAA 272000Z 17003MPS 8000 -SN SCT010 M03/M04 Q1029 NOSIG=
METAR ZBTJ 272000Z 20003MPS 7000 -SN OVC026 M02/M03 Q1030 NOSIG=
METAR ZBYN 272000Z 16001MPS 2500 -SN BR NSC M04/M05 Q1024 NOSIG=
METAR ZGGG 272000Z VRB01MPS 9999 OVC020 20/17 Q1014 NOSIG=
METAR ZGKL 272000Z VRB02MPS 9999 SCT023 OVC040 13/09 Q1015 NOSIG=
METAR ZGNN 272000Z VRB01MPS 7000 FEW033 21/20 Q1011 NOSIG=
METAR ZGOW 272000Z 11003MPS 060V140 9000 SCT013 BKN026 16/14 Q1018
           NOSIG=
METAR ZGSZ 272000Z 10005MPS 9999 SCT014 BKN050 20/17 Q1014 NOSIG=
METAR ZLXY 272000Z VRB01MPS 1800 BR SCT030 OVC040 00/M02 Q1028
           NOSIG=
METAR ZPPP 272000Z 22007MPS CAVOK 12/02 Q1019 NOSIG=
METAR ZSAM 272000Z 09003MPS 060V130 9999 BKN019 OVC040 14/12 Q1019
           NOSIG=
METAR COR ZSHC 272000Z 10003MPS 5000 SHRA BR FEW010 BKN023 05/03
           Q1023 BECMG TL2030 -SHRA=
METAR ZSNJ 272000Z 06007MPS 4000 -RA BR BKN005 OVC033 03/02 Q1024
           NOSIG=
METAR ZSQD 272000Z 02002MPS CAVOK M00/M09 Q1030 NOSIG=
METAR ZSSS 272000Z 06004MPS 9999 -RA BKN012 05/04 Q1024 NOSIG=
METAR ZWWW 272000Z VRB01MPS CAVOK M06/M09 Q1034 NOSIG=
METAR ZYTL 272000Z 29002MPS CAVOK M03/M08 Q1030 NOSIG=
METAR ZYTX 272000Z 10002MPS CAVOK M06/M10 Q1028 NOSIG=
####018000075####
SAAO24 DRRN 272000 RRA
METAR FTTA 272000Z 32004KT 6000 NSC 29/01 Q1011=
####018002974####
SAUS20 KNKA 272018
METAR KIKV 272015Z AUTO 00000KT 10SM CLR M12/M19 A3061 RMK AO2=
METAR KINF 272015Z AUTO 04008KT 10SM BKN040 18/03 A3020 RMK AO2=
METAR KINJ 272015Z AUTO 03011KT 10SM SCT012 OVC060 M01/M04 A3040 
 RMK AO2 T10151045=
METAR KIPN 272015Z AUTO 06015G24KT 10SM BKN026 OVC031 15/09 A3021
 RMK A01=
METAR KMAN 272015Z AUTO 14011G16KT 10SM FEW040 10/01 A2970 RMK AO1 
     =
METAR KMDJ 272015Z AUTO 05021G26KT 9SM BKN021 BKN027 OVC031 12/08
 A3028 RMK A01=
METAR KMIS 272015Z AUTO 08018G26KT 8SM BKN025 11/05 A3028 RMK A01=
METAR KMOR 272015Z AUTO VRB03KT 10SM CLR 00/M09 A3045 RMK=
METAR KMQI 272022Z AUTO 02009G14KT 10SM CLR 04/M03 A3041 RMK AO2=
METAR KMZG 272015Z AUTO 06012G23KT 030V090 5SM HZ BKN022 BKN027
 16/10 A3020 RMK A01=
METAR KONP 272015Z AUTO 21009KT 10SM SCT006 SCT010 BKN025 10/09 
 A2978 RMK AO2=
METAR KOPN 272015Z AUTO 04004KT 10SM CLR 12/M02 A3033 RMK AO2=
METAR KORG 272015Z AUTO 05005KT 10SM CLR 10/00 A3034 RMK AO2 
 T01030002=
METAR KPBX 272015Z AUTO 34003KT 10SM BKN037 M06/M13 A3049 RMK AO2 
 T10571135=
METAR KPDC 272015Z AUTO 26006KT 10SM CLR M11/M21 A3059 RMK AO2 
     T11131210=
METAR KPEQ 272015Z AUTO 05010KT 4SM BR OVC008 M04/M05 A3023 RMK 
 AO2 T10371048=
METAR KPGV 272015Z AUTO 35003G08KT 10SM SCT049 09/M02 A3039 RMK 
 AO2=
METAR KPPO 272015Z AUTO 24008KT 10SM CLR M07/M18 A3058 RMK AO2 
 T10731178=
METAR KPPQ 272015Z AUTO 00000KT 10SM CLR M10/M19 A3063 RMK AO2 
 T11011190=
METAR KPTS 272015Z AUTO 08007KT 10SM OVC050 M06/M16 A3055 RMK AO2 
 T10621158=
METAR KPTT 272015Z AUTO 15007KT 1 1/4SM -SN OVC010 M09/M13 A3045 
     RMK AO2=
METAR KRCM 272015Z AUTO 00000KT 10SM BKN090 BKN120 M07/M17 A3059 
 RMK AO2=
METAR KRHP 272015Z AUTO 25008KT 10SM CLR 04/M03 A3034 RMK AO2 
 T00351027=
METAR KRPH 272015Z AUTO 02007KT 2SM -SN OVC014 M05/M07 A3041 RMK 
 AO2 T10501072=
METAR KRPJ 272015Z AUTO 23008KT 10SM CLR M13/M18 A3061 RMK AO2 
 T11271181=
METAR KRSV 272015Z AUTO 28004KT 10SM CLR M08/M16 A3064 RMK AO2 
 T10761160=
METAR KS25 272015Z AUTO 17013G16KT 10SM CLR M05/M15 A3008 RMK AO2 =
METAR KSFY 272015Z AUTO 24007KT 10SM CLR M11/M21 A3062 RMK AO2 
 T11081206=
METAR KSHD 272015Z AUTO 04004KT 10SM SCT060 01/M11 A3039 RMK AO2 
 T00101108=
METAR KSLO 272015Z AUTO 35006KT 10SM CLR M08/M16 A3063 RMK AO2 
 T10771162=
METAR KSLR 272015Z AUTO 04009KT 4SM -SN SCT010 BKN023 OVC034 
 M02/M05 A3049 RMK AO2 T10241047=
METAR KSPR 272015Z AUTO 06024KT 6SM HZ BKN017 BKN021 OVC026 10/06
 A3025 RMK A01=
METAR KSQE 272015Z AUTO 06018G26KT 9SM FEW021 BKN026 OVC033 14/10
 A3023 RMK A01=
METAR KSUT 272015Z AUTO 36006KT 10SM CLR 10/M01 A3037 RMK AO2 
     T01001011=
METAR KT20 272015Z AUTO 03010G15KT 7SM OVC016 05/01 A3028 RMK AO2 
 T00480007=
METAR KTIP 272015Z AUTO 31003KT 10SM CLR M09/M17 A3062 RMK AO2 
 T10871170=
METAR KTKV 272015Z AUTO 23006KT 10SM CLR M09/M21 A3039 RMK AO2 
 T10881211=
####018002971####
SAUS20 KNKA 272018
METAR KEOK 272015Z AUTO 28004KT 10SM CLR M11/M19 A3063 RMK AO2=
METAR KEXX 272015Z AUTO 00000KT 10SM CLR 06/M05 A3036 RMK AO2 
 T00621051=
METAR KF70 272015Z AUTO 20011G16KT 10SM BKN031 OVC040 16/08 A2982 
     RMK AO1=
METAR KFET 272015Z AUTO 14006KT 10SM CLR M07/M15 A3052 RMK AO2 
 T10701153=
METAR KFFL 272015Z AUTO 00000KT 10SM CLR M13/M21 A3063 RMK AO2=
METAR KFKN 272015Z AUTO 05012G16KT 10SM SCT043 SCT050 OVC060 
 03/M03 A3042 RMK AO2 T00291028=
METAR KFOA 272015Z AUTO 34003KT 10SM CLR M09/M17 A3064 RMK AO2 
 T10871169=
METAR KFQD 272015Z AUTO 28006KT 230V300 10SM CLR 10/M12 A3032 RMK 
 AO2 T00971125=
METAR KFSW 272015Z AUTO 35005KT 10SM CLR M12/M18 A3064 RMK AO2=
METAR KGBG 272015Z AUTO 27005KT 10SM CLR M12/M18 A3062 RMK AO2 
 T11221185=
METAR KGBK 272015Z AUTO 04017G29KT 10SM SCT030 BKN039 OVC047 18/12
 A3015 RMK A01=
METAR KGCD 272015Z AUTO 33003KT 10SM DZ BKN013 OVC024 04/03 A2967 
 RMK AO2 T00420025=
METAR KGHB 272015Z AUTO 07019G24KT 9SM OVC023 14/10 A3023 RMK A01=
METAR KGHG 272015Z AUTO 01006KT 020V360 10SM CLR M03/M15 A3037 
 RMK AO2=
METAR KGLE 272015Z AUTO 03008KT 3/4SM -SN BKN003 M06/M08 A3048 
 RMK AO2 T10581076=
METAR KGNT 272015Z AUTO 14013G19KT 1/4SM SN OVC005 M04/M05 A2986 
 RMK AO2 T10381046=
METAR KGRY 272020Z AUTO 09011G21KT 050V200 10SM FEW029 BKN036
 BKN041 16/09 A3019 RMK A01=
METAR KGUL 272015Z AUTO 10SM BKN030 OVC036 17/10 A3016 RMK A01=
SPECI KGUP 272017Z AUTO 20006KT 3SM -SN BR SCT007 BKN025 OVC060 
 01/M01 A2980 RMK AO2 P0000 T00111006=
METAR KGUR 272015Z AUTO 14011KT 10SM BKN032 M01/M08 A2995 RMK AO2 
 T10081085=
METAR KGVT 272015Z AUTO 03007KT 3SM -SN M02/M04 A3046 RMK AO2=
METAR KGVX 272015Z AUTO 06018KT 9SM OVC020 11/07 A3028 RMK A01=
METAR KH21 272015Z AUTO 01004KT 10SM M06/M17 A3055 RMK AO2=
METAR KHDE 272015Z AUTO 18009KT 150V210 10SM SCT120 M06/M20 A3035 
 RMK AO2 T10611202=
METAR KHHV 272015Z AUTO 08021KT 10SM FEW030 FEW037 SCT048 19/11
 A3017 RMK A01=
METAR KHHW 272015Z AUTO 02008KT 2 1/2SM -SN BKN013 OVC030 M03/M06 
 A3048 RMK AO2 T10321063=
METAR KHNR 272015Z AUTO 00000KT 10SM CLR M12/M18 A3059 RMK AO2=
METAR KHQI 272015Z AUTO 04024KT 10SM OVC018 13/10 A3023 RMK A01=
METAR KHQU 272015Z AUTO 00000KT 10SM CLR 14/03 A3036 RMK AO1 
 T01350030=
METAR KHSP 272015Z AUTO 28009G16KT 10SM CLR M05/M15 A3022 RMK AO2 
 T10551149=
METAR KHZR 272015Z AUTO 03004KT 10SM CLR 10/00 A3035 RMK AO2 
 T01000001=
METAR KI75 272015Z AUTO 00000KT 10SM CLR M11/M17 A3058 RMK AO2 
 T11071175=
METAR KIDP 272015Z AUTO 08004KT 10SM SCT044 OVC050 M06/M18 A3055 
     RMK AO2=
METAR KIIB 272015Z AUTO 22003KT 10SM CLR M11/M18 A3059 RMK AO2=
METAR KIJX 272015Z AUTO 28004KT 10SM CLR M10/M18 A3064 RMK AO2 
 T11051182=
METAR KIKK 272015Z AUTO 24007KT 10SM CLR M11/M17 A3063 RMK AO2 
 T11121167=
METAR KIKT 272015Z AUTO 07021G26KT 10SM BKN028 BKN033 14/07 A3021
 RMK A01=
####018001078####
SAUS20 KNKA 272018
METAR KTNB 272015Z AUTO 30013G17KT 10SM CLR M01/M09 A3029 RMK AO2 
 T10151088=
METAR KTOC 272015Z AUTO 26003KT 10SM CLR 11/M07 A3031 RMK AO2 
 T01111072=
METAR KTQH 272015Z AUTO 00000KT 2SM -SN SCT006 BKN012 OVC023 
 M06/M13 A3054 RMK AO2=
METAR KTVK 272015Z AUTO 27003KT 10SM CLR M10/M17 A3061 RMK AO2=
METAR KVAF 272015Z AUTO 08021KT 6SM HZ SCT023 BKN029 OVC042 15/11
 A3018 RMK A01=
METAR KVBS 272015Z AUTO 11012KT 10SM BKN023 06/01 A3031 RMK A01=
METAR KVCV 272015Z AUTO 26018G26KT 10SM CLR 18/00 A2973 RMK AO2=
METAR KVKY 272015Z AUTO 07019G24KT 10SM BKN023 11/06 A3028 RMK A01=
METAR KVOA 272015Z AUTO 06022KT 10SM BKN026 12/06 A3025 RMK A01=
METAR KVQT 272015Z AUTO 08018G24KT 8SM BKN017 OVC023 11/08 A3025
     RMK A01=
METAR KW75 272015Z AUTO 35007KT 10SM OVC029 00/M06 A3046 RMK AO1 
 T10051062=
METAR KXIH 272015Z AUTO 07019KT 9SM OVC017 08/04 A3030 RMK A01=
METAR KXPY 272015Z AUTO 04017G23KT 9SM OVC021 08/04 A3033 RMK A01=
METAR KXSA 272015Z AUTO 33006KT 10SM SCT045 01/M11 A3046 RMK AO2 
 T00141113=
####018002962####
SAUS20 KNKA 272018
METAR KBKT 272015Z AUTO 33004KT 10SM SCT050 03/M05 A3040 RMK AO1 
 T00341053=
METAR KBNW 272015Z AUTO 00000KT 10SM CLR M12/M19 A3055 RMK AO2=
METAR KBPG 272015Z AUTO 05011KT 5SM OVC009 M06/M08 A3029 RMK AO2 
 T10621084=
METAR KBQX 272015Z AUTO 06016G23KT 9SM SCT020 BKN025 OVC034 12/08
     A3024 RMK A01=
METAR KBVN 272015Z AUTO 16006KT 10SM CLR M06/M20 A3041 RMK AO2 
 T10611201=
METAR KBWD 272015Z AUTO 03008KT 5SM BR OVC012 M04/M06 A3036 RMK AO2
=
METAR KC09 272015Z AUTO 30007KT 10SM CLR M12/M17 A3062 RMK AO2 
 T11161171=
METAR KC29 272015Z AUTO 22007KT 10SM CLR M07/M21 A3053 RMK AO1 
     T10741207=
METAR KC35 272015Z AUTO 27007KT 10SM CLR M10/M20 A3052 RMK AO2 
 T10971196=
METAR KCAV 272015Z AUTO 23006KT 10SM SCT013 M13/M18 A3056 RMK AO2=
METAR KCBF 272015Z AUTO 12008KT 10SM SCT024 M09/M15 A3052 RMK AO2=
METAR KCFD 272015Z AUTO 06006KT 10SM BKN031 OVC095 05/M03 A3038 
 RMK AO2 T00451031=
METAR KCFE 272005Z AUTO 23006KT 10SM CLR M10/M18 A3051 RMK AO2=
METAR KCHK 272015Z AUTO 07009KT 2 1/2SM -SN M06/M09 A3048 RMK AO2 
 SKY OBSCURED=
METAR KCIN 272015Z AUTO 00000KT 10SM CLR M13/M19 A3055 RMK AO2=
METAR KCJR 272015Z AUTO 09006KT 10SM CLR 02/M12 A3045 RMK AO2=
METAR KCNC 272015Z AUTO VRB04KT 10SM FEW020 BKN026 M11/M18 A3059 
 RMK AO2=
METAR KCOM 272015Z AUTO 05008KT 7SM OVC009 M04/M05 A3033 RMK AO2 
     T10451055=
METAR KCPC 272015Z AUTO 03004KT 10SM CLR 11/M01 A3035 RMK AO2 
 T01091010=
METAR KCPT 272015Z AUTO 04009KT 3SM -SN OVC012 M03/M04 A3041 RMK 
 AO2=
METAR KCQB 272015Z AUTO 08007KT 1SM -SN OVC009 M05/M07 A3052 RMK 
 AO2=
METAR KCQF 272015Z AUTO 02012KT 10SM CLR 12/00 A3029 RMK AO2=
METAR KCRH 272015Z AUTO 07016KT 9SM OVC022 08/05 A3030 RMK A01=
METAR KCSQ 272015Z AUTO 34006KT 10SM CLR M10/M18 A3054 RMK AO2=
METAR KCTJ 272015Z AUTO 36006KT 10SM CLR 06/M04 A3040 RMK AO2=
METAR KCTZ 272015Z AUTO 34005KT 10SM CLR 10/00 A3038 RMK AO2 
 T01021005=
METAR KCVW 272015Z AUTO 06009G15KT 10SM FEW031 09/01 A3035 RMK A01=
METAR KDBN 272015Z AUTO 00000KT 10SM CLR 12/02 A3034 RMK AO2=
METAR KDEH 272015Z AUTO VRB06G11KT 10SM CLR M13/M21 A3054 RMK AO2=
METAR KDLP 272015Z AUTO 07012G18KT 10SM BKN022 OVC028 11/05 A3027
 RMK A01=
METAR KDUB 272015Z AUTO 16010KT 10SM SCT043 BKN049 OVC060 M10/M13 
 A2968 RMK AO2=
METAR KDWX 272015Z AUTO 22007KT 10SM CLR M01/M11 A2981 RMK AO2 
 T10081107=
METAR KE38 272015Z AUTO 03004KT 4SM OVC004 M03/M03 A3015 RMK AO2 
 T10281033=
METAR KEBS 272015Z AUTO 22003KT 10SM FEW013 M13/M19 A3055 RMK AO2=
METAR KEFK 272015Z AUTO 28004KT 10SM CLR M10/M23 A3032 RMK AO2 
     T11041231=
METAR KEHC 272015Z AUTO 06020G27KT 9SM FEW017 10/06 A3025 RMK A01=
METAR KEIR 272015Z AUTO 06023KT 9SM OVC018 09/05 A3028 RMK A01=
METAR KEMK 272015Z AUTO 05024KT 10SM BKN022 OVC027 16/10 A3020 RMK
 A01=
METAR KENL 272015Z AUTO 34004KT 10SM CLR M08/M16 A3063 RMK AO2 
 T10841164=
####018001671####
SPZZ40 KAWN 272019 RRD
SPECI CYCY 272006Z AUTO 25004KT 9SM -SN CLR M33/M37 A2958 RMK SLP021=
SPECI CYFC 272015Z AUTO 26010G18KT 220V290 6SM -SN CLR M07/M20 A3021
      RMK SLP232=
SPECI CYGV 272016Z AUTO 27020G29KT 6SM -SN SCT025 SCT032 M16/M20 A2997
      RMK PRESRR SLP153=
SPECI CYHK 272009Z AUTO 23017KT 3/4SM -SN SCT009 OVC029 M16/M17 A2927
      RMK SLP918=
SPECI CYOD 272015Z 33009KT 15SM BKN026 M11/M17 A3018 RMK SC6 SLP272=
SPECI CZPC 272014Z AUTO 11005KT 9SM -SN OVC035 M08/M11 A3005 RMK SLP249=
SPECI CZUM 272015Z AUTO 27011G16KT 8SM -SN BKN032 OVC038 M23/M29 A2970
      RMK SLP117=
SPECI CZVL 272016Z AUTO 33012KT 9SM -SN OVC022 M09/M13 A3020 RMK SLP276=
SPECI DIAP 272014Z 21004KT 9000 FEW012 FEW020CB 27/26 Q1011 RETS NOSIG=
SPECI KDYS 272015Z AUTO 06008KT 4SM UP BR BKN007 OVC013 M07/M08 A3034
      RMK AO2 UPB10 $=
SPECI KFSI 272018Z AUTO 06009KT 10SM -SN BKN012 OVC020 M07/M10 A3044
      RMK AO2 CIG 012V020 BKN V SCT=
SPECI KGRF 272015Z 04003KT 2SM -RA BR BKN005 OVC019 09/09 A2974 RMK
      AO2A TWR VIS 1 1/2 VIS 2V4 BKN V OVC $=
SPECI KIAB 272018Z AUTO 12006KT 2 1/2SM -SN FEW010 OVC017 M09/M13 A3050
      RMK AO2 VIS 1 3/4V2 1/2 CIG 012 RWY19=
SPECI KNQX 272016Z 03009KT 10SM BKN008 23/19 A3007 RMK AO2 T02330194
      $=
SPECI KNSI 272015Z AUTO 31020G33KT 10SM OVC015 A2986 RMK AO2 PK WND
      32035/2005 $=
SPECI KSHM 272019Z AUTO 13011KT 2 1/4SM -SHSN BR BKN011 M13/M15 A2991
      RMK AO2 VIS 2 1/4V5 SNE02SHSNB02=
SPECI KSLI 272019Z 19005KT 10SM BKN033 OVC041 18/11 A2982 RMK AO2A=
SPECI RODN 272015Z AUTO 09014KT 7SM R05/5500FT BKN008 18/15 A3007 RMK
      AO2 CIG 008V017 $=
####018000075####
SAAF14 LFPW 272000 RRC
METAR FTTA 272000Z 32004KT 6000 NSC 29/01 Q1011=
####018003691####
SAUS99 KWBC 272020
METAR
K0E0 272015Z AUTO 15008KT 10SM -SN OVC011 M08/M11 A2997 RMK AO2
     T10791110=
K0F2 272015Z AUTO 03007KT 1SM -SN BKN010 OVC015 M06/M08 A3043 RMK
     AO2 T10591076=
K0V4 272015Z AUTO 31006KT 10SM CLR 05/M07 A3040 RMK AO1
     T00511071=
K0VG 272015Z AUTO 02004KT 10SM CLR 00/M12 A3046 RMK AO2=
K11R 272015Z AUTO 03005KT 10SM BKN024 06/00 A3035 RMK AO2
     T00600000=
K1A6 272015Z AUTO 36004KT 10SM CLR M02/M12 A3048 RMK AO2
     T10161116=
K1H2 272015Z AUTO 00000KT 10SM CLR M09/M19 A3065 RMK AO2
     T10881190=
K1L0 272015Z AUTO 36007KT 7SM CLR 11/02 A3033 RMK AO2
     T01120016=
K2G9 272015Z AUTO 28009G15KT 10SM CLR M11/M18 A3038 RMK AO2=
K3LF 272015Z AUTO 00000KT 10SM CLR M12/M20 A3064 RMK AO2
     T11161198=
K3R7 272015Z AUTO 06007KT 030V100 10SM CLR 09/00 A3034 RMK AO2
     T00890002=
K54J 272015Z AUTO 05011KT 10SM CLR 13/00 A3028 RMK AO2
     T01321003=
K66R 272015Z AUTO 06009G16KT 7SM OVC016 06/02 A3030 RMK AO2
     T00570017=
K6B0 272015Z AUTO 00000KT 10SM CLR M07/M22 A3036 RMK AO2
     T10721223=
K6R3 272013Z AUTO 00000KT 10SM SCT100 08/00 A3036 RMK AO2=
K7L2 272015Z AUTO 17012G17KT 10SM CLR M09/M16 A3028 RMK AO2=
K8W2 272015Z AUTO 03009KT 10SM OVC055 00/M13 A3039 RMK AO1
     T00001129=
KA08 272015Z AUTO 02007KT 350V060 10SM CLR 08/M03 A3037 RMK AO2
     T00751033=
KADU 272015Z AUTO 00000KT 10SM CLR M11/M18 A3055 RMK AO2=
KAFK 272015Z AUTO 10003KT 10SM CLR M07/M19 A3053 RMK AO2
     T10741192=
KAFP 272015Z AUTO 32003KT 10SM CLR 10/M03 A3035 RMK AO2
     T01021029=
KAHQ 272015Z AUTO 00000KT 10SM CLR M08/M18 A3052 RMK AO2
     T10761182=
KAIO 272015Z AUTO 00000KT 10SM CLR M11/M18 A3056 RMK AO2=
KALX 272015Z AUTO 36007KT 10SM CLR 10/M06 A3036 RMK AO2
     T00951064=
KAPY 272015Z AUTO 35009KT 10SM OVC013 05/01 A3023 RMK AO2
     T00500013=
KAQO 272015Z AUTO 05009KT 5SM HZ OVC017 00/M03 A3036 RMK AO2=
KARM 272015Z AUTO 03010KT 7SM OVC017 06/02 A3032 RMK AO2
     T00570020=
KASL 272015Z AUTO 05006KT 10SM SCT055 BKN070 BKN080 01/M06 A3047
     RMK AO1 T00061064=
KATP 272015Z AUTO 09020G25KT 10SM BKN030 OVC038 17/10 A3017 RMK
     A01=
KAUH 272015Z AUTO 17007KT 10SM CLR M06/M20 A3042 RMK AO2
     T10631199=
KAVQ 272015Z AUTO 25006KT 10SM CLR 23/M04 A2973 RMK AO2
     T02341038=
KAWG 272015Z AUTO 00000KT 10SM CLR M12/M18 A3063 RMK AO2=
KAXA 272015Z AUTO 23005KT 10SM SCT015 M12/M18 A3054 RMK AO2=
KAXH 272015Z AUTO 02007KT 7SM OVC020 09/06 A3035 RMK AO2
     T00910058=
KBBF 272015Z AUTO 08023KT 6SM HZ BKN019 BKN024 14/09 A3019 RMK
     A01=
KBIE 272015Z AUTO 09003KT 10SM SCT120 M07/M19 A3050 RMK AO2
     T10731191=
KBIJ 272015Z AUTO 10007KT 030V110 10SM CLR 15/02 A3030 RMK AO2=
KTNB 272015Z AUTO 30013G17KT 10SM CLR M01/M09 A3029 RMK AO2
     T10151088=
KTOC 272015Z AUTO 26003KT 10SM CLR 11/M07 A3031 RMK AO2
     T01111072=
KTQH 272015Z AUTO 00000KT 2SM -SN SCT006 BKN012 OVC023 M06/M13
     A3054 RMK AO2=
KTVK 272015Z AUTO 27003KT 10SM CLR M10/M17 A3061 RMK AO2=
KVAF 272015Z AUTO 08021KT 6SM HZ SCT023 BKN029 OVC042 15/11 A3018
     RMK A01=
KVBS 272015Z AUTO 11012KT 10SM BKN023 06/01 A3031 RMK A01=
KVCV 272015Z AUTO 26018G26KT 10SM CLR 18/00 A2973 RMK AO2=
KVKY 272015Z AUTO 07019G24KT 10SM BKN023 11/06 A3028 RMK A01=
KVOA 272015Z AUTO 06022KT 10SM BKN026 12/06 A3025 RMK A01=
KVQT 272015Z AUTO 08018G24KT 8SM BKN017 OVC023 11/08 A3025 RMK
     A01=
KW75 272015Z AUTO 35007KT 10SM OVC029 00/M06 A3046 RMK AO1
     T10051062=
KXIH 272015Z AUTO 07019KT 9SM OVC017 08/04 A3030 RMK A01=
KXPY 272015Z AUTO 04017G23KT 9SM OVC021 08/04 A3033 RMK A01=
####018003727####
SAUS99 KWBC 272020 RRA
METAR
KXSA 272015Z AUTO 33006KT 10SM SCT045 01/M11 A3046 RMK AO2
     T00141113=
KEOK 272015Z AUTO 28004KT 10SM CLR M11/M19 A3063 RMK AO2=
KEXX 272015Z AUTO 00000KT 10SM CLR 06/M05 A3036 RMK AO2
     T00621051=
KF70 272015Z AUTO 20011G16KT 10SM BKN031 OVC040 16/08 A2982 RMK
     AO1=
KFET 272015Z AUTO 14006KT 10SM CLR M07/M15 A3052 RMK AO2
     T10701153=
KFFL 272015Z AUTO 00000KT 10SM CLR M13/M21 A3063 RMK AO2=
KFKN 272015Z AUTO 05012G16KT 10SM SCT043 SCT050 OVC060 03/M03
     A3042 RMK AO2 T00291028=
KFOA 272015Z AUTO 34003KT 10SM CLR M09/M17 A3064 RMK AO2
     T10871169=
KFQD 272015Z AUTO 28006KT 230V300 10SM CLR 10/M12 A3032 RMK AO2
     T00971125=
KFSW 272015Z AUTO 35005KT 10SM CLR M12/M18 A3064 RMK AO2=
KGBG 272015Z AUTO 27005KT 10SM CLR M12/M18 A3062 RMK AO2
     T11221185=
KGBK 272015Z AUTO 04017G29KT 10SM SCT030 BKN039 OVC047 18/12 A3015
     RMK A01=
KGCD 272015Z AUTO 33003KT 10SM DZ BKN013 OVC024 04/03 A2967 RMK
     AO2 T00420025=
KGHB 272015Z AUTO 07019G24KT 9SM OVC023 14/10 A3023 RMK A01=
KGHG 272015Z AUTO 01006KT 020V360 10SM CLR M03/M15 A3037 RMK
     AO2=
KGLE 272015Z AUTO 03008KT 3/4SM -SN BKN003 M06/M08 A3048 RMK AO2
     T10581076=
KGNT 272015Z AUTO 14013G19KT 1/4SM SN OVC005 M04/M05 A2986 RMK AO2
     T10381046=
KGRY 272020Z AUTO 09011G21KT 050V200 10SM FEW029 BKN036 BKN041
     16/09 A3019 RMK A01=
KGUL 272015Z AUTO 10SM BKN030 OVC036 17/10 A3016 RMK A01=
KGUR 272015Z AUTO 14011KT 10SM BKN032 M01/M08 A2995 RMK AO2
     T10081085=
KGVT 272015Z AUTO 03007KT 3SM -SN M02/M04 A3046 RMK AO2=
KGVX 272015Z AUTO 06018KT 9SM OVC020 11/07 A3028 RMK A01=
KH21 272015Z AUTO 01004KT 10SM M06/M17 A3055 RMK AO2=
KHDE 272015Z AUTO 18009KT 150V210 10SM SCT120 M06/M20 A3035 RMK
     AO2 T10611202=
KHHV 272015Z AUTO 08021KT 10SM FEW030 FEW037 SCT048 19/11 A3017
     RMK A01=
KHHW 272015Z AUTO 02008KT 2 1/2SM -SN BKN013 OVC030 M03/M06 A3048
     RMK AO2 T10321063=
KHNR 272015Z AUTO 00000KT 10SM CLR M12/M18 A3059 RMK AO2=
KHQI 272015Z AUTO 04024KT 10SM OVC018 13/10 A3023 RMK A01=
KHQU 272015Z AUTO 00000KT 10SM CLR 14/03 A3036 RMK AO1
     T01350030=
KHSP 272015Z AUTO 28009G16KT 10SM CLR M05/M15 A3022 RMK AO2
     T10551149=
KHZR 272015Z AUTO 03004KT 10SM CLR 10/00 A3035 RMK AO2
     T01000001=
KI75 272015Z AUTO 00000KT 10SM CLR M11/M17 A3058 RMK AO2
     T11071175=
KIDP 272015Z AUTO 08004KT 10SM SCT044 OVC050 M06/M18 A3055 RMK
     AO2=
KIIB 272015Z AUTO 22003KT 10SM CLR M11/M18 A3059 RMK AO2=
KIJX 272015Z AUTO 28004KT 10SM CLR M10/M18 A3064 RMK AO2
     T11051182=
KIKK 272015Z AUTO 24007KT 10SM CLR M11/M17 A3063 RMK AO2
     T11121167=
KIKT 272015Z AUTO 07021G26KT 10SM BKN028 BKN033 14/07 A3021 RMK
     A01=
KIKV 272015Z AUTO 00000KT 10SM CLR M12/M19 A3061 RMK AO2=
KINF 272015Z AUTO 04008KT 10SM BKN040 18/03 A3020 RMK AO2=
KINJ 272015Z AUTO 03011KT 10SM SCT012 OVC060 M01/M04 A3040 RMK AO2
     T10151045=
KIPN 272015Z AUTO 06015G24KT 10SM BKN026 OVC031 15/09 A3021 RMK
     A01=
KMAN 272015Z AUTO 14011G16KT 10SM FEW040 10/01 A2970 RMK AO1=
KMDJ 272015Z AUTO 05021G26KT 9SM BKN021 BKN027 OVC031 12/08 A3028
     RMK A01=
KMIS 272015Z AUTO 08018G26KT 8SM BKN025 11/05 A3028 RMK A01=
KMOR 272015Z AUTO VRB03KT 10SM CLR 00/M09 A3045 RMK=
KMQI 272022Z AUTO 02009G14KT 10SM CLR 04/M03 A3041 RMK AO2=
KMZG 272015Z AUTO 06012G23KT 030V090 5SM HZ BKN022 BKN027 16/10
     A3020 RMK A01=
KONP 272015Z AUTO 21009KT 10SM SCT006 SCT010 BKN025 10/09 A2978
     RMK AO2=
KOPN 272015Z AUTO 04004KT 10SM CLR 12/M02 A3033 RMK AO2=
KORG 272015Z AUTO 05005KT 10SM CLR 10/00 A3034 RMK AO2
     T01030002=
####018003734####
SAUS99 KWBC 272020 RRB
METAR
KPBX 272015Z AUTO 34003KT 10SM BKN037 M06/M13 A3049 RMK AO2
     T10571135=
KPDC 272015Z AUTO 26006KT 10SM CLR M11/M21 A3059 RMK AO2
     T11131210=
KPEQ 272015Z AUTO 05010KT 4SM BR OVC008 M04/M05 A3023 RMK AO2
     T10371048=
KPGV 272015Z AUTO 35003G08KT 10SM SCT049 09/M02 A3039 RMK AO2=
KPPO 272015Z AUTO 24008KT 10SM CLR M07/M18 A3058 RMK AO2
     T10731178=
KPPQ 272015Z AUTO 00000KT 10SM CLR M10/M19 A3063 RMK AO2
     T11011190=
KPTS 272015Z AUTO 08007KT 10SM OVC050 M06/M16 A3055 RMK AO2
     T10621158=
KPTT 272015Z AUTO 15007KT 1 1/4SM -SN OVC010 M09/M13 A3045 RMK
     AO2=
KRCM 272015Z AUTO 00000KT 10SM BKN090 BKN120 M07/M17 A3059 RMK
     AO2=
KRHP 272015Z AUTO 25008KT 10SM CLR 04/M03 A3034 RMK AO2
     T00351027=
KRPH 272015Z AUTO 02007KT 2SM -SN OVC014 M05/M07 A3041 RMK AO2
     T10501072=
KRPJ 272015Z AUTO 23008KT 10SM CLR M13/M18 A3061 RMK AO2
     T11271181=
KRSV 272015Z AUTO 28004KT 10SM CLR M08/M16 A3064 RMK AO2
     T10761160=
KS25 272015Z AUTO 17013G16KT 10SM CLR M05/M15 A3008 RMK AO2=
KSFY 272015Z AUTO 24007KT 10SM CLR M11/M21 A3062 RMK AO2
     T11081206=
KSHD 272015Z AUTO 04004KT 10SM SCT060 01/M11 A3039 RMK AO2
     T00101108=
KSLO 272015Z AUTO 35006KT 10SM CLR M08/M16 A3063 RMK AO2
     T10771162=
KSLR 272015Z AUTO 04009KT 4SM -SN SCT010 BKN023 OVC034 M02/M05
     A3049 RMK AO2 T10241047=
KSPR 272015Z AUTO 06024KT 6SM HZ BKN017 BKN021 OVC026 10/06 A3025
     RMK A01=
KSQE 272015Z AUTO 06018G26KT 9SM FEW021 BKN026 OVC033 14/10 A3023
     RMK A01=
KSUT 272015Z AUTO 36006KT 10SM CLR 10/M01 A3037 RMK AO2
     T01001011=
KT20 272015Z AUTO 03010G15KT 7SM OVC016 05/01 A3028 RMK AO2
     T00480007=
KTIP 272015Z AUTO 31003KT 10SM CLR M09/M17 A3062 RMK AO2
     T10871170=
KTKV 272015Z AUTO 23006KT 10SM CLR M09/M21 A3039 RMK AO2
     T10881211=
KBKT 272015Z AUTO 33004KT 10SM SCT050 03/M05 A3040 RMK AO1
     T00341053=
KBNW 272015Z AUTO 00000KT 10SM CLR M12/M19 A3055 RMK AO2=
KBPG 272015Z AUTO 05011KT 5SM OVC009 M06/M08 A3029 RMK AO2
     T10621084=
KBQX 272015Z AUTO 06016G23KT 9SM SCT020 BKN025 OVC034 12/08 A3024
     RMK A01=
KBVN 272015Z AUTO 16006KT 10SM CLR M06/M20 A3041 RMK AO2
     T10611201=
KBWD 272015Z AUTO 03008KT 5SM BR OVC012 M04/M06 A3036 RMK AO2=
KC09 272015Z AUTO 30007KT 10SM CLR M12/M17 A3062 RMK AO2
     T11161171=
KC29 272015Z AUTO 22007KT 10SM CLR M07/M21 A3053 RMK AO1
     T10741207=
KC35 272015Z AUTO 27007KT 10SM CLR M10/M20 A3052 RMK AO2
     T10971196=
KCAV 272015Z AUTO 23006KT 10SM SCT013 M13/M18 A3056 RMK AO2=
KCBF 272015Z AUTO 12008KT 10SM SCT024 M09/M15 A3052 RMK AO2=
KCFD 272015Z AUTO 06006KT 10SM BKN031 OVC095 05/M03 A3038 RMK AO2
     T00451031=
KCFE 272005Z AUTO 23006KT 10SM CLR M10/M18 A3051 RMK AO2=
KCHK 272015Z AUTO 07009KT 2 1/2SM -SN M06/M09 A3048 RMK AO2 SKY
     OBSCURED=
KCIN 272015Z AUTO 00000KT 10SM CLR M13/M19 A3055 RMK AO2=
KCJR 272015Z AUTO 09006KT 10SM CLR 02/M12 A3045 RMK AO2=
KCNC 272015Z AUTO VRB04KT 10SM FEW020 BKN026 M11/M18 A3059 RMK
     AO2=
KCOM 272015Z AUTO 05008KT 7SM OVC009 M04/M05 A3033 RMK AO2
     T10451055=
KCPC 272015Z AUTO 03004KT 10SM CLR 11/M01 A3035 RMK AO2
     T01091010=
KCPT 272015Z AUTO 04009KT 3SM -SN OVC012 M03/M04 A3041 RMK AO2=
KCQB 272015Z AUTO 08007KT 1SM -SN OVC009 M05/M07 A3052 RMK AO2=
KCQF 272015Z AUTO 02012KT 10SM CLR 12/00 A3029 RMK AO2=
KCRH 272015Z AUTO 07016KT 9SM OVC022 08/05 A3030 RMK A01=
KCSQ 272015Z AUTO 34006KT 10SM CLR M10/M18 A3054 RMK AO2=
KCTJ 272015Z AUTO 36006KT 10SM CLR 06/M04 A3040 RMK AO2=
KCTZ 272015Z AUTO 34005KT 10SM CLR 10/00 A3038 RMK AO2
     T01021005=
####018000951####
SAUS99 KWBC 272020 RRC
METAR
KCVW 272015Z AUTO 06009G15KT 10SM FEW031 09/01 A3035 RMK A01=
KDBN 272015Z AUTO 00000KT 10SM CLR 12/02 A3034 RMK AO2=
KDEH 272015Z AUTO VRB06G11KT 10SM CLR M13/M21 A3054 RMK AO2=
KDLP 272015Z AUTO 07012G18KT 10SM BKN022 OVC028 11/05 A3027 RMK
     A01=
KDUB 272015Z AUTO 16010KT 10SM SCT043 BKN049 OVC060 M10/M13 A2968
     RMK AO2=
KDWX 272015Z AUTO 22007KT 10SM CLR M01/M11 A2981 RMK AO2
     T10081107=
KE38 272015Z AUTO 03004KT 4SM OVC004 M03/M03 A3015 RMK AO2
     T10281033=
KEBS 272015Z AUTO 22003KT 10SM FEW013 M13/M19 A3055 RMK AO2=
KEFK 272015Z AUTO 28004KT 10SM CLR M10/M23 A3032 RMK AO2
     T11041231=
KEHC 272015Z AUTO 06020G27KT 9SM FEW017 10/06 A3025 RMK A01=
KEIR 272015Z AUTO 06023KT 9SM OVC018 09/05 A3028 RMK A01=
KEMK 272015Z AUTO 05024KT 10SM BKN022 OVC027 16/10 A3020 RMK
     A01=
KENL 272015Z AUTO 34004KT 10SM CLR M08/M16 A3063 RMK AO2
     T10841164=
####018000301####
SPUS99 KWBC 272020
SPECI
PAJZ 272018Z AUTO 00000KT 10SM SCT013 M04/M05 A3042 RMK AO2 TSNO
     $=
PAOO 272017Z AUTO 14022KT 8SM SCT009 SCT016 OVC037 M01/M02 A3018
     RMK AO2 TSNO $=
KGUP 272017Z AUTO 20006KT 3SM -SN BR SCT007 BKN025 OVC060 01/M01
     A2980 RMK AO2 P0000 T00111006=
####018003669####
SAUS70 KWBC 272020 RRA
METAR
PAAD 272015Z AUTO 27025KT 1/2SM FZFG SCT020 BKN027 OVC034 M04/M06
     A3014 RMK AO2=
KFOT 272015Z AUTO 35015KT 7SM BKN014 BKN019 OVC041 11/09 A2989 RMK
     AO1 P0002=
KFSO 272015Z AUTO 36004KT 10SM CLR M09/M22 A3039 RMK AO2
     T10871218=
KFTN 272110Z AUTO 03006KT BKN005 OVC011 02/02 A3026 RMK AO1=
KGAO 272015Z AUTO 02007G14KT 10SM CLR 12/02 A3031 RMK AO2
     T01160022=
KGDJ 272015Z AUTO 01006KT 5SM UP BKN014 OVC019 M03/M06 A3043 RMK
     AO2 T10321057=
KGGI 272015Z AUTO 33003KT 10SM CLR M13/M20 A3059 RMK AO2
     T11351197=
KGMJ 272015Z AUTO 00000KT 7SM SCT019 BKN025 OVC032 M05/M13 A3057
     RMK AO2=
KGNC 272015Z AUTO 11010KT 7SM -SN OVC014 M07/M09 A3023 RMK AO2
     T10661093=
KGOO 272020Z AUTO 24005KT 10SM SCT033 BKN044 10/02 A2978 RMK
     AO1=
KGWB 272015Z AUTO 32004KT 10SM CLR M07/M19 A3058 RMK AO2=
KGWW 272015Z AUTO 02006KT 10SM CLR 09/M02 A3038 RMK AO2
     T00861016=
KGYB 272015Z AUTO 04007KT 10SM OVC019 04/M01 A3036 RMK AO2
     T00361010=
KGYI 272015Z AUTO 05010KT 1 3/4SM -SN OVC008 M04/M05 A3047 RMK AO2
     T10411051=
KGZL 272015Z AUTO 06004KT 3/4SM -SN VV005 M07/M12 A3056 RMK
     AO2=
KHBI 272015Z AUTO 00000KT 10SM CLR 05/M04 A3040 RMK AO2
     T00511045=
KHHF 272015Z AUTO 12008KT 7SM -SN OVC021 M08/M11 A3035 RMK AO2
     T10771115=
KHJH 272015Z AUTO 15006KT 10SM CLR M06/M19 A3048 RMK AO2
     T10611189=
KHLX 272015Z AUTO 32012KT 10SM CLR M01/M09 A3031 RMK AO2
     T10151095=
KHNZ 272015Z AUTO 34006KT 10SM CLR 06/M08 A3040 RMK AO2
     T00551081=
KHRJ 272015Z AUTO 33003KT 10SM SCT050 10/M04 A3038 RMK AO2
     T00951038=
KHSB 272015Z AUTO 00000KT 10SM CLR M06/M12 A3064 RMK AO2
     T10611122=
KHVE 272015Z AUTO 00000KT 10SM CLR 07/M05 A2979 RMK AO2=
KHZL 272015Z AUTO 26005KT 10SM CLR M06/M16 A3036 RMK AO2=
KI16 272015Z AUTO 10SM SCT035 M02/M11 A3049 RMK AO2 T10171106=
KIBM 272015Z AUTO 17019G24KT 4SM -SN SCT009 BKN015 OVC031 M08/M12
     A2996 RMK AO2 T10831122=
KIER 272015Z AUTO 04008KT 10SM CLR 06/M03 A3041 RMK AO2
     T00611032=
KIFP 272015Z AUTO 36010G16KT 310V020 10SM CLR 20/M03 A2968 RMK AO2
     PWINO=
KIIY 272015Z AUTO 26005KT 10SM CLR 14/03 A3031 RMK AO2=
KJAS 272015Z AUTO 05004KT 10SM BKN110 08/M02 A3037 RMK AO2
     T00841017=
KJDD 272015Z AUTO 04005KT 10SM OVC060 00/M10 A3045 RMK AO2=
KJFZ 272015Z AUTO 35004KT 10SM OVC023 M06/M12 A3037 RMK AO2
     T10561125=
KJSO 272015Z AUTO 03007KT 10SM OVC080 00/M06 A3041 RMK AO2
     T00051064=
KJSV 272015Z AUTO 10005KT 1 1/4SM -SN SCT003 OVC009 M05/M10 A3058
     RMK AO2=
KCDA 272015Z AUTO 22008G15KT 10SM CLR M09/M26 A3030 RMK AO2
     T10901258=
KCLW 272015Z AUTO 06005KT 10SM OVC026 17/10 A3016 RMK AO2=
KCMD 272015Z AUTO 35004KT 10SM CLR 01/M08 A3045 RMK AO2
     T00101080=
KCPK 272015Z AUTO 36008G14KT 10SM BKN050 03/M03 A3044 RMK AO2=
KCRX 272015Z AUTO VRB06G15KT 10SM CLR 03/M12 A3049 RMK AO2=
KCUH 272015Z AUTO 09005KT 1 3/4SM -SN SCT001 OVC007 M07/M11 A3053
     RMK AO2=
KCWC 272015Z AUTO 04010KT 10SM SCT014 BKN022 OVC065 M05/M08 A3047
     RMK AO2 T10541085=
KCXP 272015Z AUTO 27017G25KT 10SM FEW060 SCT070 SCT080 10/M07
     A2969 RMK AO2=
KD50 272015Z AUTO 19007KT 10SM CLR M09/M17 A3014 RMK AO2=
KDNS 272015Z AUTO 20004KT 10SM CLR M12/M20 A3053 RMK AO2=
KDNV 272015Z AUTO 00000KT 10SM CLR M09/M18 A3059 RMK AO2
     T10941176=
KDPL 272015Z AUTO 35005KT 7SM CLR 09/M02 A3039 RMK AO2
     T00941023=
KDQH 272015Z AUTO 06005KT 10SM OVC031 12/04 A3033 RMK AO2=
KDUC 272015Z AUTO 08007KT 5SM -SN BKN014 BKN022 OVC027 M06/M08
     A3046 RMK AO2=
####018003719####
SAUS70 KWBC 272020 RRB
METAR
KDUX 272015Z AUTO 13008KT 4SM -SN OVC010 M07/M13 A3022 RMK AO2
     T10751135=
KDVO 272015Z AUTO 27015G23KT CLR 16/08 A2982 RMK AO2=
KDZB 272015Z AUTO 07005KT 5SM UP OVC017 00/M03 A3033 RMK AO2
     T00001034=
KE16 272015Z AUTO 32009KT 10SM CLR 16/09 A2986 RMK AO2=
KEBG 272015Z AUTO 01006KT 10SM SCT025 BKN048 OVC050 16/08 A3018
     RMK AO2 T01600082=
KEDN 272015Z AUTO 03003KT 10SM CLR 12/00 A3029 RMK AO2=
KEHO 272015Z AUTO 02003KT 10SM CLR 09/M05 A3033 RMK AO2
     T00851049=
KEQA 272015Z AUTO 11005KT 3SM -SN BKN028 OVC033 M07/M13 A3050 RMK
     AO2=
KERV 272015Z AUTO 04005KT 3SM UP BKN009 OVC015 00/M02 A3026 RMK
     AO2 T10051016=
KEYF 272015Z AUTO 06003KT 10SM SCT049 11/M01 A3036 RMK AO2
     T01081012=
KEZM 272015Z AUTO 34004KT 10SM CLR 14/03 A3034 RMK AO2
     T01380032=
KEZS 272015Z AUTO 25012KT 10SM CLR M07/M20 A3048 RMK AO2
     T10711205=
KF05 272015Z AUTO 07010KT 7SM BKN014 BKN019 OVC026 M06/M12 A3046
     RMK AO1 T10651117=
KF44 272015Z AUTO 05008KT 10SM OVC080 00/M08 A3042 RMK AO2=
KF46 272015Z AUTO 03013G16KT 3SM -SN BKN008 OVC030 M03/M04 A3043
     RMK AO2 T10261045=
KFHB 272015Z AUTO 02012G17KT 10SM SCT016 12/06 A3030 RMK AO1=
KFKR 272015Z AUTO 23005KT 10SM CLR M08/M17 A3060 RMK AO2
     T10771171=
KJWG 272015Z AUTO 04008KT 10SM -SN SCT024 BKN050 OVC065 M08/M12
     A3047 RMK AO2 T10831119=
KJWY 272015Z AUTO 03009KT 7SM SCT011 OVC050 M02/M04 A3042 RMK AO2
     T10241043=
KJXI 272015Z AUTO 02008G15KT 10SM BKN050 OVC070 M01/M09 A3044 RMK
     AO2 T10121088=
KLNC 272015Z AUTO 05010G16KT 10SM BKN012 BKN055 OVC070 M02/M05
     A3044 RMK AO2 T10201055=
KLNN 272015Z AUTO 29008KT 10SM CLR M11/M17 A3058 RMK AO1
     T11091170=
KLOM 272015Z AUTO 32004KT 10SM CLR M01/M13 A3042 RMK AO1=
KLUA 272015Z AUTO 35004KT 10SM SCT060 02/M10 A3040 RMK AO2=
KLUD 272015Z AUTO 05006KT 1 1/2SM -SN OVC004 M05/M07 A3042 RMK AO2
     T10521070=
KLUM 272015Z AUTO 23006KT 10SM CLR M10/M18 A3052 RMK AO2
     T10971182=
KLVL 272015Z AUTO 30005KT 10SM SCT055 06/M07 A3038 RMK AO1
     T00591070=
KM30 272015Z AUTO 03006KT 10SM BKN038 M03/M11 A3059 RMK AO2
     T10271115=
KMEV 272015Z AUTO 26014G23KT 10SM BKN070 OVC085 09/M09 A2972 RMK
     AO2=
KMGR 272015Z AUTO 36005KT 10SM CLR 11/05 A3031 RMK AO2=
KMHV 272015Z AUTO 22018G22KT 10SM BKN041 OVC049 14/04 A2976 RMK
     AO1=
KMKS 272035Z AUTO 01004KT 7SM CLR 11/00 A3035 RMK AO2=
KMNZ 272015Z AUTO 04006KT 3SM BR OVC008 M04/M04 A3036 RMK AO2
     T10361039=
KMQS 272015Z AUTO 33009G16KT 10SM CLR M03/M12 A3042 RMK AO2=
KMRN 272015Z AUTO 22003KT 10SM CLR 08/M08 A3036 RMK AO2
     T00801084=
KMVH 272015Z AUTO 32012KT 10SM FEW029 M06/M15 A2988 RMK A01=
KMWO 272015Z AUTO 33007KT 10SM SCT045 M06/M19 A3061 RMK AO2
     T10571193=
KN38 272015Z AUTO 31007G13KT 270V330 10SM FEW048 M08/M19 A3034 RMK
     AO2=
KO69 272015Z AUTO 26016G23KT 10SM SCT050 15/09 A2984 RMK AO1=
KOCW 272015Z AUTO 01008KT SCT047 SCT095 08/00 A3039 RMK AO2
     T00821004=
KOJA 272015Z AUTO 07007KT 10SM -SN BKN017 OVC060 M08/M12 A3044 RMK
     AO2=
KOKV 272015Z AUTO 30013G16KT 10SM SCT060 00/M16 A3043 RMK AO2=
KOLE 272015Z AUTO 30009KT 270V330 10SM CLR M11/M21 A3035 RMK
     AO2=
KONM 272015Z AUTO 14008KT 10SM 02/00 A2992 RMK AO2 T00171003=
KOXI 272015Z AUTO 25007KT 10SM M09/M27 A3060 RMK AO1=
KPCZ 272015Z AUTO 26008KT 10SM CLR M07/M20 A3050 RMK AO2
     T10661204=
KRCE 272015Z AUTO 07009KT 1 3/4SM -SN SCT020 M08/M10 A3048 RMK AO2
     P0004=
KRCZ 272015Z AUTO 27003KT 10SM 10/M03 A3035 RMK AO2 T01001026=
KFMH 272015Z AUTO VRB03KT 10SM CLR M04/M15 A3034 RMK AO2
     FZRANO=
####018003715####
SAUS70 KWBC 272020
METAR
PAAD 272015Z AUTO 27025KT 1/2SM FZFG SCT020 BKN027 OVC034 M04/M06
     A3014 RMK AO2=
K05U 272015Z AUTO 21006KT 5SM FEW027 SCT033 BKN039 04/M04 A2972
     RMK AO1=
K19A 272015Z AUTO 29006KT 10SM CLR 11/M02 A3033 RMK AO2=
K1A5 272015Z AUTO 33005KT 10SM 07/M12 A3032 RMK AO2 T00661122=
K1II 272015Z AUTO 34010KT 10SM CLR M06/M16 A3060 RMK AO2=
K2D5 272015Z AUTO 20008KT 10SM M10/M16 A3040 RMK AO2=
K36U 272015Z AUTO 27006KT 10SM SCT043 BKN050 BKN100 03/M06 A2974
     RMK AO2=
K3I2 272015Z AUTO 26003KT 10SM CLR M02/M13 A3060 RMK AO2=
K4A9 272015Z AUTO 04008KT 10SM CLR 02/M11 A3041 RMK AO2=
K4O4 272015Z AUTO 07006KT 2 1/2SM OVC008 M02/M07 A3050 RMK AO2=
K5C1 272015Z AUTO 02005KT 2 1/2SM OVC006 00/M01 A3027 RMK AO1=
K65S 272015Z AUTO 15006KT 10SM OVC050 05/M08 A2988 RMK AO2=
KAAA 272015Z AUTO 05003KT 10SM SCT027 M09/M15 A3066 RMK AO2
     T10931153=
KADH 272015Z AUTO 04004KT 1/2SM -SN VV005 M07/M08 A3049 RMK
     AO2=
KAEJ 272015Z AUTO 00000KT 1 1/2SM -SN OVC011 M08/M13 A2976 RMK AO2
     T10841134=
KAIB 272015Z AUTO 21011KT 10SM SCT037 02/M05 A2981 RMK AO2=
KAJG 272015Z AUTO 30005KT 10SM CLR M05/M16 A3063 RMK AO2=
KAJZ 272015Z AUTO 00000KT 3/4SM -SN OVC003 01/00 A2980 RMK AO2
     P0001 T00140000=
KANW 272015Z AUTO 18009G16KT 10SM CLR M05/M20 A3026 RMK AO2
     T10511197=
KASW 272015Z AUTO 30006KT 10SM BKN036 BKN046 M08/M16 A3057 RMK
     AO2=
KAVC 272016Z AUTO 32004KT 10SM CLR 05/M08 A3045 RMK AO2
     T00501076=
KAVK 272015Z AUTO 09007KT 2 1/2SM -SN FEW014 M09/M13 A3050 RMK
     AO2=
KAXX 272015Z AUTO 24010G17KT 2SM -SN BKN009 OVC015 M04/M07 A2980
     RMK AO2 VIS 1 3/4V3 T10361074=
KBAC 272015Z AUTO 23009KT 10SM CLR M12/M17 A3037 RMK AO2=
KBBD 272015Z AUTO 07007KT 4SM -SN BR OVC009 M03/M04 A3029 RMK=
KBDG 272015Z AUTO 00000KT 10SM OVC014 00/M03 A2988 RMK AO1
     T10021031=
KBGE 272015Z AUTO 04007KT 10SM CLR 15/05 A3030 RMK AO2=
KBHC 272015Z AUTO 01003KT 10SM SCT037 12/03 A3032 RMK AO2=
KBMT 272015Z AUTO 09005KT 10SM CLR 10/00 A3033 RMK AO2
     T01041003=
KBTA 272015Z AUTO 20004KT 10SM CLR M09/M16 A3051 RMK AO2
     T10881157=
KBXK 272015Z AUTO 19007KT 120V200 10SM CLR 22/M02 A2971 RMK
     AO1=
KBYY 272015Z AUTO 03012G17KT 7SM OVC017 07/03 A3030 RMK AO2
     T00700033=
KCCO 272015Z AUTO 34009KT 10SM CLR 09/M03 A3034 RMK AO2
     T00901032=
KRNC 272015Z AUTO 07006KT 10SM CLR 00/M11 A3047 RMK=
KRNV 272015Z AUTO 05009KT 10SM CLR 01/M04 A3048 RMK AO2
     T00071042=
KRTS 272015Z AUTO 24016G22KT 10SM FEW050 SCT080 09/M05 A2968 RMK
     AO2=
KRZL 272015Z AUTO 29006KT 10SM CLR M08/M16 A3061 RMK AO2=
KSAA 272015Z AUTO 00000KT 10SM CLR M03/M11 A2976 RMK AO2=
KSIF 272015Z AUTO 30007KT 10SM CLR 06/M08 A3038 RMK AO2
     T00641083=
KSJS 272015Z AUTO 30004KT 10SM OVC041 M03/M13 A3051 RMK AO2
     T10291131=
KSVC 272015Z AUTO 17010G15KT 10SM CLR 08/M04 A2991 RMK AO2=
KTMK 272015Z AUTO 00000KT 10SM SCT020 BKN038 OVC090 10/08 A2974
     RMK AO2=
KTYQ 272015Z AUTO 31003KT 10SM CLR M09/M19 A3059 RMK AO2
     T10931194=
KUSE 272015Z AUTO 26007KT 10SM CLR M09/M20 A3058 RMK AO2=
KUVA 272015Z AUTO 04008KT 4SM BR BKN007 BKN013 OVC019 02/00 A3027
     RMK AO2 T00150003=
KVJI 272015Z AUTO 31005KT 10SM OVC032 00/M09 A3039 RMK AO2
     T10041090=
KVKS 272015Z AUTO 36013KT 10SM CLR 05/M03 A3039 RMK A01=
KW43 272015Z AUTO 21010G16KT 10SM CLR M05/M12 A2993 RMK AO2=
KW81 272015Z AUTO 00000KT 10SM SCT050 05/M08 A3040 RMK AO1
     T00521080=
KW96 272015Z AUTO 05004KT 10SM CLR 01/M05 A3045 RMK AO1
     T00061049=
KXBP 272015Z AUTO 06007KT 3SM -SN BKN010 OVC014 M05/M06 A3046 RMK
     AO2 T10511062=
####018003690####
SAUS70 KWBC 272020 RRC
METAR
K0E0 272015Z AUTO 15008KT 10SM -SN OVC011 M08/M11 A2997 RMK AO2
     T10791110=
K0F2 272015Z AUTO 03007KT 1SM -SN BKN010 OVC015 M06/M08 A3043 RMK
     AO2 T10591076=
K0V4 272015Z AUTO 31006KT 10SM CLR 05/M07 A3040 RMK AO1
     T00511071=
K0VG 272015Z AUTO 02004KT 10SM CLR 00/M12 A3046 RMK AO2=
K11R 272015Z AUTO 03005KT 10SM BKN024 06/00 A3035 RMK AO2
     T00600000=
K1A6 272015Z AUTO 36004KT 10SM CLR M02/M12 A3048 RMK AO2
     T10161116=
K1H2 272015Z AUTO 00000KT 10SM CLR M09/M19 A3065 RMK AO2
     T10881190=
K1L0 272015Z AUTO 36007KT 7SM CLR 11/02 A3033 RMK AO2
     T01120016=
K3LF 272015Z AUTO 00000KT 10SM CLR M12/M20 A3064 RMK AO2
     T11161198=
K3R7 272015Z AUTO 06007KT 030V100 10SM CLR 09/00 A3034 RMK AO2
     T00890002=
K54J 272015Z AUTO 05011KT 10SM CLR 13/00 A3028 RMK AO2
     T01321003=
K66R 272015Z AUTO 06009G16KT 7SM OVC016 06/02 A3030 RMK AO2
     T00570017=
K6B0 272015Z AUTO 00000KT 10SM CLR M07/M22 A3036 RMK AO2
     T10721223=
K6R3 272013Z AUTO 00000KT 10SM SCT100 08/00 A3036 RMK AO2=
K7L2 272015Z AUTO 17012G17KT 10SM CLR M09/M16 A3028 RMK AO2=
K8W2 272015Z AUTO 03009KT 10SM OVC055 00/M13 A3039 RMK AO1
     T00001129=
KADU 272015Z AUTO 00000KT 10SM CLR M11/M18 A3055 RMK AO2=
KAFK 272015Z AUTO 10003KT 10SM CLR M07/M19 A3053 RMK AO2
     T10741192=
KAFP 272015Z AUTO 32003KT 10SM CLR 10/M03 A3035 RMK AO2
     T01021029=
KAHQ 272015Z AUTO 00000KT 10SM CLR M08/M18 A3052 RMK AO2
     T10761182=
KAIO 272015Z AUTO 00000KT 10SM CLR M11/M18 A3056 RMK AO2=
KALX 272015Z AUTO 36007KT 10SM CLR 10/M06 A3036 RMK AO2
     T00951064=
KAQO 272015Z AUTO 05009KT 5SM HZ OVC017 00/M03 A3036 RMK AO2=
KARM 272015Z AUTO 03010KT 7SM OVC017 06/02 A3032 RMK AO2
     T00570020=
KASL 272015Z AUTO 05006KT 10SM SCT055 BKN070 BKN080 01/M06 A3047
     RMK AO1 T00061064=
KATP 272015Z AUTO 09020G25KT 10SM BKN030 OVC038 17/10 A3017 RMK
     A01=
KAUH 272015Z AUTO 17007KT 10SM CLR M06/M20 A3042 RMK AO2
     T10631199=
KAWG 272015Z AUTO 00000KT 10SM CLR M12/M18 A3063 RMK AO2=
KAXA 272015Z AUTO 23005KT 10SM SCT015 M12/M18 A3054 RMK AO2=
KAXH 272015Z AUTO 02007KT 7SM OVC020 09/06 A3035 RMK AO2
     T00910058=
KBBF 272015Z AUTO 08023KT 6SM HZ BKN019 BKN024 14/09 A3019 RMK
     A01=
KBIE 272015Z AUTO 09003KT 10SM SCT120 M07/M19 A3050 RMK AO2
     T10731191=
KBIJ 272015Z AUTO 10007KT 030V110 10SM CLR 15/02 A3030 RMK AO2=
KEOK 272015Z AUTO 28004KT 10SM CLR M11/M19 A3063 RMK AO2=
KEXX 272015Z AUTO 00000KT 10SM CLR 06/M05 A3036 RMK AO2
     T00621051=
KF70 272015Z AUTO 20011G16KT 10SM BKN031 OVC040 16/08 A2982 RMK
     AO1=
KFET 272015Z AUTO 14006KT 10SM CLR M07/M15 A3052 RMK AO2
     T10701153=
KFFL 272015Z AUTO 00000KT 10SM CLR M13/M21 A3063 RMK AO2=
KFKN 272015Z AUTO 05012G16KT 10SM SCT043 SCT050 OVC060 03/M03
     A3042 RMK AO2 T00291028=
KFOA 272015Z AUTO 34003KT 10SM CLR M09/M17 A3064 RMK AO2
     T10871169=
KFQD 272015Z AUTO 28006KT 230V300 10SM CLR 10/M12 A3032 RMK AO2
     T00971125=
KFSW 272015Z AUTO 35005KT 10SM CLR M12/M18 A3064 RMK AO2=
KGBG 272015Z AUTO 27005KT 10SM CLR M12/M18 A3062 RMK AO2
     T11221185=
KGCD 272015Z AUTO 33003KT 10SM DZ BKN013 OVC024 04/03 A2967 RMK
     AO2 T00420025=
KGHB 272015Z AUTO 07019G24KT 9SM OVC023 14/10 A3023 RMK A01=
KGHG 272015Z AUTO 01006KT 020V360 10SM CLR M03/M15 A3037 RMK
     AO2=
KGLE 272015Z AUTO 03008KT 3/4SM -SN BKN003 M06/M08 A3048 RMK AO2
     T10581076=
KGRY 272020Z AUTO 09011G21KT 050V200 10SM FEW029 BKN036 BKN041
     16/09 A3019 RMK A01=
KGUL 272015Z AUTO 10SM BKN030 OVC036 17/10 A3016 RMK A01=
####018000092####
SPPQ50 KWBC 272020
SPECI
PGSN 272016Z 07013KT 10SM BKN014 BKN025 24/23 A2990 RMK AO2=
####018003717####
SAUS70 KWBC 272020 RRD
METAR
KGUR 272015Z AUTO 14011KT 10SM BKN032 M01/M08 A2995 RMK AO2
     T10081085=
KGVT 272015Z AUTO 03007KT 3SM -SN M02/M04 A3046 RMK AO2=
KGVX 272015Z AUTO 06018KT 9SM OVC020 11/07 A3028 RMK A01=
KH21 272015Z AUTO 01004KT 10SM M06/M17 A3055 RMK AO2=
KHDE 272015Z AUTO 18009KT 150V210 10SM SCT120 M06/M20 A3035 RMK
     AO2 T10611202=
KHHV 272015Z AUTO 08021KT 10SM FEW030 FEW037 SCT048 19/11 A3017
     RMK A01=
KHHW 272015Z AUTO 02008KT 2 1/2SM -SN BKN013 OVC030 M03/M06 A3048
     RMK AO2 T10321063=
KHNR 272015Z AUTO 00000KT 10SM CLR M12/M18 A3059 RMK AO2=
KHQI 272015Z AUTO 04024KT 10SM OVC018 13/10 A3023 RMK A01=
KHQU 272015Z AUTO 00000KT 10SM CLR 14/03 A3036 RMK AO1
     T01350030=
KHSP 272015Z AUTO 28009G16KT 10SM CLR M05/M15 A3022 RMK AO2
     T10551149=
KHZR 272015Z AUTO 03004KT 10SM CLR 10/00 A3035 RMK AO2
     T01000001=
KI75 272015Z AUTO 00000KT 10SM CLR M11/M17 A3058 RMK AO2
     T11071175=
KIDP 272015Z AUTO 08004KT 10SM SCT044 OVC050 M06/M18 A3055 RMK
     AO2=
KIIB 272015Z AUTO 22003KT 10SM CLR M11/M18 A3059 RMK AO2=
KIJX 272015Z AUTO 28004KT 10SM CLR M10/M18 A3064 RMK AO2
     T11051182=
KIKK 272015Z AUTO 24007KT 10SM CLR M11/M17 A3063 RMK AO2
     T11121167=
KIKT 272015Z AUTO 07021G26KT 10SM BKN028 BKN033 14/07 A3021 RMK
     A01=
KTNB 272015Z AUTO 30013G17KT 10SM CLR M01/M09 A3029 RMK AO2
     T10151088=
KTOC 272015Z AUTO 26003KT 10SM CLR 11/M07 A3031 RMK AO2
     T01111072=
KTQH 272015Z AUTO 00000KT 2SM -SN SCT006 BKN012 OVC023 M06/M13
     A3054 RMK AO2=
KTVK 272015Z AUTO 27003KT 10SM CLR M10/M17 A3061 RMK AO2=
KVAF 272015Z AUTO 08021KT 6SM HZ SCT023 BKN029 OVC042 15/11 A3018
     RMK A01=
KVBS 272015Z AUTO 11012KT 10SM BKN023 06/01 A3031 RMK A01=
KVCV 272015Z AUTO 26018G26KT 10SM CLR 18/00 A2973 RMK AO2=
KVKY 272015Z AUTO 07019G24KT 10SM BKN023 11/06 A3028 RMK A01=
KVOA 272015Z AUTO 06022KT 10SM BKN026 12/06 A3025 RMK A01=
KVQT 272015Z AUTO 08018G24KT 8SM BKN017 OVC023 11/08 A3025 RMK
     A01=
KW75 272015Z AUTO 35007KT 10SM OVC029 00/M06 A3046 RMK AO1
     T10051062=
KXIH 272015Z AUTO 07019KT 9SM OVC017 08/04 A3030 RMK A01=
KXPY 272015Z AUTO 04017G23KT 9SM OVC021 08/04 A3033 RMK A01=
KXSA 272015Z AUTO 33006KT 10SM SCT045 01/M11 A3046 RMK AO2
     T00141113=
KIKV 272015Z AUTO 00000KT 10SM CLR M12/M19 A3061 RMK AO2=
KINF 272015Z AUTO 04008KT 10SM BKN040 18/03 A3020 RMK AO2=
KINJ 272015Z AUTO 03011KT 10SM SCT012 OVC060 M01/M04 A3040 RMK AO2
     T10151045=
KIPN 272015Z AUTO 06015G24KT 10SM BKN026 OVC031 15/09 A3021 RMK
     A01=
KMAN 272015Z AUTO 14011G16KT 10SM FEW040 10/01 A2970 RMK AO1=
KMDJ 272015Z AUTO 05021G26KT 9SM BKN021 BKN027 OVC031 12/08 A3028
     RMK A01=
KMIS 272015Z AUTO 08018G26KT 8SM BKN025 11/05 A3028 RMK A01=
KMOR 272015Z AUTO VRB03KT 10SM CLR 00/M09 A3045 RMK=
KMQI 272022Z AUTO 02009G14KT 10SM CLR 04/M03 A3041 RMK AO2=
KMZG 272015Z AUTO 06012G23KT 030V090 5SM HZ BKN022 BKN027 16/10
     A3020 RMK A01=
KONP 272015Z AUTO 21009KT 10SM SCT006 SCT010 BKN025 10/09 A2978
     RMK AO2=
KOPN 272015Z AUTO 04004KT 10SM CLR 12/M02 A3033 RMK AO2=
KORG 272015Z AUTO 05005KT 10SM CLR 10/00 A3034 RMK AO2
     T01030002=
KPBX 272015Z AUTO 34003KT 10SM BKN037 M06/M13 A3049 RMK AO2
     T10571135=
KPDC 272015Z AUTO 26006KT 10SM CLR M11/M21 A3059 RMK AO2
     T11131210=
KPEQ 272015Z AUTO 05010KT 4SM BR OVC008 M04/M05 A3023 RMK AO2
     T10371048=
KPGV 272015Z AUTO 35003G08KT 10SM SCT049 09/M02 A3039 RMK AO2=
KPPO 272015Z AUTO 24008KT 10SM CLR M07/M18 A3058 RMK AO2
     T10731178=
KPPQ 272015Z AUTO 00000KT 10SM CLR M10/M19 A3063 RMK AO2
     T11011190=
####018003690####
SAUS70 KWBC 272020 RRE
METAR
KPTT 272015Z AUTO 15007KT 1 1/4SM -SN OVC010 M09/M13 A3045 RMK
     AO2=
KRCM 272015Z AUTO 00000KT 10SM BKN090 BKN120 M07/M17 A3059 RMK
     AO2=
KRHP 272015Z AUTO 25008KT 10SM CLR 04/M03 A3034 RMK AO2
     T00351027=
KRPH 272015Z AUTO 02007KT 2SM -SN OVC014 M05/M07 A3041 RMK AO2
     T10501072=
KRPJ 272015Z AUTO 23008KT 10SM CLR M13/M18 A3061 RMK AO2
     T11271181=
KRSV 272015Z AUTO 28004KT 10SM CLR M08/M16 A3064 RMK AO2
     T10761160=
KS25 272015Z AUTO 17013G16KT 10SM CLR M05/M15 A3008 RMK AO2=
KSHD 272015Z AUTO 04004KT 10SM SCT060 01/M11 A3039 RMK AO2
     T00101108=
KSLO 272015Z AUTO 35006KT 10SM CLR M08/M16 A3063 RMK AO2
     T10771162=
KSLR 272015Z AUTO 04009KT 4SM -SN SCT010 BKN023 OVC034 M02/M05
     A3049 RMK AO2 T10241047=
KSPR 272015Z AUTO 06024KT 6SM HZ BKN017 BKN021 OVC026 10/06 A3025
     RMK A01=
KSQE 272015Z AUTO 06018G26KT 9SM FEW021 BKN026 OVC033 14/10 A3023
     RMK A01=
KSUT 272015Z AUTO 36006KT 10SM CLR 10/M01 A3037 RMK AO2
     T01001011=
KT20 272015Z AUTO 03010G15KT 7SM OVC016 05/01 A3028 RMK AO2
     T00480007=
KTIP 272015Z AUTO 31003KT 10SM CLR M09/M17 A3062 RMK AO2
     T10871170=
KBKT 272015Z AUTO 33004KT 10SM SCT050 03/M05 A3040 RMK AO1
     T00341053=
KBNW 272015Z AUTO 00000KT 10SM CLR M12/M19 A3055 RMK AO2=
KBPG 272015Z AUTO 05011KT 5SM OVC009 M06/M08 A3029 RMK AO2
     T10621084=
KBQX 272015Z AUTO 06016G23KT 9SM SCT020 BKN025 OVC034 12/08 A3024
     RMK A01=
KBVN 272015Z AUTO 16006KT 10SM CLR M06/M20 A3041 RMK AO2
     T10611201=
KBWD 272015Z AUTO 03008KT 5SM BR OVC012 M04/M06 A3036 RMK AO2=
KC09 272015Z AUTO 30007KT 10SM CLR M12/M17 A3062 RMK AO2
     T11161171=
KC29 272015Z AUTO 22007KT 10SM CLR M07/M21 A3053 RMK AO1
     T10741207=
KC35 272015Z AUTO 27007KT 10SM CLR M10/M20 A3052 RMK AO2
     T10971196=
KCAV 272015Z AUTO 23006KT 10SM SCT013 M13/M18 A3056 RMK AO2=
KCBF 272015Z AUTO 12008KT 10SM SCT024 M09/M15 A3052 RMK AO2=
KCFD 272015Z AUTO 06006KT 10SM BKN031 OVC095 05/M03 A3038 RMK AO2
     T00451031=
KCFE 272005Z AUTO 23006KT 10SM CLR M10/M18 A3051 RMK AO2=
KCHK 272015Z AUTO 07009KT 2 1/2SM -SN M06/M09 A3048 RMK AO2 SKY
     OBSCURED=
KCIN 272015Z AUTO 00000KT 10SM CLR M13/M19 A3055 RMK AO2=
KCJR 272015Z AUTO 09006KT 10SM CLR 02/M12 A3045 RMK AO2=
KCNC 272015Z AUTO VRB04KT 10SM FEW020 BKN026 M11/M18 A3059 RMK
     AO2=
KCOM 272015Z AUTO 05008KT 7SM OVC009 M04/M05 A3033 RMK AO2
     T10451055=
KCPC 272015Z AUTO 03004KT 10SM CLR 11/M01 A3035 RMK AO2
     T01091010=
KCPT 272015Z AUTO 04009KT 3SM -SN OVC012 M03/M04 A3041 RMK AO2=
KCQB 272015Z AUTO 08007KT 1SM -SN OVC009 M05/M07 A3052 RMK AO2=
KCQF 272015Z AUTO 02012KT 10SM CLR 12/00 A3029 RMK AO2=
KCRH 272015Z AUTO 07016KT 9SM OVC022 08/05 A3030 RMK A01=
KCSQ 272015Z AUTO 34006KT 10SM CLR M10/M18 A3054 RMK AO2=
KCTJ 272015Z AUTO 36006KT 10SM CLR 06/M04 A3040 RMK AO2=
KCTZ 272015Z AUTO 34005KT 10SM CLR 10/00 A3038 RMK AO2
     T01021005=
KCVW 272015Z AUTO 06009G15KT 10SM FEW031 09/01 A3035 RMK A01=
KDEH 272015Z AUTO VRB06G11KT 10SM CLR M13/M21 A3054 RMK AO2=
KDLP 272015Z AUTO 07012G18KT 10SM BKN022 OVC028 11/05 A3027 RMK
     A01=
KDUB 272015Z AUTO 16010KT 10SM SCT043 BKN049 OVC060 M10/M13 A2968
     RMK AO2=
KDWX 272015Z AUTO 22007KT 10SM CLR M01/M11 A2981 RMK AO2
     T10081107=
KE38 272015Z AUTO 03004KT 4SM OVC004 M03/M03 A3015 RMK AO2
     T10281033=
KEBS 272015Z AUTO 22003KT 10SM FEW013 M13/M19 A3055 RMK AO2=
KEFK 272015Z AUTO 28004KT 10SM CLR M10/M23 A3032 RMK AO2
     T11041231=
KEHC 272015Z AUTO 06020G27KT 9SM FEW017 10/06 A3025 RMK A01=
####018001376####
SAUS80 KWBC 272020
METAR
K2I0 272015Z AUTO 04005KT 10SM CLR M04/M13 A3060 RMK AO2
     T10411128=
KAYS 272015Z AUTO 03008G14KT 10SM CLR 13/04 A3031 RMK AO2
     T01320038=
KS39 272020Z AUTO 26007G12KT 9SM -RA FEW025 BKN034 BKN040 04/02
     A2968 RMK AO2=
KSEP 272015Z AUTO 02008KT 4SM OVC010 M05/M06 A3039 RMK AO2
     T10471065=
KGIC 272015Z AUTO 24003KT 10SM CLR 07/M01 A2975 RMK AO1
     T00651011=
KJNX 272015Z AUTO 30003KT 10SM CLR 09/M03 A3038 RMK AO2=
KCIR 272015Z AUTO 05008KT 10SM CLR M03/M12 A3061 RMK AO2
     T10341116=
KCUL 272015Z AUTO 35005KT 10SM CLR M05/M11 A3062 RMK AO2
     T10501106=
KDVK 272015Z AUTO 02006KT 10SM SCT032 M06/M13 A3057 RMK AO2=
KEDU 272015Z AUTO 25003KT 10SM CLR 19/06 A2977 RMK AO1=
KLZZ 272015Z AUTO 04007KT 4SM BR OVC014 M01/M02 A3033 RMK AO2
     T10101022=
KO86 272010Z AUTO 12005KT 10SM FEW035 SCT044 13/03 A2974 RMK
     AO1=
KPSN 272015Z AUTO 05007KT 10SM OVC080 01/M06 A3042 RMK AO2
     T00121058=
KGNT 272015Z AUTO 14013G19KT 1/4SM SN OVC005 M04/M05 A2986 RMK AO2
     T10381046=
KPTS 272015Z AUTO 08007KT 10SM OVC050 M06/M16 A3055 RMK AO2
     T10621158=
KSFY 272015Z AUTO 24007KT 10SM CLR M11/M21 A3062 RMK AO2
     T11081206=
KTKV 272015Z AUTO 23006KT 10SM CLR M09/M21 A3039 RMK AO2
     T10881211=
KDBN 272015Z AUTO 00000KT 10SM CLR 12/02 A3034 RMK AO2=
####018000253####
SAXX60 KWBC 272020
METAR
KMCC 272015Z AUTO 18009KT 10SM FEW060 17/08 A2979 RMK AO2=
KAPY 272015Z AUTO 35009KT 10SM OVC013 05/01 A3023 RMK AO2
     T00500013=
KGBK 272015Z AUTO 04017G29KT 10SM SCT030 BKN039 OVC047 18/12 A3015
     RMK A01=
####018000145####
SAUS70 KWBC 272000 RRU
METAR
KACQ 271959Z AUTO 22007KT 10SM CLR M12/M17 A3054 RMK AO2=
KADS 271947Z 05008KT 1SM SN OVC011 M03/M05 A3046=
####018000871####
SPXX60 KWBC 272020
SPECI
KNFW 272016Z 03007KT 1SM -SN SCT011 OVC019 M03/M06 A3048 RMK AO2
     P0001 T10281056 $=
KDYS 272015Z AUTO 06008KT 4SM UP BR BKN007 OVC013 M07/M08 A3034
     RMK AO2 UPB10 $=
KFSI 272018Z AUTO 06009KT 10SM -SN BKN012 OVC020 M07/M10 A3044 RMK
     AO2 CIG 012V020 BKN V SCT=
KGRF 272015Z 04003KT 2SM -RA BR BKN005 OVC019 09/09 A2974 RMK AO2A
     TWR VIS 1 1/2 VIS 2V4 BKN V OVC $=
KIAB 272018Z AUTO 12006KT 2 1/2SM -SN FEW010 OVC017 M09/M13 A3050
     RMK AO2 VIS 1 3/4V2 1/2 CIG 012 RWY19=
KNQX 272016Z 03009KT 10SM BKN008 23/19 A3007 RMK AO2 T02330194
     $=
KNSI 272015Z AUTO 31020G33KT 10SM OVC015 A2986 RMK AO2 PK WND
     32035/2005 $=
KSHM 272019Z AUTO 13011KT 2 1/4SM -SHSN BR BKN011 M13/M15 A2991
     RMK AO2 VIS 2 1/4V5 SNE02SHSNB02=
KSLI 272019Z 19005KT 10SM BKN033 OVC041 18/11 A2982 RMK AO2A=
####018000245####
SAUS70 KWBC 272020 RRF
METAR
KEIR 272015Z AUTO 06023KT 9SM OVC018 09/05 A3028 RMK A01=
KEMK 272015Z AUTO 05024KT 10SM BKN022 OVC027 16/10 A3020 RMK
     A01=
KENL 272015Z AUTO 34004KT 10SM CLR M08/M16 A3063 RMK AO2
     T10841164=
####018000196####
SPUS80 KWBC 272020
SPECI
KMEH 272016Z AUTO 00000KT 10SM BKN014 OVC060 05/02 A2967 RMK AO2
     T00500017=
PHNY 272017Z AUTO 30008KT 10SM FEW008 SCT014 26/20 A3005 RMK AO2
     TSNO $=
####018000975####
SPUS70 KWBC 272020
SPECI
PACM 272016Z AUTO 17018G23KT 1/2SM FG SCT007 BKN012 OVC095 00/M01
     A3017 RMK AO2 PWINO FZRANO TSNO $=
PADU 272016Z 00000KT 10SM SCT008 SCT016 OVC033 06/03 A3006 RMK AO2
     CS=
KROG 272016Z 04005KT 5SM -SN BKN029 OVC035 M08/M14 A3052 RMK AO2
     P0000=
PACM 272016Z AUTO 17018G23KT 1/2SM FG SCT007 BKN012 OVC095 00/M01
     A3017 RMK AO2 PWINO FZRANO TSNO $=
KCTB 272017Z AUTO 36020KT 3SM -SN OVC017 M08/M12 A3002 RMK AO2
     P0000 T10831117=
KFDR 272016Z AUTO 07011KT 5SM HZ BKN014 OVC060 M08/M11 A3042 RMK
     AO2 SNE1959 P0000 T10781106 $=
KPDT 272016Z 29012KT 10SM OVC070 07/04 A2969 RMK AO2 WSHFT 1956
     RAB00E11 P0000 T00720044=
PAJZ 272018Z AUTO 00000KT 10SM SCT013 M04/M05 A3042 RMK AO2 TSNO
     $=
PAOO 272017Z AUTO 14022KT 8SM SCT009 SCT016 OVC037 M01/M02 A3018
     RMK AO2 TSNO $=
KGUP 272017Z AUTO 20006KT 3SM -SN BR SCT007 BKN025 OVC060 01/M01
     A2980 RMK AO2 P0000 T00111006=
####018000028####
SAAW34 KWBC 272015
NIL=
####018000311####
SADL33 KWBC 272015
METAR
EDBM NIL=
EDDB NIL=
EDDC NIL=
EDDG NIL=
EDDI NIL=
EDDP NIL=
EDDR NIL=
EDDT NIL=
EDDV NIL=
EDDW NIL=
EDNA NIL=
EDNY NIL=
EDSA NIL=
EDVK 272020Z 28009KT 9000 FEW026 OVC038 03/02 Q1018 RMK ATIS G=
EDVV NIL=
EDWD NIL=
EDWE NIL=
EDXF NIL=
EDXW NIL=
####018000096####
SAEE32 KWBC 272000 RRA
METAR
LROP 272000Z 05011KT CAVOK 07/06 Q1013 RMK R88/09//95 NOSIG=
####018000116####
SPJP31 KWBC 272020
SPECI
RODN 272015Z AUTO 09014KT 7SM R05/5500FT BKN008 18/15 A3007 RMK
AO2 CIG 008V017 $=
####018000096####
SAPA31 KWBC 272000 RRD
METAR
PGSN 272016Z 07013KT 10SM BKN014 BKN025 24/23 A2990 RMK AO2=
####018000116####
SPXX62 KWBC 272020
SPECI
RODN 272015Z AUTO 09014KT 7SM R05/5500FT BKN008 18/15 A3007 RMK
AO2 CIG 008V017 $=
####018000082####
SASD42 KWBC 272000 RRC
METAR
OEHL 272000Z 27002KT CAVOK 13/M06 Q1021 NOSIG=
####018000119####
SAEA20 HKNC 272000 RRA
METAR HKRE 272000Z 03008KT 9999 FEW021 22/12 Q1020=
METAR HKVO 272000Z 09010KT SKC 26/20=
####018000115####
SALT32 EYVI 272020
METAR EYKA 272020Z 10003KT 070V150 3600 -RA BR SCT006 BKN011 OVC031
02/00 Q1016 R08/090095=
####018000300####
SAXX99 KWBC 272000 RRO
METAR
CWMT 272000Z AUTO 28009KT M08/M11 RMK AO1 SLP189 T10801112
     58012=
CZHY 272000Z AUTO 29007KT M06/M13 RMK AO1 SOG 33 6008 SLP218
     T10641131=
FTTA 272000Z 32004KT 6000 NSC 29/01 Q1011=
K4O4 272015Z AUTO 07006KT 2 1/2SM OVC008 M02/M07 A3050 RMK AO2=
####018000105####
SABZ35 SBBR 272020
METAR SKCL 272000Z 33013KT 9000 SCT020TCU SCT300 32/18 A2984 RMK TCU/
 NE/E HZ=
####018000087####
SPUS44 KWBC 272020
SPECI
KCTB 272017Z AUTO 36020KT 3SM -SN OVC017 M08/M12 A3002=
####018000077####
SPUS54 KWBC 272020
SPECI
KPDT 272016Z 29012KT 10SM OVC070 07/04 A2969=
####018000094####
SAFA31 EKCH 272020
METAR EKVG 272020Z AUTO 15018G29KT 8000NDV -RA  OVC006/// 05/05
Q0981=
####018000091####
SALV31 EVRA 272020
METAR EVRA 272020Z 00000KT 8000 OVC008 01/01 Q1017 R36/190095 NOSIG=
####018000098####
SACA32 XXCB 272020
METAR TTPP 272000Z 09012KT 7000 -SHRA VCSH SCT016 BKN035 29/22 Q1012
NOSIG=
####018000092####
SAEO31 EETN 272020
METAR EETN 272020Z 10004KT 9999 OVC024 01/M01 Q1017 R08/12//95 NOSIG=
####018000213####
ISSD03 ENMI 272000
BUFR      X             	*   &# A%
r?2? /$C#@t/7777
####018003505####
ISSD02 ENMI 272000 RRA
BUFR     X             	* f C6VR7    tx5_Gkp  _P@/?	 w1Mi+A`tn? Bg2'ic4>7@?k+)_? eE2@oC? yXXH5_? q"g8:MLF4B       t>R7dhkg  _H_G$	@1M>//so 'l_cD   >7@8#{8GZ? ed2@?? u]9do? fX=}!LF4Q     t9hS6t?hkh  [|P$	1`M2?of; 2'jg
cT>7@s#} e_oMPH? u9'? fE}5LF5B     t;76iGk  _@[	1M]?o 'b_cU>7@![Mi_ eEoZH? rHFVq<g(a? 	'f!}LF6K     t=P8<il$  _Hc$	10Mb!CG A'l_cd>7@K?f-x e2@oD? v@8n? "fB};LF6T     t;G7ik  _	@1\MH?*/ Y/'tWct>7@#rNCz edoMH? y5hd? r"gxMeLF8B     t>>jWk8  [pH	!=	MY(a-$Yo 1o%'c7777
####018000078####
SAOM32 OOMS 272000 RRA
METAR OOSA 271950Z AUTO 31017KT 8000 26/M01 Q1013=
####018000085####
SAXN17 KAWN 272000 RRH
METAR SVMI 272000Z 05004KT 9999 FEW023 31/25 Q1013 NOSIG=
####018000107####
SAXX70 KAWN 272000 RRK
METAR KQAZ 272015Z AUTO 13008KT 9999 CLR 21/M09 A3001 RMK CDP03565
      CLR=
####018000120####
SPCN43 CWAO 272020
SPECI CYET 272020Z AUTO 33009G15KT 260V360 8SM -SN BKN027 BKN060
 M07/M13 A3016 RMK SLP270=

####018000110####
SPCN43 CWAO 272020
SPECI CYMM 272020Z AUTO 29006KT 230V040 9SM -SN OVC019 M12/M16 A3024
 RMK SLP273=

####018000153####
SAAK41 KNKA 272019
SPECI PATE 272018Z AUTO 18040G44KT 1SM -SN BR BKN008 OVC060 M01/M02 
 A2997 RMK AO2 PK WND 18044/2009 CIG 005V008 P0000 FZRANO=
####018000082####
SPBZ31 SBBR 272020
SPECI SBTC 272020Z 03006KT 9999 FEW020 SCT090 29/24 Q1009=
####018000096####
SAEU31 BKPR 272030
BKPR 272030Z 36006KT 9999 SCT015 BKN030 07/04 Q1010 NOSIG RMK
17010095 =
####018000109####
SPCN45 CWAO 272022
SPECI CYWE 272022Z AUTO 26015KT 7SM -SN BKN028 OVC037 M10/M11 A2983
 RMK SLP141=

####018000081####
SASA31 XXSA 272020
METAR SADF 272000Z 09011KT 9999 FEW020 SCT035 25/18 Q1016=
####018000127####
SPCU31 MUHA 272020
SPECI MUVR 272019Z 28009KT 2500  +TSRA SCT015CB BKN020 24/21 Q1018  R
MK  RERA CB ALL QUAD AND OVER AD=
####018000158####
SANG31 YBBN 272000 RRA
METAR AYNZ 272000Z 00000KT 9999 FEW010 OVC120 23/23 Q1007=
METAR AGGH 272000Z 27002KT 9999 HZ FEW016 FEW018CB SCT300 25/24
Q1006=
####018002960####
SAUS20 KNKA 272019
METAR K3K3 272015Z AUTO 16015KT 10SM BKN024 BKN029 BKN050 M08/M12 
 A3025 RMK AO2=
METAR K8A0 272015Z AUTO 00000KT 10SM CLR 01/M04 A3041 RMK AO2=
METAR K9V9 272015Z AUTO 17011G14KT 10SM CLR M05/M18 A3034 RMK AO2 
 T10491181=
METAR KAFO 272015Z AUTO 21005KT 4SM -SN BKN025 OVC033 M03/M06 
     A2974 RMK AO2=
METAR KARV 272015Z AUTO 27006KT 10SM CLR M08/M19 A3035 RMK AO2 
 T10851194=
METAR KBMC 272015Z AUTO 18014G19KT 10SM SCT036 SCT049 06/M03 
 A2977 RMK AO1 T00581027=
METAR KBQK 272015Z AUTO 03012G18KT 010V070 10SM CLR 10/00 A3034 
 RMK AO1=
METAR KBQP 272015Z AUTO 35005KT 10SM BKN024 02/M05 A3049 RMK AO2 
 T00191049=
METAR KC75 272015Z AUTO 32005KT 10SM CLR M11/M19 A3063 RMK AO2 
 T11091191=
METAR KCBK 272015Z AUTO 17014KT 7SM -SN OVC024 M07/M10 A3026 RMK 
 AO2=
METAR KCKP 272015Z AUTO 21003KT 10SM CLR M12/M17 A3053 RMK AO2 
     T11201174=
METAR KCMY 272015Z AUTO 24006KT 10SM CLR M09/M21 A3054 RMK AO2 
     T10951207=
SPECI KCSM 272018Z 07011KT 2 1/2SM -SN BKN016 OVC050 M08/M12 A3042 
 RMK AO2 P0000 T10781122=
METAR KCVB 272015Z AUTO 04010KT 5SM -DZ BKN009 OVC015 01/00 A3029 
 RMK AO2 T00131004=
METAR KCXE 272015Z AUTO 29004KT 10SM CLR 06/M07 A3040 RMK AO1 
 T00551070=
METAR KD25 272015Z AUTO 26009KT 10SM CLR M10/M21 A3035 RMK AO2 
 T10981209=
METAR KE11 272015Z AUTO 5SM BR OVC010 M07/M09 A3023 RMK AO2 
 T10661087=
METAR KELA 272015Z AUTO 06012KT 10SM OVC018 06/02 A3031 RMK AO2 
     T00600015=
METAR KEMM 272015Z AUTO 00000KT 10SM SCT014 SCT039 OVC045 M04/M09 
 A2974 RMK AO2=
METAR KEMV 272015Z AUTO 31007KT 10SM SCT060 06/M06 A3041 RMK AO2=
METAR KEZF 272015Z AUTO 32006KT 10SM CLR 03/M09 A3045 RMK AO2 
 T00271095=
METAR KFFA 272015Z AUTO 01005KT 340V190 10SM CLR 03/M01 A3039 RMK 
 AO2 T00331011=
METAR KFWC 272015Z AUTO 34005KT 10SM CLR M08/M15 A3063 RMK AO1 
 T10781147=
METAR KGGP 272015Z AUTO 26006KT 10SM CLR M08/M16 A3061 RMK AO2=
METAR KGOP 272015Z AUTO 03005KT 3SM HZ OVC012 M01/M04 A3039 RMK 
 AO2=
SPECI KGRR 272018Z 25010KT 2SM -SN BKN019 BKN035 M09/M13 A3054 RMK 
 AO2 TWR VIS 2 1/2 SNB06 P0000 T10891128=
METAR KHDC 272015Z AUTO 02007KT 10SM CLR 11/M00 A3034 RMK AO2=
METAR KHWY 272015Z AUTO 04004KT 10SM CLR 02/M08 A3045 RMK AO2 
     T00151079=
METAR KIOB 272015Z AUTO 00000KT 10SM SCT033 M06/M13 A3057 RMK AO2=
METAR KIYA 272015Z AUTO 36006KT 10SM CLR 10/01 A3033 RMK AO2 
 T01000013=
METAR KIZA 272015Z AUTO 32013G16KT 10SM CLR 19/07 A2983 RMK AO2=
METAR KJGG 272015Z AUTO 01008KT 350V050 10SM CLR 02/M01 A3046 RMK 
 AO1=
SPECI KJST 272018Z AUTO 29013KT 10SM SCT026 M12/M18 A3036 RMK AO2 
 T11171183=
METAR KJYO 272015Z AUTO 32007KT 10SM CLR 00/M10 A3046 RMK AO2=
METAR KJYR 272015Z AUTO 22007KT 10SM CLR M07/M19 A3045 RMK AO2=
METAR KL18 272015Z AUTO 22011G15KT 10SM 17/10 A2983 RMK AO2=
METAR KL38 272015Z AUTO 03003KT 10SM CLR 11/01 A3033 RMK AO2 
 T01120012=
####018002510####
SAUS99 KWBC 272021
METAR
K3K3 272015Z AUTO 16015KT 10SM BKN024 BKN029 BKN050 M08/M12 A3025
     RMK AO2=
K8A0 272015Z AUTO 00000KT 10SM CLR 01/M04 A3041 RMK AO2=
K9V9 272015Z AUTO 17011G14KT 10SM CLR M05/M18 A3034 RMK AO2
     T10491181=
KAFO 272015Z AUTO 21005KT 4SM -SN BKN025 OVC033 M03/M06 A2974 RMK
     AO2=
KARV 272015Z AUTO 27006KT 10SM CLR M08/M19 A3035 RMK AO2
     T10851194=
KBMC 272015Z AUTO 18014G19KT 10SM SCT036 SCT049 06/M03 A2977 RMK
     AO1 T00581027=
KBQK 272015Z AUTO 03012G18KT 010V070 10SM CLR 10/00 A3034 RMK
     AO1=
KBQP 272015Z AUTO 35005KT 10SM BKN024 02/M05 A3049 RMK AO2
     T00191049=
KC75 272015Z AUTO 32005KT 10SM CLR M11/M19 A3063 RMK AO2
     T11091191=
KCBK 272015Z AUTO 17014KT 7SM -SN OVC024 M07/M10 A3026 RMK AO2=
KCKP 272015Z AUTO 21003KT 10SM CLR M12/M17 A3053 RMK AO2
     T11201174=
KCMY 272015Z AUTO 24006KT 10SM CLR M09/M21 A3054 RMK AO2
     T10951207=
KCVB 272015Z AUTO 04010KT 5SM -DZ BKN009 OVC015 01/00 A3029 RMK
     AO2 T00131004=
KCXE 272015Z AUTO 29004KT 10SM CLR 06/M07 A3040 RMK AO1
     T00551070=
KD25 272015Z AUTO 26009KT 10SM CLR M10/M21 A3035 RMK AO2
     T10981209=
KE11 272015Z AUTO 5SM BR OVC010 M07/M09 A3023 RMK AO2
     T10661087=
KELA 272015Z AUTO 06012KT 10SM OVC018 06/02 A3031 RMK AO2
     T00600015=
KEMM 272015Z AUTO 00000KT 10SM SCT014 SCT039 OVC045 M04/M09 A2974
     RMK AO2=
KEMV 272015Z AUTO 31007KT 10SM SCT060 06/M06 A3041 RMK AO2=
KEZF 272015Z AUTO 32006KT 10SM CLR 03/M09 A3045 RMK AO2
     T00271095=
KFFA 272015Z AUTO 01005KT 340V190 10SM CLR 03/M01 A3039 RMK AO2
     T00331011=
KFWC 272015Z AUTO 34005KT 10SM CLR M08/M15 A3063 RMK AO1
     T10781147=
KGGP 272015Z AUTO 26006KT 10SM CLR M08/M16 A3061 RMK AO2=
KGOP 272015Z AUTO 03005KT 3SM HZ OVC012 M01/M04 A3039 RMK AO2=
KHDC 272015Z AUTO 02007KT 10SM CLR 11/M00 A3034 RMK AO2=
KHWY 272015Z AUTO 04004KT 10SM CLR 02/M08 A3045 RMK AO2
     T00151079=
KIOB 272015Z AUTO 00000KT 10SM SCT033 M06/M13 A3057 RMK AO2=
KIYA 272015Z AUTO 36006KT 10SM CLR 10/01 A3033 RMK AO2
     T01000013=
KIZA 272015Z AUTO 32013G16KT 10SM CLR 19/07 A2983 RMK AO2=
KJGG 272015Z AUTO 01008KT 350V050 10SM CLR 02/M01 A3046 RMK
     AO1=
KJYO 272015Z AUTO 32007KT 10SM CLR 00/M10 A3046 RMK AO2=
KJYR 272015Z AUTO 22007KT 10SM CLR M07/M19 A3045 RMK AO2=
KL18 272015Z AUTO 22011G15KT 10SM 17/10 A2983 RMK AO2=
KL38 272015Z AUTO 03003KT 10SM CLR 11/01 A3033 RMK AO2
     T01120012=
####018000444####
SPUS99 KWBC 272021
SPECI
PATE 272018Z AUTO 18040G44KT 1SM -SN BR BKN008 OVC060 M01/M02
     A2997 RMK AO2 PK WND 18044/2009 CIG 005V008 P0000 FZRANO=
KCSM 272018Z 07011KT 2 1/2SM -SN BKN016 OVC050 M08/M12 A3042 RMK
     AO2 P0000 T10781122=
KGRR 272018Z 25010KT 2SM -SN BKN019 BKN035 M09/M13 A3054 RMK AO2
     TWR VIS 2 1/2 SNB06 P0000 T10891128=
KJST 272018Z AUTO 29013KT 10SM SCT026 M12/M18 A3036 RMK AO2
     T11171183=
####018000128####
SAAK31 KWBC 272000 RRA
METAR
PAVD 272016Z 00000KT 10SM FEW250 01/M07 A3047=
PAWG 272016Z 31006KT 10SM CLR 06/M04 A3039=
####018000087####
SAAK32 KWBC 272000 RRA
METAR
PADK 272016Z AUTO 35013KT 10SM OVC043 02/M04 A3010=
####018000084####
SPPA41 KWBC 272021
SPECI
PGSN 272016Z 07013KT 10SM BKN014 BKN025 24/23 A2990=
####018000084####
SPPQ31 KWBC 272021
SPECI
PGSN 272016Z 07013KT 10SM BKN014 BKN025 24/23 A2990=
####018000088####
SAPA41 KWBC 272000 RRA
METAR
PGSN 272016Z 07013KT 10SM BKN014 BKN025 24/23 A2990=
####018000088####
SAPQ31 KWBC 272000 RRB
METAR
PGSN 272016Z 07013KT 10SM BKN014 BKN025 24/23 A2990=
####018000092####
SPPA31 KWBC 272021
SPECI
PGSN 272016Z 07013KT 10SM BKN014 BKN025 24/23 A2990 RMK AO2=
####018000092####
SAAG01 SABM 272000 RRC
METAR SAOC 272000Z  05009KT 8000 DZ SCT012 SCT020
20/18 Q1017=
####018000083####
SAUS41 KWBC 272000 RRC
METAR
KCTZ 272015Z AUTO 34005KT 10SM CLR 10/00 A3038=
####018000103####
SPCN44 CWAO 272019
SPECI CYZU 272019Z 31014KT 15SM DRSN SCT015 M10/M14 A3020 RMK SC3
 SLP280=

####018000144####
SAUS42 KWBC 272000 RRB
METAR
KGLE 272015Z AUTO 03008KT 3/4SM -SN BKN003 M06/M08 A3048=
KOPN 272015Z AUTO 04004KT 10SM CLR 12/M02 A3033=
####018000920####
SAUS43 KWBC 272000 RRD
METAR
K1H2 272015Z AUTO 00000KT 10SM CLR M09/M19 A3065=
KAAA 272015Z AUTO 05003KT 10SM SCT027 M09/M15 A3066=
KC09 272015Z AUTO 30007KT 10SM CLR M12/M17 A3062=
KDNV 272015Z AUTO 00000KT 10SM CLR M09/M18 A3059=
KENL 272015Z AUTO 34004KT 10SM CLR M08/M16 A3063=
KFEP 272015Z AUTO 21007KT 10SM CLR M12/M19 A3060=
KFOA 272015Z AUTO 34003KT 10SM CLR M09/M17 A3064=
KGBG 272015Z AUTO 27005KT 10SM CLR M12/M18 A3062=
KHSB 272015Z AUTO 00000KT 10SM CLR M06/M12 A3064=
KIGQ 272015Z AUTO 25009KT 10SM CLR M09/M19 A3060=
KIJX 272015Z AUTO 28004KT 10SM CLR M10/M18 A3064=
KIKK 272015Z AUTO 24007KT 10SM CLR M11/M17 A3063=
KMQB 272015Z AUTO 31005KT 10SM CLR M13/M18 A3066=
KPHN 272019Z AUTO 28006KT 10SM CLR M09/M19 A3055=
KPPQ 272015Z AUTO 00000KT 10SM CLR M10/M19 A3063=
KSLO 272015Z AUTO 35006KT 10SM CLR M08/M16 A3063=
KTIP 272015Z AUTO 31003KT 10SM CLR M09/M17 A3062=
####018000195####
SAUS44 KWBC 272000 RRC
METAR
K11R 272015Z AUTO 03005KT 10SM BKN024 06/00 A3035=
KBPG 272015Z AUTO 05011KT 5SM OVC009 M06/M08 A3029=
KBYY 272015Z AUTO 03012G17KT 7SM OVC017 07/03 A3030=
####018000087####
SAUS51 KWBC 272000 RRB
METAR
KIPJ 272015Z AUTO 23004KT 10SM SCT050 09/M04 A3034=
####018000074####
SASA31 XXSA 272020
METAR SABE 272000Z 11012KT 9999 FEW045 25/16 Q1016=
####018000093####
SALT33 EYVI 272020
METAR EYPA 272020Z 07003KT 9999 BKN021 BKN091 02/01 Q1017
R19/1///95=
####018000083####
SARW20 HRYR 272030
METAR
HRYR 272030Z 33003KT 9999 FEW026 21/17 Q1018 NOSIG=
####018000177####
SASB31 VCCC 272010
METAR VCBI 272010Z NIL=
METAR VRMM 272000Z 09003KT 9999 FEW018TCU BKN130 28/23 Q1011 NOSIG=
METAR VCRI 272010Z VRB02KT 9000 FEW017 22/21 Q1010 NOSIG=
####018000117####
SAMP31 LMMM 272030
METAR HLLT NIL=
METAR HLLB NIL=
METAR LMML 272015Z 31010KT 9999 FEW025 12/08 Q1013 NOSIG=
####018000140####
SAUS52 KWBC 272000 RRC
METAR
KAYS 272015Z AUTO 03008G14KT 10SM CLR 13/04 A3031=
KSEP 272015Z AUTO 02008KT 4SM OVC010 M05/M06 A3039=
####018000273####
SAUS53 KWBC 272000 RRE
METAR
KANW 272015Z AUTO 18009G16KT 10SM CLR M05/M20 A3026=
KBIE 272015Z AUTO 09003KT 10SM SCT120 M07/M19 A3050=
KJNX 272015Z AUTO 30003KT 10SM CLR 09/M03 A3038=
KLNC 272015Z AUTO 05010G16KT 10SM BKN012 BKN055 OVC070 M02/M05
     A3044=
####018000141####
SAUS54 KWBC 272000 RRC
METAR
KJNX 272015Z AUTO 30003KT 10SM CLR 09/M03 A3038=
KSOW 272015Z AUTO 22023G28KT 10SM BKN090 10/M08 A2979=
####018002955####
SAUS20 KNKA 272019
METAR KOUN 272015Z AUTO 06007KT 1/2SM -SN OVC008 M07/M09 A3049 
 RMK AO2=
METAR KOXV 272015Z AUTO 28004KT 10SM CLR M12/M20 A3059 RMK AO2=
METAR KOZA 272015Z AUTO 06008KT 4SM BR OVC006 M01/M02 A3025 RMK 
 AO2=
METAR KPEA 272015Z AUTO 00000KT 10SM CLR M10/M16 A3063 RMK AO2 
 T11011161=
METAR KPLU 272015Z AUTO 00000KT 8SM -DZ FEW011 SCT037 BKN044 
 10/09 A2974 RMK AO2=
METAR KPMV 272015Z AUTO 19003KT 10SM CLR M09/M18 A3053 RMK AO2 
 T10861177=
METAR KPNT 272015Z AUTO 28004KT 10SM CLR M11/M18 A3063 RMK AO2 
 T11121182=
METAR KPOY 272015Z AUTO 14007KT 10SM CLR M05/M14 A2982 RMK AO2=
METAR KPPA 272015Z AUTO 14010KT 4SM -SN BKN004 OVC017 M09/M13 
 A3028 RMK AO2 T10871127=
METAR KPRG 272015Z AUTO 27003KT 10SM CLR M10/M16 A3064 RMK AO2 
 T11011156=
METAR KPRS 272015Z AUTO 05012G21KT 020V080 10SM CLR 08/M01 A3002 
 RMK AO2 T00831012=
METAR KPSK 272015Z AUTO 31009KT 10SM CLR 00/M10 A3037 RMK AO2 
 T10031098=
METAR KPTB 272015Z AUTO 04009KT 10SM SCT028 SCT035 BKN045 03/M02 
 A3043 RMK AO2 T00341021=
METAR KPVB 272015Z AUTO 24005KT 10SM CLR M11/M19 A3055 RMK AO1 
     T11121195=
METAR KPVW 272015Z AUTO 10010KT 3SM -SN SCT012 OVC022 M09/M13 
 A3023 RMK AO2 T10951127=
METAR KPXE 272015Z AUTO 05008KT 10SM CLR 15/M02 A3032 RMK AO2 
 T01461019=
METAR KRDK 272015Z AUTO 00000KT 10SM CLR M09/M16 A3056 RMK AO2=
METAR KRFI 272015Z AUTO 04007KT 10SM OVC080 01/M07 A3042 RMK AO2 
     T00051066=
METAR KRMN 272015Z AUTO 33008KT 10SM CLR 01/M12 A3050 RMK AO2 
 T00121121=
SPECI KRQE 272018Z AUTO 19004KT 2 1/2SM -SN BR BKN020 BKN037 OVC044 
 01/M01 A2979 RMK AO2 P0001 T00111006 TSNO=
METAR KRRL 272015Z AUTO 22009KT 10SM CLR M10/M20 A3043 RMK AO2 
     T11011204=
METAR KRUQ 272015Z AUTO 26003KT 10SM CLR 06/M05 A3036 RMK AO2 
 T00611048=
METAR KSAR 272015Z AUTO 35005KT 10SM CLR M07/M14 A3063 RMK AO2 
 T10671143=
METAR KSDA 272015Z AUTO 00000KT 10SM CLR M08/M17 A3057 RMK AO2=
METAR KSEZ 272015Z AUTO 00000KT 10SM SCT090 10/M03 A2977 RMK AO2=
METAR KSHL 272015Z AUTO 25003KT 10SM CLR M12/M18 A3049 RMK AO2=
METAR KSLB 272015Z AUTO 24006KT 10SM CLR M13/M19 A3052 RMK AO2=
METAR KSME 272015Z AUTO 36005KT 10SM CLR M05/M13 A3056 RMK AO2=
METAR KSNK 272015Z AUTO 06011KT 7SM BKN014 OVC023 M08/M10 A3031 
 RMK AO2 T10761105 TSNO=
METAR KSOA 272015Z AUTO 06007KT 10SM BKN009 OVC012 M01/M03 A3028 
 RMK AO2=
METAR KSVH 272015Z AUTO 07004KT 10SM SCT048 07/M03 A3034 RMK AO2 
 T00711029=
METAR KSWW 272015Z AUTO 04011KT 7SM BKN009 OVC013 M07/M09 A3033 
 RMK AO2 T10701090=
METAR KSYF 272015Z AUTO 17015KT 10SM SCT026 OVC032 M07/M13 A3019 
 RMK AO2 T10701134=
METAR KT35 272015Z AUTO 03007KT 10SM SCT025 OVC047 02/M03 A3037 
 RMK AO2 T00221030=
METAR KT65 272015Z AUTO 36006KT 7SM BKN046 OVC055 16/09 A3016 RMK 
 AO2 T01630093=
METAR KT82 272015Z AUTO 04007KT 3SM -DZ BKN008 OVC014 M02/M03 
 A3026 RMK AO2 T10161028=
####018002931####
SAUS20 KNKA 272019
METAR KLAM 272015Z AUTO 17010G20KT 5SM BR SCT009 OVC024 M08/M10 
 A2987 RMK AO2 T10781099=
METAR KLCG 272015Z AUTO 17009KT 10SM CLR M07/M15 A3048 RMK AO2 
 T10741154=
METAR KLCQ 272015Z AUTO 04010KT 10SM CLR 10/02 A3028 RMK AO2=
METAR KLGC 272015Z AUTO 35004KT 10SM CLR 12/M01 A3035 RMK AO2 
 T01151013=
METAR KLHZ 272015Z AUTO 27006KT 10SM CLR 06/M05 A3039 RMK AO2=
METAR KLKU 272015Z AUTO 06004KT 10SM OVC060 02/M07 A3041 RMK AO2=
SPECI KLMT 272018Z 32014KT 10SM FEW026 BKN044 OVC055 05/00 A2970 RMK 
 AO2 WSHFT 1958 RAB07E18 P0000 T00500000=
METAR KLNP 272015Z AUTO 02006KT 10SM BKN026 M03/M11 A3038 RMK AO2=
METAR KLRJ 272015Z AUTO 21005KT 10SM CLR M11/M17 A3053 RMK AO2=
METAR KLRU 272015Z AUTO 12012G19KT 10SM CLR 07/M03 A2993 RMK AO2 
 T00711034=
METAR KLSB 272015Z AUTO 13015G22KT 10SM CLR 11/M03 A2986 RMK AO2=
METAR KLWB 272015Z AUTO 27009G15KT 10SM CLR M03/M13 A3038 RMK AO2 
 T10281135=
METAR KLXN 272015Z AUTO 17010KT 10SM OVC075 M05/M19 A3033 RMK AO2 
 T10471186=
METAR KLXY 272015Z AUTO 10SM SCT065 OVC075 00/M06 A3037 RMK AO2 
 T00021057=
METAR KMDD 272015Z AUTO 07009KT 2 1/2SM -SN OVC015 M05/M08 A3025 
 RMK AO2 T10531077=
METAR KMDZ 272015Z AUTO 23007KT 10SM CLR M12/M20 A3043 RMK AO2 
 T11251204=
METAR KMKJ 272015Z AUTO 31011G15KT 10SM BKN032 BKN038 M02/M10 
 A3036 RMK AO2 T10211103=
METAR KMLE 272015Z AUTO 15005KT 10SM CLR M07/M18 A3054 RMK AO2 
 T10741178=
METAR KMLJ 272015Z AUTO 00000KT 10SM CLR 13/02 A3032 RMK AO2=
METAR KMMH 272015Z AUTO 27015G24KT 10SM SCT060 08/M09 A2973 RMK 
 AO1=
METAR KMPZ 272015Z AUTO 06003KT 10SM CLR M11/M19 A3064 RMK AO2 
 T11111190=
METAR KMUT 272015Z AUTO VRB04KT 10SM CLR M12/M20 A3066 RMK AO2=
METAR KMWK 272015Z AUTO 36005KT 10SM CLR 05/M07 A3036 RMK AO2 
 T00531075=
METAR KMXO 272015Z AUTO 29005KT 10SM CLR M13/M20 A3060 RMK AO2=
METAR KNY0 272015Z AUTO 25016G21KT 10SM CLR M10/M18 A3037 RMK AO2 
     T10971184=
METAR KOEO 272015Z AUTO 24008KT 10SM CLR M08/M18 A3053 RMK AO2 
     T10811180=
METAR KOGA 272015Z AUTO 17013G21KT 10SM BKN030 BKN035 OVC065 
 M06/M13 A3018 RMK AO2 T10601134=
METAR KOKM 272015Z AUTO 06009KT 2 1/2SM -SN BKN014 OVC025 M07/M10 
 A3052 RMK AO2 VIS 2V4 T10721100=
METAR KOLG 272015Z AUTO 20008G14KT 10SM CLR M08/M20 A3042 RMK AO1=
METAR KOLY 272015Z AUTO 36006KT 10SM CLR M08/M16 A3065 RMK AO2=
METAR KOLZ 272015Z AUTO 25005KT 10SM CLR M15/M21 A3058 RMK AO2=
METAR KOMH 272015Z AUTO 00000KT 10SM OVC065 01/M09 A3044 RMK AO2=
METAR KONL 272015Z AUTO 17010G15KT 10SM CLR M05/M20 A3036 RMK AO2 
 T10501197=
METAR KOOA 272015Z AUTO 32003KT 10SM CLR M12/M18 A3062 RMK AO2 
 T11251184=
METAR KOPL 272015Z AUTO 05010KT 10SM CLR 09/00 A3034 RMK AO2 
 T00860003=
METAR KORC 272015Z AUTO 00000KT 10SM CLR M11/M17 A3049 RMK AO2=
METAR KOSA 272015Z AUTO 04007G14KT 10SM OVC070 M01/M08 A3049 RMK 
 AO1 T10101085=
####018001695####
SAUS20 KNKA 272019
METAR KTAZ 272015Z AUTO 00000KT 10SM CLR M11/M17 A3064 RMK AO2=
METAR KTDF 272015Z AUTO 00000KT 10SM SCT050 05/M06 A3041 RMK AO2=
METAR KTIF 272015Z AUTO 17015G19KT 10SM SCT090 SCT120 M04/M17 
 A3024 RMK AO2 T10381167=
METAR KTNU 272015Z AUTO 23005KT 10SM CLR M14/M20 A3060 RMK AO2=
SPECI KTUL 272018Z 05011KT 2SM -SN BKN032 OVC039 M08/M11 A3055 RMK 
 AO2 TWR VIS 2 1/2 P0000 T10781111=
METAR KTVI 272015Z AUTO 06010G15KT 10SM SCT031 12/05 A3030 RMK AO2=
METAR KU68 272015Z AUTO 15005KT 10SM CLR M02/M15 A2989 RMK AO2=
METAR KUBE 272015Z AUTO 26008KT 10SM CLR M11/M20 A3045 RMK AO2=
METAR KUKF 272015Z AUTO 02006KT 10SM CLR 06/M07 A3038 RMK AO2=
METAR KUNI 272015Z AUTO 26008KT 10SM CLR M05/M17 A3057 RMK AO2 
     T10551170=
METAR KUXL 272015Z AUTO 02008KT 350V060 10SM CLR 11/00 A3034 RMK 
 AO2 T01060003=
METAR KVES 272015Z AUTO 30004KT 10SM BKN035 BKN042 M08/M16 A3057 
     RMK AO2=
METAR KVUJ 272015Z AUTO 00000KT 10SM SCT042 08/M01 A3041 RMK AO2 
 T00791011=
METAR KW13 272015Z AUTO 22008G16KT 10SM SCT065 01/M13 A3035 RMK 
 AO1 T00121127=
METAR KW22 272015Z AUTO VRB04KT 10SM BKN039 M07/M16 A3046 RMK AO2=
METAR KW99 272015Z AUTO 28009G17KT 10SM CLR M02/M15 A3046 RMK AO2 
     T10221152=
METAR KY23 272015Z AUTO 22006KT 10SM CLR M11/M20 A3049 RMK AO2 
 T11061197=
METAR KY51 272015Z AUTO 24008KT 10SM CLR M11/M20 A3050 RMK AO1 
     T11061199=
METAR KSCR 272015Z AUTO 26004KT 10SM SCT042 06/M04 A3038 RMK AO2 
 T00601037=
METAR K3AU 272015Z AUTO 11007KT 3SM -SN SCT020 BKN040 OVC050 
     M09/M13 A3052 RMK AO2=
METAR KF17 272015Z AUTO 01009G14KT 10SM OVC080 03/M05 A3040 RMK 
     AO2 T00251046=
####018000078####
SACN88 CWAO 272010
AWR SA 2010 AUTO8 M M M M/-11/M/2719+24/M/M M 6MMM=

####018000365####
SAEW KAWN 272000 RRG
METAR EDFH 272020Z 27007KT 9999 FEW045 BKN085 01/M01 Q1019=
METAR EDHL 272020Z 28004KT 9999 BKN015 04/03 Q1016 RMK ATIS ECH=
METAR EDVE 272020Z 30007KT 9999 FEW013 OVC065 04/04 Q1017=
METAR EDVK 272020Z 28009KT 9000 FEW026 OVC038 03/02 Q1018 RMK ATIS
      G=
METAR EKVG 272020Z AUTO 15018G29KT 8000NDV -RA OVC006/// 05/05 Q0981=
####018000115####
SANA14 KAWN 272000 RRE
METAR KOSC 272013Z AUTO 26009G14KT 10SM SCT049 M07/M17 A3045 RMK AO2
      T10701172=
####018000165####
SAUS17 KAWN 272000 RRF
METAR KFMH 272015Z AUTO VRB03KT 10SM CLR M04/M15 A3034 RMK AO2 FZRANO=
METAR KMCC 272015Z AUTO 18009KT 10SM FEW060 17/08 A2979 RMK AO2=
####018000116####
SPUS90 KWBC 272022 CCA
SPECI KMEH 272016Z AUTO 00000KT 10SM BKN014 OVC060 05/02 A2967 RMK
     AO2 T00500017=
####018000095####
SPCN44 CWAO 272021
SPECI CYSF 272021Z AUTO 27013G19KT 9SM CLR M14/M18 A3012 RMK SLP227=

####018000106####
SALT31 EYVI 272020
METAR EYVI 272020Z 15003KT 2100 -RASN BR OVC005 01/00 Q1015
     R20/2/0195 NOSIG=
####018000105####
SAMH31 PKWA 272020
METAR PKWA 272020Z AUTO 05015KT 10SM SCT021 SCT026 28/22 A2983 RMK AO2 T02760222=
####018000120####
SAUS46 KPDT 272021 COR
MTRMEH
SPECI KMEH 272016Z AUTO 00000KT 10SM BKN014 OVC060 05/02 A2967 RMK 
AO2 T00500017
####018000092####
SPCN44 CWAO 272021
SPECI CYCY 272021Z AUTO 26004KT 9SM CLR M34/M37 A2957 RMK SLP020=

####018000074####
SAIS32 LLBG 272020
METAR LLBG 272020Z 28006KT CAVOK 16/10 Q1013 NOSIG=
####018000464####
SAUS20 KNKA 272020
METAR KVVG 272015Z AUTO 02009KT 9SM 16/07 A3012 RMK A01=
METAR KVYS 272015Z AUTO 31009KT 10SM CLR M10/M18 A3062 RMK AO2 
 T11021182=
METAR KW78 272015Z AUTO 33006KT 10SM CLR 04/M09 A3041 RMK AO1 
 T00401092=
METAR KWWR 272015Z AUTO 10006KT 5SM -SN OVC016 M08/M12 A3042 RMK 
 AO2=
METAR KY19 272015Z AUTO 18013G20KT 10SM CLR M08/M16 A3024 RMK AO2=
METAR KY49 272015Z AUTO 27008KT 10SM CLR M08/M21 A3036 RMK AO2 
 T10811215=
####018002998####
SAUS20 KNKA 272020
METAR KJES 272015Z AUTO 08008KT 10SM CLR 13/03 A3033 RMK AO2=
METAR KJOT 272015Z AUTO 31005KT 10SM CLR M11/M20 A3062 RMK AO2 
 T11131197=
METAR KL35 272015Z AUTO 22007KT 10SM CLR 08/M01 A2982 RMK AO2=
METAR KLNL 272015Z AUTO 25006KT 10SM CLR M08/M21 A3033 RMK AO2 
 T10791212=
METAR KLOT 272015Z AUTO 26009KT 10SM CLR M11/M19 A3061 RMK AO2 
 T11091186=
METAR KMGC 272015Z AUTO 29005KT 10SM CLR M08/M21 A3060 RMK AO2=
METAR KMNE 272015Z AUTO 35007KT 10SM SCT033 OVC085 01/M05 A3048 
 RMK AO2 T00141053=
METAR KMRJ 272010Z AUTO 26008KT 10SM CLR M10/M20 A3053 RMK AO2=
METAR KMTV 272015Z AUTO 33006KT 10SM SCT065 05/M09 A3040 RMK AO2 
 T00541090=
SPECI KMWL 272019Z AUTO 04008KT 1SM -SN BR FEW008 BKN021 OVC036 
 M05/M07 A3041 RMK AO2 P0000 T10501072=
METAR KMYZ 272015Z AUTO 08003KT 10SM SCT100 M07/M17 A3051 RMK AO2=
METAR KMZZ 272015Z AUTO 28005KT 10SM SCT025 M09/M15 A3059 RMK AO2 
 T10911152=
METAR KOCQ 272015Z AUTO 25011G15KT 10SM CLR M08/M19 A3047 RMK AO1 
     T10791193=
SPECI KODO 272019Z AUTO 08012KT 7SM OVC008 M06/M09 A3023 RMK AO2 
 T10611089=
METAR KPNA 272015Z AUTO 36006KT 10SM BKN032 OVC041 M08/M12 A2976 
 RMK AO2=
SPECI KPNC 272019Z AUTO 11007KT 2 1/2SM -SN FEW022 BKN028 OVC035 
 M07/M12 A3053 RMK AO2 P0000 T10721122=
METAR KPYX 272015Z AUTO 13011KT OVC018 M09/M12 A3030 RMK AO2 
 T10891125=
METAR KRAS 272015Z AUTO 05018G24KT 7SM OVC011 11/08 A3022 RMK AO2 
 T01080077=
METAR KRBO 272015Z AUTO 05013KT 10SM BKN019 OVC040 13/06 A3021 
 RMK AO2 T01260063=
METAR KRCR 272015Z AUTO 26003KT 10SM CLR M06/M13 A3059 RMK AO2=
METAR KRNH 272015Z AUTO 25005KT 10SM CLR M09/M18 A3049 RMK AO2 
 T10921184=
METAR KRWV 272015Z AUTO 03005KT 10SM BKN026 03/M02 A3039 RMK AO2=
METAR KRYV 272015Z AUTO 23006KT 10SM CLR M09/M19 A3053 RMK AO2 
 T10921189=
METAR KRZN 272015Z AUTO 24010KT 10SM CLR M09/M20 A3047 RMK AO2 
     T10951202=
METAR KSBO 272015Z AUTO 04004KT 10SM SCT043 15/M04 A3032 RMK AO2=
METAR KSEE 272015Z AUTO 21011KT 8SM FEW034 BKN042 19/09 A2985 RMK 
 AO2=
METAR KSFQ 272015Z AUTO 03010G15KT 10SM BKN043 OVC049 01/M04 
 A3043 RMK AO2 T00101045=
METAR KSRR 272015Z AUTO 15008KT M1/4SM FZFG OVC001 M08/M08 A2995 
 RMK AO2=
METAR KSTE 272015Z AUTO 25007KT 10SM CLR M11/M22 A3048 RMK AO2 
 T11111218=
METAR KSUW 272015Z AUTO 23011G17KT 10SM CLR M07/M19 A3044 RMK AO2 
 T10741194=
METAR KTBR 272015Z AUTO 02005KT 10SM CLR 12/03 A3033 RMK AO2 
 T01160033=
METAR KTFP 272015Z AUTO 07011G23KT 10SM OVC021 13/06 A3022 RMK 
 AO2 T01280060=
METAR KTMA 272015Z AUTO 07004KT 10SM SCT033 11/03 A3029 RMK AO2 
 T01120031=
SPECI KTWF 272019Z VRB03KT 10SM BKN029 BKN036 OVC100 07/M01 A2971 
 RMK AO2 T00721011=
METAR KUNU 272015Z AUTO 23011KT 10SM CLR M10/M19 A3053 RMK AO2 
 T10981191=
METAR KVER 272015Z AUTO 35004KT 10SM SCT100 M07/M18 A3059 RMK AO2 
 T10711176=
METAR KVNC 272015Z AUTO 06011KT 5SM -RA FEW043 BKN050 14/12 A3017 
 RMK AO2=
####018002982####
SAUS20 KNKA 272020
METAR K1F0 272015Z AUTO 07007KT 1 1/4SM -SN BKN008 OVC014 M06/M07 
 A3048 RMK AO2=
METAR K20U 272015Z AUTO 17014G21KT 10SM CLR M04/M15 A3004 RMK AO2 =
METAR K3N8 272015Z AUTO 23009KT 10SM CLR M10/M16 A3040 RMK AO2 
 T10971156=
METAR K3T5 272015Z AUTO 04007KT 10SM OVC019 05/01 A3030 RMK AO2 
 T00520013=
METAR K5H4 272015Z AUTO 20012KT 10SM CLR M10/M17 A3027 RMK AO2=
METAR KACJ 272015Z AUTO 06005KT 10SM CLR 12/01 A3032 RMK AO2=
METAR KACP 272015Z AUTO 01008KT 10SM CLR 09/M01 A3035 RMK AO2 
 T00921007=
METAR KAIG 272015Z AUTO 23010KT 10SM CLR M11/M20 A3039 RMK AO2 
 T11131199=
METAR KASJ 272015Z AUTO 34006KT 10SM CLR 07/M05 A3040 RMK AO2 
 T00701054=
METAR KAZE 272015Z AUTO 36007KT 10SM BKN037 13/05 A3031 RMK AO2 
 LTG DSNT NW T01270046=
METAR KBKD 272015Z AUTO 07007KT 7SM SCT010 SCT016 OVC030 M04/M07 
 A3040 RMK AO2 T10401075=
METAR KBUU 272015Z AUTO 26007KT 10SM CLR M11/M20 A3057 RMK AO2 
     T11071202=
METAR KBWP 272015Z AUTO 22007KT 10SM CLR M09/M19 A3046 RMK AO1=
METAR KCCY 272010Z AUTO 28004KT 10SM CLR M15/M21 A3057 RMK AO2=
METAR KCDH 272015Z AUTO 10SM FEW041 02/M09 A3053 RMK AO2=
METAR KCKM 272015Z AUTO 35011KT 10SM CLR 00/M05 A3052 RMK AO1=
SPECI KCLM 272019Z AUTO 06009G16KT 030V090 10SM -RA FEW007 BKN012 
 OVC018 08/06 A2982 RMK AO2 P0000 T00780061=
METAR KDCY 272015Z AUTO 31004KT 10SM CLR M08/M17 A3062 RMK AO2 
 T10771171=
METAR KDKR 272010Z AUTO 02007KT 10SM FEW080 04/M02 A3042 RMK AO2=
METAR KDLL 272010Z AUTO 28007KT 10SM CLR M10/M21 A3052 RMK AO2 
 T10981206=
METAR KDNN 272015Z AUTO 01007KT 10SM CLR 02/M05 A3043 RMK AO2=
METAR KDTA 272015Z AUTO 34003KT 10SM SCT048 06/M06 A2974 RMK AO1 
 T00611064=
SPECI KDTO 272019Z 04012KT 3/4SM -SN BR FEW009 BKN020 OVC031 M04/M07 
 A3044 RMK AO2 P0000 T10441067=
METAR KEFT 272015Z AUTO 27010KT 10SM CLR M10/M19 A3054 RMK AO2=
METAR KEGV 272010Z AUTO 25007G14KT 10SM CLR M09/M22 A3034 RMK AO2 
 T10911219=
METAR KEOE 272015Z AUTO 27006KT 10SM CLR 11/M01 A3035 RMK AO2=
METAR KETB 272010Z AUTO 24010G14KT 10SM CLR M08/M20 A3051 RMK AO2=
METAR KFXY 272015Z AUTO 22004KT 10SM CLR M12/M18 A3053 RMK AO2=
METAR KFZG 272015Z AUTO 00000KT 10SM CLR 13/02 A3033 RMK AO2 
 T01250020 PWINO=
SPECI KGCN 272019Z VRB05KT 8SM -SN FEW020 BKN033 OVC055 03/M02 A2977 
 RMK AO2 SNB1959 P0000 T00281022=
METAR KGLW 272015Z AUTO 08007KT 10SM CLR M03/M13 A3055 RMK AO2 
 T10271135=
METAR KGVE 272015Z AUTO 03004KT 10SM OVC060 01/M10 A3041 RMK AO1 
 T00121096=
METAR KHBV 272010Z AUTO 01007KT 4SM HZ OVC015 A3021 RMK AO2=
METAR KHFJ 272015Z AUTO 00000KT 10SM OVC065 M07/M16 A3051 RMK AO2=
METAR KHHG 272015Z AUTO 27006KT 10SM OVC033 M08/M17 A3058 RMK AO2 
 T10761174=
METAR KHII 272015Z AUTO 14005KT 10SM CLR 21/M03 A2967 RMK AO2=
METAR KHOE 272015Z AUTO 06003KT 10SM CLR 13/05 A3031 RMK AO2=
METAR KHRX 272015Z AUTO 15011KT 10SM -SN BKN018 BKN038 OVC046 
 M08/M12 A3019 RMK AO2 T10811119=
####018000131####
SAUS44 KMAF 272021
MTRNFW
SPECI KNFW 272020Z 01007KT 1SM -SN SCT009 BKN014 OVC019 M03/M06 
A3048 RMK AO2 P0001 T10281056 $
####018000101####
SABZ35 SBBR 272021
METAR SKCL 272000Z 33013KT 9000 SCT020TCU SCT300 32/18 A2984 RMK TCU/
NE/E HZ=
####018003734####
SAUS99 KWBC 272022
METAR
KLAM 272015Z AUTO 17010G20KT 5SM BR SCT009 OVC024 M08/M10 A2987
     RMK AO2 T10781099=
KLCG 272015Z AUTO 17009KT 10SM CLR M07/M15 A3048 RMK AO2
     T10741154=
KLCQ 272015Z AUTO 04010KT 10SM CLR 10/02 A3028 RMK AO2=
KLGC 272015Z AUTO 35004KT 10SM CLR 12/M01 A3035 RMK AO2
     T01151013=
KLHZ 272015Z AUTO 27006KT 10SM CLR 06/M05 A3039 RMK AO2=
KLKU 272015Z AUTO 06004KT 10SM OVC060 02/M07 A3041 RMK AO2=
KLNP 272015Z AUTO 02006KT 10SM BKN026 M03/M11 A3038 RMK AO2=
KLRJ 272015Z AUTO 21005KT 10SM CLR M11/M17 A3053 RMK AO2=
KLRU 272015Z AUTO 12012G19KT 10SM CLR 07/M03 A2993 RMK AO2
     T00711034=
KLSB 272015Z AUTO 13015G22KT 10SM CLR 11/M03 A2986 RMK AO2=
KLWB 272015Z AUTO 27009G15KT 10SM CLR M03/M13 A3038 RMK AO2
     T10281135=
KLXN 272015Z AUTO 17010KT 10SM OVC075 M05/M19 A3033 RMK AO2
     T10471186=
KLXY 272015Z AUTO 10SM SCT065 OVC075 00/M06 A3037 RMK AO2
     T00021057=
KMDD 272015Z AUTO 07009KT 2 1/2SM -SN OVC015 M05/M08 A3025 RMK AO2
     T10531077=
KMDZ 272015Z AUTO 23007KT 10SM CLR M12/M20 A3043 RMK AO2
     T11251204=
KMKJ 272015Z AUTO 31011G15KT 10SM BKN032 BKN038 M02/M10 A3036 RMK
     AO2 T10211103=
KMLE 272015Z AUTO 15005KT 10SM CLR M07/M18 A3054 RMK AO2
     T10741178=
KMLJ 272015Z AUTO 00000KT 10SM CLR 13/02 A3032 RMK AO2=
KMMH 272015Z AUTO 27015G24KT 10SM SCT060 08/M09 A2973 RMK AO1=
KMPZ 272015Z AUTO 06003KT 10SM CLR M11/M19 A3064 RMK AO2
     T11111190=
KMUT 272015Z AUTO VRB04KT 10SM CLR M12/M20 A3066 RMK AO2=
KMWK 272015Z AUTO 36005KT 10SM CLR 05/M07 A3036 RMK AO2
     T00531075=
KMXO 272015Z AUTO 29005KT 10SM CLR M13/M20 A3060 RMK AO2=
KNY0 272015Z AUTO 25016G21KT 10SM CLR M10/M18 A3037 RMK AO2
     T10971184=
KOEO 272015Z AUTO 24008KT 10SM CLR M08/M18 A3053 RMK AO2
     T10811180=
KOGA 272015Z AUTO 17013G21KT 10SM BKN030 BKN035 OVC065 M06/M13
     A3018 RMK AO2 T10601134=
KOKM 272015Z AUTO 06009KT 2 1/2SM -SN BKN014 OVC025 M07/M10 A3052
     RMK AO2 VIS 2V4 T10721100=
KOLG 272015Z AUTO 20008G14KT 10SM CLR M08/M20 A3042 RMK AO1=
KOLY 272015Z AUTO 36006KT 10SM CLR M08/M16 A3065 RMK AO2=
KOLZ 272015Z AUTO 25005KT 10SM CLR M15/M21 A3058 RMK AO2=
KOMH 272015Z AUTO 00000KT 10SM OVC065 01/M09 A3044 RMK AO2=
KONL 272015Z AUTO 17010G15KT 10SM CLR M05/M20 A3036 RMK AO2
     T10501197=
KOOA 272015Z AUTO 32003KT 10SM CLR M12/M18 A3062 RMK AO2
     T11251184=
KOPL 272015Z AUTO 05010KT 10SM CLR 09/00 A3034 RMK AO2
     T00860003=
KORC 272015Z AUTO 00000KT 10SM CLR M11/M17 A3049 RMK AO2=
KOSA 272015Z AUTO 04007G14KT 10SM OVC070 M01/M08 A3049 RMK AO1
     T10101085=
KOUN 272015Z AUTO 06007KT 1/2SM -SN OVC008 M07/M09 A3049 RMK
     AO2=
KOXV 272015Z AUTO 28004KT 10SM CLR M12/M20 A3059 RMK AO2=
KOZA 272015Z AUTO 06008KT 4SM BR OVC006 M01/M02 A3025 RMK AO2=
KPEA 272015Z AUTO 00000KT 10SM CLR M10/M16 A3063 RMK AO2
     T11011161=
KPLU 272015Z AUTO 00000KT 8SM -DZ FEW011 SCT037 BKN044 10/09 A2974
     RMK AO2=
KPMV 272015Z AUTO 19003KT 10SM CLR M09/M18 A3053 RMK AO2
     T10861177=
KPNT 272015Z AUTO 28004KT 10SM CLR M11/M18 A3063 RMK AO2
     T11121182=
KPOY 272015Z AUTO 14007KT 10SM CLR M05/M14 A2982 RMK AO2=
KPPA 272015Z AUTO 14010KT 4SM -SN BKN004 OVC017 M09/M13 A3028 RMK
     AO2 T10871127=
KPRG 272015Z AUTO 27003KT 10SM CLR M10/M16 A3064 RMK AO2
     T11011156=
KPRS 272015Z AUTO 05012G21KT 020V080 10SM CLR 08/M01 A3002 RMK AO2
     T00831012=
KPSK 272015Z AUTO 31009KT 10SM CLR 00/M10 A3037 RMK AO2
     T10031098=
KPTB 272015Z AUTO 04009KT 10SM SCT028 SCT035 BKN045 03/M02 A3043
     RMK AO2 T00341021=
KPVB 272015Z AUTO 24005KT 10SM CLR M11/M19 A3055 RMK AO1
     T11121195=
####018003717####
SAUS99 KWBC 272022 RRA
METAR
KPVW 272015Z AUTO 10010KT 3SM -SN SCT012 OVC022 M09/M13 A3023 RMK
     AO2 T10951127=
KPXE 272015Z AUTO 05008KT 10SM CLR 15/M02 A3032 RMK AO2
     T01461019=
KRDK 272015Z AUTO 00000KT 10SM CLR M09/M16 A3056 RMK AO2=
KRFI 272015Z AUTO 04007KT 10SM OVC080 01/M07 A3042 RMK AO2
     T00051066=
KRMN 272015Z AUTO 33008KT 10SM CLR 01/M12 A3050 RMK AO2
     T00121121=
KRRL 272015Z AUTO 22009KT 10SM CLR M10/M20 A3043 RMK AO2
     T11011204=
KRUQ 272015Z AUTO 26003KT 10SM CLR 06/M05 A3036 RMK AO2
     T00611048=
KSAR 272015Z AUTO 35005KT 10SM CLR M07/M14 A3063 RMK AO2
     T10671143=
KSDA 272015Z AUTO 00000KT 10SM CLR M08/M17 A3057 RMK AO2=
KSEZ 272015Z AUTO 00000KT 10SM SCT090 10/M03 A2977 RMK AO2=
KSHL 272015Z AUTO 25003KT 10SM CLR M12/M18 A3049 RMK AO2=
KSLB 272015Z AUTO 24006KT 10SM CLR M13/M19 A3052 RMK AO2=
KSME 272015Z AUTO 36005KT 10SM CLR M05/M13 A3056 RMK AO2=
KSNK 272015Z AUTO 06011KT 7SM BKN014 OVC023 M08/M10 A3031 RMK AO2
     T10761105 TSNO=
KSOA 272015Z AUTO 06007KT 10SM BKN009 OVC012 M01/M03 A3028 RMK
     AO2=
KSVH 272015Z AUTO 07004KT 10SM SCT048 07/M03 A3034 RMK AO2
     T00711029=
KSWW 272015Z AUTO 04011KT 7SM BKN009 OVC013 M07/M09 A3033 RMK AO2
     T10701090=
KSYF 272015Z AUTO 17015KT 10SM SCT026 OVC032 M07/M13 A3019 RMK AO2
     T10701134=
KT35 272015Z AUTO 03007KT 10SM SCT025 OVC047 02/M03 A3037 RMK AO2
     T00221030=
KT65 272015Z AUTO 36006KT 7SM BKN046 OVC055 16/09 A3016 RMK AO2
     T01630093=
KT82 272015Z AUTO 04007KT 3SM -DZ BKN008 OVC014 M02/M03 A3026 RMK
     AO2 T10161028=
KTAZ 272015Z AUTO 00000KT 10SM CLR M11/M17 A3064 RMK AO2=
KTDF 272015Z AUTO 00000KT 10SM SCT050 05/M06 A3041 RMK AO2=
KTIF 272015Z AUTO 17015G19KT 10SM SCT090 SCT120 M04/M17 A3024 RMK
     AO2 T10381167=
KTNU 272015Z AUTO 23005KT 10SM CLR M14/M20 A3060 RMK AO2=
KTVI 272015Z AUTO 06010G15KT 10SM SCT031 12/05 A3030 RMK AO2=
KU68 272015Z AUTO 15005KT 10SM CLR M02/M15 A2989 RMK AO2=
KUBE 272015Z AUTO 26008KT 10SM CLR M11/M20 A3045 RMK AO2=
KUKF 272015Z AUTO 02006KT 10SM CLR 06/M07 A3038 RMK AO2=
KUNI 272015Z AUTO 26008KT 10SM CLR M05/M17 A3057 RMK AO2
     T10551170=
KUXL 272015Z AUTO 02008KT 350V060 10SM CLR 11/00 A3034 RMK AO2
     T01060003=
KVES 272015Z AUTO 30004KT 10SM BKN035 BKN042 M08/M16 A3057 RMK
     AO2=
KVUJ 272015Z AUTO 00000KT 10SM SCT042 08/M01 A3041 RMK AO2
     T00791011=
KW13 272015Z AUTO 22008G16KT 10SM SCT065 01/M13 A3035 RMK AO1
     T00121127=
KW22 272015Z AUTO VRB04KT 10SM BKN039 M07/M16 A3046 RMK AO2=
KW99 272015Z AUTO 28009G17KT 10SM CLR M02/M15 A3046 RMK AO2
     T10221152=
KY23 272015Z AUTO 22006KT 10SM CLR M11/M20 A3049 RMK AO2
     T11061197=
KY51 272015Z AUTO 24008KT 10SM CLR M11/M20 A3050 RMK AO1
     T11061199=
KSCR 272015Z AUTO 26004KT 10SM SCT042 06/M04 A3038 RMK AO2
     T00601037=
K3AU 272015Z AUTO 11007KT 3SM -SN SCT020 BKN040 OVC050 M09/M13
     A3052 RMK AO2=
KF17 272015Z AUTO 01009G14KT 10SM OVC080 03/M05 A3040 RMK AO2
     T00251046=
KJES 272015Z AUTO 08008KT 10SM CLR 13/03 A3033 RMK AO2=
KJOT 272015Z AUTO 31005KT 10SM CLR M11/M20 A3062 RMK AO2
     T11131197=
KL35 272015Z AUTO 22007KT 10SM CLR 08/M01 A2982 RMK AO2=
KLNL 272015Z AUTO 25006KT 10SM CLR M08/M21 A3033 RMK AO2
     T10791212=
KLOT 272015Z AUTO 26009KT 10SM CLR M11/M19 A3061 RMK AO2
     T11091186=
KMGC 272015Z AUTO 29005KT 10SM CLR M08/M21 A3060 RMK AO2=
KMNE 272015Z AUTO 35007KT 10SM SCT033 OVC085 01/M05 A3048 RMK AO2
     T00141053=
KMRJ 272010Z AUTO 26008KT 10SM CLR M10/M20 A3053 RMK AO2=
KMTV 272015Z AUTO 33006KT 10SM SCT065 05/M09 A3040 RMK AO2
     T00541090=
####018003683####
SAUS99 KWBC 272022 RRB
METAR
KMYZ 272015Z AUTO 08003KT 10SM SCT100 M07/M17 A3051 RMK AO2=
KMZZ 272015Z AUTO 28005KT 10SM SCT025 M09/M15 A3059 RMK AO2
     T10911152=
KOCQ 272015Z AUTO 25011G15KT 10SM CLR M08/M19 A3047 RMK AO1
     T10791193=
KPNA 272015Z AUTO 36006KT 10SM BKN032 OVC041 M08/M12 A2976 RMK
     AO2=
KPYX 272015Z AUTO 13011KT OVC018 M09/M12 A3030 RMK AO2
     T10891125=
KRAS 272015Z AUTO 05018G24KT 7SM OVC011 11/08 A3022 RMK AO2
     T01080077=
KRBO 272015Z AUTO 05013KT 10SM BKN019 OVC040 13/06 A3021 RMK AO2
     T01260063=
KRCR 272015Z AUTO 26003KT 10SM CLR M06/M13 A3059 RMK AO2=
KRNH 272015Z AUTO 25005KT 10SM CLR M09/M18 A3049 RMK AO2
     T10921184=
KRWV 272015Z AUTO 03005KT 10SM BKN026 03/M02 A3039 RMK AO2=
KRYV 272015Z AUTO 23006KT 10SM CLR M09/M19 A3053 RMK AO2
     T10921189=
KRZN 272015Z AUTO 24010KT 10SM CLR M09/M20 A3047 RMK AO2
     T10951202=
KSBO 272015Z AUTO 04004KT 10SM SCT043 15/M04 A3032 RMK AO2=
KSEE 272015Z AUTO 21011KT 8SM FEW034 BKN042 19/09 A2985 RMK
     AO2=
KSFQ 272015Z AUTO 03010G15KT 10SM BKN043 OVC049 01/M04 A3043 RMK
     AO2 T00101045=
KSRR 272015Z AUTO 15008KT M1/4SM FZFG OVC001 M08/M08 A2995 RMK
     AO2=
KSTE 272015Z AUTO 25007KT 10SM CLR M11/M22 A3048 RMK AO2
     T11111218=
KSUW 272015Z AUTO 23011G17KT 10SM CLR M07/M19 A3044 RMK AO2
     T10741194=
KTBR 272015Z AUTO 02005KT 10SM CLR 12/03 A3033 RMK AO2
     T01160033=
KTFP 272015Z AUTO 07011G23KT 10SM OVC021 13/06 A3022 RMK AO2
     T01280060=
KTMA 272015Z AUTO 07004KT 10SM SCT033 11/03 A3029 RMK AO2
     T01120031=
KUNU 272015Z AUTO 23011KT 10SM CLR M10/M19 A3053 RMK AO2
     T10981191=
KVER 272015Z AUTO 35004KT 10SM SCT100 M07/M18 A3059 RMK AO2
     T10711176=
KVNC 272015Z AUTO 06011KT 5SM -RA FEW043 BKN050 14/12 A3017 RMK
     AO2=
KVVG 272015Z AUTO 02009KT 9SM 16/07 A3012 RMK A01=
KVYS 272015Z AUTO 31009KT 10SM CLR M10/M18 A3062 RMK AO2
     T11021182=
KW78 272015Z AUTO 33006KT 10SM CLR 04/M09 A3041 RMK AO1
     T00401092=
KWWR 272015Z AUTO 10006KT 5SM -SN OVC016 M08/M12 A3042 RMK AO2=
KY19 272015Z AUTO 18013G20KT 10SM CLR M08/M16 A3024 RMK AO2=
KY49 272015Z AUTO 27008KT 10SM CLR M08/M21 A3036 RMK AO2
     T10811215=
K1F0 272015Z AUTO 07007KT 1 1/4SM -SN BKN008 OVC014 M06/M07 A3048
     RMK AO2=
K20U 272015Z AUTO 17014G21KT 10SM CLR M04/M15 A3004 RMK AO2=
K3N8 272015Z AUTO 23009KT 10SM CLR M10/M16 A3040 RMK AO2
     T10971156=
K3T5 272015Z AUTO 04007KT 10SM OVC019 05/01 A3030 RMK AO2
     T00520013=
K5H4 272015Z AUTO 20012KT 10SM CLR M10/M17 A3027 RMK AO2=
KACJ 272015Z AUTO 06005KT 10SM CLR 12/01 A3032 RMK AO2=
KACP 272015Z AUTO 01008KT 10SM CLR 09/M01 A3035 RMK AO2
     T00921007=
KAIG 272015Z AUTO 23010KT 10SM CLR M11/M20 A3039 RMK AO2
     T11131199=
KASJ 272015Z AUTO 34006KT 10SM CLR 07/M05 A3040 RMK AO2
     T00701054=
KAZE 272015Z AUTO 36007KT 10SM BKN037 13/05 A3031 RMK AO2 LTG DSNT
     NW T01270046=
KBKD 272015Z AUTO 07007KT 7SM SCT010 SCT016 OVC030 M04/M07 A3040
     RMK AO2 T10401075=
KBUU 272015Z AUTO 26007KT 10SM CLR M11/M20 A3057 RMK AO2
     T11071202=
KBWP 272015Z AUTO 22007KT 10SM CLR M09/M19 A3046 RMK AO1=
KCCY 272010Z AUTO 28004KT 10SM CLR M15/M21 A3057 RMK AO2=
KCDH 272015Z AUTO 10SM FEW041 02/M09 A3053 RMK AO2=
KCKM 272015Z AUTO 35011KT 10SM CLR 00/M05 A3052 RMK AO1=
KDCY 272015Z AUTO 31004KT 10SM CLR M08/M17 A3062 RMK AO2
     T10771171=
KDKR 272010Z AUTO 02007KT 10SM FEW080 04/M02 A3042 RMK AO2=
KDLL 272010Z AUTO 28007KT 10SM CLR M10/M21 A3052 RMK AO2
     T10981206=
KDNN 272015Z AUTO 01007KT 10SM CLR 02/M05 A3043 RMK AO2=
####018001062####
SPUS99 KWBC 272022
SPECI
KLMT 272018Z 32014KT 10SM FEW026 BKN044 OVC055 05/00 A2970 RMK AO2
     WSHFT 1958 RAB07E18 P0000 T00500000=
KRQE 272018Z AUTO 19004KT 2 1/2SM -SN BR BKN020 BKN037 OVC044
     01/M01 A2979 RMK AO2 P0001 T00111006 TSNO=
KTUL 272018Z 05011KT 2SM -SN BKN032 OVC039 M08/M11 A3055 RMK AO2
     TWR VIS 2 1/2 P0000 T10781111=
KMWL 272019Z AUTO 04008KT 1SM -SN BR FEW008 BKN021 OVC036 M05/M07
     A3041 RMK AO2 P0000 T10501072=
KODO 272019Z AUTO 08012KT 7SM OVC008 M06/M09 A3023 RMK AO2
     T10611089=
KPNC 272019Z AUTO 11007KT 2 1/2SM -SN FEW022 BKN028 OVC035 M07/M12
     A3053 RMK AO2 P0000 T10721122=
KTWF 272019Z VRB03KT 10SM BKN029 BKN036 OVC100 07/M01 A2971 RMK
     AO2 T00721011=
KCLM 272019Z AUTO 06009G16KT 030V090 10SM -RA FEW007 BKN012 OVC018
     08/06 A2982 RMK AO2 P0000 T00780061=
KDTO 272019Z 04012KT 3/4SM -SN BR FEW009 BKN020 OVC031 M04/M07
     A3044 RMK AO2 P0000 T10441067=
KGCN 272019Z VRB05KT 8SM -SN FEW020 BKN033 OVC055 03/M02 A2977 RMK
     AO2 SNB1959 P0000 T00281022=
####018001086####
SAUS99 KWBC 272022 RRC
METAR
KDTA 272015Z AUTO 34003KT 10SM SCT048 06/M06 A2974 RMK AO1
     T00611064=
KEFT 272015Z AUTO 27010KT 10SM CLR M10/M19 A3054 RMK AO2=
KEGV 272010Z AUTO 25007G14KT 10SM CLR M09/M22 A3034 RMK AO2
     T10911219=
KEOE 272015Z AUTO 27006KT 10SM CLR 11/M01 A3035 RMK AO2=
KETB 272010Z AUTO 24010G14KT 10SM CLR M08/M20 A3051 RMK AO2=
KFXY 272015Z AUTO 22004KT 10SM CLR M12/M18 A3053 RMK AO2=
KFZG 272015Z AUTO 00000KT 10SM CLR 13/02 A3033 RMK AO2 T01250020
     PWINO=
KGLW 272015Z AUTO 08007KT 10SM CLR M03/M13 A3055 RMK AO2
     T10271135=
KGVE 272015Z AUTO 03004KT 10SM OVC060 01/M10 A3041 RMK AO1
     T00121096=
KHBV 272010Z AUTO 01007KT 4SM HZ OVC015 A3021 RMK AO2=
KHFJ 272015Z AUTO 00000KT 10SM OVC065 M07/M16 A3051 RMK AO2=
KHHG 272015Z AUTO 27006KT 10SM OVC033 M08/M17 A3058 RMK AO2
     T10761174=
KHII 272015Z AUTO 14005KT 10SM CLR 21/M03 A2967 RMK AO2=
KHOE 272015Z AUTO 06003KT 10SM CLR 13/05 A3031 RMK AO2=
KHRX 272015Z AUTO 15011KT 10SM -SN BKN018 BKN038 OVC046 M08/M12
     A3019 RMK AO2 T10811119=
####018000254####
SPUS80 KWBC 272022
SPECI
KGRR 272018Z 25010KT 2SM -SN BKN019 BKN035 M09/M13 A3054 RMK AO2
     TWR VIS 2 1/2 SNB06 P0000 T10891128=
KRQE 272018Z AUTO 19004KT 2 1/2SM -SN BR BKN020 BKN037 OVC044
     01/M01 A2979 RMK AO2 P0001 T00111006 TSNO=
####018003723####
SAUS70 KWBC 272022
METAR
K8A0 272015Z AUTO 00000KT 10SM CLR 01/M04 A3041 RMK AO2=
KAFO 272015Z AUTO 21005KT 4SM -SN BKN025 OVC033 M03/M06 A2974 RMK
     AO2=
KARV 272015Z AUTO 27006KT 10SM CLR M08/M19 A3035 RMK AO2
     T10851194=
KBMC 272015Z AUTO 18014G19KT 10SM SCT036 SCT049 06/M03 A2977 RMK
     AO1 T00581027=
KBQK 272015Z AUTO 03012G18KT 010V070 10SM CLR 10/00 A3034 RMK
     AO1=
KBQP 272015Z AUTO 35005KT 10SM BKN024 02/M05 A3049 RMK AO2
     T00191049=
KC75 272015Z AUTO 32005KT 10SM CLR M11/M19 A3063 RMK AO2
     T11091191=
KCBK 272015Z AUTO 17014KT 7SM -SN OVC024 M07/M10 A3026 RMK AO2=
KCMY 272015Z AUTO 24006KT 10SM CLR M09/M21 A3054 RMK AO2
     T10951207=
KCVB 272015Z AUTO 04010KT 5SM -DZ BKN009 OVC015 01/00 A3029 RMK
     AO2 T00131004=
KCXE 272015Z AUTO 29004KT 10SM CLR 06/M07 A3040 RMK AO1
     T00551070=
KD25 272015Z AUTO 26009KT 10SM CLR M10/M21 A3035 RMK AO2
     T10981209=
KE11 272015Z AUTO 5SM BR OVC010 M07/M09 A3023 RMK AO2
     T10661087=
KEMM 272015Z AUTO 00000KT 10SM SCT014 SCT039 OVC045 M04/M09 A2974
     RMK AO2=
KEMV 272015Z AUTO 31007KT 10SM SCT060 06/M06 A3041 RMK AO2=
KEZF 272015Z AUTO 32006KT 10SM CLR 03/M09 A3045 RMK AO2
     T00271095=
KFFA 272015Z AUTO 01005KT 340V190 10SM CLR 03/M01 A3039 RMK AO2
     T00331011=
KFWC 272015Z AUTO 34005KT 10SM CLR M08/M15 A3063 RMK AO1
     T10781147=
KGGP 272015Z AUTO 26006KT 10SM CLR M08/M16 A3061 RMK AO2=
KGOP 272015Z AUTO 03005KT 3SM HZ OVC012 M01/M04 A3039 RMK AO2=
KHDC 272015Z AUTO 02007KT 10SM CLR 11/M00 A3034 RMK AO2=
KHWY 272015Z AUTO 04004KT 10SM CLR 02/M08 A3045 RMK AO2
     T00151079=
KIOB 272015Z AUTO 00000KT 10SM SCT033 M06/M13 A3057 RMK AO2=
KIYA 272015Z AUTO 36006KT 10SM CLR 10/01 A3033 RMK AO2
     T01000013=
KJGG 272015Z AUTO 01008KT 350V050 10SM CLR 02/M01 A3046 RMK
     AO1=
KJYO 272015Z AUTO 32007KT 10SM CLR 00/M10 A3046 RMK AO2=
KJYR 272015Z AUTO 22007KT 10SM CLR M07/M19 A3045 RMK AO2=
KL18 272015Z AUTO 22011G15KT 10SM 17/10 A2983 RMK AO2=
KL38 272015Z AUTO 03003KT 10SM CLR 11/01 A3033 RMK AO2
     T01120012=
KLAM 272015Z AUTO 17010G20KT 5SM BR SCT009 OVC024 M08/M10 A2987
     RMK AO2 T10781099=
KLCG 272015Z AUTO 17009KT 10SM CLR M07/M15 A3048 RMK AO2
     T10741154=
KLCQ 272015Z AUTO 04010KT 10SM CLR 10/02 A3028 RMK AO2=
KLGC 272015Z AUTO 35004KT 10SM CLR 12/M01 A3035 RMK AO2
     T01151013=
KLHZ 272015Z AUTO 27006KT 10SM CLR 06/M05 A3039 RMK AO2=
KLKU 272015Z AUTO 06004KT 10SM OVC060 02/M07 A3041 RMK AO2=
KLNP 272015Z AUTO 02006KT 10SM BKN026 M03/M11 A3038 RMK AO2=
KLRJ 272015Z AUTO 21005KT 10SM CLR M11/M17 A3053 RMK AO2=
KLRU 272015Z AUTO 12012G19KT 10SM CLR 07/M03 A2993 RMK AO2
     T00711034=
KLSB 272015Z AUTO 13015G22KT 10SM CLR 11/M03 A2986 RMK AO2=
KLWB 272015Z AUTO 27009G15KT 10SM CLR M03/M13 A3038 RMK AO2
     T10281135=
KLXN 272015Z AUTO 17010KT 10SM OVC075 M05/M19 A3033 RMK AO2
     T10471186=
KLXY 272015Z AUTO 10SM SCT065 OVC075 00/M06 A3037 RMK AO2
     T00021057=
KMDD 272015Z AUTO 07009KT 2 1/2SM -SN OVC015 M05/M08 A3025 RMK AO2
     T10531077=
KMDZ 272015Z AUTO 23007KT 10SM CLR M12/M20 A3043 RMK AO2
     T11251204=
KMKJ 272015Z AUTO 31011G15KT 10SM BKN032 BKN038 M02/M10 A3036 RMK
     AO2 T10211103=
KMLE 272015Z AUTO 15005KT 10SM CLR M07/M18 A3054 RMK AO2
     T10741178=
KMLJ 272015Z AUTO 00000KT 10SM CLR 13/02 A3032 RMK AO2=
KMMH 272015Z AUTO 27015G24KT 10SM SCT060 08/M09 A2973 RMK AO1=
KMPZ 272015Z AUTO 06003KT 10SM CLR M11/M19 A3064 RMK AO2
     T11111190=
KMUT 272015Z AUTO VRB04KT 10SM CLR M12/M20 A3066 RMK AO2=
KMWK 272015Z AUTO 36005KT 10SM CLR 05/M07 A3036 RMK AO2
     T00531075=
####018000090####
SAXX60 KWBC 272022
METAR
KMCC 272015Z AUTO 18009KT 10SM FEW060 17/08 A2979 RMK AO2=
####018000129####
SPXX60 KWBC 272022
SPECI
KNFW 272020Z 01007KT 1SM -SN SCT009 BKN014 OVC019 M03/M06 A3048
     RMK AO2 P0001 T10281056 $=
####018003714####
SAUS70 KWBC 272022 RRA
METAR
KMXO 272015Z AUTO 29005KT 10SM CLR M13/M20 A3060 RMK AO2=
KOEO 272015Z AUTO 24008KT 10SM CLR M08/M18 A3053 RMK AO2
     T10811180=
KOGA 272015Z AUTO 17013G21KT 10SM BKN030 BKN035 OVC065 M06/M13
     A3018 RMK AO2 T10601134=
KOKM 272015Z AUTO 06009KT 2 1/2SM -SN BKN014 OVC025 M07/M10 A3052
     RMK AO2 VIS 2V4 T10721100=
KOLG 272015Z AUTO 20008G14KT 10SM CLR M08/M20 A3042 RMK AO1=
KOLY 272015Z AUTO 36006KT 10SM CLR M08/M16 A3065 RMK AO2=
KOLZ 272015Z AUTO 25005KT 10SM CLR M15/M21 A3058 RMK AO2=
KOMH 272015Z AUTO 00000KT 10SM OVC065 01/M09 A3044 RMK AO2=
KONL 272015Z AUTO 17010G15KT 10SM CLR M05/M20 A3036 RMK AO2
     T10501197=
KOOA 272015Z AUTO 32003KT 10SM CLR M12/M18 A3062 RMK AO2
     T11251184=
KOPL 272015Z AUTO 05010KT 10SM CLR 09/00 A3034 RMK AO2
     T00860003=
KORC 272015Z AUTO 00000KT 10SM CLR M11/M17 A3049 RMK AO2=
KOSA 272015Z AUTO 04007G14KT 10SM OVC070 M01/M08 A3049 RMK AO1
     T10101085=
KOUN 272015Z AUTO 06007KT 1/2SM -SN OVC008 M07/M09 A3049 RMK
     AO2=
KOXV 272015Z AUTO 28004KT 10SM CLR M12/M20 A3059 RMK AO2=
KOZA 272015Z AUTO 06008KT 4SM BR OVC006 M01/M02 A3025 RMK AO2=
KPEA 272015Z AUTO 00000KT 10SM CLR M10/M16 A3063 RMK AO2
     T11011161=
KPLU 272015Z AUTO 00000KT 8SM -DZ FEW011 SCT037 BKN044 10/09 A2974
     RMK AO2=
KPMV 272015Z AUTO 19003KT 10SM CLR M09/M18 A3053 RMK AO2
     T10861177=
KPNT 272015Z AUTO 28004KT 10SM CLR M11/M18 A3063 RMK AO2
     T11121182=
KPOY 272015Z AUTO 14007KT 10SM CLR M05/M14 A2982 RMK AO2=
KPPA 272015Z AUTO 14010KT 4SM -SN BKN004 OVC017 M09/M13 A3028 RMK
     AO2 T10871127=
KPRG 272015Z AUTO 27003KT 10SM CLR M10/M16 A3064 RMK AO2
     T11011156=
KPRS 272015Z AUTO 05012G21KT 020V080 10SM CLR 08/M01 A3002 RMK AO2
     T00831012=
KPSK 272015Z AUTO 31009KT 10SM CLR 00/M10 A3037 RMK AO2
     T10031098=
KPTB 272015Z AUTO 04009KT 10SM SCT028 SCT035 BKN045 03/M02 A3043
     RMK AO2 T00341021=
KPVB 272015Z AUTO 24005KT 10SM CLR M11/M19 A3055 RMK AO1
     T11121195=
KPVW 272015Z AUTO 10010KT 3SM -SN SCT012 OVC022 M09/M13 A3023 RMK
     AO2 T10951127=
KPXE 272015Z AUTO 05008KT 10SM CLR 15/M02 A3032 RMK AO2
     T01461019=
KRDK 272015Z AUTO 00000KT 10SM CLR M09/M16 A3056 RMK AO2=
KRMN 272015Z AUTO 33008KT 10SM CLR 01/M12 A3050 RMK AO2
     T00121121=
KRRL 272015Z AUTO 22009KT 10SM CLR M10/M20 A3043 RMK AO2
     T11011204=
KRUQ 272015Z AUTO 26003KT 10SM CLR 06/M05 A3036 RMK AO2
     T00611048=
KSAR 272015Z AUTO 35005KT 10SM CLR M07/M14 A3063 RMK AO2
     T10671143=
KSDA 272015Z AUTO 00000KT 10SM CLR M08/M17 A3057 RMK AO2=
KSEZ 272015Z AUTO 00000KT 10SM SCT090 10/M03 A2977 RMK AO2=
KSHL 272015Z AUTO 25003KT 10SM CLR M12/M18 A3049 RMK AO2=
KSLB 272015Z AUTO 24006KT 10SM CLR M13/M19 A3052 RMK AO2=
KSME 272015Z AUTO 36005KT 10SM CLR M05/M13 A3056 RMK AO2=
KSNK 272015Z AUTO 06011KT 7SM BKN014 OVC023 M08/M10 A3031 RMK AO2
     T10761105 TSNO=
KSVH 272015Z AUTO 07004KT 10SM SCT048 07/M03 A3034 RMK AO2
     T00711029=
KSWW 272015Z AUTO 04011KT 7SM BKN009 OVC013 M07/M09 A3033 RMK AO2
     T10701090=
KSYF 272015Z AUTO 17015KT 10SM SCT026 OVC032 M07/M13 A3019 RMK AO2
     T10701134=
KT35 272015Z AUTO 03007KT 10SM SCT025 OVC047 02/M03 A3037 RMK AO2
     T00221030=
KT65 272015Z AUTO 36006KT 7SM BKN046 OVC055 16/09 A3016 RMK AO2
     T01630093=
KT82 272015Z AUTO 04007KT 3SM -DZ BKN008 OVC014 M02/M03 A3026 RMK
     AO2 T10161028=
KTAZ 272015Z AUTO 00000KT 10SM CLR M11/M17 A3064 RMK AO2=
KTDF 272015Z AUTO 00000KT 10SM SCT050 05/M06 A3041 RMK AO2=
KTIF 272015Z AUTO 17015G19KT 10SM SCT090 SCT120 M04/M17 A3024 RMK
     AO2 T10381167=
####018002862####
SAUS70 KWBC 272022 RRC
METAR
KVYS 272015Z AUTO 31009KT 10SM CLR M10/M18 A3062 RMK AO2
     T11021182=
KW78 272015Z AUTO 33006KT 10SM CLR 04/M09 A3041 RMK AO1
     T00401092=
KWWR 272015Z AUTO 10006KT 5SM -SN OVC016 M08/M12 A3042 RMK AO2=
KY19 272015Z AUTO 18013G20KT 10SM CLR M08/M16 A3024 RMK AO2=
KY49 272015Z AUTO 27008KT 10SM CLR M08/M21 A3036 RMK AO2
     T10811215=
K1F0 272015Z AUTO 07007KT 1 1/4SM -SN BKN008 OVC014 M06/M07 A3048
     RMK AO2=
K20U 272015Z AUTO 17014G21KT 10SM CLR M04/M15 A3004 RMK AO2=
K3N8 272015Z AUTO 23009KT 10SM CLR M10/M16 A3040 RMK AO2
     T10971156=
K3T5 272015Z AUTO 04007KT 10SM OVC019 05/01 A3030 RMK AO2
     T00520013=
K5H4 272015Z AUTO 20012KT 10SM CLR M10/M17 A3027 RMK AO2=
KACJ 272015Z AUTO 06005KT 10SM CLR 12/01 A3032 RMK AO2=
KACP 272015Z AUTO 01008KT 10SM CLR 09/M01 A3035 RMK AO2
     T00921007=
KAIG 272015Z AUTO 23010KT 10SM CLR M11/M20 A3039 RMK AO2
     T11131199=
KASJ 272015Z AUTO 34006KT 10SM CLR 07/M05 A3040 RMK AO2
     T00701054=
KAZE 272015Z AUTO 36007KT 10SM BKN037 13/05 A3031 RMK AO2 LTG DSNT
     NW T01270046=
KBKD 272015Z AUTO 07007KT 7SM SCT010 SCT016 OVC030 M04/M07 A3040
     RMK AO2 T10401075=
KBUU 272015Z AUTO 26007KT 10SM CLR M11/M20 A3057 RMK AO2
     T11071202=
KBWP 272015Z AUTO 22007KT 10SM CLR M09/M19 A3046 RMK AO1=
KCCY 272010Z AUTO 28004KT 10SM CLR M15/M21 A3057 RMK AO2=
KCDH 272015Z AUTO 10SM FEW041 02/M09 A3053 RMK AO2=
KCKM 272015Z AUTO 35011KT 10SM CLR 00/M05 A3052 RMK AO1=
KDCY 272015Z AUTO 31004KT 10SM CLR M08/M17 A3062 RMK AO2
     T10771171=
KDKR 272010Z AUTO 02007KT 10SM FEW080 04/M02 A3042 RMK AO2=
KDLL 272010Z AUTO 28007KT 10SM CLR M10/M21 A3052 RMK AO2
     T10981206=
KDNN 272015Z AUTO 01007KT 10SM CLR 02/M05 A3043 RMK AO2=
KDTA 272015Z AUTO 34003KT 10SM SCT048 06/M06 A2974 RMK AO1
     T00611064=
KEFT 272015Z AUTO 27010KT 10SM CLR M10/M19 A3054 RMK AO2=
KEGV 272010Z AUTO 25007G14KT 10SM CLR M09/M22 A3034 RMK AO2
     T10911219=
KEOE 272015Z AUTO 27006KT 10SM CLR 11/M01 A3035 RMK AO2=
KETB 272010Z AUTO 24010G14KT 10SM CLR M08/M20 A3051 RMK AO2=
KFXY 272015Z AUTO 22004KT 10SM CLR M12/M18 A3053 RMK AO2=
KFZG 272015Z AUTO 00000KT 10SM CLR 13/02 A3033 RMK AO2 T01250020
     PWINO=
KGLW 272015Z AUTO 08007KT 10SM CLR M03/M13 A3055 RMK AO2
     T10271135=
KGVE 272015Z AUTO 03004KT 10SM OVC060 01/M10 A3041 RMK AO1
     T00121096=
KHBV 272010Z AUTO 01007KT 4SM HZ OVC015 A3021 RMK AO2=
KHFJ 272015Z AUTO 00000KT 10SM OVC065 M07/M16 A3051 RMK AO2=
KHHG 272015Z AUTO 27006KT 10SM OVC033 M08/M17 A3058 RMK AO2
     T10761174=
KHII 272015Z AUTO 14005KT 10SM CLR 21/M03 A2967 RMK AO2=
KHOE 272015Z AUTO 06003KT 10SM CLR 13/05 A3031 RMK AO2=
KHRX 272015Z AUTO 15011KT 10SM -SN BKN018 BKN038 OVC046 M08/M12
     A3019 RMK AO2 T10811119=
####018001252####
SPUS70 KWBC 272022
SPECI
PATE 272018Z AUTO 18040G44KT 1SM -SN BR BKN008 OVC060 M01/M02
     A2997 RMK AO2 PK WND 18044/2009 CIG 005V008 P0000 FZRANO=
KCSM 272018Z 07011KT 2 1/2SM -SN BKN016 OVC050 M08/M12 A3042 RMK
     AO2 P0000 T10781122=
KJST 272018Z AUTO 29013KT 10SM SCT026 M12/M18 A3036 RMK AO2
     T11171183=
KLMT 272018Z 32014KT 10SM FEW026 BKN044 OVC055 05/00 A2970 RMK AO2
     WSHFT 1958 RAB07E18 P0000 T00500000=
KTUL 272018Z 05011KT 2SM -SN BKN032 OVC039 M08/M11 A3055 RMK AO2
     TWR VIS 2 1/2 P0000 T10781111=
KMWL 272019Z AUTO 04008KT 1SM -SN BR FEW008 BKN021 OVC036 M05/M07
     A3041 RMK AO2 P0000 T10501072=
KODO 272019Z AUTO 08012KT 7SM OVC008 M06/M09 A3023 RMK AO2
     T10611089=
KPNC 272019Z AUTO 11007KT 2 1/2SM -SN FEW022 BKN028 OVC035 M07/M12
     A3053 RMK AO2 P0000 T10721122=
KTWF 272019Z VRB03KT 10SM BKN029 BKN036 OVC100 07/M01 A2971 RMK
     AO2 T00721011=
KCLM 272019Z AUTO 06009G16KT 030V090 10SM -RA FEW007 BKN012 OVC018
     08/06 A2982 RMK AO2 P0000 T00780061=
KDTO 272019Z 04012KT 3/4SM -SN BR FEW009 BKN020 OVC031 M04/M07
     A3044 RMK AO2 P0000 T10441067=
KGCN 272019Z VRB05KT 8SM -SN FEW020 BKN033 OVC055 03/M02 A2977 RMK
     AO2 SNB1959 P0000 T00281022=
####018000118####
SPUS80 KWBC 272022 CCA
SPECI
KMEH 272016Z AUTO 00000KT 10SM BKN014 OVC060 05/02 A2967 RMK AO2
     T00500017=
####018000560####
SAUS80 KWBC 272022
METAR
K9V9 272015Z AUTO 17011G14KT 10SM CLR M05/M18 A3034 RMK AO2
     T10491181=
KCKP 272015Z AUTO 21003KT 10SM CLR M12/M17 A3053 RMK AO2
     T11201174=
KIZA 272015Z AUTO 32013G16KT 10SM CLR 19/07 A2983 RMK AO2=
KNY0 272015Z AUTO 25016G21KT 10SM CLR M10/M18 A3037 RMK AO2
     T10971184=
KRFI 272015Z AUTO 04007KT 10SM OVC080 01/M07 A3042 RMK AO2
     T00051066=
KSOA 272015Z AUTO 06007KT 10SM BKN009 OVC012 M01/M03 A3028 RMK
     AO2=
KY23 272015Z AUTO 22006KT 10SM CLR M11/M20 A3049 RMK AO2
     T11061197=
####018003697####
SAUS70 KWBC 272022 RRB
METAR
KTNU 272015Z AUTO 23005KT 10SM CLR M14/M20 A3060 RMK AO2=
KTVI 272015Z AUTO 06010G15KT 10SM SCT031 12/05 A3030 RMK AO2=
KU68 272015Z AUTO 15005KT 10SM CLR M02/M15 A2989 RMK AO2=
KUBE 272015Z AUTO 26008KT 10SM CLR M11/M20 A3045 RMK AO2=
KUKF 272015Z AUTO 02006KT 10SM CLR 06/M07 A3038 RMK AO2=
KUNI 272015Z AUTO 26008KT 10SM CLR M05/M17 A3057 RMK AO2
     T10551170=
KUXL 272015Z AUTO 02008KT 350V060 10SM CLR 11/00 A3034 RMK AO2
     T01060003=
KVES 272015Z AUTO 30004KT 10SM BKN035 BKN042 M08/M16 A3057 RMK
     AO2=
KVUJ 272015Z AUTO 00000KT 10SM SCT042 08/M01 A3041 RMK AO2
     T00791011=
KW13 272015Z AUTO 22008G16KT 10SM SCT065 01/M13 A3035 RMK AO1
     T00121127=
KW22 272015Z AUTO VRB04KT 10SM BKN039 M07/M16 A3046 RMK AO2=
KW99 272015Z AUTO 28009G17KT 10SM CLR M02/M15 A3046 RMK AO2
     T10221152=
KY51 272015Z AUTO 24008KT 10SM CLR M11/M20 A3050 RMK AO1
     T11061199=
KSCR 272015Z AUTO 26004KT 10SM SCT042 06/M04 A3038 RMK AO2
     T00601037=
KFMH 272015Z AUTO VRB03KT 10SM CLR M04/M15 A3034 RMK AO2
     FZRANO=
KOSC 272013Z AUTO 26009G14KT 10SM SCT049 M07/M17 A3045 RMK AO2
     T10701172=
KJES 272015Z AUTO 08008KT 10SM CLR 13/03 A3033 RMK AO2=
KJOT 272015Z AUTO 31005KT 10SM CLR M11/M20 A3062 RMK AO2
     T11131197=
KL35 272015Z AUTO 22007KT 10SM CLR 08/M01 A2982 RMK AO2=
KLNL 272015Z AUTO 25006KT 10SM CLR M08/M21 A3033 RMK AO2
     T10791212=
KLOT 272015Z AUTO 26009KT 10SM CLR M11/M19 A3061 RMK AO2
     T11091186=
KMGC 272015Z AUTO 29005KT 10SM CLR M08/M21 A3060 RMK AO2=
KMNE 272015Z AUTO 35007KT 10SM SCT033 OVC085 01/M05 A3048 RMK AO2
     T00141053=
KMRJ 272010Z AUTO 26008KT 10SM CLR M10/M20 A3053 RMK AO2=
KMTV 272015Z AUTO 33006KT 10SM SCT065 05/M09 A3040 RMK AO2
     T00541090=
KMYZ 272015Z AUTO 08003KT 10SM SCT100 M07/M17 A3051 RMK AO2=
KMZZ 272015Z AUTO 28005KT 10SM SCT025 M09/M15 A3059 RMK AO2
     T10911152=
KOCQ 272015Z AUTO 25011G15KT 10SM CLR M08/M19 A3047 RMK AO1
     T10791193=
KPNA 272015Z AUTO 36006KT 10SM BKN032 OVC041 M08/M12 A2976 RMK
     AO2=
KPYX 272015Z AUTO 13011KT OVC018 M09/M12 A3030 RMK AO2
     T10891125=
KRAS 272015Z AUTO 05018G24KT 7SM OVC011 11/08 A3022 RMK AO2
     T01080077=
KRBO 272015Z AUTO 05013KT 10SM BKN019 OVC040 13/06 A3021 RMK AO2
     T01260063=
KRCR 272015Z AUTO 26003KT 10SM CLR M06/M13 A3059 RMK AO2=
KRNH 272015Z AUTO 25005KT 10SM CLR M09/M18 A3049 RMK AO2
     T10921184=
KRWV 272015Z AUTO 03005KT 10SM BKN026 03/M02 A3039 RMK AO2=
KRYV 272015Z AUTO 23006KT 10SM CLR M09/M19 A3053 RMK AO2
     T10921189=
KRZN 272015Z AUTO 24010KT 10SM CLR M09/M20 A3047 RMK AO2
     T10951202=
KSBO 272015Z AUTO 04004KT 10SM SCT043 15/M04 A3032 RMK AO2=
KSEE 272015Z AUTO 21011KT 8SM FEW034 BKN042 19/09 A2985 RMK
     AO2=
KSFQ 272015Z AUTO 03010G15KT 10SM BKN043 OVC049 01/M04 A3043 RMK
     AO2 T00101045=
KSRR 272015Z AUTO 15008KT M1/4SM FZFG OVC001 M08/M08 A2995 RMK
     AO2=
KSTE 272015Z AUTO 25007KT 10SM CLR M11/M22 A3048 RMK AO2
     T11111218=
KSUW 272015Z AUTO 23011G17KT 10SM CLR M07/M19 A3044 RMK AO2
     T10741194=
KTBR 272015Z AUTO 02005KT 10SM CLR 12/03 A3033 RMK AO2
     T01160033=
KTFP 272015Z AUTO 07011G23KT 10SM OVC021 13/06 A3022 RMK AO2
     T01280060=
KTMA 272015Z AUTO 07004KT 10SM SCT033 11/03 A3029 RMK AO2
     T01120031=
KUNU 272015Z AUTO 23011KT 10SM CLR M10/M19 A3053 RMK AO2
     T10981191=
KVER 272015Z AUTO 35004KT 10SM SCT100 M07/M18 A3059 RMK AO2
     T10711176=
KVNC 272015Z AUTO 06011KT 5SM -RA FEW043 BKN050 14/12 A3017 RMK
     AO2=
KVVG 272015Z AUTO 02009KT 9SM 16/07 A3012 RMK A01=
####018000087####
SAAF36 KWBC 272000 RRB
METAR
HRYR 272030Z 33003KT 9999 FEW026 21/17 Q1018 NOSIG=
####018000117####
SAAS31 KWBC 272005 RRC
METAR
VCBI 272010Z NIL=
VRMM 272000Z 09003KT 9999 FEW018TCU BKN130 28/23 Q1011 NOSIG=
####018000081####
SAAW31 KWBC 272000 RRB
METAR
LLBG 272020Z 28006KT CAVOK 16/10 Q1013 NOSIG=
####018000080####
SAAW33 KWBC 271930 RRB
METAR
OOSA 271950Z AUTO 31017KT 8000 26/M01 Q1013=
####018000097####
SAIO31 KWBC 272000 RRC
METAR
VRMM 272000Z 09003KT 9999 FEW018TCU BKN130 28/23 Q1011 NOSIG=
####018000108####
SAIQ32 KWBC 272000 RRA
METAR
KQAZ 272015Z AUTO 13008KT 9999 CLR 21/M09 A3001 RMK CDP03565
     CLR=
####018000067####
SAKN41 KWBC 272000 RRB
METAR
HKVO 272000Z 09010KT SKC 26/20=
####018000087####
SAMM31 KWBC 272000 RRA
METAR
LMML 272015Z 31010KT 9999 FEW025 12/08 Q1013 NOSIG=
####018000118####
SAPA31 KWBC 272000 RRE
METAR
PKWA 272020Z AUTO 05015KT 10SM SCT021 SCT026 28/22 A2983 RMK AO2
     T02760222=
####018000118####
SAXX62 KWBC 272000 RRB
METAR
PKWA 272020Z AUTO 05015KT 10SM SCT021 SCT026 28/22 A2983 RMK AO2
     T02760222=
####018000412####
SAXX99 KWBC 272000 RRP
METAR
BKPR 272030Z 36006KT 9999 SCT015 BKN030 07/04 Q1010 NOSIG RMK
     17010095=
CMGB 272015Z AUTO 25009KT M11/M22 RMK AO1 SOG 44 5004 SLP297
     T11111222=
EDFH 272020Z 27007KT 9999 FEW045 BKN085 01/M01 Q1019=
EYKA 272020Z 10003KT 070V150 3600 -RA BR SCT006 BKN011 OVC031
     02/00 Q1016 R08/090095=
EYPA 272020Z 07003KT 9999 BKN021 BKN091 02/01 Q1017 R19/1///95=
####018000089####
SPUS43 KWBC 272022
SPECI
KGRR 272018Z 25010KT 2SM -SN BKN019 BKN035 M09/M13 A3054=
####018000152####
SACN60 CWAO 272000 RRB
PCY SA 2000 AUTO8 M M M 227/-10/-13/3408/M/     SOG 17 1005 33MM=
PLY SA 2000 AUTO8 M M M M/-12/-16/MMMM/M/     M 83MM=

####018000168####
SACN92 CWAO 272000 RRC
WJU SA 2000 AUTO8 M M M 267/08/02/0106/M/     1012 87MM=
WME SA 2000 AUTO8 M M M 177/08/-07/0539+48/M/     PK WND 0648 1956Z 1017 58MM=

####018000108####
SACN50 CWAO 272000 RRB
WFG SA 2000 AUTO8 M M M 144/08/00/0235+42/M/     PK WND 0146 1910Z 1010 94MM=

####018000494####
SACN98 CWAO 272000 RRC
XAF SA 2000 AUTO8 M M M M/-11/-15/3206/M/     M 34MM=
XBR SA 2000 AUTO8 M M M M/-06/-10/0604/M/     M 51MM=
XDP SA 2000 AUTO8 M M M M/-11/-14/3508/M/     M 69MM=
XFR SA 2000 AUTO8 M M M M/-11/-13/2608/M/     M 99MM=
XHR SA 2000 AUTO8 M M M M/-10/-12/3417/M/     PK WND 3323 1946Z M 94MM=
XKM SA 2000 AUTO8 M M M M/-12/-15/3511/M/     M 53MM=
XOY SA 2000 AUTO8 M M M M/-10/-13/3408/M/     M 36MM=
XPA SA 2000 AUTO8 M M M M/-07/-12/2705/M/     M 02MM=

####018000115####
SACN93 CWAO 272000 RRC
WNV SA 2000 AUTO8 M M M 279/-10/-15/2414/M/     PK WND 2221 1920Z SOG 100 6003 21MM=

####018000152####
SACN59 CWAO 272000 RRB
NPK SA 2000 AUTO8 M M M 235/-09/-12/0102/M/     SOG 22 0004 75MM=
XSC SA 2000 AUTO8 M M M M/-08/-15/2907/M/     M 21MM=

####018000107####
SACN78 CWAO 272000 RRC
WWX SA 2000 AUTO8 M M M 319/-11/-15/2910+15/M/M PK WND 3218 1909Z 0000 93MM=

####018000312####
SACN82 CWAO 272000 RRB
MIN SA 2000 AUTO8 M M M 067/-31/-34/0000/M/     SOG 04 3014 25MM=
MMY SA 2000 AUTO8 M M M 255/-11/M/2706/M/     SOG 43 5001 5MMM=
MRF SA 2000 AUTO8 M M M 115/-28/-33/2509/M/     SOG 02 3022 81MM=
WHP SA 2000 AUTO8 M M M 169/-15/-19/2722+28/M/     PK WND 2830 1944Z 3019 76MM=

####018000110####
SACN90 CWAO 272000 RRC
WEO SA 2000 AUTO8 M M M 145/-20/-28/2710+17/M/     PK WND 2617 1951Z 3011 45MM=

####018000136####
SACN44 CWAO 272000 RRC
METAR CYUX 272000Z AUTO /////KT M34/M37 A2961 RMK CLD MISG WX MISG
 VIS MISG PCPN MISG ICG MISG SLP030=

####018000566####
SACN94 CWAO 272000 RRC
WQD SA 2000 AUTO8 M M M M/-08/-18/2810/M/M PK WND 2917 1905Z M 73MM=
WQM SA 2000 AUTO8 M M M M/-11/-20/2918/M/M PK WND 2926 1906Z M 14MM=
WQS SA 2000 AUTO8 M M M 246/10/-07/0109/M/0002 PCPN 0.2MM PAST HR PK WND 0618 1931Z 1011 58MM=
WQW SA 2000 AUTO8 M M M M/-14/M/2725+31/M/M PK WND 2631 1957Z M 2MMM=
WRD SA 2000 AUTO8 M M M 281/-08/-15/2605/M/     SOG 17 8014 83MM=
WRR SA 2000 AUTO8 M M M 233/-06/-07/2617+23/M/     PK WND 2624 1910Z 3007 89MM=
WRU SA 2000 AUTO8 M M M 105/09/06/0316/M/     PK WND 0221 1930Z 1012 31MM=

####018000182####
SACN96 CWAO 272000 RRC
WZL SA 2000 AUTO8 M M M 247/08/01/3416+24/M/M PK WND 3424 1957Z 1014 50MM=
WZV SA 2000 AUTO8 M M M 203/08/02/0219+31/M/M PK WND 0338 1916Z 2020 38MM=

####018000105####
SACN87 CWAO 272000 RRB
WWL SA 2000 AUTO8 M M M 222/08/01/0115/M/     PK WND 0117 1959Z 1015 21MM=

####018000107####
SACN97 CWAO 272000 RRC
XTV SA 2000 AUTO8 M M M 159/-02/-06/2718/M/     PK WND 2727 1907Z 3008 87MM=

####018000407####
SACN74 CWAO 272000 RRC
NCO SA 2000 AUTO8 M M M 050/-08/-10/2924+30/M/     PK WND 2930 1953Z SOG 22 5003 18MM=
NZS SA 2000 AUTO8 M M M 092/-33/-38/3506/M/     SOG 22 3001 20MM=
XCM SA 2000 AUTO8 M M M 918/-14/-15/3115/M/     PK WND 3219 1959Z SOG 02 8031 92MM=
XUX SA 2000 AUTO8 M M M 020/-34/-37/1805/M/     SOG 09 8014 58MM=
ZVM SA 2000 AUTO8 M M M 028/-30/-33/1301/M/     SOG 67 5000 90MM=

####018000089####
SACN95 CWAO 272000 RRC
WVI SA 2000 AUTO8 M M M 284/-12/-16/3409/M/     0003 67MM=

####018000099####
SACN43 CWAO 272000 RRA
METAR CYPG 272000Z 23010KT 15SM BKN220 M10/M18 A3030 RMK CI3 SLP288=

####018000105####
SACA31 XXCA 272021
METAR MYNN 272000Z 17004KT 9999 FEW016CB FEW018TCU 29/20 A3006
CB AND TCU/W TRU N=
####018000160####
SAAF18 LFPW 272000 RRB
METAR FMMT 272000Z 14006KT 9999 VCSH SCT017CB BKN033 26/25
Q1009=
METAR FMNM 272000Z 28006KT 9999 VCTS SCT016CB BKN040 28/25 Q1009=
####018000301####
SASW31 LSSW 272020
METAR LSZH 272020Z VRB02KT 9999 -RA SCT006 BKN015 02/01 Q1020 TEMPO
    BKN012=
METAR LSGG 272020Z VRB02KT 9999 FEW030 BKN060 03/M01 Q1021 NOSIG=
METAR LSZB 272020Z VRB01KT 9999 FEW015 SCT025 BKN040 02/01 Q1020
    NOSIG=
METAR LSZA 272020Z VRB01KT CAVOK 05/01 Q1013 NOSIG=
####018000089####
SPUS81 KWBC 272022
SPECI
KGRR 272018Z 25010KT 2SM -SN BKN019 BKN035 M09/M13 A3054=
####018000077####
SPCH01 SCTE 272018
SPECI SCTE 272018Z 18006KT 8000 SKC 24/13 Q1013 NOSIG=
####018001218####
SAXX70 KAWN 272000 RRL
METAR KQEI 272020Z AUTO 10001KT 9999 CLR M06/M12 A3042 RMK A02 TSNO=
METAR KQEJ 272020Z AUTO 11002KT 9999 FEW210 M06/M11 A3038 RMK A02 TSNO=
METAR KQEL 272020Z AUTO 00000KT 9999 CLR M05/M09 A3048 RMK A02 TSNO=
METAR KQEN 272020Z AUTO 9999 CLR 00/M17 / RMK A02 TSNO=
METAR KQEP 272020Z AUTO 15002KT 9999 CLR M04/M11 A3037 RMK A02 TSNO=
METAR KQEQ 272020Z AUTO 03002KT 9999 FEW140 M03/M10 A3027 RMK A02 TSNO=
METAR KQER 272020Z AUTO 8000 /CLR M06/M11 / RMK A02 TSNO=
METAR KQES 272020Z AUTO 9999 CLR M01/M08 A3043 RMK A02 TSNO=
METAR KQEV 272020Z AUTO 10001KT 4800 HZ CLR M05/M09 A3042 RMK A02 TSNO=
METAR KQEW 272020Z AUTO 21001KT 9999 CLR M05/M10 A3041 RMK A02 TSNO=
METAR KQEX 272020Z AUTO 05003KT 9999 CLR M04/M10 A3045 RMK A02 TSNO=
METAR KQEY 272020Z AUTO 23002KT 9999 CLR M05/M11 A3039 RMK A02 TSNO=
METAR KQFB 272020Z AUTO 25002KT 9999 CLR M04/M11 A3045 RMK A02 TSNO=
METAR KQFT 272020Z AUTO 01003KT 9999 BKN045 M03/M10 A3041 RMK A02 TSNO=
METAR KQFU 272020Z AUTO 14001KT 8000 HZ CLR M04/M09 A3041 RMK A02 TSNO=
METAR KQFV 272020Z AUTO 06001KT 9999 CLR M06/M11 A3038 RMK A02 TSNO=
METAR KQFX 272020Z AUTO 12001KT 9999 BKN045 M06/M11 A3044 RMK A02 TSNO=
####018000079####
SALV32 EVRA 272020
METAR EVVA 272020Z AUTO VRB03KT 9999 OVC013 02/00 Q1017=
####018000096####
SACN58 CWAO 272010
XWT SP 2010 AUTO5 M 9.+ S- M/-05/-10/2817G22/029/ PK WND 2825 M 23MM=

####018000093####
SACN58 CWAO 272018
XWT SP 2018 AUTO5 M 5.  S- M/-06/-09/2721/029/ PK WND 2825 M 61MM=

####018000094####
SACN58 CWAO 272011
XWT SP 2011 AUTO5 M 9.+ S-- M/-05/-10/2818/029/ PK WND 2825 M 14MM=

####018000096####
SACN58 CWAO 272006
XWT SP 2006 AUTO5 M 9.+ S- M/-05/-10/2813G22/029/ PK WND 2825 M 28MM=

####018000114####
SACN58 CWAO 272020
XWT SP 2020 AUTO5 M 2.2 S- M/-06/-08/2817G25/029/ VSBY VRBL 0.7V9.+ PK WND 2825 M 73MM=

####018000077####
SACN96 CWAO 272020
WZQ SA 2020 AUTO8 M M M M/-11/-16/MM11/M/M M 35MM=

####018000094####
SACN58 CWAO 272009
XWT SP 2009 AUTO5 M 9.+ S-- M/-05/-10/2818/029/ PK WND 2825 M 15MM=

####018000105####
SPCN43 CWAO 272022
SPECI CYBQ 272022Z AUTO 32010G18KT 9SM -SN OVC025 M12/M17 A2992 RMK
 SLP162=

####018000070####
SPCN51 CWAO 272022
SPECI CWOB 272022Z AUTO 03010KT M23/ A2936=

####018000112####
SPCN52 CWAO 272022
SPECI CZUM 272022Z AUTO 28014G19KT 5SM -SN BKN028 OVC037 M24/M29
 A2971 RMK SLP118=

####018000122####
SAAK41 KNKA 272021
SPECI PAVL 272020Z AUTO 08013KT 1SM -SN BR VV014 M04/M04 A3005 RMK 
 AO2 P0000 T10391044 TSNO $=
####018001033####
SAUS20 KNKA 272021
METAR K06D 272015Z AUTO 22009KT 10SM CLR M14/M18 A3024 RMK AO2=
METAR K28J 272015Z AUTO 05009G20KT 10SM OVC027 13/07 A3026 RMK AO2 
=
METAR K2C8 272015Z AUTO 24012G16KT 10SM CLR M10/M18 A3035 RMK AO2 =
METAR K2J9 272015Z AUTO 06008KT 10SM FEW031 13/03 A3031 RMK AO1 =
METAR KANK 272015Z AUTO 00000KT 10SM SCT016 BKN038 OVC044 M06/M13 
 A2984 RMK AO1 T10651129=
METAR KARW 272035Z AUTO 00000KT 10SM CLR 10/03 A3035 RMK AO2=
METAR KCCA 272015Z AUTO 32004KT 10SM CLR M02/M18 A3059 RMK AO2=
SPECI KDAB 272020Z 36015G21KT 9SM BKN014 OVC028 13/09 A3023 RMK AO2 
 T01280089=
METAR KDED 272015Z AUTO 02011KT 10SM SCT017 OVC028 13/08 A3025 RMK 
 AO1=
SPECI KLRD 272020Z 35008KT 6SM -RA BR OVC009 03/02 A3026 RMK AO2 CIG 
 007V013 P0000=
METAR KLRO 272015Z AUTO 11007KT 360V010 10SM CLR 09/01 A3036 RMK 
 AO2=
SPECI KROG 272020Z 06006KT 7SM -SN SCT029 OVC035 M08/M14 A3051 RMK 
 AO2 P0000=
SPECI KSWO 272020Z 08007KT 4SM -SN BKN028 OVC036 M07/M15 A3052 RMK 
 AO2 P0000 T10721150=
####018000305####
SAMG20 FMMI 272000
METAR 272000Z

METAR FMCH 272000Z 04004KT 9999 FEW020 27/26 Q1010 NOSIG=
METAR FMMT 272000Z 14006KT 9999 VCSH SCT017CB BKN033 26/25
Q1009 =
METAR FMNM 272000Z 28006KT 9999 VCTS SCT016CB BKN040 28/25 Q1009=
METAR FMSD 272000Z 06010KT 9999 VCSH SCT016 BKN033 26/24 Q1010=
####018000112####
SPCN45 CWAO 272024
SPECI CYWE 272024Z AUTO 26017G22KT 5SM -SN BKN028 OVC035 M10/M11
 A2983 RMK SLP141=

####018000630####
SAUS99 KWBC 272023
METAR
K06D 272015Z AUTO 22009KT 10SM CLR M14/M18 A3024 RMK AO2=
K28J 272015Z AUTO 05009G20KT 10SM OVC027 13/07 A3026 RMK AO2=
K2C8 272015Z AUTO 24012G16KT 10SM CLR M10/M18 A3035 RMK AO2=
K2J9 272015Z AUTO 06008KT 10SM FEW031 13/03 A3031 RMK AO1=
KANK 272015Z AUTO 00000KT 10SM SCT016 BKN038 OVC044 M06/M13 A2984
     RMK AO1 T10651129=
KARW 272035Z AUTO 00000KT 10SM CLR 10/03 A3035 RMK AO2=
KCCA 272015Z AUTO 32004KT 10SM CLR M02/M18 A3059 RMK AO2=
KDED 272015Z AUTO 02011KT 10SM SCT017 OVC028 13/08 A3025 RMK
     AO1=
KLRO 272015Z AUTO 11007KT 360V010 10SM CLR 09/01 A3036 RMK AO2=
####018000468####
SPUS99 KWBC 272023
SPECI
PAVL 272020Z AUTO 08013KT 1SM -SN BR VV014 M04/M04 A3005 RMK AO2
     P0000 T10391044 TSNO $=
KDAB 272020Z 36015G21KT 9SM BKN014 OVC028 13/09 A3023 RMK AO2
     T01280089=
KLRD 272020Z 35008KT 6SM -RA BR OVC009 03/02 A3026 RMK AO2 CIG
     007V013 P0000=
KROG 272020Z 06006KT 7SM -SN SCT029 OVC035 M08/M14 A3051 RMK AO2
     P0000=
KSWO 272020Z 08007KT 4SM -SN BKN028 OVC036 M07/M15 A3052 RMK AO2
     P0000 T10721150=
####018000106####
SAMO31 ZMUB 272030
METAR ZMUB 272030Z 00000MPS 9999 BKN080 M15/M18 Q1017 NOSIG RMK
 QFE655.3 76 NT=
####018000080####
SPSA32 KWBC 272023
SPECI
SCTE 272018Z 18006KT 8000 SKC 24/13 Q1013 NOSIG=
####018000094####
SACN58 CWAO 272003
WZB SP 2003 AUTO5 M 1.3 S- M/-11/-14/2826G31/M/ PK WND 2735 M 608M=

####018000112####
SACN58 CWAO 272008
WZB SP 2008 AUTO5 M 1.0 S- M/-11/-13/2826G31/M/ VSBY VRBL 0.4V4.0 PK WND 2833 M 60XM=

####018000112####
SACN58 CWAO 272009
WZB SP 2009 AUTO5 M 0.9 S- M/-11/-13/2825G31/M/ VSBY VRBL 0.4V4.0 PK WND 2833 M 63XM=

####018000112####
SACN58 CWAO 272010
WZB SP 2010 AUTO5 M 0.8 S- M/-11/-14/2825G31/M/ VSBY VRBL 0.4V4.0 PK WND 2833 M 75XM=

####018000112####
SACN58 CWAO 272019
WZB SP 2019 AUTO5 M 0.8 S- M/-11/-14/2826G31/M/ VSBY VRBL 0.5V5.0 PK WND 2833 M 696M=

####018000112####
SACN58 CWAO 272018
WZB SP 2018 AUTO5 M 0.8 S- M/-11/-14/2826G31/M/ VSBY VRBL 0.5V5.0 PK WND 2833 M 708M=

####018000089####
SPUS42 KWBC 272023
SPECI
KTUL 272018Z 05011KT 2SM -SN BKN032 OVC039 M08/M11 A3055=
####018000113####
SPUS44 KWBC 272023
SPECI
KCLM 272019Z AUTO 06009G16KT 030V090 10SM -RA FEW007 BKN012 OVC018
08/06 A2982=
####018000135####
SADN33 EKCH 272020
METAR EKKA 272020Z AUTO 25004KT 9999NDV FEW027/// 01/M00 Q1015=
METAR EKSP 272020Z 27004KT CAVOK M01/M02 Q1016=
####018000295####
SAMG20 FMMI 272000
METAR 272000Z
METAR FMCH 272000Z 04004KT 9999 FEW020 27/26 Q1010 NOSIG=
METAR FMMT 272000Z 14006KT 9999 VCSH SCT017CB BKN033 26/25
Q1009=
METAR FMNM 272000Z 28006KT 9999 VCTS SCT016CB BKN040 28/25 Q1009=
METAR FMSD 272000Z 06010KT 9999 VCSH SCT016 BKN033 26/24 Q1010=
####018000090####
SAAG05 SABM 272000 RRA
METAR SAOC 272000Z  05009KT 8000 DZ SCT012 SCT020
20/18 Q1017=
####018000106####
SPUS52 KWBC 272023
SPECI
KMWL 272019Z AUTO 04008KT 1SM -SN BR FEW008 BKN021 OVC036 M05/M07
A3041=
####018000107####
SPUS52 KWBC 272023
SPECI
KPNC 272019Z AUTO 11007KT 2 1/2SM -SN FEW022 BKN028 OVC035 M07/M12
A3053=
####018000109####
SPUS81 KWBC 272023
SPECI
KRQE 272018Z AUTO 19004KT 2 1/2SM -SN BR BKN020 BKN037 OVC044
01/M01 A2979=
####018001627####
SPZZ40 KAWN 272023 RRE
SPECI CWOB 272022Z AUTO 03010KT M23/ A2936=
SPECI CYCY 272021Z AUTO 26004KT 9SM CLR M34/M37 A2957 RMK SLP020=
SPECI CYET 272020Z AUTO 33009G15KT 260V360 8SM -SN BKN027 BKN060 M07/M13
      A3016 RMK SLP270=
SPECI CYMM 272020Z AUTO 29006KT 230V040 9SM -SN OVC019 M12/M16 A3024
      RMK SLP273=
SPECI CYSF 272021Z AUTO 27013G19KT 9SM CLR M14/M18 A3012 RMK SLP227=
SPECI CYZU 272019Z 31014KT 15SM DRSN SCT015 M10/M14 A3020 RMK SC3 SLP280=
SPECI KDYS 272022Z AUTO 06010KT 4SM BR BKN007 OVC011 M06/M08 A3034
      RMK AO2 UPB10E22=
SPECI KIAB 272019Z AUTO 12006KT 2 1/2SM -SN FEW002 OVC017 M09/M13 A3050
      RMK AO2 VIS 1 3/4V2 1/2 CIG 012 RWY19=
SPECI KNFW 272016Z 03007KT 1SM -SN SCT011 OVC019 M03/M06 A3048 RMK
      AO2 P0001 T10281056 $=
SPECI KNFW 272020Z 01007KT 1SM -SN SCT009 BKN014 OVC019 M03/M06 A3048
      RMK AO2 P0001 T10281056 $=
SPECI KTIK 272020Z AUTO 06007KT 1 1/2SM -SN OVC008 M08/M11 A3046 RMK
      AO2=
SPECI KXMR 272019Z AUTO 36015G18KT 6SM BR BKN007 13/12 A3017 RMK AO2
      RAE14DZB14E19=
SPECI LIEB 272012Z 36003KT 9999 FEW035CB 08/08 Q1011 RMK BKN QUK /
      QUL / VIS MAR 20 KM MON INVIS VIS MIN 9999=
SPECI MUVR 272019Z 28009KT 2500 +TSRA SCT015CB BKN020 24/21 Q1018 R
      MK RERA CB ALL QUAD AND OVER AD=
SPECI RODN 272018Z AUTO 09014KT 7SM R05/5000FT BKN008 18/15 A3007 RMK
      AO2 CIG 008V011 $=
SPECI RODN 272020Z AUTO 09013KT 7SM R05/5000FT BKN007 18/15 A3007 RMK
      AO2 CIG 007V010 $=
SPECI SBTC 272020Z 03006KT 9999 FEW020 SCT090 29/24 Q1009=
SPECI SCTE 272018Z 18006KT 8000 SKC 24/13 Q1013 NOSIG=
####018000594####
SAFI31 EFHK 272020
METAR EFHK 272020Z 10005KT 8000 SCT004 OVC022 M00/M01 Q1018 NOSIG=
METAR EFJY 272020Z AUTO 14006KT 9999 FEW021 M01/M03
 Q1016=
METAR EFKU 272020Z AUTO 17007KT 9999 OVC016 00/M02 
Q1017=
METAR EFOU 272020Z AUTO 17009KT 9999 OVC029/// M00/M04 Q1012 
R12/15//95=
METAR EFRO 272020Z AUTO 17013KT 5000 -SN FEW014 
BKN018 OVC022 M02/M03 Q1008=
METAR EFTP 272020Z AUTO 17006KT 9999 FEW009 OVC011 
00/M01 Q1017=
METAR EFTU 272020Z AUTO 17005KT 140V220 9999 OVC008/// 00/M01 Q1016 
R08/19//95=
METAR EFVA 272020Z AUTO 20016KT 9999 OVC012/// 01/M01 Q1012 
R16/12//95=
####018000788####
SASN31 ESWI 272020
METAR ESGG 272020Z 23005KT 0700 BR NSC M00/M01 Q1014 R21/29//95=
METAR ESGJ 272020Z 24002KT 6000 -RA FEW030 BKN066 02/01 Q1013 REDZ=
METAR ESGP 272020Z 00000KT 1200 R01/P2000U R19/P2000U BCFG OVC003
00/M01 Q1014=
METAR ESGT 272020Z NIL=
METAR ESMK 272020Z AUTO VRB02KT 0000 R01/0250N R19/0150N FG VV000
01/01 Q1014=
METAR ESMQ 272020Z AUTO 14004KT 3500 BR OVC002/// 03/02 Q1015=
METAR ESMS 272020Z 09002KT 0100 R17/0200N R35/0175N FG VV002 01/01
Q1014 R17/19//95=
METAR ESMT 272020Z AUTO 00000KT 4300 DZ FEW027/// 03/01 Q1014
RESHUP=
METAR ESMX 272020Z AUTO 17005KT 4000 BR BKN007/// 02/01 Q1014=
METAR ESTA 272020Z AUTO 00000KT 5000 DZ SCT010/// BKN019///
OVC034/// 03/01 Q1014 REDZ=
METAR ESTL 272020Z AUTO 10003KT 3900NDV BR FEW038/// 03/01 Q1014=
####018000107####
SACN58 CWAO 272013
WDH SP 2013 AUTO5 21 SCT 52 SCT 1.7 M M/-11/-16/2517G27/029/ PK WND 2431 M 682M=

####018000460####
SADL32 EDZO 272020
METAR EDDB 272020Z 26005KT CAVOK 01/M02 Q1015 NOSIG=
METAR EDDC 272020Z 20005KT CAVOK 03/M01 Q1015 NOSIG=
METAR EDDE 272020Z 29005KT 6000 -RASN BKN008 02/02 Q1017 TEMPO 4000
     -RA=
METAR EDDG 272020Z 29005KT 9999 FEW040 03/M00 Q1019 NOSIG=
METAR EDDP 272020Z 31008KT 9999 FEW009 SCT080 BKN130 03/02 Q1016
     NOSIG=
METAR EDDR 272020Z 28005KT CAVOK 02/00 Q1020 NOSIG=
METAR EDDW 272020Z 31005KT 9999 SCT035 03/00 Q1018 NOSIG=
####018000613####
SADL31 EDZO 272020
METAR EDDF 272020Z 29009KT 180V320 9999 -RA FEW040 BKN060 BKN080
05/02 Q1019 NOSIG=
METAR EDDH 272020Z 29009KT 9999 SCT040 03/02 Q1017 NOSIG=
METAR EDDK 272020Z 05002KT 9999 FEW037 02/M01 Q1020 NOSIG=
METAR EDDL 272020Z 29006KT CAVOK 04/M01 Q1021 NOSIG=
METAR EDDM 272020Z 26007KT 6000 -RASN OVC006 01/01 Q1016 TEMPO 2000
SN=
METAR EDDN 272020Z 28007KT 9999 -RA SCT028 BKN039 03/01 Q1016 NOSIG=
METAR EDDS 272020Z 30011KT 8000 -RASN FEW007 BKN011 02/02 Q1019
NOSIG=
METAR EDDT 272020Z 28004KT CAVOK 02/M01 Q1015 NOSIG=
METAR EDDV 272020Z 27004KT 260V330 CAVOK 01/M00 Q1018 NOSIG=
####018000085####
SAUK KAWN 272000 RRD
METAR EGLL 271950Z 20009KT 180V250 CAVOK 06/02 Q1019 NOSIG=
####018000353####
SPNA14 KAWN 272023 RRB
SPECI KNQX 272016Z 03009KT 10SM BKN008 23/19 A3007 RMK AO2 T02330194
      $=
SPECI KNSI 272015Z AUTO 31020G33KT 10SM OVC015 A2986 RMK AO2 PK WND
      32035/2005 $=
SPECI KSLI 272019Z 19005KT 10SM BKN033 OVC041 18/11 A2982 RMK AO2A=
SPECI KTIK 272020Z AUTO 06007KT 1 1/2SM -SN OVC008 M08/M11 A3046 RMK
      AO2=
####018000679####
SPUS17 KAWN 272023 RRC
SPECI KDYS 272022Z AUTO 06010KT 4SM BR BKN007 OVC011 M06/M08 A3034
      RMK AO2 UPB10E22=
SPECI KFSI 272018Z AUTO 06009KT 10SM -SN BKN012 OVC020 M07/M10 A3044
      RMK AO2 CIG 012V020 BKN V SCT=
SPECI KIAB 272018Z AUTO 12006KT 2 1/2SM -SN FEW010 OVC017 M09/M13 A3050
      RMK AO2 VIS 1 3/4V2 1/2 CIG 012 RWY19=
SPECI KIAB 272019Z AUTO 12006KT 2 1/2SM -SN FEW002 OVC017 M09/M13 A3050
      RMK AO2 VIS 1 3/4V2 1/2 CIG 012 RWY19=
SPECI KNFW 272016Z 03007KT 1SM -SN SCT011 OVC019 M03/M06 A3048 RMK
      AO2 P0001 T10281056 $=
SPECI KNFW 272020Z 01007KT 1SM -SN SCT009 BKN014 OVC019 M03/M06 A3048
      RMK AO2 P0001 T10281056 $=
####018000253####
SPNA35 KAWN 272023 RRA
SPECI KDAB 272020Z 36015G21KT 9SM BKN014 OVC028 13/09 A3023 RMK AO2
      T01280089=
SPECI KNQX 272016Z 03009KT 10SM BKN008 23/19 A3007 RMK AO2 T02330194
      $=
SPECI SCTE 272018Z 18006KT 8000 SKC 24/13 Q1013 NOSIG=
####018000134####
SAAK41 KNKA 272022
SPECI PACM 272021Z AUTO 17017G24KT 3/4SM BR SCT007 BKN012 OVC110 
 00/M01 A3017 RMK AO2 PWINO FZRANO TSNO $=
####018000617####
SAUS20 KNKA 272022
SPECI KGKY 272021Z 03009KT 3SM -SN SCT009 BKN014 OVC039 M02/M06 
 A3042 RMK AO2 P0000 T10221061=
METAR KM40 272015Z AUTO 35008KT 10SM CLR 07/07 A3046 RMK AO2=
METAR KRUG 272015Z AUTO 21009KT 10SM CLR M12/M17 A3026 RMK AO2 =
METAR KSNC 272015Z AUTO 31005G15KT 10SM CLR M02/M17 A3034 RMK AO2=
METAR KUOX 272015Z AUTO 05003KT 10SM CLR 02/M09 A3048 RMK AO2 PWINO
 PNO=
SPECI KVTA 272021Z AUTO 00000KT 7SM SCT024 OVC040 M08/M13 A3057 RMK 
    AO2 SNE19 P0000 T10831128=
SPECI PACM 272021Z AUTO 17017G24KT 3/4SM BR SCT007 BKN012 OVC110 
 00/M01 A3017 RMK AO2 PWINO FZRANO TSNO $=
####018000508####
SADN31 EKCH 272020
METAR EKCH 272020Z 05003KT 5000 -RA BKN030 03/02 Q1014 TEMPO
4000=
METAR EKBI 272020Z AUTO 27004KT 9999NDV NCD 00/M00 Q1016=
METAR EKYT 272020Z 25005KT 9999 FEW030 02/01 Q1015=
METAR EKRK 272020Z AUTO 32005KT 2100NDV -RA BR  SCT003/// BKN014///
01/01 Q1014=
METAR EKAH 272020Z AUTO 28001KT 0600NDV R10R/P1500N R28L/P1500VP1500N
FZFG  BKN033/// 00/M01 Q1015=
METAR EKEB 272020Z AUTO 25003KT 9999NDV NCD 00/M01 Q1016=
METAR EKRN 272020Z AUTO 07003KT 2300NDV BR  NCD 03/02 Q1015=
####018000445####
SPUS99 KWBC 272024
SPECI
PACM 272021Z AUTO 17017G24KT 3/4SM BR SCT007 BKN012 OVC110 00/M01
     A3017 RMK AO2 PWINO FZRANO TSNO $=
KGKY 272021Z 03009KT 3SM -SN SCT009 BKN014 OVC039 M02/M06 A3042
     RMK AO2 P0000 T10221061=
KVTA 272021Z AUTO 00000KT 7SM SCT024 OVC040 M08/M13 A3057 RMK AO2
     SNE19 P0000 T10831128=
PACM 272021Z AUTO 17017G24KT 3/4SM BR SCT007 BKN012 OVC110 00/M01
     A3017 RMK AO2 PWINO FZRANO TSNO $=
####018000286####
SAUS99 KWBC 272024
METAR
KM40 272015Z AUTO 35008KT 10SM CLR 07/07 A3046 RMK AO2=
KRUG 272015Z AUTO 21009KT 10SM CLR M12/M17 A3026 RMK AO2=
KSNC 272015Z AUTO 31005G15KT 10SM CLR M02/M17 A3034 RMK AO2=
KUOX 272015Z AUTO 05003KT 10SM CLR 02/M09 A3048 RMK AO2 PWINO
     PNO=
####018000409####
SACN86 KWBC 272024
METAR CWHP 272000Z AUTO 27022G28KT M15/M19 RMK AO1 PK WND
28030/1944 SLP169 T11471186 53019=
METAR CWHP 272000Z AUTO 27022G28KT M15/M19 RMK AO1 PK WND
28030/1944 SLP169 T11471186 53019=
METAR CWHP 272000Z AUTO 27022G28KT M15/M19 RMK AO1 PK WND
28030/1944 SLP169 T11471186 53019=
METAR CWWX 272000Z AUTO 29010G15KT M11/M15 RMK AO1 PK WND
32018/1909 SLP319 T11091153 50000=
####018000359####
SACN96 KWBC 272024
METAR CWZL 272000Z AUTO 34016G24KT 08/01 RMK AO1 PK WND 34024/1957
SLP247 T00750010 51014=
METAR CWZV 272000Z AUTO 02019G31KT 08/02 RMK AO1 PK WND 03038/1916
SLP203 T00830018 52020=
METAR CWZV 272000Z AUTO 02019G31KT 08/02 RMK AO1 PK WND 03038/1916
SLP203 T00830018 52020=
METAR CWZQ 272020Z AUTO M11/M16 RMK AO1 T11131155=
####018000095####
SACN92 KWBC 272024
METAR CWJU 272000Z AUTO 01006KT 08/02 RMK AO1 SLP267 T00780017
51012=
####018000824####
SACN87 KWBC 272024
METAR CWME 272000Z AUTO 05039G48KT 08/M07 RMK AO1 PK WND
06048/1956 SLP177 T00751068 51017=
METAR CWQS 272000Z AUTO 01009KT 10/M07 RMK AO1 2PAST HR 1011 PK
WND 06018/1931 SLP246 P0001 T00951068 50002=
METAR CWRU 272000Z AUTO 03016KT 09/06 RMK AO1 PK WND 02021/1930
SLP105 T00930061 51012=
METAR CWWL 272000Z AUTO 01015KT 08/01 RMK AO1 PK WND 01017/1959
SLP222 T00820011 51015=
METAR CWQS 272000Z AUTO 01009KT 10/M07 RMK AO1 2PAST HR 1011 PK
WND 06018/1931 SLP246 P0001 T00951068 50002=
METAR CWRU 272000Z AUTO 03016KT 09/06 RMK AO1 PK WND 02021/1930
SLP105 T00930061 51012=
METAR CWQS 272000Z AUTO 01009KT 10/M07 RMK AO1 2PAST HR 1011 PK
WND 06018/1931 SLP246 P0001 T00951068 50002=
METAR CWRU 272000Z AUTO 03016KT 09/06 RMK AO1 PK WND 02021/1930
SLP105 T00930061 51012=
####018000097####
SACN95 KWBC 272024
METAR CWVI 272000Z AUTO 34009KT M12/M16 RMK AO1 SLP284 T11161157
50003=
####018000115####
SACN97 KWBC 272024
METAR CXTV 272000Z AUTO 27018KT M02/M06 RMK AO1 PK WND 27027/1907
SLP159 T10181057 53008=
####018000111####
SPUS80 KWBC 272024
SPECI
KDAB 272020Z 36015G21KT 9SM BKN014 OVC028 13/09 A3023 RMK AO2
     T01280089=
####018000588####
SPXX60 KWBC 272024
SPECI
KDYS 272022Z AUTO 06010KT 4SM BR BKN007 OVC011 M06/M08 A3034 RMK
     AO2 UPB10E22=
KIAB 272019Z AUTO 12006KT 2 1/2SM -SN FEW002 OVC017 M09/M13 A3050
     RMK AO2 VIS 1 3/4V2 1/2 CIG 012 RWY19=
KNFW 272016Z 03007KT 1SM -SN SCT011 OVC019 M03/M06 A3048 RMK AO2
     P0001 T10281056 $=
KNFW 272020Z 01007KT 1SM -SN SCT009 BKN014 OVC019 M03/M06 A3048
     RMK AO2 P0001 T10281056 $=
KTIK 272020Z AUTO 06007KT 1 1/2SM -SN OVC008 M08/M11 A3046 RMK
     AO2=
KXMR 272019Z AUTO 36015G18KT 6SM BR BKN007 13/12 A3017 RMK AO2
     RAE14DZB14E19=
####018000802####
SPUS70 KWBC 272024
SPECI
PAVL 272020Z AUTO 08013KT 1SM -SN BR VV014 M04/M04 A3005 RMK AO2
     P0000 T10391044 TSNO $=
KLRD 272020Z 35008KT 6SM -RA BR OVC009 03/02 A3026 RMK AO2 CIG
     007V013 P0000=
KROG 272020Z 06006KT 7SM -SN SCT029 OVC035 M08/M14 A3051 RMK AO2
     P0000=
KSWO 272020Z 08007KT 4SM -SN BKN028 OVC036 M07/M15 A3052 RMK AO2
     P0000 T10721150=
PACM 272021Z AUTO 17017G24KT 3/4SM BR SCT007 BKN012 OVC110 00/M01
     A3017 RMK AO2 PWINO FZRANO TSNO $=
KGKY 272021Z 03009KT 3SM -SN SCT009 BKN014 OVC039 M02/M06 A3042
     RMK AO2 P0000 T10221061=
KVTA 272021Z AUTO 00000KT 7SM SCT024 OVC040 M08/M13 A3057 RMK AO2
     SNE19 P0000 T10831128=
PACM 272021Z AUTO 17017G24KT 3/4SM BR SCT007 BKN012 OVC110 00/M01
     A3017 RMK AO2 PWINO FZRANO TSNO $=
####018000095####
SAAF32 KWBC 272000 RRE
METAR
FMNM 272000Z 28006KT 9999 VCTS SCT016CB BKN040 28/25 Q1009=
####018000824####
SAUS70 KWBC 272024
METAR
K06D 272015Z AUTO 22009KT 10SM CLR M14/M18 A3024 RMK AO2=
K28J 272015Z AUTO 05009G20KT 10SM OVC027 13/07 A3026 RMK AO2=
K2C8 272015Z AUTO 24012G16KT 10SM CLR M10/M18 A3035 RMK AO2=
K2J9 272015Z AUTO 06008KT 10SM FEW031 13/03 A3031 RMK AO1=
KANK 272015Z AUTO 00000KT 10SM SCT016 BKN038 OVC044 M06/M13 A2984
     RMK AO1 T10651129=
KARW 272035Z AUTO 00000KT 10SM CLR 10/03 A3035 RMK AO2=
KCCA 272015Z AUTO 32004KT 10SM CLR M02/M18 A3059 RMK AO2=
KDED 272015Z AUTO 02011KT 10SM SCT017 OVC028 13/08 A3025 RMK
     AO1=
KLRO 272015Z AUTO 11007KT 360V010 10SM CLR 09/01 A3036 RMK AO2=
KM40 272015Z AUTO 35008KT 10SM CLR 07/07 A3046 RMK AO2=
KRUG 272015Z AUTO 21009KT 10SM CLR M12/M17 A3026 RMK AO2=
KUOX 272015Z AUTO 05003KT 10SM CLR 02/M09 A3048 RMK AO2 PWINO
     PNO=
####018000092####
SAUS80 KWBC 272024
METAR
KSNC 272015Z AUTO 31005G15KT 10SM CLR M02/M17 A3034 RMK AO2=
####018000128####
SPCA31 KWBC 272024
SPECI
MUVR 272019Z 28009KT 2500 +TSRA SCT015CB BKN020 24/21 Q1018 R MK
RERA CB ALL QUAD AND OVER AD=
####018000128####
SPCA41 KWBC 272024
SPECI
MUVR 272019Z 28009KT 2500 +TSRA SCT015CB BKN020 24/21 Q1018 R MK
RERA CB ALL QUAD AND OVER AD=
####018000116####
SACI32 KWBC 272000 RRB
METAR
ZMUB 272030Z 00000MPS 9999 BKN080 M15/M18 Q1017 NOSIG RMK QFE655.3
     76 NT=
####018000469####
SADL33 KWBC 272015 RRA
METAR
EDDB 272020Z 26005KT CAVOK 01/M02 Q1015 NOSIG=
EDDC 272020Z 20005KT CAVOK 03/M01 Q1015 NOSIG=
EDDG 272020Z 29005KT 9999 FEW040 03/M00 Q1019 NOSIG=
EDDP 272020Z 31008KT 9999 FEW009 SCT080 BKN130 03/02 Q1016
     NOSIG=
EDDR 272020Z 28005KT CAVOK 02/00 Q1020 NOSIG=
EDDT 272020Z 28004KT CAVOK 02/M01 Q1015 NOSIG=
EDDV 272020Z 27004KT 260V330 CAVOK 01/M00 Q1018 NOSIG=
EDDW 272020Z 31005KT 9999 SCT035 03/00 Q1018 NOSIG=
####018000093####
SAPA41 KWBC 272000 RRB
METAR
PKWA 272020Z AUTO 05015KT 10SM SCT021 SCT026 28/22 A2983=
####018000138####
SPIY41 KWBC 272024
SPECI
LIEB 272012Z 36003KT 9999 FEW035CB 08/08 Q1011 RMK BKN QUK / QUL /
VIS MAR 20 KM MON INVIS VIS MIN 9999=
####018000116####
SPJP31 KWBC 272024
SPECI
RODN 272018Z AUTO 09014KT 7SM R05/5000FT BKN008 18/15 A3007 RMK
AO2 CIG 008V011 $=
####018000116####
SPJP31 KWBC 272024
SPECI
RODN 272020Z AUTO 09013KT 7SM R05/5000FT BKN007 18/15 A3007 RMK
AO2 CIG 007V010 $=
####018000093####
SAPQ31 KWBC 272000 RRC
METAR
PKWA 272020Z AUTO 05015KT 10SM SCT021 SCT026 28/22 A2983=
####018000149####
SAIO31 KWBC 272000 RRD
METAR
FMCH 272000Z 04004KT 9999 FEW020 27/26 Q1010 NOSIG=
FMMT 272000Z 14006KT 9999 VCSH SCT017CB BKN033 26/25 Q1009=
####018000116####
SPXX62 KWBC 272024
SPECI
RODN 272020Z AUTO 09013KT 7SM R05/5000FT BKN007 18/15 A3007 RMK
AO2 CIG 007V010 $=
####018000116####
SPXX62 KWBC 272024
SPECI
RODN 272018Z AUTO 09014KT 7SM R05/5000FT BKN008 18/15 A3007 RMK
AO2 CIG 008V011 $=
####018000084####
SAUS31 KWBC 272000 RRB
METAR
KLGC 272015Z AUTO 35004KT 10SM CLR 12/M01 A3035=
####018000107####
SAXX61 KWBC 272000 RRC
METAR
EDDS 272020Z 30011KT 8000 -RASN FEW007 BKN011 02/02 Q1019
     NOSIG=
####018001057####
SAXX99 KWBC 272000 RRQ
METAR
CYPG 272000Z 23010KT 15SM BKN220 M10/M18 A3030 RMK CI3 SLP288=
CYUX 272000Z AUTO /////KT M34/M37 A2961 RMK CLD MISG WX MISG VIS
     MISG PCPN MISG ICG MISG SLP030=
EDDE 272020Z 29005KT 6000 -RASN BKN008 02/02 Q1017 TEMPO 4000
     -RA=
ESGT 272020Z NIL=
ESMQ 272020Z AUTO 14004KT 3500 BR OVC002/// 03/02 Q1015=
ESMT 272020Z AUTO 00000KT 4300 DZ FEW027/// 03/01 Q1014 RESHUP=
ESTA 272020Z AUTO 00000KT 5000 DZ SCT010/// BKN019/// OVC034///
     03/01 Q1014 REDZ=
ESTL 272020Z AUTO 10003KT 3900NDV BR FEW038/// 03/01 Q1014=
EVVA 272020Z AUTO VRB03KT 9999 OVC013 02/00 Q1017=
FMSD 272000Z 06010KT 9999 VCSH SCT016 BKN033 26/24 Q1010=
SAOC 272000Z 05009KT 8000 DZ SCT012 SCT020 20/18 Q1017=
UTO8 M M M 028/-30/-33/1301/M/ SOG 67 5000 90MM=
UTO8 M M M 050/-08/-10/2924+30/M/ PK WND 2930 1953Z SOG 22 5003
     18MM=
UTO8 M M M 020/-34/-37/1805/M/ SOG 09 8014 58MM=
UTO8 M M M 918/-14/-15/3115/M/ PK WND 3219 1959Z SOG 02 8031
     92MM=
UTO8 M M M 092/-33/-38/3506/M/ SOG 22 3001 20MM=
####018000145####
SAUS42 KWBC 272000 RRC
METAR
KBQK 272015Z AUTO 03012G18KT 010V070 10SM CLR 10/00 A3034=
KLGC 272015Z AUTO 35004KT 10SM CLR 12/M01 A3035=
####018000083####
SPUS42 KWBC 272024
SPECI
KLRD 272020Z 35008KT 6SM -RA BR OVC009 03/02 A3026=
####018000553####
SAUS43 KWBC 272000 RRE
METAR
KC75 272015Z AUTO 32005KT 10SM CLR M11/M19 A3063=
KFWC 272015Z AUTO 34005KT 10SM CLR M08/M15 A3063=
KJOT 272015Z AUTO 31005KT 10SM CLR M11/M20 A3062=
KLOT 272015Z AUTO 26009KT 10SM CLR M11/M19 A3061=
KOLY 272015Z AUTO 36006KT 10SM CLR M08/M16 A3065=
KPNT 272015Z AUTO 28004KT 10SM CLR M11/M18 A3063=
KPRG 272015Z AUTO 27003KT 10SM CLR M10/M16 A3064=
KSAR 272015Z AUTO 35005KT 10SM CLR M07/M14 A3063=
KTAZ 272015Z AUTO 00000KT 10SM CLR M11/M17 A3064=
KVYS 272015Z AUTO 31009KT 10SM CLR M10/M18 A3062=
####018000183####
SADN32 EKCH 272020
METAR EKVJ 272023Z NIL=
METAR EKSB 272023Z NIL=
METAR EKSN 272023Z NIL=
METAR EKVD 272020Z AUTO 29005KT //// ///////// 01/M00 Q1016=
METAR EKOD 272023Z NIL=
####018000409####
SAUK33 EGGY 272020
METAR EGGD 272020Z 20009KT CAVOK 05/02 Q1017=
METAR EGGP 272020Z 17009KT 100V210 9999 BKN030 06/02 Q1014=
METAR EGHI 272020Z 21007KT CAVOK 06/02 Q1019 =
METAR EGNS 272020Z 21023KT 9999 FEW012 BKN017 07/05 Q1009 NOSIG=
METAR EGNT 272020Z 19011KT 9999 FEW035 05/00 Q1011=
METAR EGNV 272020Z 18017KT CAVOK 05/00 Q1012=
METAR COR EGPB 272020Z 19022G33KT 9999 FEW025 06/03 Q1000 NOSIG=
####018000461####
SAUK32 EGGY 272020
METAR EGAA 272020Z 19016KT 9999 SCT015 BKN026 06/04 Q1006=
METAR EGAC 272020Z 19018KT 9999 SCT020 BKN025 07/03 Q1006=
METAR EGFF 272020Z AUTO 20008KT 9999 BKN029 06/04 Q1017=
METAR EGGW 272020Z 17004KT CAVOK 04/M00 Q1018=
METAR EGLC 272020Z 20007KT 160V230 CAVOK 07/02 Q1019=
METAR EGNM 272020Z 18009KT 9999 SCT047 04/00 Q1013=
METAR EGNX 272020Z 19010KT CAVOK 05/00 Q1016=
METAR EGPD 272020Z 19016KT 9999 BKN030 05/01 Q1004 NOSIG=
####018000417####
SAUK31 EGGY 272020
METAR EGBB 272020Z 18006KT CAVOK 05/M00 Q1016=
METAR EGCC 272020Z NIL=
METAR EGKK 272020Z 20006KT CAVOK 05/02 Q1020=
METAR COR EGLL 272020Z 22009KT CAVOK 06/02 Q1019 NOSIG=
METAR EGPF 272020Z AUTO 19010KT 7000 BKN022 06/02 Q1006=
METAR EGPH 272020Z 22014KT CAVOK 06/01 Q1007=
METAR EGPK 272020Z 18014KT 9999 -SHRA FEW022 SCT046 07/03 Q1006=
METAR EGSS 272020Z 18005KT CAVOK 03/M01 Q1019=
####018000300####
SAUK34 EGGY 272020
METAR EGHE 272020Z NIL=
METAR EGHQ 272020Z 17015KT 9999 -DZ BKN015 06/04 Q1017=
METAR EGJA 272020Z NIL=
METAR EGJB 272020Z 21012KT 9999 FEW025 07/04 Q1021=
METAR EGJJ 272020Z 19008KT 9999 FEW025 SCT048 07/04 Q1022 NOSIG=
METAR EGTE 272020Z 19007KT 9999 SCT025 06/03 Q1018=
####018000310####
SAUK35 EGGY 272020
METAR EGHH 272020Z 22006KT CAVOK 07/03 Q1019=
METAR EGKA 272020Z NIL=
METAR EGKB 272020Z 19008KT CAVOK 04/00 Q1019 =
METAR EGLF 272020Z NIL=
METAR EGMC 272020Z 22010KT CAVOK 05/01 Q1020=
METAR EGMD 272020Z NIL=
METAR EGTC 272020Z NIL=
METAR EGTK 272020Z 20007KT CAVOK 04/02 Q1018=
####018000272####
SAUK36 EGGY 272020
METAR EGBE 272020Z 19007KT CAVOK 05/01 Q1017=
METAR EGBJ 272020Z NIL=
METAR EGCN 272020Z 16006KT CAVOK 04/00 Q1016=
METAR EGSC 272020Z NIL=
METAR COR EGSH 272020Z 19007KT CAVOK 03/00 Q1018 NOSIG=
METAR EGVN 272020Z NIL=
METAR EGWU 272020Z NIL=
####018000424####
SAUK38 EGGY 272020
METAR EGEC 272020Z NIL=
METAR EGPA 272020Z AUTO 19022G33KT 9999 NCD 06/02 Q0999=
METAR EGPC 272020Z AUTO 20018G28KT 170V240 9999 NCD 05/00 Q1000=
METAR EGPL 272020Z AUTO 19026KT 3200 -RA BKN004/// 06/06 Q0996
    RERA=
METAR EGPM 272020Z AUTO 20021KT 9999 FEW033/// BKN047/// 06/03 Q0998=
METAR EGPO 272020Z AUTO 20031G44KT 3700 -RA SCT010/// BKN013///
    06/04 Q0994=
METAR EGPU 272020Z NIL=
####018000353####
SAUK37 EGGY 272020
METAR EGAE 272020Z NIL=
METAR EGNC 272020Z NIL=
METAR EGNH 272020Z 17013KT 9999 OVC034 07/01 Q1013=
METAR EGNJ 272020Z 19008KT 9999 FEW036 05/01 Q1015=
METAR EGNR 272020Z 17009KT 9999 BKN030 06/02 Q1014=
METAR EGPE 272020Z 22015KT 180V250 9999 FEW015 BKN042 06/01
    Q1000=
METAR EGPI 272020Z NIL=
METAR EGPN 272020Z NIL=
####018000401####
SASW32 LSSW 272020
METAR LSGC 272020Z AUTO VRB01KT 3500 -SN BKN005 M02/M03 Q1019=
METAR LSGS 272020Z NIL=
METAR LSZG 272020Z AUTO 28003KT 9999 -DZ BKN030 BKN050 03/01 Q1020=
METAR LSZR 272020Z AUTO 25008KT 210V290 9999 -RA FEW024 BKN032
    OVC050 04/01 Q1019=
METAR LSZS 272020Z NIL=
METAR LSZC 272020Z AUTO VRB02KT 8000 -RASN BKN016 SCT023 BKN048
    02/01 Q1020=
METAR LSZL 272020Z NIL=
####018000286####
SAMG20 FMMI 272000
METAR FMCH 272000Z 04004KT 9999 FEW020 27/26 Q1010 NOSIG=
METAR FMMT 272000Z 14006KT 9999 VCSH SCT017CB BKN033 26/25
Q1009 =
METAR FMNM 272000Z 28006KT 9999 VCTS SCT016CB BKN040 28/25 Q1009=
METAR FMSD 272000Z 06010KT 9999 VCSH SCT016 BKN033 26/24 Q1010=
####018000086####
SPUS52 KWBC 272024
SPECI
KDAB 272020Z 36015G21KT 9SM BKN014 OVC028 13/09 A3023=
####018000087####
SAUS52 KWBC 272000 RRD
METAR
KVUJ 272015Z AUTO 00000KT 10SM SCT042 08/M01 A3041=
####018001659####
SAEU KAWN 272000 RRU
METAR EDDC 272020Z 20005KT CAVOK 03/M01 Q1015 NOSIG=
METAR EDDF 272020Z 29009KT 180V320 9999 -RA FEW040 BKN060 BKN080 05/02
      Q1019 NOSIG=
METAR EDDG 272020Z 29005KT 9999 FEW040 03/M00 Q1019 NOSIG=
METAR EDDH 272020Z 29009KT 9999 SCT040 03/02 Q1017 NOSIG=
METAR EDDK 272020Z 05002KT 9999 FEW037 02/M01 Q1020 NOSIG=
METAR EDDM 272020Z 26007KT 6000 -RASN OVC006 01/01 Q1016 TEMPO 2000
      SN=
METAR EDDN 272020Z 28007KT 9999 -RA SCT028 BKN039 03/01 Q1016 NOSIG=
METAR EDDR 272020Z 28005KT CAVOK 02/00 Q1020 NOSIG=
METAR EDDS 272020Z 30011KT 8000 -RASN FEW007 BKN011 02/02 Q1019 NOSIG=
METAR EDDT 272020Z 28004KT CAVOK 02/M01 Q1015 NOSIG=
METAR EDDV 272020Z 27004KT 260V330 CAVOK 01/M00 Q1018 NOSIG=
METAR EDFH 272020Z 27007KT 9999 FEW045 BKN085 01/M01 Q1019=
METAR EDLP 272020Z 27004KT 230V300 9999 SCT035 02/01 Q1019 RMK ATIS
      FOX=
METAR EDLW 272020Z VRB03KT 9999 SCT042 02/M02 Q1020 RMK ATIS G=
METAR EKKA 272020Z AUTO 25004KT 9999NDV FEW027/// 01/M00 Q1015=
METAR EKSP 272020Z 27004KT CAVOK M01/M02 Q1016=
METAR EKVG 272020Z AUTO 15018G29KT 8000NDV -RA OVC006/// 05/05 Q0981=
METAR LHKE 272015Z 01004KT 6000 -RA SCT027 OVC037 06/05 Q1015 TEMPO
      5000 BR RMK WHT=
METAR LHSN 272015Z 04006KT CAVOK 06/03 Q1015 TEMPO 8000 -RA RMK BLU=
METAR LMML 272015Z 31010KT 9999 FEW025 12/08 Q1013 NOSIG=
METAR LSGG 272020Z VRB02KT 9999 FEW030 BKN060 03/M01 Q1021 NOSIG=
METAR LSZA 272020Z VRB01KT CAVOK 05/01 Q1013 NOSIG=
METAR LSZB 272020Z VRB01KT 9999 FEW015 SCT025 BKN040 02/01 Q1020 NOSIG=
METAR LSZH 272020Z VRB02KT 9999 -RA SCT006 BKN015 02/01 Q1020 TEMPO
      BKN012=
####018000142####
SAUS53 KWBC 272000 RRF
METAR
KONL 272015Z AUTO 17010G15KT 10SM CLR M05/M20 A3036=
KTDF 272015Z AUTO 00000KT 10SM SCT050 05/M06 A3041=
####018000086####
SAUS54 KWBC 272000 RRD
METAR
KIZA 272015Z AUTO 32013G16KT 10SM CLR 19/07 A2983=
####018000086####
SPUS81 KWBC 272024
SPECI
KDAB 272020Z 36015G21KT 9SM BKN014 OVC028 13/09 A3023=
####018001689####
SAEW KAWN 272000 RRH
METAR EDDB 272020Z 26005KT CAVOK 01/M02 Q1015 NOSIG=
METAR EDDC 272020Z 20005KT CAVOK 03/M01 Q1015 NOSIG=
METAR EDDE 272020Z 29005KT 6000 -RASN BKN008 02/02 Q1017 TEMPO 4000
      -RA=
METAR EDDF 272020Z 29009KT 180V320 9999 -RA FEW040 BKN060 BKN080 05/02
      Q1019 NOSIG=
METAR EDDG 272020Z 29005KT 9999 FEW040 03/M00 Q1019 NOSIG=
METAR EDDH 272020Z 29009KT 9999 SCT040 03/02 Q1017 NOSIG=
METAR EDDK 272020Z 05002KT 9999 FEW037 02/M01 Q1020 NOSIG=
METAR EDDL 272020Z 29006KT CAVOK 04/M01 Q1021 NOSIG=
METAR EDDM 272020Z 26007KT 6000 -RASN OVC006 01/01 Q1016 TEMPO 2000
      SN=
METAR EDDN 272020Z 28007KT 9999 -RA SCT028 BKN039 03/01 Q1016 NOSIG=
METAR EDDP 272020Z 31008KT 9999 FEW009 SCT080 BKN130 03/02 Q1016 NOSIG=
METAR EDDR 272020Z 28005KT CAVOK 02/00 Q1020 NOSIG=
METAR EDDS 272020Z 30011KT 8000 -RASN FEW007 BKN011 02/02 Q1019 NOSIG=
METAR EDDT 272020Z 28004KT CAVOK 02/M01 Q1015 NOSIG=
METAR EDDV 272020Z 27004KT 260V330 CAVOK 01/M00 Q1018 NOSIG=
METAR EDDW 272020Z 31005KT 9999 SCT035 03/00 Q1018 NOSIG=
METAR EDLP 272020Z 27004KT 230V300 9999 SCT035 02/01 Q1019 RMK ATIS
      FOX=
METAR EDLW 272020Z VRB03KT 9999 SCT042 02/M02 Q1020 RMK ATIS G=
METAR EHKD 272025Z AUTO 25007KT 9999 FEW170 03/01 Q1020 BLU=
METAR EKKA 272020Z AUTO 25004KT 9999NDV FEW027/// 01/M00 Q1015=
METAR EKSP 272020Z 27004KT CAVOK M01/M02 Q1016=
METAR LSGG 272020Z VRB02KT 9999 FEW030 BKN060 03/M01 Q1021 NOSIG=
METAR LSZA 272020Z VRB01KT CAVOK 05/01 Q1013 NOSIG=
METAR LSZB 272020Z VRB01KT 9999 FEW015 SCT025 BKN040 02/01 Q1020 NOSIG=
METAR LSZH 272020Z VRB02KT 9999 -RA SCT006 BKN015 02/01 Q1020 TEMPO
      BKN012=
####018000606####
SASN32 ESWI 272020
METAR ESKN 272020Z 17006KT 140V210 4900 BR VV006 02/01 Q1014=
METAR ESOE 272020Z NIL=
METAR ESOK 272020Z AUTO 16004KT 1900 BR FEW017/// 00/00 Q1012=
METAR ESOW 272020Z 19005KT 6000 BR BKN008 02/01 Q1014 R01/19//95=
METAR ESSA 272020Z 18009KT 8000 BR BKN009 02/02 Q1014 R01L/09//95
R08/09//95 R01R/09//95 TEMPO BKN010=
METAR ESSB 272020Z 19006KT 8000 BR OVC009 03/01 Q1014 R12/19//67=
METAR ESSD 272020Z 17005KT 9999 FEW011 BKN017 OVC021 02/00 Q1011=
METAR ESSP 272020Z AUTO 10004KT 2600 BR OVC005/// M00/M00 Q1014=
METAR ESSV 272020Z AUTO 18005KT 9999 OVC007/// 02/02 Q1016=
####018000079####
SASD20 OEJD 272000 RRC
METAR OEKM 272000Z 03007KT CAVOK  17/02 Q1026 NOSIG=
####018000571####
SASN33 ESWI 272020
METAR ESNG 272020Z 17010KT 9000 SG OVC009 M01/M02 Q1000=
METAR ESNK 272020Z 17008KT 9999 OVC011 02/01 Q1008=
METAR ESNN 272020Z AUTO 15006KT 9999 OVC014/// 01/00 Q1009
R16/19//70=
METAR ESNO 272020Z 20010KT 7000 BR OVC004 01/01 Q1008=
METAR ESNQ 272020Z 20025KT 8000 BLSN BKN007 OVC009 M01/M02 Q0996=
METAR ESNS 272020Z 18010KT 9999 OVC008 01/00 Q1008=
METAR ESNU 272020Z 19015KT 8000 -DZ OVC006 01/00 Q1009 R14/29//65=
METAR ESNZ 272020Z 18012KT CAVOK 01/M05 Q1003=
METAR ESUT 272020Z AUTO 17011KT 9999 FEW076/// SCT100/// M00/M04
Q0998=
####018000457####
SASN34 ESWI 272020
METAR ESCF 272020Z AUTO 20005KT 4300NDV BR BKN006/// OVC039///
01/01 Q1014=
METAR ESDF 272020Z AUTO 14003KT 2400NDV BR OVC003/// 03/02 Q1015=
METAR ESIB 272020Z AUTO 22007KT 9000NDV BR OVC007/// 02/01 Q1014=
METAR ESMV 272020Z NIL=
METAR ESPA 272020Z 19016KT 9999 OVC007 01/M00 Q1007=
METAR ESPE 272020Z AUTO 20009KT 170V230 9999NDV -SN OVC017///
01/M02 Q1003=
METAR ESSL 272020Z 19008KT 6000 BR BKN036 02/01 Q1014 R29/09//95=
####018000387####
SAFI32 EFHK 272020
METAR EFHA 272020Z AUTO 15004KT 100V190 9999 OVC016
 01/M02 Q1016=
EFHF 272020Z AUTO 09004KT 070V130 9999 FEW006 OVC023 00/M01 Q1018=
EFKK 272020Z 18015KT 9999 OVC018 M00/M03 Q1012=
EFMA 272020Z AUTO 18011KT 9999 OVC013 03/01 Q1015=
METAR EFPO 272020Z AUTO 16009KT 9999 OVC010/// 01/M01 Q1015 
R12/0/0095=
EFSI 272020Z AUTO VRB07KT 9999 OVC015 00/M02 Q1014=
####018000425####
SASN35 ESWI 272020
METAR ESGR 272020Z AUTO 19003KT 9000 BR SCT098/// 02/M00 Q1013=
METAR ESKM 272020Z NIL=
METAR ESNL 272020Z AUTO 15007KT 9999 SG FEW007/// BKN013///
OVC025/// 00/M02 Q1005 REUP=
METAR ESNX 272020Z AUTO 18007KT 150V230 9999NDV OVC008/// M01/M02
Q1002=
METAR ESNY 272020Z NIL=
METAR ESSF 272020Z NIL=
METAR ESSK 272020Z NIL=
METAR ESUD 272020Z AUTO 17009KT 9999 BKN018/// OVC043/// 01/M03
Q1003=
####018000621####
SAUS20 KNKA 272023
SPECI KBVO 272023Z AUTO 09007KT 2 1/2SM -SN BKN028 OVC036 M07/M13 
 A3057 RMK AO2 SNB12 P0000 T10721133=
SPECI KCEZ 272022Z AUTO 20004KT 3SM -SN BR BKN010 OVC046 00/M02 
 A2981 RMK AO2 P0000 T00001017=
SPECI KGAG 272022Z AUTO 10008KT 5SM -SN SCT020 BKN044 OVC055 M08/M13 
 A3038 RMK AO2 P0000 T10831128=
SPECI KITR 272022Z AUTO 16022G27KT 2 1/2SM -SN BKN017 OVC044 M10/M14 
 A3012 RMK AO2 PK WND 16027/2006 P0000 T11001139=
SPECI KNQX 272016Z 03009KT 10SM BKN008 23/19 A3007 RMK AO2 T02330194
 $=
SPECI KRIW 272022Z AUTO 00000KT 10SM SCT012 M11/M15 A2983 RMK AO2 
 T11061150=
####018000336####
SAZZ40 KAWN 272000 RRT
METAR EFKU 272020Z AUTO 17007KT 9999 OVC016 00/M02 Q1017=
METAR EFOU 272020Z AUTO 17009KT 9999 OVC029/// M00/M04 Q1012 R12/15//95=
METAR KMCC 272015Z AUTO 18009KT 10SM FEW060 17/08 A2979 RMK AO2=
METAR LLBG 272020Z 28006KT CAVOK 16/10 Q1013 NOSIG=
METAR OEHL 272000Z 27002KT CAVOK 13/M06 Q1021 NOSIG=
####018000109####
SPCN47 CWAO 272023
SPECI CYVV 272023Z 23010G17KT 6SM -SN DRSN OVC022 M12/M17 A3047 RMK
 SC8 SLP339=

####018001652####
SAEU KAWN 272000 RRV
METAR EDDB 272020Z 26005KT CAVOK 01/M02 Q1015 NOSIG=
METAR EDDE 272020Z 29005KT 6000 -RASN BKN008 02/02 Q1017 TEMPO 4000
      -RA=
METAR EDDL 272020Z 29006KT CAVOK 04/M01 Q1021 NOSIG=
METAR EDDP 272020Z 31008KT 9999 FEW009 SCT080 BKN130 03/02 Q1016 NOSIG=
METAR EDDW 272020Z 31005KT 9999 SCT035 03/00 Q1018 NOSIG=
METAR EDSB 272020Z 21004KT 9999 -RA BKN033 03/02 Q1021=
METAR EGBE 272020Z 19007KT CAVOK 05/01 Q1017=
METAR EGGW 272020Z 17004KT CAVOK 04/M00 Q1018=
METAR EGHH 272020Z 22006KT CAVOK 07/03 Q1019=
METAR EGHI 272020Z 21007KT CAVOK 06/02 Q1019=
METAR EGKK 272020Z 20006KT CAVOK 05/02 Q1020=
METAR EGNV 272020Z 18017KT CAVOK 05/00 Q1012=
METAR EGPE 272020Z 22015KT 180V250 9999 FEW015 BKN042 06/01 Q1000=
METAR EGPF 272020Z AUTO 19010KT 7000 BKN022 06/02 Q1006=
METAR EGPH 272020Z 22014KT CAVOK 06/01 Q1007=
METAR EGPL 272020Z AUTO 19026KT 3200 -RA BKN004/// 06/06 Q0996 RERA=
METAR EGPO 272020Z AUTO 20031G44KT 3700 -RA SCT010/// BKN013/// 06/04
      Q0994=
METAR EGTE 272020Z 19007KT 9999 SCT025 06/03 Q1018=
METAR EHKD 272025Z AUTO 25007KT 9999 FEW170 03/01 Q1020 BLU=
METAR EKAH 272020Z AUTO 28001KT 0600NDV R10R/P1500N R28L/P1500VP1500N
      FZFG BKN033/// 00/M01 Q1015=
METAR EKBI 272020Z AUTO 27004KT 9999NDV NCD 00/M00 Q1016=
METAR EKCH 272020Z 05003KT 5000 -RA BKN030 03/02 Q1014 TEMPO 4000=
METAR EKEB 272020Z AUTO 25003KT 9999NDV NCD 00/M01 Q1016=
METAR EKRK 272020Z AUTO 32005KT 2100NDV -RA BR SCT003/// BKN014///
      01/01 Q1014=
METAR EKRN 272020Z AUTO 07003KT 2300NDV BR NCD 03/02 Q1015=
METAR EKYT 272020Z 25005KT 9999 FEW030 02/01 Q1015=
####018001682####
SAUK KAWN 272000 RRE
METAR EGAA 272020Z 19016KT 9999 SCT015 BKN026 06/04 Q1006=
METAR EGAC 272020Z 19018KT 9999 SCT020 BKN025 07/03 Q1006=
METAR EGBE 272020Z 19007KT CAVOK 05/01 Q1017=
METAR EGGD 272020Z 20009KT CAVOK 05/02 Q1017=
METAR EGGP 272020Z 17009KT 100V210 9999 BKN030 06/02 Q1014=
METAR EGGW 272020Z 17004KT CAVOK 04/M00 Q1018=
METAR EGHH 272020Z 22006KT CAVOK 07/03 Q1019=
METAR EGHI 272020Z 21007KT CAVOK 06/02 Q1019=
METAR EGJJ 272020Z 19008KT 9999 FEW025 SCT048 07/04 Q1022 NOSIG=
METAR EGKK 272020Z 20006KT CAVOK 05/02 Q1020=
METAR EGLC 272020Z 20007KT 160V230 CAVOK 07/02 Q1019=
METAR COR EGLL 272020Z 22009KT CAVOK 06/02 Q1019 NOSIG=
METAR EGMC 272020Z 22010KT CAVOK 05/01 Q1020=
METAR EGNJ 272020Z 19008KT 9999 FEW036 05/01 Q1015=
METAR EGNT 272020Z 19011KT 9999 FEW035 05/00 Q1011=
METAR EGNV 272020Z 18017KT CAVOK 05/00 Q1012=
METAR EGNX 272020Z 19010KT CAVOK 05/00 Q1016=
METAR EGPA 272020Z AUTO 19022G33KT 9999 NCD 06/02 Q0999=
METAR EGPC 272020Z AUTO 20018G28KT 170V240 9999 NCD 05/00 Q1000=
METAR EGPD 272020Z 19016KT 9999 BKN030 05/01 Q1004 NOSIG=
METAR EGPE 272020Z 22015KT 180V250 9999 FEW015 BKN042 06/01 Q1000=
METAR EGPF 272020Z AUTO 19010KT 7000 BKN022 06/02 Q1006=
METAR EGPH 272020Z 22014KT CAVOK 06/01 Q1007=
METAR EGPL 272020Z AUTO 19026KT 3200 -RA BKN004/// 06/06 Q0996 RERA=
METAR EGPM 272020Z AUTO 20021KT 9999 FEW033/// BKN047/// 06/03 Q0998=
METAR EGPO 272020Z AUTO 20031G44KT 3700 -RA SCT010/// BKN013/// 06/04
      Q0994=
METAR COR EGSH 272020Z 19007KT CAVOK 03/00 Q1018 NOSIG=
METAR EGSS 272020Z 18005KT CAVOK 03/M01 Q1019=
METAR EGTE 272020Z 19007KT 9999 SCT025 06/03 Q1018=
####018000090####
SAUK31 EGGY 272020 RRA
METAR EGCC 272020Z AUTO 19012KT 9999 FEW033 BKN040 06/01 Q1014=
####018000102####
SPCN42 CWAO 272024
SPECI CYVL 272024Z AUTO 26010KT 3SM -SN OVC032 M05/M06 A2996 RMK
 SLP170=

####018000116####
SAUS46 KLOX 272024
MTRNSI
SPECI KNSI 272023Z AUTO 31024G31KT 10SM OVC013 A2986 RMK AO2 PK WND 
32035/2005 $
####018000143####
SAAK41 KNKA 272023
SPECI PATE 272022Z AUTO 18041G45KT 3/4SM -SN BR BKN006 OVC060 
 M01/M02 A2997 RMK AO2 PK WND 18045/2020 P0000 FZRANO=
####018000104####
SAUS20 KNKA 272023
SPECI KHQZ 272020Z 02008G14KT 5SM -SN BR BKN012 BKN018 OVC060 M02/M04 
 A3043=
####018000811####
SPUS99 KWBC 272025
SPECI
KBVO 272023Z AUTO 09007KT 2 1/2SM -SN BKN028 OVC036 M07/M13 A3057
     RMK AO2 SNB12 P0000 T10721133=
KCEZ 272022Z AUTO 20004KT 3SM -SN BR BKN010 OVC046 00/M02 A2981
     RMK AO2 P0000 T00001017=
KGAG 272022Z AUTO 10008KT 5SM -SN SCT020 BKN044 OVC055 M08/M13
     A3038 RMK AO2 P0000 T10831128=
KITR 272022Z AUTO 16022G27KT 2 1/2SM -SN BKN017 OVC044 M10/M14
     A3012 RMK AO2 PK WND 16027/2006 P0000 T11001139=
KNQX 272016Z 03009KT 10SM BKN008 23/19 A3007 RMK AO2 T02330194
     $=
KRIW 272022Z AUTO 00000KT 10SM SCT012 M11/M15 A2983 RMK AO2
     T11061150=
PATE 272022Z AUTO 18041G45KT 3/4SM -SN BR BKN006 OVC060 M01/M02
     A2997 RMK AO2 PK WND 18045/2020 P0000 FZRANO=
KHQZ 272020Z 02008G14KT 5SM -SN BR BKN012 BKN018 OVC060 M02/M04
     A3043=
