####018000116####
SPCN45 CWAO 272023
SPECI CYCO 272023Z 31031KT 3/4SM BLSN OVC020 M09/M11 A2971 RMK
 BLSN4SC4 PRESRR SLP062=

####018000046####
SAOS32 LOWM 272020
METAR LOXZ 272020Z NIL=
####018000359####
SABX31 EBBR 272020
METAR EBAW 272020Z 27005KT CAVOK 04/M00 Q1022 NOSIG=
METAR EBBR 272020Z 25003KT CAVOK 01/M01 Q1022 NOSIG=
METAR EBCI 272020Z 25003KT CAVOK 03/M02 Q1022 NOSIG=
METAR EBLG 272020Z 29005KT 250V320 CAVOK 02/M02 Q1021 NOSIG=
METAR EBOS 272020Z 21006KT 9999 FEW022 01/M00 Q1022 NOSIG=
METAR ELLX 272020Z 31006KT CAVOK 01/M02 Q1020 NOSIG=
####018000081####
SPPR00 SPIM 272030
SPECI SPJR 272030Z 19008KT 9999 FEW030 SCT050 22/11 Q1024=
####018000429####
SAOS31 LOWM 272020
METAR LOWW 272020Z 11004KT 9999 FEW035 03/01 Q1015 NOSIG=
METAR LOWL 272020Z 23004KT 9999 SCT060 BKN110 04/01 Q1015 NOSIG=
METAR LOWS 272020Z 29003KT 260V340 9999 -RA FEW025 BKN040 04/00 Q1016
 NOSIG=
METAR LOWI 272020Z VRB02KT 6000 -RA SCT006 BKN012 01/01 Q1016
 R08/1///95 TEMPO BKN006=
METAR LOWG 272020Z 07003KT 9999 BKN035 05/01 Q1014 NOSIG=
METAR LOWK 272020Z VRB01KT CAVOK 02/M00 Q1013 NOSIG=
####018000445####
SANO35 ENMI 272020
METAR ENMS 272020Z 19012KT 9999 FEW040 04/M03 Q0998 RMK WIND 412FT
           19011KT 150V230=
METAR ENRM 272020Z 22023KT 9999 FEW020 SCT040 BKN070 05/01 Q0999=
METAR ENRS 272020Z NIL=
METAR ENSK 272020Z NIL=
METAR ENSO 272020Z 17012KT 9999 SCT014 SCT018 BKN055 05/03 Q1008=
METAR ENST 272020Z 17022G33KT 9999 FEW040 BKN080 06/M05 Q0996 RMK
           WIND 300FT 15027KT TURB WRNG-SEE IPPC=
METAR ENVD 272020Z NIL=
####018000381####
SAFI33 EFHK 272020
EFJO 272020Z AUTO 18007KT 150V220 7000 OVC002 M02/M02 Q1018=
EFLP 272020Z AUTO 32001KT 1400 R06/P1500N R24/P1500N BR OVC001
M01/M01 Q1018=
EFMI 272020Z AUTO 17004KT 110V220 9000 OVC005 M01/M01 Q1018=
EFSA 272020Z AUTO 15002KT 9999 OVC004 M00/M01 Q1019=
EFUT 272020Z AUTO 18003KT 3500 BR OVC002 M01/M01 Q1018=
EFVR 272020Z AUTO  7000 BKN005 ///// Q////=
####018000237####
SANO36 ENMI 272020
METAR ENBS 272020Z NIL=
METAR ENHK 272020Z NIL=
METAR ENHV 272020Z NIL=
METAR ENLK 272020Z NIL=
METAR ENMH 272020Z NIL=
METAR ENNK 272020Z NIL=
METAR ENNM 272020Z 19011G22KT 160V240 CAVOK 05/M06 Q1000=
####018000203####
SANO37 ENMI 272020
METAR ENNO 272020Z NIL=
METAR ENOV 272020Z NIL=
METAR ENSD 272020Z NIL=
METAR ENSG 272020Z NIL=
METAR ENSN 272020Z NIL=
METAR ENSR 272020Z NIL=
METAR ENSS 272020Z NIL=
####018000554####
SANO33 ENMI 272020
METAR ENAT 272020Z NIL=
METAR ENBL 272020Z 18008KT 9999 -SHRA FEW009 SCT016 BKN020 02/01
           Q1004=
METAR ENEV 272020Z NIL=
METAR ENFL 272020Z 20021G33KT 9999 -SHRA FEW012CB SCT018 SCT035 04/02
           Q1003=
METAR ENKB 272020Z 22017G27KT 9999 FEW051 06/M00 Q0999=
METAR ENKR 272020Z 19017KT 9999 BKN021 00/M03 Q1004 RMK WIND 731FT
           21028KT=
METAR ENML 272020Z 25013KT 9999 FEW040 SCT050 06/01 Q1000=
METAR ENNA 272020Z 16019KT 9999 BKN025 02/M02 Q0999 RMK WIND 1800FT
           23039KT=
####018000510####
SANO32 ENMI 272020
METAR ENAL 272020Z 22024KT 9999 SCT040 06/02 Q1000=
METAR ENCN 272020Z 05003KT 010V090 9999 SCT034 M01/M02 Q1013=
METAR ENHD 272020Z 17011KT 9000 FEW020 SCT027 05/03 Q1009=
METAR ENRO 272020Z AUTO 19008KT 120V290 9999NDV NCD M01/M07 Q1003=
METAR ENRY 272020Z 20005KT CAVOK 02/00 Q1012=
METAR ENSB 272020Z NIL=
METAR ENTC 272020Z 20009KT 9999 -SHRA FEW005 SCT017 BKN024 02/M00
           Q0997 NOSIG RMK WIND 2600FT 18017KT=
METAR ENTO 272020Z 19005KT CAVOK 02/M02 Q1012=
####018000612####
SARS18 KAWN 272000 RRE
METAR EETN 272020Z 10004KT 9999 OVC024 01/M01 Q1017 R08/12//95 NOSIG=
METAR EFHK 272020Z 10005KT 8000 SCT004 OVC022 M00/M01 Q1018 NOSIG=
METAR ESSA 272020Z 18009KT 8000 BR BKN009 02/02 Q1014 R01L/09//95 R08/09//95
      R01R/09//95 TEMPO BKN010=
METAR EVRA 272020Z 00000KT 8000 OVC008 01/01 Q1017 R36/190095 NOSIG=
METAR EYKA 272020Z 10003KT 070V150 3600 -RA BR SCT006 BKN011 OVC031
      02/00 Q1016 R08/090095=
METAR EYPA 272020Z 07003KT 9999 BKN021 BKN091 02/01 Q1017 R19/1///95=
METAR EYVI 272020Z 15003KT 2100 -RASN BR OVC005 01/00 Q1015 R20/2/0195
      NOSIG=
####018000685####
SAIY31 LIIB 272020
METAR LIEA 272020Z 09001KT 9999 0500S BCFG SCT025 08/06 Q1014=
METAR LIEE 272020Z 34005KT 9999 FEW020 11/08 Q1013=
METAR LIEO 272020Z VRB03KT 9999 FEW040 06/06 Q1014=
METAR LIMC 272020Z NIL=
METAR LIME 272020Z VRB02KT CAVOK 06/03 Q1012=
METAR LIMF 272020Z 30004KT 9999 FEW130 06/00 Q1012=
METAR LIMJ 272020Z 04003KT 300V090 CAVOK 10/00 Q1013=
METAR LIML 272020Z 24005KT CAVOK 08/03 Q1013 NOSIG=
METAR LIRA 272015Z 17002KT CAVOK 09/07 Q1010=
METAR LIRF 272020Z VRB02KT CAVOK 10/07 Q1011 NOSIG=
METAR LIRN 272020Z 34006KT 9999 SCT050 10/06 Q1011=
METAR LIRP 272015Z 20002KT CAVOK 07/06 Q1012 NOSIG=
METAR LIRQ 272020Z 21003KT 160V250 CAVOK 08/03 Q1012=
####018000534####
SAIY32 LIIB 272020
METAR LIBD 272020Z 31008KT 9999 SCT030 09/07 Q1010=
METAR LIBR 272015Z 29011KT 9999 -RA FEW012 FEW015TCU SCT025 10/09
      Q1009 NOSIG=
METAR LICC 272020Z 26006KT 9999 FEW040 09/03 Q1011=
METAR LICJ 272020Z 27008KT 9999 SCT024 13/09 Q1013=
METAR LIPE 272020Z 21006KT CAVOK 06/03 Q1013=
METAR LIPH 272015Z /////KT 9000 FEW080 09/06 Q1012=
METAR LIPQ 272020Z 11004KT CAVOK 07/M02 Q1012=
METAR LIPR 272020Z NIL=
METAR LIPX 272015Z 31002KT CAVOK 07/03 Q1013=
METAR LIPZ 272020Z 23007KT CAVOK 09/04 Q1012=
####018000027####
SAIY33 LIIB 272020
NIL=
####018000319####
SADL34 EDZO 272020
METAR EDHL 272020Z 28004KT 9999 BKN015 04/03 Q1016=
METAR EDLP 272020Z 27004KT 230V300 9999 SCT035 02/01 Q1019=
METAR EDLW 272020Z VRB03KT 9999 SCT042 02/M02 Q1020=
METAR EDNY 272020Z 25009KT 9999 -RA BKN008 BKN015 OVC028 02/M00
Q1019=
METAR EDSB 272020Z 21004KT 9999 -RA BKN033 03/02 Q1021=
####018000142####
SADL35 EDZO 272020
METAR EDJA 272020Z 25011KT 3900 -SN BR BKN004 00/M00 Q1017=
METAR EDVE 272020Z 30007KT 9999 FEW013 OVC065 04/04 Q1017=
####018000261####
SADL33 EDZO 272020
METAR EDFE 272020Z NIL=
METAR EDFH 272020Z 27007KT 9999 FEW045 BKN085 01/M01 Q1019=
METAR EDFM 272020Z 31008KT CAVOK 05/01 Q1020=
METAR EDLV 272020Z VRB03KT CAVOK 03/03 Q1021=
METAR EDVK 272020Z 28009KT 9000 FEW026 OVC038 03/02 Q1018=
####018000095####
SPPR00 SPIM 272025
SPECI SPTU 272025Z 19002KT 8000 -RA FEW009CB SCT040 BKN070 27/25
Q1006=
####018000112####
SPUS90 KWBC 272026
SPECI KNSI 272023Z AUTO 31024G31KT 10SM OVC013 A2986 RMK AO2 PK
     WND 32035/2005 $=
####018000563####
SANO39 ENMI 272020
METAR ENNE 272020Z NIL=
METAR ENQR 272020Z NIL=
METAR ENSE 272020Z AUTO 22034KT 9999NDV FEW023/// SCT032/// BKN051///
           07/03 Q1000 W///S7=
METAR ENQC 272020Z AUTO 20031KT 9999NDV FEW021/// SCT038/// 06/04
           Q1003 W///S6=
METAR ENQA 272020Z AUTO 21032KT 9999NDV SCT024/// 06/02 Q1004
           W04/S6=
METAR ENHM 272020Z AUTO 21028KT 9999NDV FEW019/// 06/03 Q1004
           W07/S5=
METAR ENVH 272020Z AUTO 21017KT 9999NDV NCD 05/02 Q1013 W///S4=
METAR ENLA 272020Z AUTO 21021KT 9999NDV NCD 06/03 Q1010 W///S4=
####018001777####
SAEU KAWN 272000 RRW
METAR EBLG 272020Z 29005KT 250V320 CAVOK 02/M02 Q1021 NOSIG=
METAR EBOS 272020Z 21006KT 9999 FEW022 01/M00 Q1022 NOSIG=
METAR EGAA 272020Z 19016KT 9999 SCT015 BKN026 06/04 Q1006=
METAR EGAC 272020Z 19018KT 9999 SCT020 BKN025 07/03 Q1006=
METAR EGBB 272020Z 18006KT CAVOK 05/M00 Q1016=
METAR EGCC 272020Z AUTO 19012KT 9999 FEW033 BKN040 06/01 Q1014=
METAR EGFF 272020Z AUTO 20008KT 9999 BKN029 06/04 Q1017=
METAR EGGD 272020Z 20009KT CAVOK 05/02 Q1017=
METAR EGGP 272020Z 17009KT 100V210 9999 BKN030 06/02 Q1014=
METAR EGJB 272020Z 21012KT 9999 FEW025 07/04 Q1021=
METAR EGJJ 272020Z 19008KT 9999 FEW025 SCT048 07/04 Q1022 NOSIG=
METAR EGKB 272020Z 19008KT CAVOK 04/00 Q1019=
METAR EGLC 272020Z 20007KT 160V230 CAVOK 07/02 Q1019=
METAR COR EGLL 272020Z 22009KT CAVOK 06/02 Q1019 NOSIG=
METAR EGMC 272020Z 22010KT CAVOK 05/01 Q1020=
METAR EGNH 272020Z 17013KT 9999 OVC034 07/01 Q1013=
METAR EGNJ 272020Z 19008KT 9999 FEW036 05/01 Q1015=
METAR EGNM 272020Z 18009KT 9999 SCT047 04/00 Q1013=
METAR EGNS 272020Z 21023KT 9999 FEW012 BKN017 07/05 Q1009 NOSIG=
METAR EGNT 272020Z 19011KT 9999 FEW035 05/00 Q1011=
METAR EGNX 272020Z 19010KT CAVOK 05/00 Q1016=
METAR EGPA 272020Z AUTO 19022G33KT 9999 NCD 06/02 Q0999=
METAR COR EGPB 272020Z 19022G33KT 9999 FEW025 06/03 Q1000 NOSIG=
METAR EGPC 272020Z AUTO 20018G28KT 170V240 9999 NCD 05/00 Q1000=
METAR EGPD 272020Z 19016KT 9999 BKN030 05/01 Q1004 NOSIG=
METAR EGPK 272020Z 18014KT 9999 -SHRA FEW022 SCT046 07/03 Q1006=
METAR EGPM 272020Z AUTO 20021KT 9999 FEW033/// BKN047/// 06/03 Q0998=
METAR COR EGSH 272020Z 19007KT CAVOK 03/00 Q1018 NOSIG=
METAR EGSS 272020Z 18005KT CAVOK 03/M01 Q1019=
METAR EKVD 272020Z AUTO 29005KT //// ///////// 01/M00 Q1016=
####018000603####
SANO31 ENMI 272020
METAR ENAN 272020Z NIL=
METAR ENBR 272020Z 17015KT 9999 -SHRA SCT012TCU BKN025 05/04 Q1007
           TEMPO 4000 SHRA BKN014CB RMK WIND 1200FT 18018KT=
METAR ENBO 272020Z 14015KT CAVOK 05/M03 Q0996 TEMPO 18020G30KT=
METAR ENDU 272020Z NIL=
METAR ENGM 272020Z 21005KT 9000 FEW002 BKN003 M01/M01 Q1010 TEMPO
           2000 BCFG=
METAR ENOL 272020Z 17007KT 9999 FEW030CB SCT040 BKN060 04/02 Q1000
           NOSIG=
METAR ENVA 272020Z 18014KT CAVOK 06/M06 Q1001 NOSIG RMK WIND 670FT
           20019KT=
METAR ENZV 272020Z 17008KT 9999 BKN029 04/03 Q1010 NOSIG=
####018000491####
SANO38 ENMI 272020
METAR ENDR 272020Z AUTO 21036KT 06/04 Q0994=
METAR ENEK 272020Z 20016KT 9999 FEW015 SCT025 06/02 Q1012 W07/S5=
METAR ENGC 272020Z NIL=
METAR ENHE 272020Z 23031KT 9999 -SHRA SCT025 BKN050 05/02 Q0991
           W///S7=
METAR ENOA 272020Z NIL=
METAR ENSL 272020Z AUTO 22031KT 9999NDV FEW018/// 06/02 Q1006
           W05/S5=
METAR ENFB 272020Z AUTO 20036KT 9999NDV FEW026/// BKN053/// BKN110///
           07/03 Q1000 W///S6=
METAR ENSF 272020Z NIL=
####018000203####
SANO34 ENMI 272020
METAR ENBN 272020Z NIL=
METAR ENBV 272020Z NIL=
METAR ENFG 272020Z NIL=
METAR ENHF 272020Z NIL=
METAR ENRA 272020Z NIL=
METAR ENSH 272020Z NIL=
METAR ENVR 272020Z NIL=
####018000748####
SAUS20 KNKA 272024
METAR K4A6 272015Z AUTO 00000KT 10SM CLR 03/M08 A3044 RMK AO2=
METAR K96D 272015Z AUTO 22009KT 10SM M10/M18 A3034 RMK AO2=
METAR K9D7 272015Z AUTO 22011KT 10SM CLR M10/M17 A3028 RMK AO2=
METAR KANQ 272055Z AUTO 25007KT 210V280 10SM CLR M09/M17 A3056 RMK=
METAR KDCM 272035Z AUTO 04005KT 10SM SCT050 12/M02 A3034 RMK AO2=
SPECI KGED 272023Z AUTO 36006KT 6SM -SN FEW023 BKN042 OVC050 04/M07 
 A3046 RMK AO2 SNB16 P0000 T00391067=
METAR KO54 272015Z AUTO 00000KT 10SM BKN037 BKN043 11/02 A2975 RMK 
 AO1=
SPECI KPUB 272023Z 06006KT 3SM -SN OVC019 M09/M12 A2999 RMK AO2 
 SNB1954 P0000 T10891117=
SPECI KTUL 272023Z 04009KT 1 3/4SM -SN BKN029 OVC037 M08/M12 A3054 
 RMK AO2 TWR VIS 2 1/2 P0000 T10781117=
####018000363####
SAAK41 KNKA 272024
SPECI PAQT 272023Z AUTO 27021KT 3SM BLSN BR BKN042 M10/M12 A3016 RMK 
 AO2 PK WND 27030/2001 UPE1954 T11001122 TSNO PNO=
SPECI PAVA 272023Z AUTO 15018KT 4SM -SN BR OVC005 00/M01 A3020 RMK 
 AO2 P0000 FZRANO=
SPECI PFKT 272023Z AUTO 16018G27KT 10SM BKN010 OVC031 00/M01 A3008 
 RMK AO2 PK WND 19032/2006 CIG 007V013 PRESRR FZRANO=
####018000313####
SAGR34 LGAT 272020
METAR LGAV 272020Z 20004KT 9999 -RA FEW020 SCT030 BKN070 10/07 Q1006
NOSIG=
METAR LGIR 272020Z 19010KT 9999 SCT030 13/08 Q1008 NOSIG=
METAR LGKR 272020Z 00000KT 9999 FEW018TCU BKN035 OVC080 11/10 Q1006
NOSIG=
METAR LGRP 272020Z 24008KT 200V280 9999 FEW018TCU SCT020 15/11 Q1009
NOSIG=
####018001684####
SAEU KAWN 272000 RRX
METAR EBAW 272020Z 27005KT CAVOK 04/M00 Q1022 NOSIG=
METAR EBBR 272020Z 25003KT CAVOK 01/M01 Q1022 NOSIG=
METAR EBCI 272020Z 25003KT CAVOK 03/M02 Q1022 NOSIG=
METAR EDNY 272020Z 25009KT 9999 -RA BKN008 BKN015 OVC028 02/M00 Q1019
      RMK ATIS E=
METAR EHDL 272025Z AUTO 25003KT 9999 FEW110 M00/M02 Q1020 BLU=
METAR EHGR 272025Z AUTO 23004KT 9999 SCT380 01/00 Q1021 BLU=
METAR EHLW 272025Z AUTO 23004KT 9999 OVC028 01/M00 Q1019 BLU=
METAR EHVK 272025Z AUTO 24004KT 9999 NCD 00/M01 Q1021 BLU=
METAR EHVL 272025Z AUTO 27012KT 9999 NCD 04/01 Q1019 BLU=
METAR EHWO 272025Z AUTO 19001KT 9999 NCD M01/M01 Q1021 BLU=
METAR EKSP 272020Z 27004KT CAVOK M01/M02 Q1016 RMK SCT230=
METAR ELLX 272020Z 31006KT CAVOK 01/M02 Q1020 NOSIG=
METAR ENCN 272020Z 05003KT 010V090 9999 SCT034 M01/M02 Q1013=
METAR ENFL 272020Z 20021G33KT 9999 -SHRA FEW012CB SCT018 SCT035 04/02
      Q1003=
METAR ENKR 272020Z 19017KT 9999 BKN021 00/M03 Q1004 RMK WIND 731FT
      21028KT=
METAR ENML 272020Z 25013KT 9999 FEW040 SCT050 06/01 Q1000=
METAR ENMS 272020Z 19012KT 9999 FEW040 04/M03 Q0998 RMK WIND 412FT
      19011KT 150V230=
METAR ENNM 272020Z 19011G22KT 160V240 CAVOK 05/M06 Q1000=
METAR ENRM 272020Z 22023KT 9999 FEW020 SCT040 BKN070 05/01 Q0999=
METAR ENRY 272020Z 20005KT CAVOK 02/00 Q1012=
METAR ENSO 272020Z 17012KT 9999 SCT014 SCT018 BKN055 05/03 Q1008=
METAR ENST 272020Z 17022G33KT 9999 FEW040 BKN080 06/M05 Q0996 RMK WIND
      300FT 15027KT TURB WRNG-SEE IPPC=
METAR ENTC 272020Z 20009KT 9999 -SHRA FEW005 SCT017 BKN024 02/M00 Q0997
      NOSIG RMK WIND 2600FT 18017KT=
METAR ENTO 272020Z 19005KT CAVOK 02/M02 Q1012=
####018000066####
SASP LEJR 272030
METAR LEJR 272030Z 22004KT CAVOK 12/12 Q1025=
####018000671####
SPUS99 KWBC 272026
SPECI
KGED 272023Z AUTO 36006KT 6SM -SN FEW023 BKN042 OVC050 04/M07
     A3046 RMK AO2 SNB16 P0000 T00391067=
KPUB 272023Z 06006KT 3SM -SN OVC019 M09/M12 A2999 RMK AO2 SNB1954
     P0000 T10891117=
KTUL 272023Z 04009KT 1 3/4SM -SN BKN029 OVC037 M08/M12 A3054 RMK
     AO2 TWR VIS 2 1/2 P0000 T10781117=
PAQT 272023Z AUTO 27021KT 3SM BLSN BR BKN042 M10/M12 A3016 RMK AO2
     PK WND 27030/2001 UPE1954 T11001122 TSNO PNO=
PAVA 272023Z AUTO 15018KT 4SM -SN BR OVC005 00/M01 A3020 RMK AO2
     P0000 FZRANO=
PFKT 272023Z AUTO 16018G27KT 10SM BKN010 OVC031 00/M01 A3008 RMK
     AO2 PK WND 19032/2006 CIG 007V013 PRESRR FZRANO=
####018000405####
SAUS99 KWBC 272026
METAR
K4A6 272015Z AUTO 00000KT 10SM CLR 03/M08 A3044 RMK AO2=
K96D 272015Z AUTO 22009KT 10SM M10/M18 A3034 RMK AO2=
K9D7 272015Z AUTO 22011KT 10SM CLR M10/M17 A3028 RMK AO2=
KANQ 272055Z AUTO 25007KT 210V280 10SM CLR M09/M17 A3056 RMK=
KDCM 272035Z AUTO 04005KT 10SM SCT050 12/M02 A3034 RMK AO2=
KO54 272015Z AUTO 00000KT 10SM BKN037 BKN043 11/02 A2975 RMK
     AO1=
####018000189####
SPXX60 KWBC 272026
SPECI
KNQX 272016Z 03009KT 10SM BKN008 23/19 A3007 RMK AO2 T02330194
     $=
KNSI 272023Z AUTO 31024G31KT 10SM OVC013 A2986 RMK AO2 PK WND
     32035/2005 $=
####018000965####
SPUS70 KWBC 272026
SPECI
KBVO 272023Z AUTO 09007KT 2 1/2SM -SN BKN028 OVC036 M07/M13 A3057
     RMK AO2 SNB12 P0000 T10721133=
KCEZ 272022Z AUTO 20004KT 3SM -SN BR BKN010 OVC046 00/M02 A2981
     RMK AO2 P0000 T00001017=
KGAG 272022Z AUTO 10008KT 5SM -SN SCT020 BKN044 OVC055 M08/M13
     A3038 RMK AO2 P0000 T10831128=
KITR 272022Z AUTO 16022G27KT 2 1/2SM -SN BKN017 OVC044 M10/M14
     A3012 RMK AO2 PK WND 16027/2006 P0000 T11001139=
PATE 272022Z AUTO 18041G45KT 3/4SM -SN BR BKN006 OVC060 M01/M02
     A2997 RMK AO2 PK WND 18045/2020 P0000 FZRANO=
KHQZ 272020Z 02008G14KT 5SM -SN BR BKN012 BKN018 OVC060 M02/M04
     A3043=
KGED 272023Z AUTO 36006KT 6SM -SN FEW023 BKN042 OVC050 04/M07
     A3046 RMK AO2 SNB16 P0000 T00391067=
KPUB 272023Z 06006KT 3SM -SN OVC019 M09/M12 A2999 RMK AO2 SNB1954
     P0000 T10891117=
KTUL 272023Z 04009KT 1 3/4SM -SN BKN029 OVC037 M08/M12 A3054 RMK
     AO2 TWR VIS 2 1/2 P0000 T10781117=
####018000090####
SAXX60 KWBC 272026
METAR
KMCC 272015Z AUTO 18009KT 10SM FEW060 17/08 A2979 RMK AO2=
####018000231####
SPUS80 KWBC 272026
SPECI
KRIW 272022Z AUTO 00000KT 10SM SCT012 M11/M15 A2983 RMK AO2
     T11061150=
PAQT 272023Z AUTO 27021KT 3SM BLSN BR BKN042 M10/M12 A3016 RMK AO2
     PK WND 27030/2001 UPE1954 T11001122 TSNO PNO=
####018000093####
SAUS70 KWBC 272100
METAR
KANQ 272055Z AUTO 25007KT 210V280 10SM CLR M09/M17 A3056 RMK=
####018000104####
SAUS80 KWBC 272026
METAR
KO54 272015Z AUTO 00000KT 10SM BKN037 BKN043 11/02 A2975 RMK
     AO1=
####018000266####
SAUS70 KWBC 272026
METAR
K4A6 272015Z AUTO 00000KT 10SM CLR 03/M08 A3044 RMK AO2=
K96D 272015Z AUTO 22009KT 10SM M10/M18 A3034 RMK AO2=
K9D7 272015Z AUTO 22011KT 10SM CLR M10/M17 A3028 RMK AO2=
KDCM 272035Z AUTO 04005KT 10SM SCT050 12/M02 A3034 RMK AO2=
####018000553####
SABX31 KWBC 272020
METAR
EBAW 272020Z 27005KT CAVOK 04/M00 Q1022 NOSIG=
EBBE NIL=
EBBL NIL=
EBBR 272020Z 25003KT CAVOK 01/M01 Q1022 NOSIG=
EBBT NIL=
EBCI 272020Z 25003KT CAVOK 03/M02 Q1022 NOSIG=
EBCV NIL=
EBDT NIL=
EBFN NIL=
EBFS NIL=
EBGB NIL=
EBKH NIL=
EBKT NIL=
EBLB NIL=
EBLG 272020Z 29005KT 250V320 CAVOK 02/M02 Q1021 NOSIG=
EBMT NIL=
EBOS 272020Z 21006KT 9999 FEW022 01/M00 Q1022 NOSIG=
EBSH NIL=
EBSP NIL=
EBST NIL=
EBTN NIL=
EBTY NIL=
EBZW NIL=
ELLX 272020Z 31006KT CAVOK 01/M02 Q1020 NOSIG=
####018000877####
SADL31 KWBC 272020
METAR
EDBB NIL=
EDBT NIL=
EDCK NIL=
EDDF 272020Z 29009KT 180V320 9999 -RA FEW040 BKN060 BKN080 05/02
     Q1019 NOSIG=
EDDH 272020Z 29009KT 9999 SCT040 03/02 Q1017 NOSIG=
EDDK 272020Z 05002KT 9999 FEW037 02/M01 Q1020 NOSIG=
EDDL 272020Z 29006KT CAVOK 04/M01 Q1021 NOSIG=
EDDM 272020Z 26007KT 6000 -RASN OVC006 01/01 Q1016 TEMPO 2000
     SN=
EDDN 272020Z 28007KT 9999 -RA SCT028 BKN039 03/01 Q1016 NOSIG=
EDDS 272020Z 30011KT 8000 -RASN FEW007 BKN011 02/02 Q1019
     NOSIG=
EDDW 272020Z 31005KT 9999 SCT035 03/00 Q1018 NOSIG=
EDFE 272020Z NIL=
EDFM 272020Z 31008KT CAVOK 05/01 Q1020=
EDHI NIL=
EDHL 272020Z 28004KT 9999 BKN015 04/03 Q1016=
EDHL 272020Z 28004KT 9999 BKN015 04/03 Q1016 RMK ATIS ECH=
EDJA 272020Z 25011KT 3900 -SN BR BKN004 00/M00 Q1017=
EDKB NIL=
EDKS NIL=
EDLE NIL=
EDLG NIL=
EDLI NIL=
####018000529####
SADL32 KWBC 272020
METAR
EDLN NIL=
EDLP 272020Z 27004KT 230V300 9999 SCT035 02/01 Q1019=
EDLP 272020Z 27004KT 230V300 9999 SCT035 02/01 Q1019 RMK ATIS
     FOX=
EDLS NIL=
EDLW 272020Z VRB03KT 9999 SCT042 02/M02 Q1020=
EDLW 272020Z VRB03KT 9999 SCT042 02/M02 Q1020 RMK ATIS G=
EDMA NIL=
EDML NIL=
EDMO NIL=
EDMS NIL=
EDQD NIL=
EDQM NIL=
EDRS NIL=
EDRT NIL=
EDTB NIL=
EDTD NIL=
EDTF NIL=
EDTK NIL=
EDTO NIL=
EDTY NIL=
EDTZ NIL=
EDVE 272020Z 30007KT 9999 FEW013 OVC065 04/04 Q1017=
####018000923####
SADN31 KWBC 272020
METAR
EKAH 272020Z AUTO 28001KT 0600NDV R10R/P1500N R28L/P1500VP1500N
     FZFG BKN033/// 00/M01 Q1015=
EKBI 272020Z AUTO 27004KT 9999NDV NCD 00/M00 Q1016=
EKCH 272020Z 05003KT 5000 -RA BKN030 03/02 Q1014 TEMPO 4000=
EKEB 272020Z AUTO 25003KT 9999NDV NCD 00/M01 Q1016=
EKHO NIL=
EKKA 272020Z AUTO 25004KT 9999NDV FEW027/// 01/M00 Q1015=
EKMB NIL=
EKOD 272023Z NIL=
EKRK 272020Z AUTO 32005KT 2100NDV -RA BR SCT003/// BKN014/// 01/01
     Q1014=
EKRN 272020Z AUTO 07003KT 2300NDV BR NCD 03/02 Q1015=
EKSB 272023Z NIL=
EKSN 272023Z NIL=
EKSP 272020Z 27004KT CAVOK M01/M02 Q1016 RMK SCT230=
EKSP 272020Z 27004KT CAVOK M01/M02 Q1016=
EKSV NIL=
EKTS NIL=
EKVA NIL=
EKVD 272020Z AUTO 29005KT //// ///////// 01/M00 Q1016=
EKVG 272020Z AUTO 15018G29KT 8000NDV -RA OVC006/// 05/05 Q0981=
EKVJ 272023Z NIL=
EKVL NIL=
EKYT 272020Z 25005KT 9999 FEW030 02/01 Q1015=
####018000247####
SADL33 KWBC 272015 RRB
METAR
EDNY 272020Z 25009KT 9999 -RA BKN008 BKN015 OVC028 02/M00 Q1019
     RMK ATIS E=
EDNY 272020Z 25009KT 9999 -RA BKN008 BKN015 OVC028 02/M00
     Q1019=
EDVK 272020Z 28009KT 9000 FEW026 OVC038 03/02 Q1018=
####018000421####
SAEM31 KWBC 272000 RRC
METAR
LOWG 272020Z 07003KT 9999 BKN035 05/01 Q1014 NOSIG=
LOWI 272020Z VRB02KT 6000 -RA SCT006 BKN012 01/01 Q1016 R08/1///95
     TEMPO BKN006=
LOWK 272020Z VRB01KT CAVOK 02/M00 Q1013 NOSIG=
LOWL 272020Z 23004KT 9999 SCT060 BKN110 04/01 Q1015 NOSIG=
LOWS 272020Z 29003KT 260V340 9999 -RA FEW025 BKN040 04/00 Q1016
     NOSIG=
LOWW 272020Z 11004KT 9999 FEW035 03/01 Q1015 NOSIG=
####018001906####
SAEN31 KWBC 272020
METAR
EETN 272020Z 10004KT 9999 OVC024 01/M01 Q1017 R08/12//95 NOSIG=
EFHF 272020Z AUTO 09004KT 070V130 9999 FEW006 OVC023 00/M01
     Q1018=
EFHK 272020Z 10005KT 8000 SCT004 OVC022 M00/M01 Q1018 NOSIG=
EFIV NIL=
EFJY 272020Z AUTO 14006KT 9999 FEW021 M01/M03 Q1016=
EFKE NIL=
EFKK 272020Z 18015KT 9999 OVC018 M00/M03 Q1012=
EFKU 272020Z AUTO 17007KT 9999 OVC016 00/M02 Q1017=
EFMA 272020Z AUTO 18011KT 9999 OVC013 03/01 Q1015=
EFOU 272020Z AUTO 17009KT 9999 OVC029/// M00/M04 Q1012
     R12/15//95=
EFPN NIL=
EFPO 272020Z AUTO 16009KT 9999 OVC010/// 01/M01 Q1015
     R12/0/0095=
EFRO 272020Z AUTO 17013KT 5000 -SN FEW014 BKN018 OVC022 M02/M03
     Q1008=
EFTN NIL=
EFTP 272020Z AUTO 17006KT 9999 FEW009 OVC011 00/M01 Q1017=
EFTU 272020Z AUTO 17005KT 140V220 9999 OVC008/// 00/M01 Q1016
     R08/19//95=
EFVA 272020Z AUTO 20016KT 9999 OVC012/// 01/M01 Q1012
     R16/12//95=
ENBO 272020Z 14015KT CAVOK 05/M03 Q0996 TEMPO 18020G30KT=
ENBR 272020Z 17015KT 9999 -SHRA SCT012TCU BKN025 05/04 Q1007 TEMPO
     4000 SHRA BKN014CB RMK WIND 1200FT 18018KT=
ENCN 272020Z 05003KT 010V090 9999 SCT034 M01/M02 Q1013=
ENEB NIL=
ENFB 272020Z AUTO 20036KT 9999NDV FEW026/// BKN053/// BKN110///
     07/03 Q1000 W///S6=
ENGM 272020Z 21005KT 9000 FEW002 BKN003 M01/M01 Q1010 TEMPO 2000
     BCFG=
ENHD 272020Z 17011KT 9000 FEW020 SCT027 05/03 Q1009=
ENKR 272020Z 19017KT 9999 BKN021 00/M03 Q1004 RMK WIND 731FT
     21028KT=
ENSB 272020Z NIL=
ENTC 272020Z 20009KT 9999 -SHRA FEW005 SCT017 BKN024 02/M00 Q0997
     NOSIG RMK WIND 2600FT 18017KT=
ENVA 272020Z 18014KT CAVOK 06/M06 Q1001 NOSIG RMK WIND 670FT
     20019KT=
ENZV 272020Z 17008KT 9999 BKN029 04/03 Q1010 NOSIG=
EVRA 272020Z 00000KT 8000 OVC008 01/01 Q1017 R36/190095 NOSIG=
EYVI 272020Z 15003KT 2100 -RASN BR OVC005 01/00 Q1015 R20/2/0195
     NOSIG=
####018000499####
SAGR31 KWBC 272020
METAR
LGAD NIL=
LGAL NIL=
LGAT NIL=
LGAV 272020Z 20004KT 9999 -RA FEW020 SCT030 BKN070 10/07 Q1006
     NOSIG=
LGAZ NIL=
LGEL NIL=
LGIR 272020Z 19010KT 9999 SCT030 13/08 Q1008 NOSIG=
LGKF NIL=
LGKL NIL=
LGKO NIL=
LGKR 272020Z 00000KT 9999 FEW018TCU BKN035 OVC080 11/10 Q1006
     NOSIG=
LGKV NIL=
LGLM NIL=
LGMT NIL=
LGRP 272020Z 24008KT 200V280 9999 FEW018TCU SCT020 15/11 Q1009
     NOSIG=
LGSA NIL=
LGSM NIL=
LGSR NIL=
LGTS NIL=
####018000028####
SAGR41 KWBC 272020
NIL=
####018000667####
SADL52 ETGT 272020
METAR
ETGQ 272020Z AUTO 22002KT //// // ////// 03/M00 Q1020
      ///=
ETHA 272020Z AUTO 27010KT //// // ////// 00/M00 Q1016
      ///=
ETHL 272020Z 26006KT 4000 -SNRA BR BKN008 BKN016 01/01 Q1018
      GRN=
ETHN 272020Z 30007KT 0800 -SN FG BKN001 OVC005 00/00 Q1017
      RED=
ETNN 272020Z 24005KT 9999 FEW035 02/M01 Q1021
      BLU+=
ETSA 272020Z 26009KT 2000 SN BKN004 OVC010 00/M00 Q1016
      YLO=
ETSB 272020Z AUTO 29005KT 9999 // ////// 00/M01 Q1019
      ///=
ETSI 272020Z AUTO 29006KT 5000 // ////// 02/01 Q1016
      ///=
ETSL NIL=
ETSN 272020Z AUTO 26006KT //// // ////// 01/01 Q1017
      ///=
####018000097####
SPPR41 KWBC 272026
SPECI
SPTU 272025Z 19002KT 8000 -RA FEW009CB SCT040 BKN070 27/25 Q1006=
####018000084####
SPPR41 KWBC 272026
SPECI
SPJR 272030Z 19008KT 9999 FEW030 SCT050 22/11 Q1024=
####018001020####
SADL51 ETGT 272020
METAR
ETGG 272020Z 30009KT 9999 02/01 Q1016
      BLU+=
ETHB 272020Z AUTO 30005KT 9000 // ////// 03/M00 Q1019
      ///=
ETHC 272020Z 28004KT 9999 BKN160 02/01 Q1018
      BLU=
ETHE 272020Z AUTO 27005KT //// // ////// 04/M00 Q1020
      ///=
ETHF 272020Z VRB02KT 9999 SCT026 BKN037 03/02 Q1018
      BLU=
ETHS 272020Z 28004KT 9999 BKN170 01/00 Q1017
      BLU=
ETML 272020Z AUTO 28009KT //// // ////// 03/02 Q1015
      ///=
ETMN 272020Z 29010KT 9999 SCT030 SCT210 03/02 Q1018
      BLU+=
ETND NIL=
ETNH 272020Z 28005KT 9999 SCT220 01/00 Q1017
      BLU+=
ETNL 272020Z 28003KT 4500 -RA BR BKN005 BKN023 02/02 Q1015
      YLO=
ETNS 272020Z AUTO 28006KT 9999 // ////// 01/M01 Q1017
      ///=
ETNT 272020Z 26006KT 9999 BKN036 03/01 Q1019
      BLU=
ETNW 272020Z AUTO 28005KT 8000 // ////// 03/01 Q1018
      ///=
ETSH 272020Z 27002KT 9999 FEW130 M00/M02 Q1016
      BLU+=
ETWM 272020Z AUTO 26003KT 8000 // ////// 01/M00 Q1019
      ///=
####018000075####
SAID33 WAJJ 272000
METAR WAJJ 272000Z 26007KT 9000 SCT013 26/22 Q1008=
####018000714####
SAIY31 KWBC 272020
METAR
LIBC NIL=
LIBD 272020Z 31008KT 9999 SCT030 09/07 Q1010=
LIBP NIL=
LIBR 272015Z 29011KT 9999 -RA FEW012 FEW015TCU SCT025 10/09 Q1009
     NOSIG=
LICA NIL=
LICC 272020Z 26006KT 9999 FEW040 09/03 Q1011=
LICG NIL=
LICJ 272020Z 27008KT 9999 SCT024 13/09 Q1013=
LICR NIL=
LICT NIL=
LIEA 272020Z 09001KT 9999 0500S BCFG SCT025 08/06 Q1014=
LIEE 272020Z 34005KT 9999 FEW020 11/08 Q1013=
LIEO 272020Z VRB03KT 9999 FEW040 06/06 Q1014=
LIEU NIL=
LIMC 272020Z NIL=
LIME 272020Z VRB02KT CAVOK 06/03 Q1012=
LIMF 272020Z 30004KT 9999 FEW130 06/00 Q1012=
LIMG NIL=
LIMJ 272020Z 04003KT 300V090 CAVOK 10/00 Q1013=
LIML 272020Z 24005KT CAVOK 08/03 Q1013 NOSIG=
####018000550####
SAIY32 KWBC 272020
METAR
LIMW NIL=
LIPB NIL=
LIPE 272020Z 21006KT CAVOK 06/03 Q1013=
LIPH 272015Z /////KT 9000 FEW080 09/06 Q1012=
LIPK NIL=
LIPO NIL=
LIPQ 272020Z 11004KT CAVOK 07/M02 Q1012=
LIPR 272020Z NIL=
LIPV NIL=
LIPX 272015Z 31002KT CAVOK 07/03 Q1013=
LIPY NIL=
LIPZ 272020Z 23007KT CAVOK 09/04 Q1012=
LIRA 272015Z 17002KT CAVOK 09/07 Q1010=
LIRF 272020Z VRB02KT CAVOK 10/07 Q1011 NOSIG=
LIRJ NIL=
LIRP 272015Z 20002KT CAVOK 07/06 Q1012 NOSIG=
LIRQ 272020Z 21003KT 160V250 CAVOK 08/03 Q1012=
LIRZ NIL=
####018000277####
SAIY41 KWBC 272020
METAR
LIBA NIL=
LIBE NIL=
LIBG NIL=
LIBN NIL=
LIBQ NIL=
LIBT NIL=
LIBV NIL=
LIBY NIL=
LICD NIL=
LICE NIL=
LICF NIL=
LICU NIL=
LICX NIL=
LICZ NIL=
LIEB NIL=
LIED NIL=
LIIH NIL=
LIIJ NIL=
LIIZ NIL=
LIMC 272020Z NIL=
####018000028####
SAIY42 KWBC 272020
NIL=
####018000395####
SAIY43 KWBC 272020
METAR
LIPX 272015Z 31002KT CAVOK 07/03 Q1013=
LIQC NIL=
LIQE NIL=
LIQN NIL=
LIQO NIL=
LIQW NIL=
LIRE NIL=
LIRG NIL=
LIRH NIL=
LIRK NIL=
LIRL NIL=
LIRO NIL=
LIRS NIL=
LIRT NIL=
LIRU NIL=
LIRV NIL=
LIRX NIL=
LIRZ NIL=
LIVA NIL=
LIVC NIL=
LIVD NIL=
LIVE NIL=
LIVF NIL=
LIVM NIL=
LIVO NIL=
LIVP NIL=
LIVR NIL=
LIVT NIL=
####018000605####
SANL31 KWBC 272020
METAR
EHAM NIL=
EHBD NIL=
EHBK NIL=
EHDL 272025Z AUTO 25003KT 9999 FEW110 M00/M02 Q1020 BLU=
EHEH NIL=
EHGG NIL=
EHGR 272025Z AUTO 23004KT 9999 SCT380 01/00 Q1021 BLU=
EHHO NIL=
EHHV NIL=
EHKD 272025Z AUTO 25007KT 9999 FEW170 03/01 Q1020 BLU=
EHLE NIL=
EHLW 272025Z AUTO 23004KT 9999 OVC028 01/M00 Q1019 BLU=
EHMZ NIL=
EHRD NIL=
EHSB NIL=
EHTE NIL=
EHTW NIL=
EHTX NIL=
EHVB NIL=
EHVK 272025Z AUTO 24004KT 9999 NCD 00/M01 Q1021 BLU=
EHVL 272025Z AUTO 27012KT 9999 NCD 04/01 Q1019 BLU=
EHWO 272025Z AUTO 19001KT 9999 NCD M01/M01 Q1021 BLU=
####018000622####
SANO41 KWBC 272020
METAR
ENAL 272020Z 22024KT 9999 SCT040 06/02 Q1000=
ENAN 272020Z NIL=
ENAT 272020Z NIL=
ENBL 272020Z 18008KT 9999 -SHRA FEW009 SCT016 BKN020 02/01
     Q1004=
ENBN 272020Z NIL=
ENBV 272020Z NIL=
ENDI NIL=
ENDU 272020Z NIL=
ENEK 272020Z 20016KT 9999 FEW015 SCT025 06/02 Q1012 W07/S5=
ENEV 272020Z NIL=
ENFG 272020Z NIL=
ENFL 272020Z 20021G33KT 9999 -SHRA FEW012CB SCT018 SCT035 04/02
     Q1003=
ENFR NIL=
ENGC 272020Z NIL=
ENHF 272020Z NIL=
ENHV 272020Z NIL=
ENKB 272020Z 22017G27KT 9999 FEW051 06/M00 Q0999=
ENLI NIL=
ENLK 272020Z NIL=
ENMH 272020Z NIL=
####018001034####
SANO42 KWBC 272020
METAR
ENML 272020Z 25013KT 9999 FEW040 SCT050 06/01 Q1000=
ENMS 272020Z 19012KT 9999 FEW040 04/M03 Q0998 RMK WIND 412FT
     19011KT 150V230=
ENNA 272020Z 16019KT 9999 BKN025 02/M02 Q0999 RMK WIND 1800FT
     23039KT=
ENNK 272020Z NIL=
ENNM 272020Z 19011G22KT 160V240 CAVOK 05/M06 Q1000=
ENNO 272020Z NIL=
ENOA 272020Z NIL=
ENOL 272020Z 17007KT 9999 FEW030CB SCT040 BKN060 04/02 Q1000
     NOSIG=
ENOV 272020Z NIL=
ENRA 272020Z NIL=
ENRM 272020Z 22023KT 9999 FEW020 SCT040 BKN070 05/01 Q0999=
ENRO 272020Z AUTO 19008KT 120V290 9999NDV NCD M01/M07 Q1003=
ENRS 272020Z NIL=
ENRY 272020Z 20005KT CAVOK 02/00 Q1012=
ENSD 272020Z NIL=
ENSG 272020Z NIL=
ENSH 272020Z NIL=
ENSK 272020Z NIL=
ENSN 272020Z NIL=
ENSO 272020Z 17012KT 9999 SCT014 SCT018 BKN055 05/03 Q1008=
ENSR 272020Z NIL=
ENST 272020Z 17022G33KT 9999 FEW040 BKN080 06/M05 Q0996 RMK WIND
     300FT 15027KT TURB WRNG-SEE IPPC=
ENSV NIL=
ENTO 272020Z 19005KT CAVOK 02/M02 Q1012=
ENVD 272020Z NIL=
####018001437####
SASN31 KWBC 272020
METAR
ESDB NIL=
ESDF 272020Z AUTO 14003KT 2400NDV BR OVC003/// 03/02 Q1015=
ESGG 272020Z 23005KT 0700 BR NSC M00/M01 Q1014 R21/29//95=
ESGJ 272020Z 24002KT 6000 -RA FEW030 BKN066 02/01 Q1013 REDZ=
ESGP 272020Z 00000KT 1200 R01/P2000U R19/P2000U BCFG OVC003 00/M01
     Q1014=
ESKN 272020Z 17006KT 140V210 4900 BR VV006 02/01 Q1014=
ESMK 272020Z AUTO VRB02KT 0000 R01/0250N R19/0150N FG VV000 01/01
     Q1014=
ESMS 272020Z 09002KT 0100 R17/0200N R35/0175N FG VV002 01/01 Q1014
     R17/19//95=
ESMX 272020Z AUTO 17005KT 4000 BR BKN007/// 02/01 Q1014=
ESNN 272020Z AUTO 15006KT 9999 OVC014/// 01/00 Q1009
     R16/19//70=
ESNO 272020Z 20010KT 7000 BR OVC004 01/01 Q1008=
ESNQ 272020Z 20025KT 8000 BLSN BKN007 OVC009 M01/M02 Q0996=
ESNS 272020Z 18010KT 9999 OVC008 01/00 Q1008=
ESNU 272020Z 19015KT 8000 -DZ OVC006 01/00 Q1009 R14/29//65=
ESOK 272020Z AUTO 16004KT 1900 BR FEW017/// 00/00 Q1012=
ESOW 272020Z 19005KT 6000 BR BKN008 02/01 Q1014 R01/19//95=
ESPA 272020Z 19016KT 9999 OVC007 01/M00 Q1007=
ESPC NIL=
ESSA 272020Z 18009KT 8000 BR BKN009 02/02 Q1014 R01L/09//95
     R08/09//95 R01R/09//95 TEMPO BKN010=
ESSB 272020Z 19006KT 8000 BR OVC009 03/01 Q1014 R12/19//67=
ESSD 272020Z 17005KT 9999 FEW011 BKN017 OVC021 02/00 Q1011=
ESSN NIL=
ESSP 272020Z AUTO 10004KT 2600 BR OVC005/// M00/M00 Q1014=
ESSV 272020Z AUTO 18005KT 9999 OVC007/// 02/02 Q1016=
####018000081####
SASD42 KWBC 272000 RRD
METAR
OEKM 272000Z 03007KT CAVOK 17/02 Q1026 NOSIG=
####018000598####
SASW31 KWBC 272020
METAR
LSGC 272020Z AUTO VRB01KT 3500 -SN BKN005 M02/M03 Q1019=
LSGG 272020Z VRB02KT 9999 FEW030 BKN060 03/M01 Q1021 NOSIG=
LSGL NIL=
LSGN NIL=
LSGS 272020Z NIL=
LSZA 272020Z VRB01KT CAVOK 05/01 Q1013 NOSIG=
LSZB 272020Z VRB01KT 9999 FEW015 SCT025 BKN040 02/01 Q1020
     NOSIG=
LSZD NIL=
LSZG 272020Z AUTO 28003KT 9999 -DZ BKN030 BKN050 03/01 Q1020=
LSZH 272020Z VRB02KT 9999 -RA SCT006 BKN015 02/01 Q1020 TEMPO
     BKN012=
LSZL 272020Z NIL=
LSZR 272020Z AUTO 25008KT 210V290 9999 -RA FEW024 BKN032 OVC050
     04/01 Q1019=
LSZS 272020Z NIL=
####018000936####
SAUK31 KWBC 272020
METAR
EGAA 272020Z 19016KT 9999 SCT015 BKN026 06/04 Q1006=
EGBB 272020Z 18006KT CAVOK 05/M00 Q1016=
EGCC 272020Z AUTO 19012KT 9999 FEW033 BKN040 06/01 Q1014=
EGCC 272020Z NIL=
EGFF 272020Z AUTO 20008KT 9999 BKN029 06/04 Q1017=
EGGD 272020Z 20009KT CAVOK 05/02 Q1017=
EGGP 272020Z 17009KT 100V210 9999 BKN030 06/02 Q1014=
EGGW 272020Z 17004KT CAVOK 04/M00 Q1018=
EGHD NIL=
EGHH 272020Z 22006KT CAVOK 07/03 Q1019=
EGHI 272020Z 21007KT CAVOK 06/02 Q1019=
EGJB 272020Z 21012KT 9999 FEW025 07/04 Q1021=
EGJJ 272020Z 19008KT 9999 FEW025 SCT048 07/04 Q1022 NOSIG=
EGKA 272020Z NIL=
EGKB 272020Z 19008KT CAVOK 04/00 Q1019=
EGKK 272020Z 20006KT CAVOK 05/02 Q1020=
EGLF 272020Z NIL=
EGLL 272020Z 22009KT CAVOK 06/02 Q1019 NOSIG=
EGMC 272020Z 22010KT CAVOK 05/01 Q1020=
EGMD 272020Z NIL=
EGNH 272020Z 17013KT 9999 OVC034 07/01 Q1013=
EGNJ 272020Z 19008KT 9999 FEW036 05/01 Q1015=
####018000759####
SAUK32 KWBC 272020
METAR
EGNM 272020Z 18009KT 9999 SCT047 04/00 Q1013=
EGNS 272020Z 21023KT 9999 FEW012 BKN017 07/05 Q1009 NOSIG=
EGNT 272020Z 19011KT 9999 FEW035 05/00 Q1011=
EGNV 272020Z 18017KT CAVOK 05/00 Q1012=
EGNX 272020Z 19010KT CAVOK 05/00 Q1016=
EGPA 272020Z AUTO 19022G33KT 9999 NCD 06/02 Q0999=
EGPB 272020Z 19022G33KT 9999 FEW025 06/03 Q1000 NOSIG=
EGPC 272020Z AUTO 20018G28KT 170V240 9999 NCD 05/00 Q1000=
EGPD 272020Z 19016KT 9999 BKN030 05/01 Q1004 NOSIG=
EGPF 272020Z AUTO 19010KT 7000 BKN022 06/02 Q1006=
EGPH 272020Z 22014KT CAVOK 06/01 Q1007=
EGPK 272020Z 18014KT 9999 -SHRA FEW022 SCT046 07/03 Q1006=
EGSH 272020Z 19007KT CAVOK 03/00 Q1018 NOSIG=
EGTE 272020Z 19007KT 9999 SCT025 06/03 Q1018=
EGTG NIL=
####018000531####
SAUK41 KWBC 272020
METAR
EGAC 272020Z 19018KT 9999 SCT020 BKN025 07/03 Q1006=
EGAE 272020Z NIL=
EGBE 272020Z 19007KT CAVOK 05/01 Q1017=
EGBJ 272020Z NIL=
EGDC NIL=
EGDG NIL=
EGDL NIL=
EGDM NIL=
EGDN NIL=
EGDP NIL=
EGDR NIL=
EGDY NIL=
EGFH NIL=
EGGP 272020Z 17009KT 100V210 9999 BKN030 06/02 Q1014=
EGGW 272020Z 17004KT CAVOK 04/M00 Q1018=
EGHE 272020Z NIL=
EGJA 272020Z NIL=
EGLC 272020Z 20007KT 160V230 CAVOK 07/02 Q1019=
EGNC 272020Z NIL=
EGNT 272020Z 19011KT 9999 FEW035 05/00 Q1011=
####018000660####
SAUK42 KWBC 272020
METAR
EGOS NIL=
EGOV NIL=
EGPC 272020Z AUTO 20018G28KT 170V240 9999 NCD 05/00 Q1000=
EGPE 272020Z 22015KT 180V250 9999 FEW015 BKN042 06/01 Q1000=
EGPF 272020Z AUTO 19010KT 7000 BKN022 06/02 Q1006=
EGPL 272020Z AUTO 19026KT 3200 -RA BKN004/// 06/06 Q0996 RERA=
EGPM 272020Z AUTO 20021KT 9999 FEW033/// BKN047/// 06/03 Q0998=
EGPN 272020Z NIL=
EGPO 272020Z AUTO 20031G44KT 3700 -RA SCT010/// BKN013/// 06/04
     Q0994=
EGPT NIL=
EGPU 272020Z NIL=
EGPW NIL=
EGQJ NIL=
EGQK NIL=
EGQL NIL=
EGQM NIL=
EGQS NIL=
EGSC 272020Z NIL=
EGSS 272020Z 18005KT CAVOK 03/M01 Q1019=
EGTC 272020Z NIL=
EGTI NIL=
####018000142####
SAXX61 KWBC 272000 RRD
METAR
EGPK 272020Z 18014KT 9999 -SHRA FEW022 SCT046 07/03 Q1006=
LIRN 272020Z 34006KT 9999 SCT050 10/06 Q1011=
####018001773####
SAXX99 KWBC 272000 RRR
METAR
EDLV 272020Z VRB03KT CAVOK 03/03 Q1021=
EDSB 272020Z 21004KT 9999 -RA BKN033 03/02 Q1021=
EFHA 272020Z AUTO 15004KT 100V190 9999 OVC016 01/M02 Q1016=
EFJO 272020Z AUTO 18007KT 150V220 7000 OVC002 M02/M02 Q1018=
EFLP 272020Z AUTO 32001KT 1400 R06/P1500N R24/P1500N BR OVC001
     M01/M01 Q1018=
EFMI 272020Z AUTO 17004KT 110V220 9000 OVC005 M01/M01 Q1018=
EFSA 272020Z AUTO 15002KT 9999 OVC004 M00/M01 Q1019=
EFSI 272020Z AUTO VRB07KT 9999 OVC015 00/M02 Q1014=
EFUT 272020Z AUTO 18003KT 3500 BR OVC002 M01/M01 Q1018=
EFVR 272020Z AUTO 7000 BKN005 ///// Q////=
EGCN 272020Z 16006KT CAVOK 04/00 Q1016=
EGEC 272020Z NIL=
EGNR 272020Z 17009KT 9999 BKN030 06/02 Q1014=
EGPI 272020Z NIL=
EGVN 272020Z NIL=
EGWU 272020Z NIL=
ENBS 272020Z NIL=
ENDR 272020Z AUTO 21036KT 06/04 Q0994=
ENHE 272020Z 23031KT 9999 -SHRA SCT025 BKN050 05/02 Q0991
     W///S7=
ENHK 272020Z NIL=
ENSS 272020Z NIL=
ESGR 272020Z AUTO 19003KT 9000 BR SCT098/// 02/M00 Q1013=
ESKM 272020Z NIL=
ESNG 272020Z 17010KT 9000 SG OVC009 M01/M02 Q1000=
ESNK 272020Z 17008KT 9999 OVC011 02/01 Q1008=
ESNL 272020Z AUTO 15007KT 9999 SG FEW007/// BKN013/// OVC025///
     00/M02 Q1005 REUP=
ESNX 272020Z AUTO 18007KT 150V230 9999NDV OVC008/// M01/M02
     Q1002=
ESNY 272020Z NIL=
ESOE 272020Z NIL=
ESSF 272020Z NIL=
ESSK 272020Z NIL=
ESSL 272020Z 19008KT 6000 BR BKN036 02/01 Q1014 R29/09//95=
ESUD 272020Z AUTO 17009KT 9999 BKN018/// OVC043/// 01/M03
     Q1003=
ESUT 272020Z AUTO 17011KT 9999 FEW076/// SCT100/// M00/M04
     Q0998=
LHKE 272015Z 01004KT 6000 -RA SCT027 OVC037 06/05 Q1015 TEMPO 5000
     BR RMK WHT=
LHSN 272015Z 04006KT CAVOK 06/03 Q1015 TEMPO 8000 -RA RMK BLU=
LOXZ 272020Z NIL=
####018000103####
SPUS52 KWBC 272026
SPECI
KGAG 272022Z AUTO 10008KT 5SM -SN SCT020 BKN044 OVC055 M08/M13
A3038=
####018000084####
SPUS53 KWBC 272026
SPECI
KRIW 272022Z AUTO 00000KT 10SM SCT012 M11/M15 A2983=
####018001636####
SAEU KAWN 272000 RRX
METAR ENAL 272020Z 22024KT 9999 SCT040 06/02 Q1000=
METAR ENBL 272020Z 18008KT 9999 -SHRA FEW009 SCT016 BKN020 02/01 Q1004=
METAR ENHD 272020Z 17011KT 9000 FEW020 SCT027 05/03 Q1009=
METAR ENKB 272020Z 22017G27KT 9999 FEW051 06/M00 Q0999=
METAR ENNA 272020Z 16019KT 9999 BKN025 02/M02 Q0999 RMK WIND 1800FT
      23039KT=
METAR ENRO 272020Z AUTO 19008KT 120V290 9999NDV NCD M01/M07 Q1003=
METAR LIBD 272020Z 31008KT 9999 SCT030 09/07 Q1010=
METAR LICC 272020Z 26006KT 9999 FEW040 09/03 Q1011=
METAR LICJ 272020Z 27008KT 9999 SCT024 13/09 Q1013=
METAR LIEE 272020Z 34005KT 9999 FEW020 11/08 Q1013=
METAR LIEO 272020Z VRB03KT 9999 FEW040 06/06 Q1014=
METAR LIME 272020Z VRB02KT CAVOK 06/03 Q1012=
METAR LIMF 272020Z 30004KT 9999 FEW130 06/00 Q1012=
METAR LIMJ 272020Z 04003KT 300V090 CAVOK 10/00 Q1013=
METAR LIPH 272015Z /////KT 9000 FEW080 09/06 Q1012=
METAR LIPQ 272020Z 11004KT CAVOK 07/M02 Q1012=
METAR LIPX 272015Z 31002KT CAVOK 07/03 Q1013=
METAR LIPZ 272020Z 23007KT CAVOK 09/04 Q1012=
METAR LIRA 272015Z 17002KT CAVOK 09/07 Q1010=
METAR LIRN 272020Z 34006KT 9999 SCT050 10/06 Q1011=
METAR LIRP 272015Z 20002KT CAVOK 07/06 Q1012 NOSIG=
METAR LIRQ 272020Z 21003KT 160V250 CAVOK 08/03 Q1012=
METAR LOWG 272020Z 07003KT 9999 BKN035 05/01 Q1014 NOSIG=
METAR LOWI 272020Z VRB02KT 6000 -RA SCT006 BKN012 01/01 Q1016 R08/1///95
      TEMPO BKN006=
METAR LOWL 272020Z 23004KT 9999 SCT060 BKN110 04/01 Q1015 NOSIG=
METAR LOWS 272020Z 29003KT 260V340 9999 -RA FEW025 BKN040 04/00 Q1016
      NOSIG=
METAR LOWW 272020Z 11004KT 9999 FEW035 03/01 Q1015 NOSIG=
####018000078####
SAUK37 EGGY 272020 RRA
METAR EGPN 272020Z 22016KT 9999 FEW048 06/02 Q1006=
####018000385####
SAGR31 LGAT 272020
METAR LGAD 272020Z 00000KT 9999 FEW018TCU SCT025 OVC080 10/08 Q1006=
METAR LGKL 272020Z NIL=
METAR LGKO 272020Z NIL=
METAR LGLM 272020Z AUTO 11008KT //// -RA ////// 11/09 Q1006
     RE//=
METAR LGSA 272020Z 22005KT 9999 FEW018TCU SCT025 11/06 Q1008=
METAR LGSM 272020Z NIL=
METAR LGTS 272020Z 33014KT 9999 FEW012 BKN025 OVC070 11/08 Q1007
      TEMPO RA=
####018000084####
SPUS81 KWBC 272026
SPECI
KRIW 272022Z AUTO 00000KT 10SM SCT012 M11/M15 A2983=
####018000471####
SAGR33 LGAT 272020
METAR LGBL 272020Z NIL=
METAR LGHI 272020Z NIL=
METAR LGKC 272020Z NIL=
METAR LGKF 272020Z AUTO 25004KT 240V310 //// -RA //////
     11/// Q1007 RE//=
METAR LGKP 272020Z AUTO 22020KT //// -RA ////// 15/09 Q1011
     RE//=
METAR LGKZ 272020Z AUTO 36008KT //// -RA ////// 07/05 Q1007
     RE//=
METAR LGMK 272020Z NIL=
METAR LGNX 272020Z NIL=
METAR LGPA 272020Z NIL=
METAR LGSO 272020Z AUTO 26013KT //// -RA ////// 11/09 Q1006
     RE//=
####018000538####
SAGR32 LGAT 272020
METAR LGAL 272020Z 04009KT 9999 FEW030 BKN080 12/08 Q1006=
METAR LGEL 272020Z 00000KT 7000 -RA FEW010 BKN025 OVC070 09/09 Q1005=
METAR LGIO 272020Z AUTO VRB03KT //// // ////// 09/06 Q1006
     RE//=
METAR LGKV 272020Z 10006KT 9999 FEW030 BKN080 12/09 Q1007=
METAR LGMT 272020Z NIL=
METAR LGPZ 272020Z NIL=
METAR LGRX 272020Z NIL=
METAR LGSK 272020Z NIL=
METAR LGSR 272020Z AUTO 23016KT 210V270 //// -RA //////
     14/08 Q1008 RE//=
METAR LGZA 272020Z AUTO VRB01KT //// -RA ////// 10/// Q1006
     RE//=
####018000384####
SAFI34 EFHK 272020
EFET 272020Z AUTO 17010KT 140V210 3500 -SN OVC009 M01/M02 Q1000=
EFIV 272020Z AUTO 18011G22KT 140V220 9999 -SN OVC017 M00/M03 Q1004=
EFKE 272020Z 17019KT 5000 -RASN OVC016 M00/M02 Q1010=
EFKI 272020Z 19007KT 130V260 9999 BKN019 M00/M04 Q1015=
EFKS 272020Z 19013KT 9999 OVC018 M02/M05 Q1012=
EFKT 272020Z 17016G25KT 9999 -SN OVC011 M01/M02 Q1004 R16/39//92=
####018000074####
SPUS31 KKCI 272019
SPECI
K7R3 272019Z 03009KT 10SM CLR 12/02 A3030=
####018000117####
SAXN17 KAWN 272000 RRI
METAR PKWA 272020Z AUTO 05015KT 10SM SCT021 SCT026 28/22 A2983 RMK
      AO2 T02760222=
####018000078####
SAUK35 EGGY 272020 RRA
METAR EGLF 272020Z 20007KT 9999 FEW030 05/01 Q1019=
####018001676####
SAEU KAWN 272000 RRX
METAR EGPN 272020Z 22016KT 9999 FEW048 06/02 Q1006=
METAR ENBO 272020Z 14015KT CAVOK 05/M03 Q0996 TEMPO 18020G30KT=
METAR ENBR 272020Z 17015KT 9999 -SHRA SCT012TCU BKN025 05/04 Q1007
      TEMPO 4000 SHRA BKN014CB RMK WIND 1200FT 18018KT=
METAR ENEK 272020Z 20016KT 9999 FEW015 SCT025 06/02 Q1012 W07/S5=
METAR ENFB 272020Z AUTO 20036KT 9999NDV FEW026/// BKN053/// BKN110///
      07/03 Q1000 W///S6=
METAR ENGM 272020Z 21005KT 9000 FEW002 BKN003 M01/M01 Q1010 TEMPO 2000
      BCFG=
METAR ENHE 272020Z 23031KT 9999 -SHRA SCT025 BKN050 05/02 Q0991 W///S7=
METAR ENOL 272020Z 17007KT 9999 FEW030CB SCT040 BKN060 04/02 Q1000
      NOSIG=
METAR ENVA 272020Z 18014KT CAVOK 06/M06 Q1001 NOSIG RMK WIND 670FT
      20019KT=
METAR ENZV 272020Z 17008KT 9999 BKN029 04/03 Q1010 NOSIG=
METAR ETHA 272020Z AUTO 27010KT //// // ////// 00/M00 Q1016 ///=
METAR ETHB 272020Z AUTO 30005KT 9000 // ////// 03/M00 Q1019 ///=
METAR ETHS 272020Z 28004KT 9999 BKN170 01/00 Q1017 BLU=
METAR ETNL 272020Z 28003KT 4500 -RA BR BKN005 BKN023 02/02 Q1015 YLO=
METAR ETSA 272020Z 26009KT 2000 SN BKN004 OVC010 00/M00 Q1016 YLO=
METAR LGSA 272020Z 22005KT 9999 FEW018TCU SCT025 11/06 Q1008=
METAR LGTS 272020Z 33014KT 9999 FEW012 BKN025 OVC070 11/08 Q1007 TEMPO
      RA=
METAR LIBR 272015Z 29011KT 9999 -RA FEW012 FEW015TCU SCT025 10/09 Q1009
      NOSIG=
METAR LIEA 272020Z 09001KT 9999 0500S BCFG SCT025 08/06 Q1014=
METAR LIML 272020Z 24005KT CAVOK 08/03 Q1013 NOSIG=
METAR LIPE 272020Z 21006KT CAVOK 06/03 Q1013=
METAR LIRF 272020Z VRB02KT CAVOK 10/07 Q1011 NOSIG=
METAR LOWK 272020Z VRB01KT CAVOK 02/M00 Q1013 NOSIG=
####018001784####
SAEW KAWN 272000 RRI
METAR EBAW 272020Z 27005KT CAVOK 04/M00 Q1022 NOSIG=
METAR EBBR 272020Z 25003KT CAVOK 01/M01 Q1022 NOSIG=
METAR EBCI 272020Z 25003KT CAVOK 03/M02 Q1022 NOSIG=
METAR EBLG 272020Z 29005KT 250V320 CAVOK 02/M02 Q1021 NOSIG=
METAR EBOS 272020Z 21006KT 9999 FEW022 01/M00 Q1022 NOSIG=
METAR EDNY 272020Z 25009KT 9999 -RA BKN008 BKN015 OVC028 02/M00 Q1019
      RMK ATIS E=
METAR EDSB 272020Z 21004KT 9999 -RA BKN033 03/02 Q1021=
METAR EGJJ 272020Z 19008KT 9999 FEW025 SCT048 07/04 Q1022 NOSIG=
METAR EHDL 272025Z AUTO 25003KT 9999 FEW110 M00/M02 Q1020 BLU=
METAR EHGR 272025Z AUTO 23004KT 9999 SCT380 01/00 Q1021 BLU=
METAR EHLW 272025Z AUTO 23004KT 9999 OVC028 01/M00 Q1019 BLU=
METAR EHVK 272025Z AUTO 24004KT 9999 NCD 00/M01 Q1021 BLU=
METAR EHVL 272025Z AUTO 27012KT 9999 NCD 04/01 Q1019 BLU=
METAR EHWO 272025Z AUTO 19001KT 9999 NCD M01/M01 Q1021 BLU=
METAR EKAH 272020Z AUTO 28001KT 0600NDV R10R/P1500N R28L/P1500VP1500N
      FZFG BKN033/// 00/M01 Q1015=
METAR EKBI 272020Z AUTO 27004KT 9999NDV NCD 00/M00 Q1016=
METAR EKCH 272020Z 05003KT 5000 -RA BKN030 03/02 Q1014 TEMPO 4000=
METAR EKEB 272020Z AUTO 25003KT 9999NDV NCD 00/M01 Q1016=
METAR EKRK 272020Z AUTO 32005KT 2100NDV -RA BR SCT003/// BKN014///
      01/01 Q1014=
METAR EKRN 272020Z AUTO 07003KT 2300NDV BR NCD 03/02 Q1015=
METAR EKSP 272020Z 27004KT CAVOK M01/M02 Q1016 RMK SCT230=
METAR EKVD 272020Z AUTO 29005KT //// ///////// 01/M00 Q1016=
METAR EKYT 272020Z 25005KT 9999 FEW030 02/01 Q1015=
METAR ELLX 272020Z 31006KT CAVOK 01/M02 Q1020 NOSIG=
METAR ETHA 272020Z AUTO 27010KT //// // ////// 00/M00 Q1016 ///=
METAR ETHS 272020Z 28004KT 9999 BKN170 01/00 Q1017 BLU=
METAR ETNL 272020Z 28003KT 4500 -RA BR BKN005 BKN023 02/02 Q1015 YLO=
####018000116####
SAAK41 KNKA 272025
SPECI PATO 272024Z AUTO 10005KT 3/4SM BR OVC002 M05/M06 A3046 RMK 
    AO2 T10501056 TSNO=
####018000087####
SAMJ41 LWSK 272030
METAR LWSK 272030Z 31002KT 8000 BKN040 OVC070 08/07 Q1010 NOSIG=
####018000085####
SPCH01 SCTE 272018
SPECI SCTE 272018Z 18006KT 8000 SKC 24/13 Q1013 NOSIG=
DUPE
####018000118####
SPUS99 KWBC 272027
SPECI
PATO 272024Z AUTO 10005KT 3/4SM BR OVC002 M05/M06 A3046 RMK AO2
     T10501056 TSNO=
####018000816####
SAUS20 KNKA 272025
METAR K24J 272035Z AUTO 06009KT 4SM FEW037 FEW048 SCT090 12/04 
 A3030 RMK AO1=
SPECI KDHT 272024Z AUTO 15014KT 2 1/2SM -SN SCT017 OVC022 M09/M13 
 A3017 RMK AO2 P0000 T10891128=
SPECI KGCK 272024Z 16016G21KT 2 1/2SM -SN OVC023 M10/M13 A3030 RMK 
 AO2 VIS 1 1/2V3 P0000 T11001133=
METAR KIMM 272035Z AUTO 04011KT 8SM OVC015 A3015 RMK A01 P000 =
SPECI KMKO 272024Z AUTO 08006KT 3SM -SN BKN029 OVC036 M06/M12 A3055 
 RMK AO2 SNB05 P0000 T10611122=
METAR KO22 272015Z AUTO 21005KT 10SM BKN017 OVC037 13/08 A2980 RMK 
 AO1=
SPECI KRKP 272024Z AUTO 05014KT 8SM OVC029 12/06 A3023 RMK AO2 
 T01170061=
SPECI KSPW 272025Z AUTO 25005KT 5SM HZ OVC014 M11/M16 A3051 RMK AO2 
 T11111161 TSNO=
METAR KSIK 272035Z AUTO 01006KT 10SM SCT120 M03/M11 A3062 RMK AO2 
     PWINO=
####018000077####
SAPM31 MPMG 272015 RRA
METAR RTD
MPPA 272015Z 35009KT 9000 SCT020 Q1009=
####018000103####
SADL52 ETGT 272020 RRA
METAR
ETSL 272020Z 24006KT 3500 SN BKN006 OVC015 01/00 Q1017
      YLO=
####018000093####
SPUS42 KWBC 272027
SPECI
KTUL 272023Z 04009KT 1 3/4SM -SN BKN029 OVC037 M08/M12 A3054=
####018000082####
SPUS43 KWBC 272027
SPECI
KPUB 272023Z 06006KT 3SM -SN OVC019 M09/M12 A2999=
####018000084####
SACN70 CWAO 272000 RRB
XMN SA 2000 AUTO8 M M M M/-09/-11/3411/M/     M 13MM=

####018000175####
SACN93 CWAO 272000 RRD
WOE SA 2000 AUTO8 M M M 230/-10/-13/3017/M/     PK WND 3221 1958Z 0002 64MM=
WPA SA 2000 AUTO8 M M M 237/-08/-13/MMMM/M/     SOG 82 0001 37MM=

####018000117####
SACN96 CWAO 272000 RRD
XBQ SA 2000 AUTO8 M M M 161/-12/-17/3111+17/M/     PK WND 3219 1909Z SOG 37 3004 50MM=

####018000326####
SACN59 CWAO 272000 RRC
PFI SA 2000 AUTO8 M M M M/-08/-10/3311/M/     M 62MM=
PRO SA 2000 AUTO8 M M M M/-08/-12/3211/M/     M 00MM=
XAK SA 2000 AUTO8 M M M M/-10/-14/3312/M/     M 15MM=
XDB SA 2000 AUTO8 M M M M/-10/-12/2817/M/     PK WND 2424 1905Z M 01MM=
XFM SA 2000 AUTO8 M M M M/-10/-12/3211/M/     M 88MM=

####018000102####
SACN98 CWAO 272000 RRD
XWM SA 2000 AUTO8 M M M M/-09/-11/3211/M/     PK WND 3217 1915Z M 72MM=

####018000096####
SACN74 CWAO 272000 RRD
XBL SA 2000 AUTO8 M M M 074/-23/-26/2008/M/     SOG 03 8027 02MM=

####018000096####
SACN66 CWAO 272000 RRB
PWX SA 2000 AUTO8 M M M 297/-14/-20/3302/M/     SOG 42 1006 58MM=

####018000096####
SACN63 CWAO 272000 RRC
ZSM SA 2000 AUTO8 M M M 217/-08/-16/1806/M/     SOG 42 6027 81MM=

####018000132####
SAFA31 EKCH 272020
METAR EKVG 272020Z AUTO 15018G29KT 8000NDV -RA  OVC006/// 05/05
Q0981 RMK BKN008/// WIND 850FT 14030G42KT=
####018000060####
SAUS45 KTFX 272027
MTR8S0
METAR K8S0 272010Z 35013KT 
####018001764####
SAEU KAWN 272000 RRX
METAR ETGG 272020Z 30009KT 9999 02/01 Q1016 BLU+=
METAR ETHC 272020Z 28004KT 9999 BKN160 02/01 Q1018 BLU=
METAR ETHE 272020Z AUTO 27005KT //// // ////// 04/M00 Q1020 ///=
METAR ETHF 272020Z VRB02KT 9999 SCT026 BKN037 03/02 Q1018 BLU=
METAR ETHL 272020Z 26006KT 4000 -SNRA BR BKN008 BKN016 01/01 Q1018
      GRN=
METAR ETHN 272020Z 30007KT 0800 -SN FG BKN001 OVC005 00/00 Q1017 RED=
METAR ETMN 272020Z 29010KT 9999 SCT030 SCT210 03/02 Q1018 BLU+=
METAR ETNH 272020Z 28005KT 9999 SCT220 01/00 Q1017 BLU+=
METAR ETNN 272020Z 24005KT 9999 FEW035 02/M01 Q1021 BLU+=
METAR ETNS 272020Z AUTO 28006KT 9999 // ////// 01/M01 Q1017 ///=
METAR ETNT 272020Z 26006KT 9999 BKN036 03/01 Q1019 BLU=
METAR ETNW 272020Z AUTO 28005KT 8000 // ////// 03/01 Q1018 ///=
METAR ETSB 272020Z AUTO 29005KT 9999 // ////// 00/M01 Q1019 ///=
METAR ETSH 272020Z 27002KT 9999 FEW130 M00/M02 Q1016 BLU+=
METAR ETSI 272020Z AUTO 29006KT 5000 // ////// 02/01 Q1016 ///=
METAR ETSN 272020Z AUTO 26006KT //// // ////// 01/01 Q1017 ///=
METAR ETWM 272020Z AUTO 26003KT 8000 // ////// 01/M00 Q1019 ///=
METAR LEJR 272030Z 22004KT CAVOK 12/12 Q1025=
METAR LGAD 272020Z 00000KT 9999 FEW018TCU SCT025 OVC080 10/08 Q1006=
METAR LGEL 272020Z 00000KT 7000 -RA FEW010 BKN025 OVC070 09/09 Q1005=
METAR LGIR 272020Z 19010KT 9999 SCT030 13/08 Q1008 NOSIG=
METAR LGKF 272020Z AUTO 25004KT 240V310 //// -RA ////// 11/// Q1007
      RE//=
METAR LGKR 272020Z 00000KT 9999 FEW018TCU BKN035 OVC080 11/10 Q1006
      NOSIG=
METAR LGLM 272020Z AUTO 11008KT //// -RA ////// 11/09 Q1006 RE//=
METAR LGRP 272020Z 24008KT 200V280 9999 FEW018TCU SCT020 15/11 Q1009
      NOSIG=
METAR LGSO 272020Z AUTO 26013KT //// -RA ////// 11/09 Q1006 RE//=
####018000108####
SAAJ31 UBBB 272030
METAR UBBN 272030Z 01006KT 9999 NSC 00/M04 Q1022 R14R/CLRD60
NOSIG RMK MT OP QFE691=
####018000286####
SANL31 EHDB 272025
METAR EHAM 272025Z 24008KT 9999 FEW020 02/M00 Q1021 NOSIG=
METAR EHBK 272025Z AUTO 28003KT 250V330 9999 NCD 02/M01 Q1021 NOSIG=
METAR EHGG 272025Z AUTO 24004KT 9999 BKN019 BKN023 00/M01 Q1019
NOSIG=
METAR EHRD 272025Z AUTO 22005KT 9999 NCD 01/M01 Q1021 NOSIG=
####018000084####
SAMT20 GQNN 272030
METAR GQNN 272030Z 07011KT 2500 BLSA NSC 27/M11 Q1015 NOSIG=
####018000091####
SPUS81 KWBC 272027
SPECI
PAQT 272023Z AUTO 27021KT 3SM BLSN BR BKN042 M10/M12 A3016=
####018000113####
SAHW31 KMSC 272026
METAR PKWA 272020Z AUTO 05015KT 10SM SCT021 SCT026 28/22 A2983 RMK
      AO2 T02760222=
####018000452####
SAIN31 VABB 272010
METAR VAAH 272010Z VRB02KT 4000 FU FEW080
    17/06 Q1010 NOSIG=                                               
     
METAR VABB 272010Z 00000KT 3000 HZ NSC 23/20 Q1010 NOSIG=
METAR VOHS 272010Z 13008KT 6000 NSC 22/19 Q1012 NOSIG=
METAR VOMM 272010Z 15005KT 6000 FEW020 27/24 Q1010 NOSIG=
METAR VOTR 272010Z VRB02KT 6000 SCT016 SCT080 26/23 Q1010 NOSIG=
METAR VOTV 272010Z 00000KT 4000 HZ FEW018 26/23 Q1009 NOSIG=
####018001349####
SPZZ40 KAWN 272027 RRF
SPECI CYCO 272023Z 31031KT 3/4SM BLSN OVC020 M09/M11 A2971 RMK BLSN4SC4
      PRESRR SLP062=
SPECI CYVV 272023Z 23010G17KT 6SM -SN DRSN OVC022 M12/M17 A3047 RMK
      SC8 SLP339=
SPECI CZUM 272022Z AUTO 28014G19KT 5SM -SN BKN028 OVC037 M24/M29 A2971
      RMK SLP118=
SPECI ETIK 272024Z AUTO 25005KT 9000 BR OVC006 02/02 A3005 RMK AO2=
SPECI K1YT 272024Z AUTO 07012G18KT 10SM BKN033 06/03 A2978 RMK AO2=
SPECI KDMA 272023Z AUTO 24012G21KT 10SM CLR 22/M04 A2974 RMK AO2 WSHFT
      16=
SPECI KFSI 272023Z AUTO 06010KT 10SM -SN BKN016 OVC022 M07/M11 A3044
      RMK AO2 CIG 012V020=
SPECI KNSI 272023Z AUTO 31024G31KT 10SM OVC013 A2986 RMK AO2 PK WND
      32035/2005 $=
SPECI KSKF 272021Z 04011KT 4SM -DZ BR BKN012 OVC017 01/00 A3026 RMK
      AO2A TWR VIS 3 RAE18DZB18 $=
SPECI KTIK 272024Z AUTO 05009KT 1 3/4SM -SN OVC008 M08/M11 A3046 RMK
      AO2 VIS 1 1/4V1 3/4=
SPECI LHKE 272020Z 02004KT 5000 -RA BR SCT027 OVC040 06/05 Q1015 NOSIG
      RMK WHT=
SPECI PATC 272024Z AUTO 20033G41KT 2SM -SN BR BKN002 M01/M01 A2995
      RMK AO2 SLP146=
SPECI RODN 272024Z AUTO 08014KT 6SM R05/5000FT BR BKN006 18/15 A3008
      RMK AO2 CIG 006V008 $=
SPECI SPJR 272030Z 19008KT 9999 FEW030 SCT050 22/11 Q1024=
SPECI SPTU 272025Z 19002KT 8000 -RA FEW009CB SCT040 BKN070 27/25 Q1006=
####018000051####
SAUS90 KWBC 272028
METAR K8S0 272010Z 35013KT=
####018000072####
SPUS90 KWBC 272028
SPECI K7R3 272019Z 03009KT 10SM CLR 12/02 A3030=
####018000078####
SAAR20 OEJD 272000 RRB
METAR OOSA 271950Z AUTO 31017KT 8000 26/M01 Q1013=
####018000144####
SAAK41 KNKA 272026
SPECI PACM 272025Z AUTO 17016G24KT 1SM BR BKN009 BKN019 OVC110 
 00/M01 A3017 RMK AO2 PWINO FZRANO TSNO CIG 003V012 $=
####018000925####
SAUS20 KNKA 272026
SPECI KAAO 272025Z AUTO 11006KT 2SM -SN BKN021 OVC031 M09/M13 A3050 
 RMK AO2 P0000 T10941133=
METAR KD60 272015Z AUTO 16011KT 10SM CLR M09/M16 A3013 RMK AO2 =
METAR KECU 272010Z AUTO 00000KT 1 1/4SM UP OVC006 00/M01 A3022 
 RMK AO2=
METAR KFYG 272015Z AUTO 00000KT 10SM CLR M05/M18 A3061 RMK AO2=
METAR KGLY 272035Z AUTO 14004KT 10SM FEW075 M06/M16 A3058 RMK AO2=
SPECI KLVS 272025Z AUTO 18017KT 3/4SM -SN BR OVC006 M12/M14 A2991 
 RMK AO2 UPB1954E08SNE1954B08 P0000 T11221139=
SPECI KPNC 272025Z AUTO 08007KT 3SM -SN FEW022 BKN033 OVC044 M07/M12 
 A3052 RMK AO2 P0000 T10721122=
SPECI KRQE 272025Z AUTO 18006KT 4SM -SN BR SCT020 BKN035 OVC045 
 02/M01 A2978 RMK AO2 P0001 T00171006 TSNO=
METAR KSPA 272035Z AUTO 05003KT 10SM CLR 12/M03 A3032 RMK AO2=
SPECI PACM 272025Z AUTO 17016G24KT 1SM BR BKN009 BKN019 OVC110 
 00/M01 A3017 RMK AO2 PWINO FZRANO TSNO CIG 003V012 $=
####018000095####
SPCN43 CWAO 272027
SPECI CZVL 272027Z AUTO 34012KT 9SM OVC022 M09/M13 A3020 RMK SLP276=

####018000110####
SPCN46 CWAO 272027
SPECI CYSC 272027Z AUTO 23013KT 9SM CLR M11/M22 A3031 RMK WSHFT AT
 2016Z SLP287=

####018000181####
SAUS46 KMTR 272027
MTRBAN
SPECI KBAN 272026Z AUTO 23019G29KT 2 1/2SM -RA BKN042 BKN049 OVC060 
05/M04 A2969 RMK AO2 PK WND 22029/2026 VIS 1 1/2V5 RAB15 P0001 
T00501044 $
####018000116####
SPCN52 CWAO 272027
SPECI CZUM 272027Z AUTO 28011G19KT 2 1/4SM -SN BKN026 OVC035 M24/M29
 A2971 RMK SLP120=

####018000115####
SACN93 KWBC 272028
METAR CWOE 272000Z AUTO 30017KT M10/M13 RMK AO1 PK WND 32021/1958
SLP230 T10961134 50002=
####018001162####
SPUS99 KWBC 272028
SPECI
KDHT 272024Z AUTO 15014KT 2 1/2SM -SN SCT017 OVC022 M09/M13 A3017
     RMK AO2 P0000 T10891128=
KGCK 272024Z 16016G21KT 2 1/2SM -SN OVC023 M10/M13 A3030 RMK AO2
     VIS 1 1/2V3 P0000 T11001133=
KMKO 272024Z AUTO 08006KT 3SM -SN BKN029 OVC036 M06/M12 A3055 RMK
     AO2 SNB05 P0000 T10611122=
KRKP 272024Z AUTO 05014KT 8SM OVC029 12/06 A3023 RMK AO2
     T01170061=
KSPW 272025Z AUTO 25005KT 5SM HZ OVC014 M11/M16 A3051 RMK AO2
     T11111161 TSNO=
KAAO 272025Z AUTO 11006KT 2SM -SN BKN021 OVC031 M09/M13 A3050 RMK
     AO2 P0000 T10941133=
KLVS 272025Z AUTO 18017KT 3/4SM -SN BR OVC006 M12/M14 A2991 RMK
     AO2 UPB1954E08SNE1954B08 P0000 T11221139=
KPNC 272025Z AUTO 08007KT 3SM -SN FEW022 BKN033 OVC044 M07/M12
     A3052 RMK AO2 P0000 T10721122=
KRQE 272025Z AUTO 18006KT 4SM -SN BR SCT020 BKN035 OVC045 02/M01
     A2978 RMK AO2 P0001 T00171006 TSNO=
PACM 272025Z AUTO 17016G24KT 1SM BR BKN009 BKN019 OVC110 00/M01
     A3017 RMK AO2 PWINO FZRANO TSNO CIG 003V012 $=
PACM 272025Z AUTO 17016G24KT 1SM BR BKN009 BKN019 OVC110 00/M01
     A3017 RMK AO2 PWINO FZRANO TSNO CIG 003V012 $=
####018000637####
SAUS99 KWBC 272028
METAR
K24J 272035Z AUTO 06009KT 4SM FEW037 FEW048 SCT090 12/04 A3030 RMK
     AO1=
KIMM 272035Z AUTO 04011KT 8SM OVC015 A3015 RMK A01 P000=
KO22 272015Z AUTO 21005KT 10SM BKN017 OVC037 13/08 A2980 RMK
     AO1=
KSIK 272035Z AUTO 01006KT 10SM SCT120 M03/M11 A3062 RMK AO2
     PWINO=
KD60 272015Z AUTO 16011KT 10SM CLR M09/M16 A3013 RMK AO2=
KECU 272010Z AUTO 00000KT 1 1/4SM UP OVC006 00/M01 A3022 RMK
     AO2=
KFYG 272015Z AUTO 00000KT 10SM CLR M05/M18 A3061 RMK AO2=
KGLY 272035Z AUTO 14004KT 10SM FEW075 M06/M16 A3058 RMK AO2=
KSPA 272035Z AUTO 05003KT 10SM CLR 12/M03 A3032 RMK AO2=
####018000139####
SPUS80 KWBC 272028
SPECI
KRQE 272025Z AUTO 18006KT 4SM -SN BR SCT020 BKN035 OVC045 02/M01
     A2978 RMK AO2 P0001 T00171006 TSNO=
####018001186####
SPUS70 KWBC 272028
SPECI
K7R3 272019Z 03009KT 10SM CLR 12/02 A3030=
PATO 272024Z AUTO 10005KT 3/4SM BR OVC002 M05/M06 A3046 RMK AO2
     T10501056 TSNO=
KDHT 272024Z AUTO 15014KT 2 1/2SM -SN SCT017 OVC022 M09/M13 A3017
     RMK AO2 P0000 T10891128=
KGCK 272024Z 16016G21KT 2 1/2SM -SN OVC023 M10/M13 A3030 RMK AO2
     VIS 1 1/2V3 P0000 T11001133=
KMKO 272024Z AUTO 08006KT 3SM -SN BKN029 OVC036 M06/M12 A3055 RMK
     AO2 SNB05 P0000 T10611122=
KRKP 272024Z AUTO 05014KT 8SM OVC029 12/06 A3023 RMK AO2
     T01170061=
KSPW 272025Z AUTO 25005KT 5SM HZ OVC014 M11/M16 A3051 RMK AO2
     T11111161 TSNO=
KAAO 272025Z AUTO 11006KT 2SM -SN BKN021 OVC031 M09/M13 A3050 RMK
     AO2 P0000 T10941133=
KLVS 272025Z AUTO 18017KT 3/4SM -SN BR OVC006 M12/M14 A2991 RMK
     AO2 UPB1954E08SNE1954B08 P0000 T11221139=
KPNC 272025Z AUTO 08007KT 3SM -SN FEW022 BKN033 OVC044 M07/M12
     A3052 RMK AO2 P0000 T10721122=
PACM 272025Z AUTO 17016G24KT 1SM BR BKN009 BKN019 OVC110 00/M01
     A3017 RMK AO2 PWINO FZRANO TSNO CIG 003V012 $=
PACM 272025Z AUTO 17016G24KT 1SM BR BKN009 BKN019 OVC110 00/M01
     A3017 RMK AO2 PWINO FZRANO TSNO CIG 003V012 $=
####018000114####
SAXX60 KWBC 272028
METAR
PKWA 272020Z AUTO 05015KT 10SM SCT021 SCT026 28/22 A2983 RMK AO2
     T02760222=
####018000718####
SPXX60 KWBC 272028
SPECI
KDMA 272023Z AUTO 24012G21KT 10SM CLR 22/M04 A2974 RMK AO2 WSHFT
     16=
KFSI 272023Z AUTO 06010KT 10SM -SN BKN016 OVC022 M07/M11 A3044 RMK
     AO2 CIG 012V020=
KNSI 272023Z AUTO 31024G31KT 10SM OVC013 A2986 RMK AO2 PK WND
     32035/2005 $=
KSKF 272021Z 04011KT 4SM -DZ BR BKN012 OVC017 01/00 A3026 RMK AO2A
     TWR VIS 3 RAE18DZB18 $=
KTIK 272024Z AUTO 05009KT 1 3/4SM -SN OVC008 M08/M11 A3046 RMK AO2
     VIS 1 1/4V1 3/4=
PATC 272024Z AUTO 20033G41KT 2SM -SN BR BKN002 M01/M01 A2995 RMK
     AO2 SLP146=
KBAN 272026Z AUTO 23019G29KT 2 1/2SM -RA BKN042 BKN049 OVC060
     05/M04 A2969 RMK AO2 PK WND 22029/2026 VIS 1 1/2V5 RAB15
     P0001 T00501044 $=
####018000637####
SAUS70 KWBC 272028
METAR
K24J 272035Z AUTO 06009KT 4SM FEW037 FEW048 SCT090 12/04 A3030 RMK
     AO1=
KIMM 272035Z AUTO 04011KT 8SM OVC015 A3015 RMK A01 P000=
KO22 272015Z AUTO 21005KT 10SM BKN017 OVC037 13/08 A2980 RMK
     AO1=
KSIK 272035Z AUTO 01006KT 10SM SCT120 M03/M11 A3062 RMK AO2
     PWINO=
KD60 272015Z AUTO 16011KT 10SM CLR M09/M16 A3013 RMK AO2=
KECU 272010Z AUTO 00000KT 1 1/4SM UP OVC006 00/M01 A3022 RMK
     AO2=
KFYG 272015Z AUTO 00000KT 10SM CLR M05/M18 A3061 RMK AO2=
KGLY 272035Z AUTO 14004KT 10SM FEW075 M06/M16 A3058 RMK AO2=
KSPA 272035Z AUTO 05003KT 10SM CLR 12/M03 A3032 RMK AO2=
####018000090####
SAAO32 KWBC 272000 RRB
METAR
GQNN 272030Z 07011KT 2500 BLSA NSC 27/M11 Q1015 NOSIG=
####018000316####
SAAS31 KWBC 272005 RRD
METAR
VAAH 272010Z VRB02KT 4000 FU FEW080 17/06 Q1010 NOSIG=
VABB 272010Z 00000KT 3000 HZ NSC 23/20 Q1010 NOSIG=
VOMM 272010Z 15005KT 6000 FEW020 27/24 Q1010 NOSIG=
VOTR 272010Z VRB02KT 6000 SCT016 SCT080 26/23 Q1010 NOSIG=
VOTV 272010Z 00000KT 4000 HZ FEW018 26/23 Q1009 NOSIG=
####018000093####
SPAK32 KWBC 272028
SPECI
PATC 272024Z AUTO 20033G41KT 2SM -SN BR BKN002 M01/M01 A2995=
####018000142####
SADN31 KWBC 272020 RRA
METAR
EKVG 272020Z AUTO 15018G29KT 8000NDV -RA OVC006/// 05/05 Q0981 RMK
     BKN008/// WIND 850FT 14030G42KT=
####018000166####
SAEN31 KWBC 272020 RRA
METAR
EFIV 272020Z AUTO 18011G22KT 140V220 9999 -SN OVC017 M00/M03
     Q1004=
EFKE 272020Z 17019KT 5000 -RASN OVC016 M00/M02 Q1010=
####018000706####
SAGR31 KWBC 272020 RRA
METAR
LGAD 272020Z 00000KT 9999 FEW018TCU SCT025 OVC080 10/08 Q1006=
LGAL 272020Z 04009KT 9999 FEW030 BKN080 12/08 Q1006=
LGEL 272020Z 00000KT 7000 -RA FEW010 BKN025 OVC070 09/09 Q1005=
LGKF 272020Z AUTO 25004KT 240V310 //// -RA ////// 11/// Q1007
     RE//=
LGKL 272020Z NIL=
LGKO 272020Z NIL=
LGKV 272020Z 10006KT 9999 FEW030 BKN080 12/09 Q1007=
LGLM 272020Z AUTO 11008KT //// -RA ////// 11/09 Q1006 RE//=
LGMT 272020Z NIL=
LGSA 272020Z 22005KT 9999 FEW018TCU SCT025 11/06 Q1008=
LGSM 272020Z NIL=
LGSR 272020Z AUTO 23016KT 210V270 //// -RA ////// 14/08 Q1008
     RE//=
LGTS 272020Z 33014KT 9999 FEW012 BKN025 OVC070 11/08 Q1007 TEMPO
     RA=
####018000299####
SAGR41 KWBC 272020 RRA
METAR
LGKP 272020Z AUTO 22020KT //// -RA ////// 15/09 Q1011 RE//=
LGKZ 272020Z AUTO 36008KT //// -RA ////// 07/05 Q1007 RE//=
LGMK 272020Z NIL=
LGPZ 272020Z NIL=
LGRX 272020Z NIL=
LGSK 272020Z NIL=
LGZA 272020Z AUTO VRB01KT //// -RA ////// 10/// Q1006 RE//=
####018000119####
SPJP31 KWBC 272028
SPECI
RODN 272024Z AUTO 08014KT 6SM R05/5000FT BR BKN006 18/15 A3008 RMK
AO2 CIG 006V008 $=
####018000081####
SAID31 KWBC 272000 RRC
METAR
WAJJ 272000Z 26007KT 9000 SCT013 26/22 Q1008=
####018000284####
SANL31 KWBC 272020 RRA
METAR
EHAM 272025Z 24008KT 9999 FEW020 02/M00 Q1021 NOSIG=
EHBK 272025Z AUTO 28003KT 250V330 9999 NCD 02/M01 Q1021 NOSIG=
EHGG 272025Z AUTO 24004KT 9999 BKN019 BKN023 00/M01 Q1019
     NOSIG=
EHRD 272025Z AUTO 22005KT 9999 NCD 01/M01 Q1021 NOSIG=
####018000119####
SPXX62 KWBC 272028
SPECI
RODN 272024Z AUTO 08014KT 6SM R05/5000FT BR BKN006 18/15 A3008 RMK
AO2 CIG 006V008 $=
####018000081####
SAUK31 KWBC 272020 RRA
METAR
EGLF 272020Z 20007KT 9999 FEW030 05/01 Q1019=
####018000081####
SAUK42 KWBC 272020 RRA
METAR
EGPN 272020Z 22016KT 9999 FEW048 06/02 Q1006=
####018001956####
SAXX99 KWBC 272000 RRS
METAR
EFET 272020Z AUTO 17010KT 140V210 3500 -SN OVC009 M01/M02
     Q1000=
EFKI 272020Z 19007KT 130V260 9999 BKN019 M00/M04 Q1015=
EFKS 272020Z 19013KT 9999 OVC018 M02/M05 Q1012=
EFKT 272020Z 17016G25KT 9999 -SN OVC011 M01/M02 Q1004
     R16/39//92=
ETGG 272020Z 30009KT 9999 02/01 Q1016 BLU+=
ETHA 272020Z AUTO 27010KT //// // ////// 00/M00 Q1016 ///=
ETHB 272020Z AUTO 30005KT 9000 // ////// 03/M00 Q1019 ///=
ETHC 272020Z 28004KT 9999 BKN160 02/01 Q1018 BLU=
ETHE 272020Z AUTO 27005KT //// // ////// 04/M00 Q1020 ///=
ETHF 272020Z VRB02KT 9999 SCT026 BKN037 03/02 Q1018 BLU=
ETHL 272020Z 26006KT 4000 -SNRA BR BKN008 BKN016 01/01 Q1018
     GRN=
ETHN 272020Z 30007KT 0800 -SN FG BKN001 OVC005 00/00 Q1017 RED=
ETHS 272020Z 28004KT 9999 BKN170 01/00 Q1017 BLU=
ETMN 272020Z 29010KT 9999 SCT030 SCT210 03/02 Q1018 BLU+=
ETNH 272020Z 28005KT 9999 SCT220 01/00 Q1017 BLU+=
ETNL 272020Z 28003KT 4500 -RA BR BKN005 BKN023 02/02 Q1015 YLO=
ETNN 272020Z 24005KT 9999 FEW035 02/M01 Q1021 BLU+=
ETNS 272020Z AUTO 28006KT 9999 // ////// 01/M01 Q1017 ///=
ETNT 272020Z 26006KT 9999 BKN036 03/01 Q1019 BLU=
ETNW 272020Z AUTO 28005KT 8000 // ////// 03/01 Q1018 ///=
ETSA 272020Z 26009KT 2000 SN BKN004 OVC010 00/M00 Q1016 YLO=
ETSB 272020Z AUTO 29005KT 9999 // ////// 00/M01 Q1019 ///=
ETSH 272020Z 27002KT 9999 FEW130 M00/M02 Q1016 BLU+=
ETSI 272020Z AUTO 29006KT 5000 // ////// 02/01 Q1016 ///=
ETSL 272020Z 24006KT 3500 SN BKN006 OVC015 01/00 Q1017 YLO=
ETSN 272020Z AUTO 26006KT //// // ////// 01/01 Q1017 ///=
ETWM 272020Z AUTO 26003KT 8000 // ////// 01/M00 Q1019 ///=
K8S0 272010Z 35013KT=
LGHI 272020Z NIL=
LGKC 272020Z NIL=
LGNX 272020Z NIL=
LGPA 272020Z NIL=
LGSO 272020Z AUTO 26013KT //// -RA ////// 11/09 Q1006 RE//=
UBBN 272030Z 01006KT 9999 NSC 00/M04 Q1022 R14R/CLRD60 NOSIG RMK
     MT OP QFE691=
UTO8 M M M 074/-23/-26/2008/M/ SOG 03 8027 02MM=
####018000069####
SAIQ01 ORBI 272030
METAR ORBI 272030Z 30003KT CAVOK 11/02 Q1018=
####018000253####
SAIN33 VECC 271850
METAR VECC 271850Z 20005KT 2600 HZ NSC 25/21 Q1011 NOSIG=
METAR VEPT 271850Z NIL=
METAR VGEG 271850Z NIL=
METAR VGHS 271850Z 19005KT 3500 HZ NSC 25/20 Q1010 NOSIG=
METAR VNKT 271850Z 00000KT 7000 FEW020 10/07 Q1019 NOSIG=
####018000072####
SAMF20 TFFR 272030
METAR TFFR 272030Z 09012KT 9999 SCT030 26/20 Q1016=####018000095####
SPCN42 CWAO 272027
SPECI CYUA 272027Z AUTO 24017G24KT 9SM -RA BKN025 BKN041 M02/ A3010=

####018000123####
SAUS45 KABQ 272028
MTRCQC
SPECI KCQC 272026Z AUTO 12009KT 3SM -SN BR OVC006 M10/M12 A2988 RMK 
AO2 P0000 T11001122
####018000071####
SANL32 EHDB 272025
METAR EHEH 272025Z NIL=
METAR EHKD 272025Z NIL=
####018000089####
SPAU67 AMMC 272028
SPECI YPMQ 272028Z AUTO 00000KT 9999 // SCT001 19/19 Q1010=


####018000088####
SAUK31 EGGY 272020 CCA
METAR COR EGCC 272020Z 19012KT 9999 FEW033 06/01 Q1014 NOSIG=
####018000087####
SASA KAWN 272000 RRJ
METAR SAOC 272000Z 05009KT 8000 DZ SCT012 SCT020 20/18 Q1017=
####018000099####
SAMS31 WMKK 272000 RRB
METAR WMKP 272000Z 02003KT 8000 FEW025 SCT140 BKN280 27/23 Q1008 NOSIG=
####018000099####
SAMS31 WMKK 271930 RRB
METAR WMKP 271930Z 02003KT 8000 FEW025 SCT140 BKN280 27/23 Q1008 NOSIG=
####018000099####
SAMS32 WMKK 272000 RRC
METAR WMKP 272000Z 02003KT 8000 FEW025 SCT140 BKN280 27/23 Q1008 NOSIG=
####018000111####
SPCN49 CWAO 272027
SPECI CYDF 272027Z 25015G21KT 3/4SM -SHSN OVC015 M10/M13 A2994 RMK
 SN6SF2 SLP141=

####018000101####
SAMS31 WMKK 271930 RRB
METAR WMKP 271930Z 02003KT 8000 FEW025 SCT140 BKN280 27/23 Q1008
NOSIG=
####018000092####
SAGR31 LGAT 272020 CCA
METAR COR LGSA 272020Z 32009KT 9999 FEW018TCU SCT025 11/06 Q1008=
####018000472####
SAUS20 KNKA 272027
SPECI K7R3 272019Z 03009KT 10SM CLR 12/02 A3030=
SPECI KLXV 272026Z AUTO 00000KT 2SM -SN BKN025 OVC033 M07/M12 A2965 
 RMK AO2 SNB00 P0000 T10671117=
SPECI KPGD 272026Z 05009KT 10SM BKN018 BKN030 OVC039 16/11 A3017 RMK 
 AO2 T01560111=
SPECI KRBD 272026Z 04010KT 2SM -SN BR BKN011 BKN018 OVC050 M03/M06 
 A3040 RMK AO2 P0000 T10331056=
SPECI KTRL 272026Z AUTO 04012KT 7SM SCT013 OVC018 M01/M04 A3043 RMK 
 AO2 SNE07 P0000 T10111039=
####018000104####
SAAK41 KNKA 272027
SPECI PADM 272026Z AUTO 13017KT 10SM OVC031 M01/M05 A3031 RMK AO2 
    TSNO $=
####018000127####
SAUS45 KABQ 272028 COR
MTRCQC
SPECI KCQC 272026Z AUTO 12009KT 3SM -SN BR OVC006 M10/M12 A2988 RMK 
AO2 P0000 T11001122
####018000101####
SAMS32 WMKK 272000 RRC
METAR WMKP 272000Z 02003KT 8000 FEW025 SCT140 BKN280 27/23 Q1008
NOSIG=
####018000101####
SAMS31 WMKK 272000 RRB
METAR WMKP 272000Z 02003KT 8000 FEW025 SCT140 BKN280 27/23 Q1008
NOSIG=
####018000112####
SPCN52 CWAO 272028
SPECI CZUM 272028Z AUTO 28010G19KT 2SM -SN BKN024 OVC035 M24/M29
 A2971 RMK SLP120=

####018000539####
SPUS99 KWBC 272029
SPECI
PADM 272026Z AUTO 13017KT 10SM OVC031 M01/M05 A3031 RMK AO2 TSNO
     $=
K7R3 272019Z 03009KT 10SM CLR 12/02 A3030=
KLXV 272026Z AUTO 00000KT 2SM -SN BKN025 OVC033 M07/M12 A2965 RMK
     AO2 SNB00 P0000 T10671117=
KPGD 272026Z 05009KT 10SM BKN018 BKN030 OVC039 16/11 A3017 RMK AO2
     T01560111=
KRBD 272026Z 04010KT 2SM -SN BR BKN011 BKN018 OVC050 M03/M06 A3040
     RMK AO2 P0000 T10331056=
KTRL 272026Z AUTO 04012KT 7SM SCT013 OVC018 M01/M04 A3043 RMK AO2
     SNE07 P0000 T10111039=
####018000082####
SASG20 GOOY 272030
METAR GOOY 272030Z 02008KT 2100  DU NSC 23/10 Q1011 NOSIG=
####018000063####
SASU01 HSSS 272030
METAR HSSS 272030Z 36009KT CAVOK Q1010=
####018000098####
SPUS52 KWBC 272029
SPECI
KDHT 272024Z AUTO 15014KT 2 1/2SM -SN SCT017 OVC022 M09/M13 A3017=
####018000103####
SPUS52 KWBC 272029
SPECI
KPNC 272025Z AUTO 08007KT 3SM -SN FEW022 BKN033 OVC044 M07/M12
A3052=
####018000089####
SPUS53 KWBC 272029
SPECI
KGCK 272024Z 16016G21KT 2 1/2SM -SN OVC023 M10/M13 A3030=
####018000243####
SADL36 EDZO 272020
METAR ETMN 272020Z 29010KT 9999 SCT030 SCT210 03/02 Q1018
      BLU+=
METAR ETNL 272020Z 28003KT 4500 -RA BR BKN005 BKN023 02/02 Q1015
      YLO=
METAR ETSI 272020Z AUTO 29006KT 5000 // ////// 02/01 Q1016
      ///=
####018000295####
SAPK31 OPKC 272030
METAR OPGD 272030Z NIL=
METAR OPKC 272025Z 16009KT 5000 TSRA FEW020CB BKN025 OVC090 17/10
Q1013 TEMPO
TSRA SCT020CB=
METAR OPLA 272025Z 00000KT 4000 FU NSC 14/09 Q1016=
METAR OPNH 272030Z NIL=
METAR OPPS 272030Z NIL=
METAR OPRN 272030Z NIL=
METAR OPSK 272030Z NIL=
####018000198####
SACV20 GVAC 272000
METAR GVAC 272000Z 07020KT 5000 HZ NSC 21/14 Q1015 NOSIG=
GVNP 272000Z 02015KT 6000 NSC 22/14 Q1013 NOSIG=
METAR GVSV 272000Z 06020G30KT 5000 HZ FEW018 22/14 Q1016 NOSEG=
####018000090####
SPUS81 KWBC 272029
SPECI
KCQC 272026Z AUTO 12009KT 3SM -SN BR OVC006 M10/M12 A2988=
####018000105####
SPUS81 KWBC 272029
SPECI
KRQE 272025Z AUTO 18006KT 4SM -SN BR SCT020 BKN035 OVC045 02/M01
A2978=
####018000748####
SANL33 EHDB 272025
METAR EHAK 272025Z AUTO 22017KT 9999 NCD 06/03 Q1015=
METAR EHDV 272025Z AUTO 23021KT 200V290 9999 FEW033/// 06/03 Q1016=
METAR EHFD 272025Z AUTO 23015KT 9999 FEW014/// BKN016/// BKN020///
05/01 Q1016=
METAR EHFZ 272025Z AUTO 23013KT 9999 FEW008/// 05/03 Q1017=
METAR EHJA 272025Z AUTO 22018KT 9999 NCD 06/02 Q1017=
METAR EHJR 272025Z NIL=
METAR EHKV 272025Z AUTO 22013KT 9999 FEW033/// 06/02 Q1018=
METAR EHMA 272025Z AUTO 27010KT 9999 SCT026/// SCT031/// 05/02 Q1019=
METAR EHMG 272025Z AUTO 25015KT 9999 FEW017/// SCT020/// BKN024///
05/01 Q1018=
METAR EHPG 272025Z AUTO 22017KT 9999 NSC 06/02 Q1019=
METAR EHQE 272025Z AUTO 25010KT 9999 FEW015/// 05/01 Q////=
METAR EHSA 272025Z NIL=
METAR EHSC 272025Z NIL=
####018000074####
SPPR00 SPIM 272030
SPECI SPZA 272030Z 20011KT 9999 SCT050 31/17 Q1011=
####018000780####
SAUK KAWN 272000 RRF
METAR EGBB 272020Z 18006KT CAVOK 05/M00 Q1016=
METAR COR EGCC 272020Z 19012KT 9999 FEW033 06/01 Q1014 NOSIG=
METAR EGCC 272020Z AUTO 19012KT 9999 FEW033 BKN040 06/01 Q1014=
METAR EGFF 272020Z AUTO 20008KT 9999 BKN029 06/04 Q1017=
METAR EGJB 272020Z 21012KT 9999 FEW025 07/04 Q1021=
METAR EGKB 272020Z 19008KT CAVOK 04/00 Q1019=
METAR EGLF 272020Z 20007KT 9999 FEW030 05/01 Q1019=
METAR EGNH 272020Z 17013KT 9999 OVC034 07/01 Q1013=
METAR EGNM 272020Z 18009KT 9999 SCT047 04/00 Q1013=
METAR EGNS 272020Z 21023KT 9999 FEW012 BKN017 07/05 Q1009 NOSIG=
METAR COR EGPB 272020Z 19022G33KT 9999 FEW025 06/03 Q1000 NOSIG=
METAR EGPK 272020Z 18014KT 9999 -SHRA FEW022 SCT046 07/03 Q1006=
METAR EGPN 272020Z 22016KT 9999 FEW048 06/02 Q1006=
####018000416####
SPNA14 KAWN 272029 RRC
SPECI KNSI 272023Z AUTO 31024G31KT 10SM OVC013 A2986 RMK AO2 PK WND
      32035/2005 $=
SPECI KSKF 272021Z 04011KT 4SM -DZ BR BKN012 OVC017 01/00 A3026 RMK
      AO2A TWR VIS 3 RAE18DZB18 $=
SPECI KTIK 272024Z AUTO 05009KT 1 3/4SM -SN OVC008 M08/M11 A3046 RMK
      AO2 VIS 1 1/4V1 3/4=
SPECI KTIK 272028Z AUTO 04008KT 2SM -SN OVC009 M08/M11 A3046 RMK AO2
      VIS 1 1/4V2=
####018000324####
SPUS17 KAWN 272029 RRD
SPECI KDMA 272023Z AUTO 24012G21KT 10SM CLR 22/M04 A2974 RMK AO2 WSHFT
      16=
SPECI KFSI 272023Z AUTO 06010KT 10SM -SN BKN016 OVC022 M07/M11 A3044
      RMK AO2 CIG 012V020=
SPECI KGRF 272025Z 02003KT 2 1/2SM -RA BR BKN004 OVC019 09/09 A2974
      RMK AO2A TWR VIS 1 1/2 VIS 2V2 1/2=
####018000219####
SPUS90 KWBC 272030
SPECI KCQC 272026Z AUTO 12009KT 3SM -SN BR OVC006 M10/M12 A2988
     RMK AO2 P0000 T11001122=
SPECI KSXT 272028Z AUTO VRB03KT 5SM BR FEW003 SCT007 BKN070 03/03
     A2974 RMK AO2 T00330028=
####018000221####
SPUS90 KWBC 272030 CCA
SPECI KCQC 272026Z AUTO 12009KT 3SM -SN BR OVC006 M10/M12 A2988
     RMK AO2 P0000 T11001122=
SPECI KCQC 272026Z AUTO 12009KT 3SM -SN BR OVC006 M10/M12 A2988
     RMK AO2 P0000 T11001122=
####018000767####
SAUS20 KNKA 272028
METAR KAIK 272035Z AUTO 00000KT 10SM CLR 12/00 A3035 RMK AO2=
METAR KDYA 272015Z AUTO 33006KT 10SM CLR 08/M04 A3039 RMK AO2 
 T00831044=
METAR KGGE 272035Z AUTO 12009KT 10SM CLR 08/03 A3037 RMK AO2=
METAR KGPH 272035Z AUTO 00000KT 10SM CLR M08/M17 A3059 RMK AO2=
SPECI KGUY 272027Z AUTO 15010KT 8SM -SN BKN024 OVC060 M09/M13 A3027 
 RMK AO2 P0000 T10891133=
METAR KLQK 272035Z AUTO 10SM CLR 11/M05 A3031 RMK AO2 T01141055=
METAR KLUX 272035Z AUTO 29005KT 10SM CLR 12/02 A3031 RMK AO2=
METAR KM25 272055Z AUTO 00000KT 10SM CLR M02/M12 A3057 RMK AO2=
SPECI KSAT 272027Z 03007KT 1 1/2SM R12R/5500VP6000FT -RA BR OVC013 
 01/M01 A3028 RMK AO2 P0000 T00111011=
METAR KSPF 272015Z AUTO 29003KT 10SM CLR M09/M15 A2997 RMK AO2=
####018000550####
SANL40 EHWX 272025
METAR EHDL 272025Z AUTO 25003KT 9999 FEW110 M00/M02 Q1020
BLU=
METAR EHEH 272025Z AUTO 25004KT 9999 NCD 00/M01 Q1021
BLU 28005KT CAVOK=
METAR EHGR 272025Z AUTO 23004KT 9999 SCT380 01/00 Q1021
BLU=
METAR EHKD 272025Z AUTO 25007KT 9999 FEW170 03/01 Q1020
BLU=
METAR EHLW 272025Z AUTO 23004KT 9999 OVC028 01/M00 Q1019
BLU=
METAR EHVK 272025Z AUTO 24004KT 9999 NCD 00/M01 Q1021
BLU=
METAR EHVL 272025Z AUTO 27012KT 9999 NCD 04/01 Q1019
BLU=
METAR EHWO 272025Z AUTO 19001KT 9999 NCD M01/M01 Q1021
BLU=
####018000111####
SPCN43 CWAO 272028
SPECI CYBK 272028Z 19004KT 5SM -SN FEW015 BKN050 M22/M25 A2972 RMK
 SC2SC5 SLP066=

####018000165####
SANL32 EHDB 272025 RRA
METAR EHEH 272025Z AUTO 25004KT 9999 NCD 00/M01 Q1021 
BLU 28005KT CAVOK=
METAR EHKD 272025Z AUTO 25007KT 9999 FEW170 03/01 Q1020 
BLU=
####018000089####
SPAU67 AMMC 272029
SPECI YPMQ 272029Z AUTO 00000KT 9999 // SCT001 19/19 Q1010=


####018000127####
SAUS45 KABQ 272029 COR
MTRCQC
SPECI KCQC 272026Z AUTO 12009KT 3SM -SN BR OVC006 M10/M12 A2988 RMK 
AO2 P0000 T11001122
####018000125####
SAUS46 KMFR 272029
MTRSXT
SPECI KSXT 272028Z AUTO VRB03KT 5SM BR FEW003 SCT007 BKN070 03/03 
A2974 RMK AO2 T00330028
####018000112####
SPCN52 CWAO 272029
SPECI CZUM 272029Z AUTO 27011G19KT 2SM -SN BKN026 OVC035 M24/M29
 A2971 RMK SLP120=

####018000520####
SAUS99 KWBC 272030
METAR
KAIK 272035Z AUTO 00000KT 10SM CLR 12/00 A3035 RMK AO2=
KDYA 272015Z AUTO 33006KT 10SM CLR 08/M04 A3039 RMK AO2
     T00831044=
KGGE 272035Z AUTO 12009KT 10SM CLR 08/03 A3037 RMK AO2=
KGPH 272035Z AUTO 00000KT 10SM CLR M08/M17 A3059 RMK AO2=
KLQK 272035Z AUTO 10SM CLR 11/M05 A3031 RMK AO2 T01141055=
KLUX 272035Z AUTO 29005KT 10SM CLR 12/02 A3031 RMK AO2=
KM25 272055Z AUTO 00000KT 10SM CLR M02/M12 A3057 RMK AO2=
KSPF 272015Z AUTO 29003KT 10SM CLR M09/M15 A2997 RMK AO2=
####018000233####
SPUS99 KWBC 272030
SPECI
KGUY 272027Z AUTO 15010KT 8SM -SN BKN024 OVC060 M09/M13 A3027 RMK
     AO2 P0000 T10891133=
KSAT 272027Z 03007KT 1 1/2SM R12R/5500VP6000FT -RA BR OVC013
     01/M01 A3028 RMK AO2 P0000 T00111011=
####018000075####
SAEG31 HECA 272030
METAR HECA 272030Z 29006KT CAVOK 18/05 Q1016 NOSIG=
####018000425####
SPUS80 KWBC 272030
SPECI
KCQC 272026Z AUTO 12009KT 3SM -SN BR OVC006 M10/M12 A2988 RMK AO2
     P0000 T11001122=
KLXV 272026Z AUTO 00000KT 2SM -SN BKN025 OVC033 M07/M12 A2965 RMK
     AO2 SNB00 P0000 T10671117=
KSAT 272027Z 03007KT 1 1/2SM R12R/5500VP6000FT -RA BR OVC013
     01/M01 A3028 RMK AO2 P0000 T00111011=
KSXT 272028Z AUTO VRB03KT 5SM BR FEW003 SCT007 BKN070 03/03 A2974
     RMK AO2 T00330028=
####018000533####
SPUS70 KWBC 272030
SPECI
PADM 272026Z AUTO 13017KT 10SM OVC031 M01/M05 A3031 RMK AO2 TSNO
     $=
K7R3 272019Z 03009KT 10SM CLR 12/02 A3030=
KPGD 272026Z 05009KT 10SM BKN018 BKN030 OVC039 16/11 A3017 RMK AO2
     T01560111=
KRBD 272026Z 04010KT 2SM -SN BR BKN011 BKN018 OVC050 M03/M06 A3040
     RMK AO2 P0000 T10331056=
KTRL 272026Z AUTO 04012KT 7SM SCT013 OVC018 M01/M04 A3043 RMK AO2
     SNE07 P0000 T10111039=
KGUY 272027Z AUTO 15010KT 8SM -SN BKN024 OVC060 M09/M13 A3027 RMK
     AO2 P0000 T10891133=
####018000217####
SPUS80 KWBC 272030 CCA
SPECI
KCQC 272026Z AUTO 12009KT 3SM -SN BR OVC006 M10/M12 A2988 RMK AO2
     P0000 T11001122=
KCQC 272026Z AUTO 12009KT 3SM -SN BR OVC006 M10/M12 A2988 RMK AO2
     P0000 T11001122=
####018000089####
SAUS80 KWBC 272100
METAR
KM25 272055Z AUTO 00000KT 10SM CLR M02/M12 A3057 RMK AO2=
####018000460####
SAUS70 KWBC 272030
METAR
KAIK 272035Z AUTO 00000KT 10SM CLR 12/00 A3035 RMK AO2=
KDYA 272015Z AUTO 33006KT 10SM CLR 08/M04 A3039 RMK AO2
     T00831044=
KGGE 272035Z AUTO 12009KT 10SM CLR 08/03 A3037 RMK AO2=
KGPH 272035Z AUTO 00000KT 10SM CLR M08/M17 A3059 RMK AO2=
KLQK 272035Z AUTO 10SM CLR 11/M05 A3031 RMK AO2 T01141055=
KLUX 272035Z AUTO 29005KT 10SM CLR 12/02 A3031 RMK AO2=
KSPF 272015Z AUTO 29003KT 10SM CLR M09/M15 A2997 RMK AO2=
####018000069####
SAAF35 KWBC 272000 RRB
METAR
HSSS 272030Z 36009KT CAVOK Q1010=
####018000087####
SAAO33 KWBC 272000 RRB
METAR
GOOY 272030Z 02008KT 2100 DU NSC 23/10 Q1011 NOSIG=
####018000108####
SAAS33 KWBC 272005 RRB
METAR
WMKP 272000Z 02003KT 8000 FEW025 SCT140 BKN280 27/23 Q1008
     NOSIG=
####018000108####
SAAS33 KWBC 271930 RRC
METAR
WMKP 271930Z 02003KT 8000 FEW025 SCT140 BKN280 27/23 Q1008
     NOSIG=
####018000277####
SAAW34 KWBC 272015 RRA
METAR
OPGD 272030Z NIL=
OPKC 272025Z 16009KT 5000 TSRA FEW020CB BKN025 OVC090 17/10 Q1013
     TEMPO TSRA SCT020CB=
OPLA 272025Z 00000KT 4000 FU NSC 14/09 Q1016=
OPNH 272030Z NIL=
OPPS 272030Z NIL=
OPRN 272030Z NIL=
OPSK 272030Z NIL=
####018000145####
SAUS45 KABQ 272030
MTRABQ
SPECI KABQ 272029Z 01005KT 8SM -SN FEW009 BKN013 OVC025 M03/M06 
A2992 RMK AO2 MTNS OBSC NE-SE P0000 T10331056
####018000091####
SAGR31 KWBC 272020 CCA
METAR
LGSA 272020Z 32009KT 9999 FEW018TCU SCT025 11/06 Q1008=
