####018000171####
SAUS90 KWBC 272106
METAR PABA 272101Z AUTO 29025KT 6SM BR CLR M03/M03 A3012 RMK AO2
     PK WND 29028/2101 SNE2003 SLP198 P0000 60000 T10281033 51012
     FZRANO=
####018000283####
SAAP31 FAPR 272100
METAR FACT 272100Z 18015KT 150V210 CAVOK 20/14 Q1015 NOSIG=
METAR FAGG 272100Z AUTO 09005KT 9999 OVC034/// 19/17 Q1019=
METAR FAKM 272100Z AUTO 12007KT //// // ////// 18/10 Q1021=
METAR FALE 272100Z 22007KT 9999 BKN035 FEW045CB 23/18 Q1017 RETS
     NOSIG=
####018000027####
SASP37 LEMM 272100
NIL=
####018001309####
SABZ12 SBBR 272105
METAR SBAR 272100Z 12010KT 9999 SCT020 28/22 Q1010=
METAR SBCB 272100Z 09007KT CAVOK 27/24 Q1008=
METAR SBCP 272100Z 10008KT 9999 FEW030 29/22 Q1007=
METAR SBFN 272100Z 18005KT 9999 SCT011 27/24 Q1011=
METAR SBGO 272100Z 35006KT 9999 SCT025 28/16 Q1013=
METAR SBJP 272100Z 12008KT 9999 FEW023 27/21 Q1011=
METAR SBLO 272100Z 23009KT 9999 FEW035 FEW040TCU 24/23 Q1012=
METAR SBMA 272100Z 22002KT 9999 FEW020 27/25 Q1010=
METAR SBMN 272100Z 13004KT 9999 SCT025 29/23 Q1008=
METAR SBNF 272100Z 17010KT 9999 -RA FEW020 FEW030TCU SCT050 28/25 Q10
08
 RETS=
METAR SBPK 272100Z 18015KT 9999 SCT020 25/17 Q1012=
METAR SBPL 272100Z 01003KT 9999 FEW040 33/19 Q1009=
METAR SBPS 272100Z 05013KT 9999 FEW015 BKN100 28/24 Q1009=
METAR SBPV 272100Z 00000KT 9999 VCSH SCT023 FEW025TCU SCT100 28/23 Q1
007=
METAR SBRB 272100Z 36005KT 9999 SCT030 31/24 Q1007=
METAR SBRJ 272100Z 16010KT 9999 FEW025 28/24 Q1007=
METAR SBRP 272100Z 13003KT 100V180 9000 -TSRA BKN040 FEW045CB SCT090 
21/20
 Q1012=
METAR SBSJ 272100Z 16010KT 9999 SCT027 FEW030TCU 27/16 Q1012=
METAR SBSP 272100Z 19006KT 9999 VCSH SCT045 26/13 Q1012=
METAR SBTE 272100Z 21003KT 9999 FEW030 30/23 Q1008=
METAR SBTF 272100Z 09003KT 5000 -TSRA SCT010 FEW032CB BKN070 25/24 Q1
010=
METAR SBVT 272100Z 18003KT 9999 FEW030 BKN090 27/21 Q1007=
####018000205####
SASP40 LEMM 272100
METAR LEGA 272100Z NIL=
METAR LEGT 272100Z NIL=
METAR LEMO 272100Z 21008KT   CAVOK 12/10 Q1025
NOSIG=
METAR LERI 272100Z NIL=
METAR LERT 272100Z 25009KT CAVOK 14/12 Q1025 NOSIG=
####018000257####
SAAP33 FAPR 272100
METAR FAPE 272100Z 00000KT CAVOK 17/16 Q1019 NOSIG=
METAR FAUP 272100Z AUTO 31001KT //// // ////// 24/04 Q1014=
METAR FAWB 272100Z AUTO 14007KT //// // ////// 19/13 Q1019=
METAR FAWK 272100Z AUTO 15009KT //// // ////// 17/13 Q1022=
####018000221####
SASP41 LEMM 272100
METAR LEAO 272100Z NIL=
METAR LEBT 272100Z AUTO 32011G21KT 280V020 CAVOK 12/M04 Q1021=
METAR LECV 272100Z NIL=
METAR LEEC 272100Z NIL=
METAR LELO 272100Z 29004KT 250V340 9999 SCT030 06/03 Q1027=
####018000121####
SAAP36 FAPR 272100
METAR FQBR 272100Z 05005KT CAVOK 26/23 Q1010=
METAR FQQL 272100Z 14002KT 9999 FEW020 25/23 Q1011=
####018000258####
SAAP32 FAPR 272100
METAR FALA 272100Z AUTO 11013KT //// // 18/13 Q1021=
METAR FAMM 272100Z AUTO 05009KT //// // ////// 19/09 Q1018=
METAR FAPN 272100Z AUTO 00000KT //// // ////// 17/13 Q1018=
METAR FAPP 272100Z AUTO 13004KT //// // ////// 20/13 Q1019=
####018000221####
SAIY33 LIIB 272100
METAR LIMA 272100Z NIL=
METAR LIMG 272100Z NIL=
METAR LIMP 272050Z 23004KT CAVOK 07/03 Q1014=
METAR LIMS 272100Z NIL=
METAR LIMW 272100Z NIL=
METAR LIMZ 272050Z 24004KT 9999 SCT120 03/00 Q1013=
####018000187####
SAIY34 LIIB 272100
METAR LIPC 272055Z 28004KT CAVOK 05/04 Q1013=
METAR LIPF 272100Z NIL=
METAR LIPO 272050Z 28006KT CAVOK 07/03 Q1013=
METAR LIPY 272050Z 19004KT CAVOK 05/04 Q1013=
####018000296####
SAIY35 LIIB 272100
METAR LIQN 272100Z NIL=
METAR LIQW 272100Z NIL=
METAR LIRG 272100Z NIL=
METAR LIRH 272100Z NIL=
METAR LIRL 272100Z NIL=
METAR LIRM 272055Z 36003KT 9999 SCT080 07/06 Q1011=
METAR LIRS 272055Z /////KT CAVOK 06/02 Q1011=
METAR LIRU 272100Z NIL=
METAR LIRV 272100Z NIL=
####018000645####
SAUS99 KWBC 272106
METAR
K4A6 272055Z AUTO 34007KT 10SM CLR 04/M09 A3044 RMK AO2=
K96D 272055Z AUTO 24010G15KT 10SM M10/M17 A3033 RMK AO2=
K9D7 272055Z AUTO 23011KT 10SM CLR M09/M16 A3027 RMK AO2=
KANQ 272135Z AUTO 24006KT 10SM CLR M09/M17 A3055 RMK=
KCBG 272101Z AUTO 20008KT 10SM CLR M08/M17 A3046 RMK AO2=
KHRT 272058Z AUTO 04012KT 10SM CLR 14/M03 A3026 RMK AO2 SLP249
     T01401029 57020 $=
KIMM 272115Z AUTO 03012KT 8SM OVC015 A3014 RMK A01 P000=
KMMT 272058Z 12004KT 10SM FEW050 SCT250 15/00 A3033 RMK AO2A
     SLP274 T01510003 55014=
KNCA 272056Z 36009KT 10SM CLR 10/M01 A3037 RMK AO2 SLP286
     T01001011=
####018000944####
SPUS99 KWBC 272106
SPECI
PACM 272103Z AUTO 17020G25KT 3SM BR BKN007 BKN012 OVC110 M01/M01
     A3016 RMK AO2 PWINO FZRANO TSNO CIG 006V011 $=
KCLM 272103Z AUTO 06007KT 030V100 7SM -RA BKN007 BKN012 OVC026
     07/06 A2981 RMK AO2 CIG 006V010 P0000 T00720061=
KDTO 272103Z 03010KT 1/2SM -SN FZFG VV014 M04/M06 A3044 RMK AO2
     P0000 T10441061=
KEYW 272103Z 02011KT 10SM OVC010 22/20 A3006 RMK AO2 T02220200=
KGRR 272103Z 25007KT 4SM -SN BR FEW012 BKN018 BKN035 M08/M12 A3054
     RMK AO2 P0000 T10831122=
KGUP 272103Z AUTO 26008KT 1 3/4SM -SN SCT013 BKN028 OVC040 02/M01
     A2979 RMK AO2 P0000 T00171011=
KOKC 272103Z 07007KT 3SM -SN BKN015 OVC055 M07/M12 A3047 RMK AO2
     P0000=
KXNA 272103Z 07007KT 1SM R17/4000VP6000FT -SN BKN020 OVC036
     M08/M12 A3050 RMK AO2 P0000 T10781117=
PACM 272103Z AUTO 17020G25KT 3SM BR BKN007 BKN012 OVC110 M01/M01
     A3016 RMK AO2 PWINO FZRANO TSNO CIG 006V011 $=
####018000167####
SAAA31 KWBC 272100
METAR
NZCM 272055Z VRB05KT 9999 FEW020 FEW030 M05/M14 A2918 RMK SLP886
     FATA MORGANA S=
NZIR NIL=
NZPG NIL=
NZSP NIL=
NZWD NIL=
####018000343####
SPXX60 KWBC 272106
SPECI
KCOF 272103Z AUTO 34016G21KT 10SM -RA VCTS OVC007 13/13 A3017 RMK
     AO2 LTG DSNT E TSE03=
KNFL 272100Z 26025G38KT 3SM -RA SCT030 BKN050 OVC060 07/02 A2968
     RMK AO2 PK WND 26033/2057 PRESRR WR// P0000 T00670017=
KTCM 272103Z AUTO 02006KT 10SM -RA BKN008 BKN027 OVC032 09/09
     A2974 RMK AO2 $=
####018002910####
SAXX60 KWBC 272100 RRI
METAR
K79J 272056Z AUTO 06007G15KT 010V100 10SM CLR 16/M02 A3030 RMK AO2
     SLP260 T01561022 56018=
KCVS 272059Z 15011KT 6SM -SHSN BKN005 OVC011 M10/M13 A3013 RMK
     SLP250 P0000 60000 T11021131 57028 $=
KDLF 272058Z AUTO 09005KT 5SM BR BKN007 OVC011 02/00 A3023 RMK AO2
     CIG 007V010 SLP242 57026 $=
KEDW 272058Z 26013G18KT 80SM FEW040 SCT300 18/03 A2969 RMK AO2A PK
     WND 22030/54 SLP045 CONTRAILS T01810029 57026=
KFCS 272058Z 11007KT 1/2SM -SN BR BKN008 OVC024 M11/M15 A2990 RMK
     AO2A CIG 009V012 SLP233 P0000 60000 T11111147 57022=
KGRK 272058Z 04011KT 1 1/2SM -FZRA BR BKN006 OVC012 M02/M04 A3032
     RMK A02A FZRAB55 SLP278 P0000 60000 57023=
KGSB 272058Z AUTO 04008KT 10SM CLR 09/00 A3036 RMK AO2 SLP285
     T00910002 55001 $=
KHRT 272058Z AUTO 04012KT 10SM CLR 14/M03 A3026 RMK AO2 SLP249
     T01401029 57020 $=
KLHW 272058Z AUTO VRB03KT 10SM FEW200 11/02 A3031 RMK AO2 SLP267
     T01120015 55010=
KMGE 272058Z 31010KT 10SM FEW250 07/M07 A3036 RMK AO2A SLP290
     T00721069 55006 $=
KMMT 272058Z 12004KT 10SM FEW050 SCT250 15/00 A3033 RMK AO2A
     SLP274 T01510003 55014=
KNCA 272056Z 36009KT 10SM CLR 10/M01 A3037 RMK AO2 SLP286
     T01001011=
KNRS 272056Z 18011G19KT 10SM FEW025 BKN035 18/11 A2984 RMK AO2
     SLP104 T01830111 58012 $=
KDYS 272058Z 04008KT 6SM -FZRA OVC008 M07/M08 A3033 RMK AO2A
     SLP302 P0000 60000 T10661084 57019 $=
KSZL 272058Z AUTO 12004KT 10SM CLR M07/M17 A3056 RMK AO2 SLP369
     T10681173 56023 $=
KNGU 272059Z 02015KT 8SM SCT029 BKN036 01/M04 A3047 RMK AO2 SLP316
     T00111044 53018=
KNFL 272056Z 26030G38KT 7SM -RA SCT035 BKN060 BKN120 08/00 A2968
     RMK AO2 PK WND 25038/2054 RAB53 PRESRR SLP032 P0000 60000
     T00830000 55022=
KNGP 272056Z 05022G27KT 5SM -RA BR BKN010 OVC020 11/08 A3019 RMK
     AO2 PK WND 06028/2034 RAB56 SLP223 P0000 60000 T01060083
     58023=
KNGU 272059Z 02015KT 8SM SCT029 BKN036 01/M04 A3047 RMK AO2 SLP316
     T00111044 53018=
KNMM 272056Z 06009KT 10SM CLR 08/M06 A3039 RMK AO2 SLP302
     T00831056 56024=
KNSI 272057Z AUTO 31022G36KT 10SM OVC013 A2983 RMK AO2 PK WND
     31036/2050 SLPNO 58009 $=
KNTD 272056Z COR 26012KT 10SM FEW027 SCT250 19/12 A2981 RMK AO2
     SLP096 T01940117 58019 $=
KNYL 272057Z 24004KT 10SM FEW100 24/06 A2968 RMK AO2 SLP047
     T02390056 58024=
KSZL 272058Z AUTO 12004KT 10SM CLR M07/M17 A3056 RMK AO2 SLP369
     T10681173 56023 $=
KVBG 272055Z COR 32021G28KT 10SM SCT015 BKN020 BKN250 16/12 A2986
     RMK AO2 PK WND 32030/2011 BKN020 V SCT SLP102 T01610117 58012
     COR 2057=
KHRT 272058Z AUTO 04012KT 10SM CLR 14/M03 A3026 RMK AO2 SLP249
     T01401029 57020 $=
KMMT 272058Z 12004KT 10SM FEW050 SCT250 15/00 A3033 RMK AO2A
     SLP274 T01510003 55014=
KNCA 272056Z 36009KT 10SM CLR 10/M01 A3037 RMK AO2 SLP286
     T01001011=
####018000551####
SAUS70 KWBC 272106
METAR
PABA 272101Z AUTO 29025KT 6SM BR CLR M03/M03 A3012 RMK AO2 PK WND
     29028/2101 SNE2003 SLP198 P0000 60000 T10281033 51012
     FZRANO=
KDCM 272115Z AUTO 11005KT 10SM CLR 12/M02 A3034 RMK AO2=
PABA 272101Z AUTO 29025KT 6SM BR CLR M03/M03 A3012 RMK AO2 PK WND
     29028/2101 SNE2003 SLP198 P0000 60000 T10281033 51012
     FZRANO=
KANQ 272135Z AUTO 24006KT 10SM CLR M09/M17 A3055 RMK=
KCBG 272101Z AUTO 20008KT 10SM CLR M08/M17 A3046 RMK AO2=
KIMM 272115Z AUTO 03012KT 8SM OVC015 A3014 RMK A01 P000=
####018000285####
SAUS70 KWBC 272100 RRQ
METAR
KWDG 272055Z 05010KT 1 1/2SM -SN BR SCT005 OVC016 M07/M11
     A3050=
K4A6 272055Z AUTO 34007KT 10SM CLR 04/M09 A3044 RMK AO2=
K96D 272055Z AUTO 24010G15KT 10SM M10/M17 A3033 RMK AO2=
K9D7 272055Z AUTO 23011KT 10SM CLR M09/M16 A3027 RMK AO2=
####018000354####
SPUS80 KWBC 272106
SPECI
KAST 272102Z AUTO 34005KT 2 1/2SM RA BR SCT021 BKN026 OVC033 10/08
     A2970 RMK AO2 VIS 1 1/2 RWY 08 CIG 021 RWY 08 P0001
     T01000083=
KBVE 272101Z AUTO 04012KT 10SM FEW027 10/04 A3029 RMK AO2
     T01000039=
KGRR 272103Z 25007KT 4SM -SN BR FEW012 BKN018 BKN035 M08/M12 A3054
     RMK AO2 P0000 T10831122=
####018001247####
SPUS70 KWBC 272106
SPECI
KART 272103Z AUTO 25006KT 3/4SM -SN VV017 M10/M13 A3048 RMK AO2
     P0000 T11001133=
KMWL 272102Z AUTO 05008KT 1SM -SN FEW009 BKN031 OVC042 M05/M08
     A3040 RMK AO2 P0000 T10501078=
KOXB 272102Z AUTO 05003KT 5SM HZ BKN025 OVC033 M01/M04 A3047 RMK
     AO2 T10111044 TSNO=
PASC 272100Z 27025G28KT 4SM -SN BLSN BKN031 BKN044 M08/M12 A3015
     RMK AO2 PK WND 27028/2100 P0000 T10831117=
PACM 272103Z AUTO 17020G25KT 3SM BR BKN007 BKN012 OVC110 M01/M01
     A3016 RMK AO2 PWINO FZRANO TSNO CIG 006V011 $=
KCLM 272103Z AUTO 06007KT 030V100 7SM -RA BKN007 BKN012 OVC026
     07/06 A2981 RMK AO2 CIG 006V010 P0000 T00720061=
KDTO 272103Z 03010KT 1/2SM -SN FZFG VV014 M04/M06 A3044 RMK AO2
     P0000 T10441061=
KEYW 272103Z 02011KT 10SM OVC010 22/20 A3006 RMK AO2 T02220200=
KGUP 272103Z AUTO 26008KT 1 3/4SM -SN SCT013 BKN028 OVC040 02/M01
     A2979 RMK AO2 P0000 T00171011=
KOKC 272103Z 07007KT 3SM -SN BKN015 OVC055 M07/M12 A3047 RMK AO2
     P0000=
KXNA 272103Z 07007KT 1SM R17/4000VP6000FT -SN BKN020 OVC036
     M08/M12 A3050 RMK AO2 P0000 T10781117=
PACM 272103Z AUTO 17020G25KT 3SM BR BKN007 BKN012 OVC110 M01/M01
     A3016 RMK AO2 PWINO FZRANO TSNO CIG 006V011 $=
####018000156####
SAUS80 KWBC 272100 RRD
METAR
KO54 272055Z AUTO 22010G21KT 9SM BKN039 10/03 A2974 RMK AO1=
KSNC 272055Z AUTO 33008KT 10SM CLR M02/M18 A3036 RMK AO2=
####018000320####
SAAF31 KWBC 272100
METAR
DBBB NIL=
DGAA NIL=
DGSI NIL=
DIAP 272100Z 20004KT 9000 FEW012 FEW020CB 27/26 Q1011 NOSIG=
DIAV NIL=
DIBK NIL=
DIST NIL=
DNAA NIL=
DNCA NIL=
DNIL NIL=
DNKA NIL=
DNKN NIL=
DNMA NIL=
DNMM NIL=
DNPO NIL=
DNSO NIL=
DRRN NIL=
DRZA NIL=
DXNG NIL=
DXXX NIL=
####018000206####
SAAF31 KWBC 272000 RRD
METAR
DIAP 272000Z 20006KT 9000 TS FEW012 FEW020CB 27/26 Q1011 TEMPO
     3500 TSRA BKN011 SCT020CB=
DIBK 272000Z 16004KT 8000 BKN015 BKN023CB/SNW 32/17 Q1013
     NOSIG=
####018000382####
SAAF32 KWBC 272100
METAR
FCBB NIL=
FCPP NIL=
FDMX NIL=
FEFT NIL=
FGBT NIL=
FGSL NIL=
FHAW NIL=
FKKD 272100Z 00000KT 9999 SCT016 FEW020CB BKN120 26/25 Q1012
     NOSIG=
FKKL NIL=
FKKN NIL=
FKKR NIL=
FKKY NIL=
FMNM NIL=
FOOG NIL=
FOOL NIL=
FOON NIL=
FPPA NIL=
FPPR NIL=
FPST NIL=
FTTJ NIL=
FZAA NIL=
FZIC NIL=
FZNA NIL=
FZQA NIL=
####018000078####
SAAL41 DAMM 272100 RRA
METAR DAOI 272100Z 00000KT 9999 SCT026 09/07 Q1021=
####018000253####
SAIY36 LIIB 272100
METAR LIBC 272100Z NIL=
METAR LIBF 272100Z NIL=
METAR LIBG 272100Z NIL=
METAR LIBP 272050Z VRB03KT 9999 SCT025 SCT080 09/06 Q1013=
METAR LIRI 272100Z NIL=
METAR LIRJ 272100Z NIL=
METAR LIRZ 272050Z 36009KT CAVOK 06/02 Q1012=
####018000553####
SAAL40 DAMM 272100
METAR DAAG 272100Z 36008KT 330V030 9999 FEW020TCU BKN080 11/07 Q1021=
METAR DAAT 272100Z 24002KT CAVOK 10/M14 Q1023=
METAR DABB 272100Z 28011KT 9999 FEW023 SCT040 BKN100 10/09 Q1014=
METAR DABC 272100Z 00000KT 9999 FEW013 BKN023 05/03 Q1015=
METAR DABS 272100Z 10008KT 9999 SCT026 BKN033 07/06 Q1013 RERA=
METAR DAON 272100Z 26010KT 9999 BKN026 14/09 Q1023=
METAR DAOO 272100Z 20006KT 9999 FEW023 SCT233 14/12 Q1021=
METAR DAUH 272100Z 29014KT 9999 SCT040 SCT100 17/09 Q1016=
METAR DAUZ 272100Z 28003KT CAVOK 10/M02 Q1020=
####018000314####
SANK31 MNMG 272100
METAR
MNPC 272100Z 09008KT 8000 BKN016 29/27 Q1011 HZ=
MNRS 272100Z 05010KT CAVOK 31/22 Q1009=
MNJG 272100Z 00000KT 9999 SCT020 27/16 Q1010=
MNJU 272100Z 09006KT 9999 SCT020 SCT080 34/22 Q1011=
MNCH 272100Z 09006KT 9999 FEW025 33/22 Q1007=
MNBL 272100Z 08006KT 9999 BKN017 29/24 Q1011=
####018000318####
SAIY37 LIIB 272100
METAR LICA 272050Z 24003KT 9999 FEW025 SCT070 11/07 Q1011=
METAR LICB 272050Z 07003KT 9999 FEW030 05/03 Q1013=
METAR LICD 272050Z 28004KT 9999 FEW025 12/08 Q1015=
METAR LICG 272100Z NIL=
METAR LICR 272050Z 02011KT 9999 BKN050 11/08 Q1011=
METAR LICT 272055Z VRB01KT 9999 SCT023 10/08 Q1013=
####018000275####
SAAF33 KWBC 272100
METAR
FLLI NIL=
FLLS NIL=
FLMF NIL=
FLND NIL=
FNHU NIL=
FNLU NIL=
FQBR 272100Z 05005KT CAVOK 26/23 Q1010=
FQMA NIL=
FVBU NIL=
FVCZ NIL=
FVFA NIL=
FVHA NIL=
FVMV NIL=
FVTL NIL=
FWCL NIL=
FWGL NIL=
FWKI NIL=
FWUU NIL=
####018000122####
SPAU31 KWBC 272106
SPECI
YSRI 272100Z AUTO 00000KT 0300 // OVC001 19/19 Q1011 RMK AUTO
OBSCURATION CODES REMOVED=
####018000342####
SAAF34 KWBC 272100
METAR
FALA 272100Z AUTO 11013KT //// // 18/13 Q1021=
FBDR NIL=
FBFT NIL=
FBGR NIL=
FBGZ NIL=
FBJW NIL=
FBKE NIL=
FBMN NIL=
FBMP NIL=
FBSK 272100Z 13006KT CAVOK 22/15 Q1017 NOSIG=
FBSP NIL=
FBSW NIL=
FBTE NIL=
FBTS NIL=
FDMS NIL=
FEFF NIL=
FXMM NIL=
FXMU NIL=
FYWB NIL=
FYWH NIL=
####018000341####
SAAF35 KWBC 272100
METAR
HDAM NIL=
HEAX NIL=
HEBA NIL=
HEBL NIL=
HECA 272100Z 30004KT CAVOK 17/07 Q1017 NOSIG=
HEGN NIL=
HELX NIL=
HEMM NIL=
HEPS NIL=
HERN NIL=
HESC NIL=
HESN NIL=
HLLB NIL=
HLLS NIL=
HLLT NIL=
HSKA NIL=
HSPN NIL=
HSSJ NIL=
HSSP NIL=
HSSS 272100Z 36008KT CAVOK 33/01 Q1010 NOSIG=
####018000335####
SAAF36 KWBC 272100
METAR
HAAB NIL=
HAAY NIL=
HADR NIL=
HBBA NIL=
HCMH NIL=
HCMI NIL=
HCMK NIL=
HCMM NIL=
HCMV NIL=
HEMA NIL=
HFFF NIL=
HKJK NIL=
HKMO NIL=
HKNA NIL=
HRYR 272100Z 29003KT 9999 FEW026 20/17 Q1018 NOSIG=
HTDA NIL=
HTKJ NIL=
HTZA NIL=
HUEN NIL=
HUKS NIL=
HUMA NIL=
HUSO NIL=
####018000028####
SAAL31 KWBC 272100
NIL=
####018000917####
SAAO31 KWBC 272100
METAR
GCFV 272100Z 03019KT 9999 BKN024 17/13 Q1027=
GCHI NIL=
GCLA 272100Z 01015KT 9999 BKN035 17/11 Q1031=
GCLP 272100Z 36022G33KT 9999 FEW022 BKN030 17/11 Q1028 NOSIG=
GCRR 272100Z 02025KT 9999 SCT020 17/13 Q1027=
GCTS 272100Z 06010KT 030V100 9999 FEW023 17/11 Q1028 NOSIG=
GCXO 272100Z 32010KT 280V020 9999 FEW005 BKN012 12/11 Q1030
     NOSIG=
GEML NIL=
GMAA NIL=
GMAT 272100Z NIL=
GMFF 272100Z 28003KT 9999 FEW013 BKN030 11/10 Q1028 NOSIG=
GMFO 272100Z 00000KT 9999 FEW023 SCT100 11/07 Q1023 NOSIG=
GMME 272100Z 00000KT 6000 SCT023 09/07 Q1027 NOSIG=
GMMN 272100Z 11003KT 040V160 9999 SCT016 10/08 Q1028 NOSIG=
GMMX 272100Z 04005KT CAVOK 14/09 Q1027 NOSIG=
GMOY NIL=
GMTA 272100Z 26006KT 9999 FEW020 SCT200 15/11 Q1024 NOSIG=
GMTN 272100Z 25018KT 9000 FEW026 14/08 Q1025 NOSIG=
GMTT 272100Z 25007KT 8000 SCT016 SCT200 13/10 Q1027 NOSIG=
GSAI NIL=
####018000269####
SAAO32 KWBC 272100
METAR
GABS NIL=
GAGO NIL=
GAKY NIL=
GAMB NIL=
GANR NIL=
GATB NIL=
GQNI NIL=
GQNK NIL=
GQNN 272100Z 07011KT 2500 BLDU NSC 27/M10 Q1015 NOSIG=
GQNP NIL=
GQPH NIL=
GQPP 272100Z 35014KT 6000 NSC 20/12 Q1019 NOSIG=
GQPV NIL=
####018001245####
SAAK31 KWBC 272100
METAR
PABR 272053Z 26019KT 3SM -SN BLSN OVC010 M13/M15 A3008=
PACD 272053Z 14021KT 10SM FEW055 OVC100 05/02 A3010=
PAED 272058Z AUTO 27001KT 10SM CLR M05/M09 A3045=
PAEI 272058Z AUTO 00000KT 10SM CLR M10/M12 A3044=
PAEN 272053Z 03008KT 10SM CLR M03/M09 A3046=
PAFA 272053Z 00000KT 10SM FEW090 SCT200 M08/M12 A3046=
PAFR NIL=
PAFS 272056Z AUTO 00000KT 10SM CLR M08/M13 A3037=
PAFY NIL=
PAJN 272053Z 26003KT 10SM CLR 05/M04 A3044=
PAKN 272054Z 00000KT 10SM BKN120 M01/M02 A3031=
PAKT 272053Z 32011KT 10SM CLR 09/M06 A3032=
PANC 272053Z 33003KT 10SM BKN190 M04/M10 A3046=
PAOM 272053Z 14012KT 10SM FEW010 OVC027 M01/M02 A3014=
PAOR 272053Z 00000KT 10SM FEW003 FEW150 SCT200 M11/M13 A3044=
PAOT 272053Z 17017KT 10SM BKN024 OVC039 00/M02 A3010=
PARY 272056Z AUTO 06008KT 10SM OVC021 M04/M06 A3033=
PASC 272053Z 25021G29KT 5SM -SN BLSN BKN029 OVC120 M08/M11
     A3015=
PASG NIL=
PASI 272053Z COR 21003KT 10SM SKC 07/M03 A3038=
PASI 272053Z 21003KT 10SM CLR 07/M03 A3038=
PATQ 272056Z AUTO 26012KT 10SM CLR M16/M18 A3015=
PAVD 272056Z 00000KT 10SM FEW090 BKN250 01/M06 A3046=
PAWG 272056Z 30006KT 10SM CLR 06/M03 A3038=
PFYU 272056Z 24008G15KT 220V280 10SM CLR M02/M06 A3032=
####018000384####
SAAO33 KWBC 272100
METAR
GBYD 272100Z 08008KT 4000 HZ SKC 29/M02 Q1009=
GFLL NIL=
GGOV NIL=
GLRB 272100Z 00000KT 9999 FEW013 25/24 Q1010 NOSIG=
GOGG NIL=
GOGS NIL=
GOOY 272100Z 02006KT 2100 DU NSC 23/09 Q1012 NOSIG=
GOSS NIL=
GOTT NIL=
GOTY NIL=
GUCY 272100Z 26004KT 3000 BR NSC 27/24 Q1010 NOSIG=
GUFH NIL=
GULB NIL=
GUNZ NIL=
GUOK NIL=
GUXD NIL=
####018000656####
SAAU31 KWBC 272100
METAR
YAYE 272100Z AUTO 21005KT 9999 // NCD 27/15 Q1006=
YBAS 272100Z 33002KT CAVOK 23/09 Q1008=
YBBN 272100Z 00000KT 9999 VCSH FEW018 SCT065 25/21 Q1010 INTER
     2100/2400 3000 SHRA BKN012=
YBCG 272100Z AUTO 23004KT 9999 // NCD 22/21 Q1010=
YBCS 272100Z 00000KT 9999 FEW024 BKN300 25/23 Q1007=
YBMA NIL=
YBRK NIL=
YBRM NIL=
YBTL 272100Z 33001KT 9999 FEW022 27/24 Q1007=
YDDN NIL=
YDTN NIL=
YMHB NIL=
YMML NIL=
YPAD NIL=
YPBR NIL=
YPCC NIL=
YPDN NIL=
YPEA NIL=
YPLM NIL=
YPPD NIL=
YPPH NIL=
YPTN NIL=
YPXM NIL=
YSCB NIL=
YSDU NIL=
YSNF NIL=
YSRI NIL=
YSSY NIL=
YYPY NIL=
####018000094####
SAAU31 KWBC 272100 CCA
METAR
YBCS 272100Z 00000KT 9999 FEW024 BKN300 25/23 Q1007 NOSIG=
####018000151####
SAUS46 KMTR 272105
MTRBAN
SPECI KBAN 272104Z AUTO 28008G22KT 1 1/4SM -SN BKN029 OVC050 03/M04 
A2968 RMK AO2 RAB2058E02SNB02 P0000 T00281039 $
####018000284####
SAAW31 KWBC 272100
METAR
LLBG NIL=
LLBS NIL=
LLET NIL=
LLJR NIL=
LLOV NIL=
LTAC NIL=
LTAF NIL=
LTAI NIL=
LTBA NIL=
LTBJ NIL=
LTBS NIL=
OEPS NIL=
OJAI NIL=
OJAM 272100Z 00000KT 6000 NSC 14/01 Q1017 NOSIG=
OJJR NIL=
OLBA NIL=
UGEE NIL=
UGGG NIL=
####018001440####
SAAW32 KWBC 272100
METAR
OEDF 272100Z 00000KT CAVOK 12/07 Q1017 NOSIG=
OEDR 272100Z NIL=
OEJN 272100Z 30004KT CAVOK 25/14 Q1011 NOSIG=
OEMA 272100Z 09002KT CAVOK 24/M04 Q1020 NOSIG=
OERK 272100Z 22004KT CAVOK 12/M06 Q1021 NOSIG=
OIAA 272100Z 00000KT CAVOK 14/08 Q1017=
OIAW 272100Z 00000KT CAVOK 17/04 Q1016=
OIBB 272100Z 18004KT CAVOK 13/07 Q1016 A3000=
OIBK 272100Z 15004KT 5000 HZ SKC 16/10 Q1015=
OICC 272100Z 15006KT CAVOK 03/M07 Q1023 A3021=
OICK 272100Z NIL=
OICS 272100Z NIL=
OIFM 272100Z 16004KT CAVOK M02/M09 Q1024 A3026=
OIFP NIL=
OIGG 272100Z NIL=
OIHH 272100Z NIL=
OIII 272100Z 13006KT CAVOK 06/M06 Q1023 A3022 NOSIG=
OIIM NIL=
OIIP NIL=
OIIX NIL=
OIKB 272100Z 32008KT CAVOK 12/05 Q1015 A2999=
OIKK 272100Z 32006KT 9999 FEW035 M01/M06 Q1023 A3023=
OIMM 272100Z 15006KT 9999 BKN025 M01/M04 Q1027 A3034=
OINN NIL=
OINR NIL=
OINZ 272100Z 11004KT CAVOK 04/03 Q1027=
OISM NIL=
OISS 272100Z 33004KT CAVOK 05/M09 Q1022 A3020=
OITL 272100Z NIL=
OITR 272100Z 25006KT CAVOK 01/M05 Q1022=
OITT 272100Z 04006KT CAVOK 02/M04 Q1024 A3025=
OIYY 272100Z 24004KT CAVOK 03/M04 Q1026=
OIZH 272100Z 35004KT 8000 SKC M00/M07 Q1020 A3014=
OKBK 272100Z 27003KT CAVOK 12/00 Q1017 NOSIG=
ORBI 272100Z 31003KT CAVOK 10/02 Q1018 NOSIG=
ORBS NIL=
ORMM 272100Z 00000KT CAVOK 13/05 Q1017 NOSIG=
OSAP NIL=
OSDI NIL=
OSLK NIL=
OTBD NIL=
OTBH NIL=
OTMA NIL=
OTMS NIL=
####018000713####
SAAW33 KWBC 272100
METAR
OBBI NIL=
OMAA 272100Z 36007KT CAVOK 18/10 Q1014 A2996 NOSIG=
OMAL 272100Z 36009KT CAVOK 14/05 Q1015 A2997 NOSIG=
OMDB 272100Z 02007KT 350V070 CAVOK 20/07 Q1015 NOSIG=
OMFJ 272100Z 34009KT 250V090 8000 NSC 19/08 Q1015 A2997=
OMRK 272100Z 17003KT CAVOK 14/09 Q1015 A2998=
OMSJ 272100Z 36005KT CAVOK 15/08 Q1015=
OOMA NIL=
OOMS NIL=
OOSA 272100Z NIL=
OOTH NIL=
OPMT NIL=
OYAA 272100Z 10007KT 6000 FEW018 25/19 Q1014=
OYAR 272100Z NIL=
OYHD 272100Z 19007KT 7000 NSC 26/24 Q1012=
OYJA NIL=
OYMB 272100Z NIL=
OYSM NIL=
OYSN 272100Z 23003KT CAVOK 13/M08 Q1028 NOSIG=
OYSN 272100Z NIL=
OYTZ 272100Z 09003KT 6000 NSC 18/15 Q1021=
OYTZ 272100Z NIL=
####018001170####
SAAW34 KWBC 272045 RRC
METAR
UAAA 272100Z 14002MPS 2600 BR FU SCT100 M04/M07 Q1031 R88/CLRD65
     NOSIG=
UAAH 272100Z NIL=
UACC 272100Z 23004MPS CAVOK M13/M14 Q1033 R22/0/0070 NOSIG RMK
     QFE743/0991=
UACP 272100Z NIL=
UADD 272100Z 16001MPS 9999 NSC M02/M04 Q1031 NOSIG RMK
     QFE715/0954=
UAII 272100Z 09003MPS CAVOK 01/M03 Q1030 R28/0///70 NOSIG RMK
     QFE735/0980=
UAKK 272100Z 24005MPS 6000 OVC004 M09/M10 Q1033 R23/920555 NOSIG
     RMK QBB130 QFE727/0970=
UAOO 272100Z 05003MPS CAVOK M03/M07 Q1034 NOSIG RMK
     QFE764/1018=
UARR 272100Z NIL=
UASP 272100Z 25005MPS CAVOK M07/M11 Q1028 R21/0///60 NOSIG RMK
     QFE759/1013=
UASS 272100Z NIL=
UATE 272100Z 11008MPS CAVOK M01/M04 Q1029 R12/0///70 NOSIG RMK
     QFE770/1027=
UATG 272100Z 10004MPS 5000 BR NSC M06/M06 Q1033 R14/CLRD70 NOSIG
     RMK QFE777/1036=
UATT 272100Z 11001MPS 1100 R13/1900 BR NSC M16/M17 Q1037
     R13/0///60 NOSIG RMK QFE757/1010=
UAUU 272100Z 24002MPS 4000 BR FEW200 M14/M16 Q1033 R15/CLRD60
     NOSIG RMK QFE758/1011=
UTDD 272100Z 28004MPS 9999 SCT025 BKN029 OVC051 03/01 Q1027
     R09/CLRD// NOSIG RMK QFE701/0935=
####018000347####
SAAW42 KWBC 272100
METAR
OBAH NIL=
OBBI NIL=
OBBQ NIL=
OBSC NIL=
OBZI NIL=
OJAQ 272100Z 13004KT CAVOK 22/10 Q1013 NOSIG=
OKBC NIL=
OKTK NIL=
OKZK NIL=
OMAD 272100Z 02007KT CAVOK 19/13 Q1015 A2998 NOSIG=
OMAU NIL=
OMDZ NIL=
OMGK NIL=
OMMA NIL=
OMMS NIL=
OMSA NIL=
OMSQ NIL=
OMSR NIL=
OSAS NIL=
OSGN NIL=
####018000428####
SABO41 KWBC 272100
METAR
SLCA NIL=
SLCN NIL=
SLCO 272100Z 27006KT 9999 SCT023 FEW025CB SCT200 33/25 Q1006=
SLCP NIL=
SLJE NIL=
SLJO NIL=
SLMG NIL=
SLOR NIL=
SLPO NIL=
SLPS 272100Z 00000KT 9999 FEW020 BKN200 33/24 Q1007=
SLRB NIL=
SLRI NIL=
SLRQ NIL=
SLRY NIL=
SLSA NIL=
SLSI NIL=
SLSU 272100Z 06007KT 9999 FEW023 FEW033CB SCT200 19/07 Q1025=
SLVG NIL=
SLVM NIL=
SLYA NIL=
SLZO NIL=
####018001238####
SABZ31 KWBC 272100
METAR
SBBE 272100Z 09002KT 9999 4000S -TSRA FEW015 BKN025 FEW030CB BKN
     N100 23/22 Q1010=
SBBE 272100Z 09002KT 9999 4000S -TSRA FEW015 BKN025 FEW030CB BK
     N100 23/22 Q1010=
SBBR 272100Z 26003KT 9999 FEW040 FEW045TCU BKN100 25/17 Q1016=
SBBV 272100Z 04009KT 9999 SCT035 FEW040TCU BKN100 30/18 Q1009=
SBCF 272100Z 31008KT 9999 BKN040 FEW045TCU SCT100 20/18 Q1015 R
     ETS=
SBCG 272100Z 27006KT 9999 FEW030 FEW035TCU 27/21 Q1012=
SBEG 272100Z 02004KT 9999 SCT020 SCT100 31/22 Q1008=
SBFI 272100Z 14003KT 9999 SCT030 FEW040TCU BKN100 26/23 Q1010 R
     ETS=
SBFZ 272100Z 07006KT 9999 FEW020 27/22 Q1010=
SBGL 272100Z 13009KT CAVOK 28/22 Q1007=
SBGR 272100Z 31005KT 9999 SCT045 FEW050TCU BKN100 28/20 Q1011=
SBKP 272100Z 32007KT 9999 FEW040 FEW045TCU 27/18 Q1011=
SBNT 272100Z 11010KT 9999 FEW023 28/22 Q1010=
SBPA 272100Z 18012KT 9999 BKN035 FEW045TCU 25/22 Q1010=
SBPS 272100Z 05013KT 9999 FEW015 BKN100 28/24 Q1009=
SBRF 272100Z 09007KT 9999 FEW023 28/22 Q1010=
SBSL 272100Z 03009KT 9999 SCT020 28/22 Q1009=
SBSN 272100Z 30001KT 9999 FEW030TCU 30/25 Q1008=
SBSV 272100Z 06008KT 9999 SCT017 27/22 Q1009=
SBTT 272100Z 31004KT 9999 FEW020 FEW025TCU 32/24 Q1007=
####018000641####
SABZ41 KWBC 272100
METAR
SBAA NIL=
SBAF NIL=
SBAR 272100Z 12010KT 9999 SCT020 28/22 Q1010=
SBBG NIL=
SBBH NIL=
SBBI NIL=
SBBU NIL=
SBCJ NIL=
SBCO NIL=
SBCR 272100Z 31002KT 9999 FEW020 33/23 Q1007=
SBCT 272100Z 28008KT 9999 SCT045 FEW050TCU BKN100 23/16 Q1014=
SBCV NIL=
SBCY 272100Z 35003KT 9999 FEW020 32/20 Q1009=
SBCZ 272100Z 24003KT 9999 FEW008 SCT030 BKN100 26/25 Q1009
     RETS=
SBDN NIL=
SBFL 272100Z 14007KT 9999 SCT030 FEW035TCU SCT100 27/22 Q1008=
SBFN 272100Z 18005KT 9999 SCT011 27/24 Q1011=
SBGO 272100Z 35006KT 9999 SCT025 28/16 Q1013=
SBGW NIL=
SBHT NIL=
SBIH NIL=
SBIL NIL=
####018000134####
SABZ42 KWBC 272100 CCA
METAR
SBMQ 272100Z 08005KT 9999 SCT020 31/25 Q1008=
SBSP 272100Z 19006KT 9999 VCSH SCT045 26/13 Q1012=
####018000960####
SABZ42 KWBC 272100
METAR
SBJR NIL=
SBLO 272100Z 23009KT 9999 FEW035 FEW040TCU 24/23 Q1012=
SBMA 272100Z 22002KT 9999 FEW020 27/25 Q1010=
SBME NIL=
SBMN 272100Z 13004KT 9999 SCT025 29/23 Q1008=
SBMO 272100Z 10009KT 9999 SCT020 24/20 Q1011=
SBMQ 272100Z 08005KT CAVOK 31/25 Q1008=
SBMT NIL=
SBPC NIL=
SBPK 272100Z 18015KT 9999 SCT020 25/17 Q1012=
SBPP 272100Z 00000KT 5000 -RA SCT017 BKN070 21/20 Q1012=
SBPV 272100Z 00000KT 9999 VCSH SCT023 FEW025TCU SCT100 28/23 Q1
     007=
SBRB 272100Z 36005KT 9999 SCT030 31/24 Q1007=
SBRJ 272100Z 16010KT 9999 FEW025 28/24 Q1007=
SBSC NIL=
SBSJ 272100Z 16010KT 9999 SCT027 FEW030TCU 27/16 Q1012=
SBSM NIL=
SBSP 272100Z 19006KT 9999 SCT045 26/13 Q1012=
SBST NIL=
SBTE 272100Z 21003KT 9999 FEW030 30/23 Q1008=
SBTU NIL=
SBUG 272100Z 30005KT 9999 FEW030 FEW040TCU BKN080 28/21 Q1011=
SBUR NIL=
SBVH NIL=
SBVT 272100Z 18003KT 9999 FEW030 BKN090 27/21 Q1007=
SBYS NIL=
####018000088####
SPUS41 KWBC 272106
SPECI
KART 272103Z AUTO 25006KT 3/4SM -SN VV017 M10/M13 A3048=
####018000588####
SABZ43 KWBC 272100
METAR
SBAN NIL=
SBAT NIL=
SBBA NIL=
SBBQ NIL=
SBBW NIL=
SBCC NIL=
SBER NIL=
SBES NIL=
SBGA NIL=
SBIZ NIL=
SBJF NIL=
SBJP 272100Z 12008KT 9999 FEW023 27/21 Q1011=
SBKG NIL=
SBLB NIL=
SBLP NIL=
SBMK NIL=
SBMS NIL=
SBMZ NIL=
SBPB NIL=
SBPJ NIL=
SBPL 272100Z 01003KT 9999 FEW040 33/19 Q1009=
SBPN NIL=
SBQV NIL=
SBRP 272100Z 13003KT 100V180 9000 -TSRA BKN040 FEW045CB SCT090
     21/20 Q1012=
SBTF 272100Z 09003KT 5000 -TSRA SCT010 FEW032CB BKN070 25/24 Q1
     010=
SBTK NIL=
SBUF NIL=
SBUI NIL=
SBUL NIL=
####018000875####
SAAK32 KWBC 272100
METAR
PABA 272101Z AUTO 29025KT 6SM BR CLR M03/M03 A3012=
PABI 272053Z 11005KT 10SM FEW200 M07/M11 A3044=
PACZ 272055Z AUTO 18027G34KT 1/4SM -FZDZ FZFG VV002 M01/M01
     A3008=
PADK 272056Z AUTO 29004KT 10SM SCT035 SCT041 02/M04 A3013=
PADL NIL=
PADQ 272053Z 27003KT 10SM SCT011 BKN045 OVC200 01/M01 A3042=
PAEH 272055Z AUTO 13013G22KT 10SM CLR 01/M01 A3023=
PAFB 272055Z 27004KT 25SM SCT200 M09/M12 A3045=
PAGA 272058Z AUTO 13010KT 10SM OVC025 M01/M04 A3033=
PAIM 272055Z AUTO 18004KT 10SM OVC019 M02/M04 A3029=
PALU NIL=
PASV 272055Z AUTO 01001KT 10SM CLR M03/M05 A3028=
PASY 272056Z COR 33013KT 9SM -SN SCT030 OVC037 M03/M10 A3029=
PASY 272056Z 33013KT 9SM -SN SCT030 OVC037 M03/M10 A3029=
PATC 272055Z AUTO 20032G36KT 6SM -SN OVC002 M01/M01 A2995=
PATL 272055Z AUTO 00000KT 10SM OVC006 M07/M08 A3035=
PBTI NIL=
####018000741####
SACA31 KWBC 272100
METAR
MBJT NIL=
MBPV 272100Z 11010KT 9999 SCT015 30/23 Q1017=
MBSC NIL=
MKJP 272100Z 14022KT 9999 FEW024 30/23 Q1013=
MKJP 272100Z 14022KT 999 FEW024 30/23 Q1013=
MKJS NIL=
MUCM 272050Z 05014KT 9000 BKN018 32/16 Q1016=
MUCU 272051Z 20006KT 160V240 9000 FEW020 28/22 Q1016=
MUHA 272055Z 02011KT 7000 VCSH FEW020TCU BKN036 26/20 Q1017=
MUVR 272054Z 03011KT 330V110 8000 -SHRA FEW018CB BKN020 23/21
     Q1018=
MWCB 272100Z 09009KT 9999 FEW016 BKN030 29/24 Q1015=
MWCR 272100Z 09014KT 9999 FEW018 29/23 Q1015 NOSIG=
MYAM NIL=
MYEG NIL=
MYEH NIL=
MYGF 272100Z 02010KT 9999 VCSH SCT018TCU BKN250 26/24 A3006 RMK
     TCU/VCSH SE=
MYNN 272100Z 18004KT 9999 FEW016TCU 30/22 A3007 TCU/W=
####018000925####
SACA32 KWBC 272100
METAR
MDLR 272100Z 10012KT 9999 SCT022 30/20 Q1015=
MDPC 272100Z 11008KT 9999 FEW027 28/22 Q1016=
MDPP 272100Z 09017KT 9999 FEW022 28/22 Q1015=
MDSD 272100Z 14010KT 9999 FEW022 28/21 Q1016=
MDST 272100Z 12012KT 9999 FEW028 30/19 Q1015=
MTCH NIL=
MTPP 272100Z 08010G22KT 9999 FEW028 32/// Q1014 A2994=
TAPA 272100Z 08013KT 9999 BKN018 26/21 Q1017 NOSIG=
TIST NIL=
TISX NIL=
TJBQ 272050Z 09015G27KT 10SM FEW030 27/21 A3003 RMK RWY 08 - ATIS
     H=
TJMZ NIL=
TJNR 272053Z AUTO 10011G18KT 10SM FEW047 SCT055 27/20 A3006 RMK
     AO2 SLP178 T02670200 56007 $=
TJPS NIL=
TJSJ 272056Z 09009KT 10SM FEW022 SCT033 BKN055 25/22 A3004 RMK AO2
     PK WND 09032/2015 RAB15E33 SLP171 VCSH SW-NW P0000 60000
     T02500217 55003=
TKPK 272100Z 08020KT 9999 FU SCT019 28/22 Q1017=
TKPN NIL=
TQPF 272100Z 08015KT 9999 SCT020 27/20 Q1017=
TRPM NIL=
TUPJ NIL=
TUPW NIL=
####018000098####
SPNL31 KWBC 272106
SPECI
EHEH 272057Z AUTO 23003KT 9999 NCD 00/M01 Q1022 BLU 23005KT CAVOK=
####018000575####
SACA33 KWBC 272100
METAR
TBPB 272100Z 06018KT 9999 BKN018 SCT300 27/20 Q1014 NOSIG=
TDPD 272100Z 11009KT 9999 FEW017 SCT070 27/21 Q1016=
TDPR NIL=
TFFF 272100Z AUTO 05012KT 020V080 9999 BKN060 OVC074 25/21
     Q1015=
TFFG NIL=
TFFJ NIL=
TFFR NIL=
TGPY 272100Z 09012KT 9999 FEW018 SCT034 28/23 Q1013 NOSIG=
TGPZ NIL=
TLPC NIL=
TLPL 272100Z 08022KT 9999 FEW028 28/20 Q1015 NOSIG=
TNCA NIL=
TNCB NIL=
TNCC NIL=
TNCE NIL=
TNCM 272100Z 09014KT 9999 SCT024 27/20 Q1017 A3004 NOSIG=
TTCP NIL=
TTPP NIL=
TVSM NIL=
TVSU NIL=
TVSV NIL=
####018000084####
SAIN90 VOCI 272100
METAR VOCI 272100Z 00000KT 4000 HZ FEW100 26/21 Q1009 NOSIG=
####018000158####
SAJD31 OJAI 272100
METAR OJAI 272100Z NIL=
METAR OJAM 272100Z 00000KT 6000 NSC 14/01 Q1017 NOSIG=
METAR OJAQ 272100Z 13004KT CAVOK 22/10 Q1013 NOSIG=
####018000081####
SAID32 WAMM 272100
METAR WAMM 272100Z 04001KT 9000 SCT020 24/23 Q1010 NOSIG=
####018000832####
SACA35 KWBC 272100
METAR
MGGI NIL=
MGPB NIL=
MGSJ NIL=
MHLC 272100Z 36006KT 9999 SCT022TCU 28/22 Q1012 A2990 NOSIG=
MHLM 272100Z 02012KT 9999 FEW030 31/24 Q1012 A2986 NOSIG=
MHTG 272100Z 06005KT 9999 SCT035 29/11 Q1015 A2997 NOSIG=
MNPC NIL=
MPBO NIL=
MPCH NIL=
MPDA 272100Z 20010KT 9999 FEW020 ///// Q1007=
MPMG 272100Z 02010KT 9999 FEW020 32/20 Q1008 NOSIG=
MPSA NIL=
MPTO 272100Z 02006KT 9999 SCT020 33/20 Q1007 NOSIG=
MRLB 272100Z 08016KT 9999 FEW040 33/17 A2973=
MRLM 272100Z 07006KT 9999 SCT025 29/23 A2985=
MROC 272100Z 08012KT 9999 FEW040 29/13 A2992 NOSIG=
MRPV 272100Z 08017KT 9999 FEW045 26/14 A2994 NOSIG=
MSLP 272050Z 20008KT 150V240 9999 FEW037 31/23 Q1008 A2978=
MSSS 272050Z 18005KT 9999 FEW033 31/20 Q1012 A2990=
MZBZ 272100Z 08009KT 9999 FEW023 30/24 A2990 Q1012 NOSIG=
####018000185####
SAME31 OLBA 272100
METAR OLBA 272100Z 06003KT 020V100 CAVOK 18/11 Q1014=
METAR OSDI NIL=
METAR OSAP NIL=
METAR OSLK NIL=
METAR OJAI NIL=
METAR OJAM NIL=
METAR OJAQ NIL=
####018000622####
SACA41 KWBC 272100
METAR
MKBK NIL=
MUBA NIL=
MUBY NIL=
MUCA NIL=
MUCL 272052Z VRB02KT 9000 FEW018 SCT050 26/19 Q1016=
MUCM 272050Z 05014KT 9000 BKN018 32/16 Q1016=
MUCU 272051Z 20006KT 160V240 9000 FEW020 28/22 Q1016=
MUGM 272056Z 17008KT 9999 FEW030 FEW070 29/23 A2999 RMK SLP154
     T02940228 56015=
MUGT NIL=
MUHA 272055Z 02011KT 7000 VCSH FEW020TCU BKN036 26/20 Q1017=
MUMO NIL=
MUMZ NIL=
MUNG NIL=
MUVR 272054Z 03011KT 330V110 8000 -SHRA FEW018CB BKN020 23/21
     Q1018=
MUVT NIL=
MYEF NIL=
TABS NIL=
TAOA NIL=
TBBI NIL=
TDCF 272100Z 10005KT 9999 SCT021 28/17 Q1014=
####018000871####
SACA45 KWBC 272100
METAR
MGFL NIL=
MGGT 272100Z 36012KT 9999 FEW020 26/11 Q1021 A3015 FEW080=
MGHT NIL=
MHAM 272100Z 23006KT 9999 FEW022 32/25=
MHCA 272100Z 08010KT 9999 SCT030 22/15 Q1015 HZ=
MHCA 272100Z 08010kt 9999 sct030 22/15 Q1015 HZ=
MHCH 272100Z 02012KT 999 SCT034 38/19 HZ=
MHLE 272100Z 06010KT 9999 SCT026TCU 24/10 TCU ALL=
MHNJ NIL=
MHNO 272100Z 32018KT 9999 SCT040RTCUY 31/17 Q1013 TCU N S W HZ=
MHPL 272100Z 06005KT 9999 FEW028TCU 29/24 Q1015 TCU SE SW HZ=
MHRO 272100Z 09011KT 9999 FEW020 29/22 Q1012 A2989 NOSIG=
MHSR 272100Z 36004KT 9999SCT015 TCU ALL HZ=
MHTE 272100Z 01006KT 9999 SCT026TCU 30/23 Q1012 TCU ALL HZ=
MHYR 272100Z 09006KT 9999 SCT025TCU 31/17 TCU ALL HZ=
MNMG 272100Z 09012KT 9999 SCT022 34/19 Q1007 A2976 NOSIG=
MNPC NIL=
MPSA NIL=
MRCH NIL=
MSAC 272050Z 21006KT 9999 FEW040 32/24 Q1009 A2982=
####018000028####
SACI31 KWBC 272100
NIL=
####018001456####
SACI32 KWBC 272100
METAR
ZBAA 272100Z 14002MPS 8000 -SN SCT010 M02/M04 Q1028 NOSIG=
ZBTJ 272100Z 21003MPS 170V230 6000 -SN OVC026 M02/M03 Q1029
     NOSIG=
ZBYN 272100Z 16001MPS 2000 -SN BR NSC M03/M05 Q1024 NOSIG=
ZGGG 272100Z 09002MPS 9999 OVC020 20/17 Q1015 NOSIG=
ZGNN 272100Z 09001MPS 5000 BR NSC 21/20 Q1011 NOSIG=
ZGSZ 272100Z 11005MPS 9999 FEW014 BKN050 20/16 Q1014 NOSIG=
ZHHH NIL=
ZKPY NIL=
ZLLL NIL=
ZMUB 272100Z 00000MPS 9999 SCT100 M15/M18 Q1017 NOSIG RMK QFE655.3
     76 NT=
ZPPP 272100Z 20005MPS CAVOK 11/02 Q1019 NOSIG=
ZSAM 272100Z 09003MPS 050V120 9999 BKN019 OVC040 14/12 Q1019
     NOSIG=
ZSHC 272100Z 09002MPS 5000 SHRA BR SCT008 BKN020 06/03 Q1023
     NOSIG=
ZSNJ NIL=
ZSOF NIL=
ZSPD 272100Z 05005MPS 9999 -RA BKN015 05/04 Q1024 BECMG TL2130
     BKN012=
ZSSS 272100Z 05003MPS 9999 -RA BKN009 OVC040 05/04 Q1024 NOSIG=
ZUBD NIL=
ZUCD NIL=
ZUCK NIL=
ZUDF NIL=
ZUDS NIL=
ZUDX NIL=
ZUDZ NIL=
ZUFJ NIL=
ZUFL NIL=
ZUGH NIL=
ZUGY 272100Z 02003MPS 9999 FEW011 BKN018 OVC033 07/05 Q1016
     NOSIG=
ZULP NIL=
ZULS NIL=
ZULZ NIL=
ZUMY NIL=
ZUNC NIL=
ZUSN NIL=
ZUTR NIL=
ZUUU 272100Z 36002MPS 310V020 9999 SCT050 10/04 Q1018 NOSIG=
ZUWF NIL=
ZUWX NIL=
ZUXC NIL=
ZUXJ NIL=
ZUXY NIL=
ZUYB NIL=
ZUZY NIL=
ZWTN NIL=
ZWWW 272100Z VRB01MPS CAVOK M05/M09 Q1034 NOSIG=
ZYHB NIL=
ZYTL 272100Z 30002MPS CAVOK M03/M07 Q1029 NOSIG=
ZYYY NIL=
####018000253####
SACA42 KWBC 272100
METAR
TIST NIL=
TISX NIL=
TJBQ 272050Z 09015G27KT 10SM FEW030 27/21 A3003=
TJMZ NIL=
TJNR 272053Z AUTO 10011G18KT 10SM FEW047 SCT055 27/20 A3006=
TJPS NIL=
TJSJ 272056Z 09009KT 10SM FEW022 SCT033 BKN055 25/22 A3004=
####018000028####
SACI41 KWBC 272100
NIL=
####018000028####
SACN31 KWBC 272100
NIL=
####018000697####
SAAU65 AMMC 272100
METAR YLRE 272100Z AUTO 36012KT 9999 // NCD 27/20 Q1005=
METAR YMAV 272100Z AUTO 03007KT 9999 -SHRA SCT071 SCT100 OVC125 18/15 Q1005=
METAR YMAY 272100Z AUTO 21004KT 9999 // NCD 19/14 Q1008=
METAR YMDG 272100Z AUTO 12002KT //// // NCD 17/17 Q1012=
METAR YMEK 272100Z AUTO 12005KT 9999 // SCT100 25/23 Q1010=
METAR YMEN 272100Z AUTO 04006KT 9999 // SCT087 20/14 Q1006=
METAR YMER 272100Z AUTO 29003KT 9999 // BKN018 20/18 Q1009=
METAR YMIA 272100Z AUTO 09006KT 9999 // NCD 25/09 Q1005=
METAR YMML 272100Z 36013KT CAVOK 20/11 Q1006
     FM2200 36018G28KT CAVOK
     FM2100 MOD TURB BLW 5000FT=
METAR YMOR 272100Z AUTO 05010KT 9999 // NCD 23/18 Q1010=

####018000664####
SAEE31 KWBC 272100
METAR
EPGD 272100Z 00000KT 8000 BKN033 04/03 Q1015=
EPKK 272100Z VRB02KT 5000 BR SCT033 BKN066 05/04 Q1015=
EPKT 272100Z 10002KT 3500 BR FEW021 BKN023 04/03 Q1015=
EPPO 272100Z 12002KT 8000 FEW023 BKN043 06/03 Q1015=
EPQT NIL=
EPRZ 272100Z VRB01KT 9999 OVC033 05/03 Q1015=
EPSC 272100Z 13004KT 3000 BR NSC 03/02 Q1015=
EPWA 272100Z VRB02KT 7000 BKN038 05/03 Q1015 BECMG 5000 BR=
EYSA NIL=
UKBB 272100Z 22003MPS 8000 OVC018 03/03 Q1018 88190060 NOSIG=
UKKK NIL=
UKLL 272100Z 13003MPS 9999 OVC031 05/03 Q1015 13CLRD80 NOSIG=
UKOO 272100Z 03003MPS CAVOK 08/07 Q1015 16090060 NOSIG=
UMII NIL=
UMMM NIL=
UMMS NIL=
####018000799####
SAEE32 KWBC 272100
METAR
LBBG 272100Z 03008KT 360V070 9999 FEW045 10/06 Q1009 NOSIG=
LBPD 272100Z 24003KT 4700 BR NSC 06/05 Q1010 TEMPO 3000 BR=
LBSF 272100Z VRB02KT 5000 BR FEW039 06/05 Q1010 NOSIG=
LBWN 272100Z VRB03KT CAVOK 09/05 Q1010 NOSIG=
LHBP 272100Z VRB02KT 9999 OVC024 06/04 Q1015 NOSIG=
LHTA NIL=
LRAR 272100Z AUTO 01007KT 5000NDV R09////// R27/P2000 BR NCD 07/06
     Q1013=
LRBS 272100Z 03008KT 360V060 6000 FEW005 07/07 Q1013 NOSIG=
LRCK 272100Z 04012KT CAVOK 08/08 Q1012 NOSIG=
LROP 272100Z 05009KT 7000 FEW030 07/06 Q1013 R88/09//95 TEMPO 5000
     BR=
LRTC 272100Z AUTO 01010KT 9999NDV SCT060/// BKN210/// 07/06
     Q1014=
LRTM 272100Z 00000KT 8000 NSC 05/04 Q1013=
LRTR 272100Z 36007KT 7000 NSC 07/07 Q1013=
LUCC NIL=
LUKK NIL=
LURN NIL=
####018001608####
SAEM31 KWBC 272100
METAR
KQLA NIL=
KQLH NIL=
KQLX NIL=
LATI NIL=
LDDU 272100Z 01011KT 340V040 CAVOK 11/05 Q1009 NOSIG=
LDDV NIL=
LDKT NIL=
LDOS 272100Z 01005KT 9999 -RA BKN010 OVC030 06/05 Q1014=
LDPL 272100Z VRB03KT CAVOK 03/02 Q1012 NOSIG=
LDRI 272100Z NIL=
LDSP 272100Z 32008KT 290V350 CAVOK 10/02 Q1011 NOSIG=
LDZA 272100Z 00000KT 9999 BKN045 05/01 Q1014 NOSIG=
LDZD 272100Z 31003KT CAVOK 04/00 Q1011 NOSIG=
LJLJ 272100Z 00000KT 9999 BKN028 04/01 Q1014 NOSIG=
LJMB 272100Z 00000KT CAVOK 01/M00 Q1014=
LJPZ 272100Z VRB02KT CAVOK 04/01 Q1013=
LKIB NIL=
LKMT 272100Z 18004KT 7000 BKN048 05/03 Q1015 NOSIG=
LKPR 272100Z 25004KT CAVOK M00/M02 Q1015 NOSIG=
LKTB 272100Z 00000KT 9999 OVC037 05/01 Q1015 NOSIG=
LKTT NIL=
LOAV NIL=
LOIH NIL=
LOIJ NIL=
LOLW NIL=
LOWG NIL=
LOWH NIL=
LOWI NIL=
LOWK NIL=
LOWL NIL=
LOWS NIL=
LOWW NIL=
LOWZ NIL=
LQSA 272100Z 30003KT 270V340 6000 SCT015 OVC025 05/03 Q1012=
LWOH NIL=
LWSK 272100Z 35003KT 4600 BR SCT040 OVC070 08/07 Q1010 NOSIG=
LYBE 272100Z 01002KT 4000 MIFG BR SCT034 06/06 Q1013 TEMPO
     2000=
LYDU NIL=
LYLJ NIL=
LYMB NIL=
LYNI 272100Z 32007KT 290V350 9999 -RA SCT040 09/05 Q1011=
LYOH NIL=
LYOS NIL=
LYPG 272100Z 29003KT 9999 FEW040 09/08 Q1008 NOSIG=
LYPL NIL=
LYPR 272100Z NIL=
LYPZ NIL=
LYRI NIL=
LYSA NIL=
LYSK NIL=
LYSP NIL=
LYTI NIL=
LYTV 272100Z VRB01KT CAVOK 08/07 Q1008=
LYZA NIL=
LYZD NIL=
LZIB 272100Z 00000KT 9999 BKN028 05/02 Q1016=
LZKZ 272100Z 31003KT 9999 SCT031 05/03 Q1015=
LZTT 272100Z 25005KT 9999 BKN005 01/00 Q1014=
####018000388####
SAHW31 KWBC 272100
METAR
PBKH NIL=
PHJR 272053Z 27007KT 10SM CLR 28/18 A3000=
PHKO 272053Z 29008KT 10SM CLR 27/19 A2996=
PHLI 272053Z 01014KT 10SM CLR 27/17 A3001=
PHNL 272053Z 05003KT 10SM FEW030 SCT038 SCT050 SCT140 BKN240 28/18
     A2998=
PHOG 272054Z 35007KT 10SM FEW025 SCT050 28/18 A2999=
PHTO 272053Z 12011KT 10SM FEW030 SCT100 SCT200 28/20 A2997=
PNGF NIL=
####018000028####
SAEW31 KWBC 272100
NIL=
####018000955####
SAFR31 KWBC 272100
METAR
LFAC NIL=
LFAT NIL=
LFBD 272100Z AUTO 24003KT 9999 NSC 05/01 Q1026=
LFBH 272100Z AUTO 23003KT 9999 NSC 07/03 Q1025=
LFBI 272100Z AUTO 19001KT 9999 NSC 03/00 Q1025=
LFBO 272100Z AUTO 30006KT 270V330 9999 NSC 07/M01 Q1026=
LFBP 272100Z AUTO 17002KT 9999 NSC 04/01 Q1027=
LFBT 272100Z AUTO 26005KT 9999 NSC 04/M01 Q1027=
LFBZ 272100Z AUTO 33003KT 9999 FEW046 BKN150 BKN170 08/03
     Q1028=
LFGJ NIL=
LFKB 272100Z 25007KT 210V300 9999 FEW033 09/02 Q1013 NOSIG=
LFKC 272100Z NIL=
LFKJ 272100Z AUTO 05003KT 9999 NSC 07/05 Q1013=
LFLB 272100Z AUTO 01013KT 9999 FEW034 SCT049 OVC056 05/00
     Q1021=
LFLC 272100Z VRB03KT 9999 SCT053 BKN073 04/M02 Q1023 NOSIG=
LFLL 272100Z 34009KT CAVOK 03/00 Q1022 NOSIG=
LFLS 272100Z AUTO 35009KT 280V030 9999 FEW024 OVC054 03/M01
     Q1021=
LFLY 272100Z AUTO 35004KT 9999 NSC 04/M00 Q1023=
LFMD NIL=
LFMH 272100Z AUTO 32005KT 9999 NSC 03/M02 Q1022=
####018001458####
SAFR32 KWBC 272100
METAR
LFML 272100Z 32024KT CAVOK 07/M00 Q1016 NOSIG=
LFMN 272100Z 32006KT CAVOK 08/05 Q1013 NOSIG=
LFMP 272100Z AUTO 31010KT 280V350 9999 NSC 09/M04 Q1023=
LFMT 272100Z 33014KT CAVOK 08/M05 Q1020 NOSIG=
LFOB 272100Z AUTO 26002KT 9999 NSC 01/M01 Q1023=
LFOH 272100Z AUTO 17005KT 9999 NSC 05/01 Q1022=
LFOT 272100Z 24001KT CAVOK 04/M00 Q1024 NOSIG=
LFPB 272100Z AUTO VRB02KT 9999 NSC 03/M02 Q1024=
LFPG 272100Z VRB02KT CAVOK 04/M02 Q1023 NOSIG=
LFPN 272100Z AUTO 28002KT 9999 NSC 01/M03 Q1023=
LFPO 272100Z 29004KT CAVOK 02/M02 Q1024 NOSIG=
LFQQ 272100Z VRB02KT CAVOK 02/M00 Q1022 NOSIG=
LFRB 272100Z 19011KT 8000 -RADZ BKN013 OVC026 07/05 Q1020
     NOSIG=
LFRC 272100Z AUTO 18008KT 9999 NSC 04/02 Q1021=
LFRD 272100Z AUTO 16005KT 9999 NSC 06/02 Q1022=
LFRG NIL=
LFRK NIL=
LFRN 272100Z AUTO 20005KT 9999 NSC 06/03 Q1023=
LFRO 272100Z AUTO 17008KT 9999 NSC 06/03 Q1021=
LFRQ 272100Z AUTO 18005KT 9999 FEW023 SCT041 BKN049 07/05
     Q1021=
LFRS 272100Z 21004KT CAVOK 06/03 Q1024 NOSIG=
LFRT NIL=
LFRZ 272100Z AUTO 24006KT 9999 NSC 08/03 Q1024=
LFSB 272100Z 27009KT 9999 -RA FEW012 SCT030 BKN050 03/02 Q1021
     NOSIG=
LFSF NIL=
LFSN 272100Z AUTO 29004KT 250V330 9999 NSC 04/M01 Q1022=
LFSR NIL=
LFST 272100Z AUTO 28005KT 9999 OVC058 05/01 Q1021=
LFTW 272100Z AUTO 34013KT 9999 NSC 06/M04 Q1019=
LFVP 272100Z 28019KT 9999 FEW018 BKN024 BKN031 M06/M10 Q1017
     NOSIG=
####018001142####
SAFR41 KWBC 272100
METAR
LFAF NIL=
LFBA 272100Z AUTO 27005KT 9999 NSC 05/M00 Q1026=
LFBC 272100Z AUTO 00000KT 9999 NSC 06/04 Q1027=
LFBL 272100Z AUTO 28003KT 9999 BKN036 BKN045 OVC054 04/M01
     Q1024=
LFBM 272100Z AUTO 30004KT 9999 NSC 04/01 Q1027=
LFKF 272100Z AUTO 00000KT 3400 BR NCD 03/02 Q1013=
LFLD NIL=
LFLV NIL=
LFOE 272100Z AUTO 19004KT 9999 NSC 01/M01 Q1023=
LFOP 272100Z AUTO 17004KT 9999 NSC 01/M02 Q1023=
LFPB 272100Z AUTO VRB02KT 9999 NSC 03/M02 Q1024=
LFPG 272100Z VRB02KT CAVOK 04/M02 Q1023 NOSIG=
LFPV 272100Z AUTO 29002KT 9999 NSC 03/M02 Q1023=
LFQB 272100Z AUTO 29004KT 9999 NSC 01/M02 Q1023=
LFQQ 272100Z VRB02KT CAVOK 02/M00 Q1022 NOSIG=
LFRH 272100Z AUTO 20009KT 9999 -RA BKN031 OVC038 08/05 Q1022=
LFRM 272100Z AUTO 17002KT 9999 NSC 02/M00 Q1024=
LFSC NIL=
LFSD 272100Z AUTO 02002KT 9999 NSC 01/M02 Q1023=
LFSI 272100Z AUTO 00000KT 9999 NSC M00/M02 Q1023=
LFSL 272100Z AUTO 25002KT 9999 NSC 01/M02 Q1024=
LFSO 272100Z AUTO 26004KT 9999 NSC 01/M01 Q1022=
LFSX 272100Z AUTO 31002KT 4300 BR SCT047 OVC064 03/01 Q1022=
LFTH 272100Z AUTO VRB01KT 9999 NSC 06/03 Q1013=
####018000182####
SAHA31 KWBC 272100
METAR
KQHA NIL=
MTCA NIL=
MTCH NIL=
MTEG NIL=
MTJA NIL=
MTJE NIL=
MTPP 272100Z 08010G22KT 9999 FEW028 32/// Q1014 A2994=
MTPX NIL=
MTTP NIL=
####018000409####
SAPA41 KWBC 272100
METAR
PGSN 272054Z 06014KT 10SM SCT016 24/23 A2992=
PGUA 272058Z AUTO 08012KT 10SM FEW014 BKN049 25/22 A2992=
PGUM 272054Z 07008KT 5SM -RA FEW031 SCT055 BKN070 26/23 A2991=
PJON NIL=
PKMJ 272057Z 07014KT 5SM SHRA SCT014TCU BKN045 OVC110 26/25
     A2978=
PKWA 272100Z AUTO 05017KT 10SM SCT021 SCT035 28/22 A2983=
PWAK 272058Z AUTO 08022G26KT 9000 HZ FEW028 25/19 A3002=
####018000380####
SAID31 KWBC 272100
METAR
WAAA NIL=
WABB NIL=
WABP 272100Z 00000KT 6000 HZ SCT014 23/23 Q1010=
WADL NIL=
WAJJ NIL=
WAKK NIL=
WAMM NIL=
WAPP NIL=
WASS NIL=
WIBB NIL=
WIID NIL=
WIIH NIL=
WIII NIL=
WIKB NIL=
WIKN NIL=
WIML NIL=
WIMM NIL=
WIOO NIL=
WIPP NIL=
WIRN NIL=
WRBB NIL=
WRKK NIL=
WRLL NIL=
WRLR NIL=
WRRR NIL=
WRSJ NIL=
####018000322####
SAIE31 KWBC 272100
METAR
EICK 272100Z 24008KT 1400 R17/P2000 R35/1600U -DZ SCT001 BKN002
     09/09 Q1008 BECMG 3000 SCT001 BKN004=
EIDB NIL=
EIDW 272100Z 20017KT 9999 FEW014 BKN042 BKN050 07/05 Q1008
     NOSIG=
EIKN 272100Z NIL=
EINN 272100Z 18010KT 9999 FEW010 SCT014 BKN030 08/07 Q1008
     NOSIG=
####018000370####
SAIO31 KWBC 272100
METAR
FIMP 272100Z 16007KT 6000 -SHRA BKN015 26/25 Q1008=
FIMR NIL=
FJDG 272055Z 32003KT 9999 FEW020 SCT220 27/25 A2983 RMK SLP098
     8/101 T02740253 57017=
FMCH NIL=
FMCV NIL=
FMCZ NIL=
FMEE NIL=
FMMI NIL=
FMMT NIL=
FMNN NIL=
FSIA NIL=
FSSS NIL=
VRMM NIL=
VYMD NIL=
VYYY NIL=
WBGG NIL=
WBKK NIL=
WBSB NIL=
####018000372####
SAIQ31 KWBC 272100
METAR
KQAD NIL=
KQAE NIL=
KQEZ NIL=
KQMG NIL=
KQMH NIL=
KQTO NIL=
KQTU NIL=
KQTW NIL=
KQTX NIL=
KQTZ 272055Z VRB01KT 9999 SCT250 13/00 A3007 RMK SLP180 WND DATA
     ESTMD ALSTG/SLP ESTMD 50000=
KQVO NIL=
KQXJ NIL=
KQXN NIL=
ORBI 272100Z 31003KT CAVOK 10/02 Q1018 NOSIG=
ORER 272100Z 35004KT CAVOK 08/01 Q1021 NOSIG=
####018000272####
SAIQ32 KWBC 272100
METAR
KQAJ NIL=
KQAQ NIL=
KQAV NIL=
KQAX NIL=
KQAZ 272100Z AUTO 12010KT 9999 CLR 21/M08 A3002 RMK CDP03565
     CLR=
KQCO NIL=
KQCT NIL=
KQMA NIL=
KQPA NIL=
KQPB NIL=
KQPC NIL=
KQPD NIL=
KQSE NIL=
KQSL NIL=
KQTI NIL=
####018000929####
SAJP31 KWBC 272100
METAR
RJAA 272100Z 31013KT CAVOK 03/M07 Q1021 NOSIG RMK A3016=
RJAA 272100Z 31013KT CAVOK 03/M07 Q1021 NOSIG=
RJAH 272100Z 16003KT 130V240 9999 FEW030 01/M06 Q1020=
RJCC 272100Z 36011KT 9999 -SHSN FEW015 BKN045 M02/M07 Q1017 RMK
     1ST015 5CU045 A3003=
RJCC 272100Z 36011KT 9999 -SHSN FEW015 BKN045 M02/M07 Q1017=
RJCH NIL=
RJFK 272100Z 03003KT 350V060 9999 FEW020 BKN025 03/M01 Q1023=
RJFT NIL=
RJFU NIL=
RJNN NIL=
RJOO 272100Z 33006KT 9999 FEW030 SCT050 BKN070 04/M02 Q1026 RMK
     1CU030 3SC050 5AC070 A3032=
RJOO 272100Z 33006KT 9999 FEW030 SCT050 BKN070 04/M02 Q1026=
RJSS 272100Z 29009KT 9999 FEW020 02/M05 Q1019=
RJTT 272100Z 33012KT CAVOK 04/M07 Q1021 NOSIG RMK A3016=
RJTT 272100Z 33012KT CAVOK 04/M07 Q1021 NOSIG=
RODN 272058Z AUTO 07013KT 7SM R05/5500FT BKN004 BKN027 OVC120
     17/16 A3007 RMK AO2 DZB33E49 SLP190 P0000 60000 T01710158
     57007 $=
####018000343####
SAJP41 KWBC 272100
METAR
RJAF NIL=
RJAI NIL=
RJAK NIL=
RJAM NIL=
RJAO NIL=
RJAT NIL=
RJAW 272100Z 35006KT 9999 FEW015 BKN120 20/18 Q1018 RMK 1CU015
     5AC120 A3008=
RJBD NIL=
RJCA NIL=
RJCB NIL=
RJCJ NIL=
RJCK NIL=
RJCM NIL=
RJCN NIL=
RJCO NIL=
RJCR NIL=
RJCT NIL=
RJCW NIL=
RJDB NIL=
RJDC NIL=
####018000321####
SAJP42 KWBC 272100
METAR
RJDK NIL=
RJDM NIL=
RJDO NIL=
RJDT NIL=
RJEB NIL=
RJEC NIL=
RJEO NIL=
RJER NIL=
RJFA NIL=
RJFC NIL=
RJFE NIL=
RJFG NIL=
RJFM NIL=
RJFN NIL=
RJFO NIL=
RJFR 272100Z 08009KT 350V130 9999 FEW030 SCT/// 05/M00 Q1027=
RJFY NIL=
RJFZ NIL=
RJKA NIL=
RJKB NIL=
####018000316####
SAJP43 KWBC 272100
METAR
RJKI NIL=
RJKN NIL=
RJNF NIL=
RJNG NIL=
RJNH NIL=
RJNO NIL=
RJNT NIL=
RJNY NIL=
RJOA NIL=
RJOB NIL=
RJOC NIL=
RJOE NIL=
RJOF NIL=
RJOI 272055Z 30005KT 9999 FEW230 03/M02 A3036 RMK SLP279 T00281017
     52010=
RJOK NIL=
RJOM NIL=
RJOP NIL=
RJOR NIL=
####018000028####
SAJP44 KWBC 272100
NIL=
####018000217####
SAJP45 KWBC 272100
METAR
RJTJ NIL=
RJTK NIL=
RJTL NIL=
RJTO NIL=
RJTQ NIL=
RJTR NIL=
RJTU NIL=
RJTX NIL=
RJTY 272058Z AUTO 31016G21KT 10SM CLR 03/M09 A3017 RMK AO2 SLP226
     T00331091 50012=
####018000028####
SAKN41 KWBC 272100
NIL=
####018000882####
SAPQ31 KWBC 272100
METAR
PGRO 272050Z 07010KT 7SM SCT022 SCT100 25/24 A2992=
PGSN 272054Z 06014KT 10SM SCT016 24/23 A2992=
PGUM 272054Z 07008KT 5SM -RA FEW031 SCT055 BKN070 26/23 A2991=
PGWT 272057Z 07013KT 7SM SCT010 BKN150 25/23 A2991=
PKMJ 272057Z 07014KT 5SM SHRA SCT014TCU BKN045 OVC110 26/25
     A2978=
PKMR 272054Z 07013KT 5SM SHRA SCT014TCU BKN050 BKN120 OVC300 26/24
     A2980=
PKRO NIL=
PKWA 272100Z AUTO 05017KT 10SM SCT021 SCT035 28/22 A2983=
PTKK 272055Z VRB05KT 15SM FEW014 SCT120 OVC280 26/24 A2977=
PTKR 272053Z 05006KT 15SM FEW017TCU FEW120 OVC290 26/23 A2983=
PTPN NIL=
PTRO 272050Z 05009G16KT 14SM BKN016CB BKN300 26/24 A2983=
PTSA NIL=
PTTP 272050Z 05003KT 15SM BKN018 BKN300 28/24 A2981=
PTYA 272052Z 03008KT 12SM SCT016 SCT030 BKN130 BKN300 26/23
     A2984=
PWAK 272058Z AUTO 08022G26KT 9000 HZ FEW028 25/19 A3002=
####018000417####
SAKO31 KWBC 272100
METAR
RKNY 272100Z AUTO 25002KT 3000 NCD M01/M12 Q1029=
RKPC 272100Z 10011KT 9999 SCT025 06/M00 Q1025 NOSIG=
RKPK 272100Z 28004KT 9999 BKN040 01/M05 Q1029 NOSIG=
RKSI 272100Z 07004KT 9999 FEW030 BKN180 M02/M09 Q1029 NOSIG=
RKSS 272100Z 02002KT 9999 FEW030 BKN150 M02/M10 Q1029 NOSIG=
RKTN 272100Z 07001KT CAVOK M03/M08 Q1030 NOSIG=
RKTU 272100Z 09001KT CAVOK M05/M08 Q1030 NOSIG=
####018000028####
SAKO41 KWBC 272100
NIL=
####018000175####
SAMM31 KWBC 272100
METAR
LCEN NIL=
LCLK 272100Z 31003KT CAVOK 12/11 Q1012 NOSIG=
LCNC 272100Z NIL=
LCPH 272100Z 00000KT CAVOK 15/09 Q1013=
LCRA NIL=
LMML NIL=
####018000118####
SAMX42 KWBC 272145
METAR
MMTJ 272102Z RTD 19010KT 8SM BKN035 17/08 A2985 RMK SLP110 57010
     975 8/500 HZY=
####018001046####
SIIQ20 ORBI 272100
AAXX 27211
40621 42960 33301 10142 20024 40187 54001 80002 333 830XX=
40637 42960 00000 10120 20078 40178 51003=
40650 42960 20000 10102 20027 40182 50000 82030 333 82360=
40655 42960 22501 10110 21002 40176 56003 82030 333 82360=
40656 42960 00000 10144 20044 40184 55004=
40657 42960 30000 10133 20046 40174 54001 80001 333 830XX=
40660 42960 03101 10148 20027 40171 58003=
40662 42960 20901 10142 20036 40177 54001 80002 333 820XX=
40664 42960 03004 10144 20033 40174 54002=
40665 42960 00000 10148 20082 40179 58001=
40666 42960 00000 10130 20081 40193 51004=
40670 42960 40000 10145 20048 40180 58005 80002 333 840xx=
40672 42960 22802 10148 20075 40187 58002 80004 333 820xx=
40674 42960 00000 10142 20030 40187 51002=
40675 42960 00000 10142 20067 40172 54000=
40676 42960 02901 10148 20060 40184 58003=
40680 42960 03001 10150 20077 40168 54000=
40689 42960 03002 10150 20066 40170 54000=
40690 42960 00000 10128 20048 40177 56002=
40691 42960 02102 10154 20043 40194 54000=
####018000822####
SANT31 KWBC 272100
METAR
BGBW 272053Z NIL=
BGBW 272050Z 00000KT 9999 SCT070 BKN180 M06/M12 Q0988=
BGCO NIL=
BGGH 272050Z 04004KT 9999 FEW008 M11/M13 Q0993=
BGJN 272050Z AUTO 14008KT 9999NDV SCT120/// BKN140/// M23/M28
     Q0993=
BGKK 272050Z AUTO 08015KT //// BKN026/// M02/M07 Q0990=
BGSF 272050Z AUTO 05004KT 9999NDV BKN190/// M28/M33 Q0995=
BGTL 272058Z AUTO 09007KT 9999 CLR M34/M34 A2945 RMK AO2 SLP969
     T13391344 51005 $=
BIAR 272100Z 33008KT 9999 -SN FEW010 BKN044 M00/M02 Q0982
     R01/190070=
BIEG 272100Z 17004KT 9999 FEW031 SCT037 BKN046 M02/M05 Q0979=
BIKF 272100Z 05017KT 9999 FEW020 SCT130 OVC150 M00/M03 Q0977=
BIRK 272100Z 03009KT 350V080 CAVOK 00/M06 Q0976=
GVAC NIL=
GVPR NIL=
LPBJ NIL=
LPLA NIL=
TXKF 272055Z 24017KT 9000 -RA BKN007 OVC017 22/20 Q1022=
####018001909####
SAPA31 KWBC 272100
METAR
AGGG NIL=
AGGH 272100Z 25006KT 9999 HZ FEW018 FEW019CB BKN300 28/23
     Q1007=
ANAU NIL=
AYPY NIL=
PGNT NIL=
PGRO 272050Z 07010KT 7SM SCT022 SCT100 25/24 A2992=
PGSN 272054Z 06014KT 10SM SCT016 24/23 A2992 RMK AO2 SLP154 60000
     T02440228 53016=
PGUA 272058Z AUTO 08012KT 10SM FEW014 BKN049 25/22 A2992 RMK AO2
     SLP122 T02490223 53014 $=
PGUM 272054Z 07008KT 5SM -RA FEW031 SCT055 BKN070 26/23 A2991 RMK
     AO2 RAB46 SLP122 P0001 60001 T02560228 53014=
PGWT 272057Z 07013KT 7SM SCT010 BKN150 25/23 A2991=
PHJH 272050Z 36010KT 15SM FEW020 FEW035 SCT060 27/19 A3000=
PHJR 272053Z 27007KT 10SM CLR 28/18 A3000 RMK AO2 SLP164 T02780183
     51004=
PHMK 272054Z 36011G15KT 10SM FEW020 26/21 A3001 RMK AO2 SLP164
     P0001 60001 T02610206 50006=
PJON NIL=
PKMJ 272057Z 07014KT 5SM SHRA SCT014TCU BKN045 OVC110 26/25 A2978
     RMK TCU ALQDS=
PKMR 272054Z 07013KT 5SM SHRA SCT014TCU BKN050 BKN120 OVC300 26/24
     A2980 RMK SHRAB44 TCU ALQDS SLP093 60007 8/878 T02620244
     52022=
PKWA 272100Z AUTO 05017KT 10SM SCT021 SCT035 28/22 A2983 RMK AO2
     T02810223=
PLCH NIL=
PMDY 272056Z AUTO 36007KT 10SM SCT025 BKN032 16/13 A3035 RMK AO2
     TSNO 53014 T01610133 SLP591 $=
PTKK 272055Z VRB05KT 15SM FEW014 SCT120 OVC280 26/24 A2977 RMK
     SLP083 8/171 T02610243 52015=
PTKR 272053Z 05006KT 15SM FEW017TCU FEW120 OVC290 26/23 A2983 RMK
     TCU SE-S SLP101 8/278 T02610230 52010=
PTPN NIL=
PTRO 272050Z 05009G16KT 14SM BKN016CB BKN300 26/24 A2983 RMK CB VC
     ALQDS=
PTSA NIL=
PTTP 272050Z 05003KT 15SM BKN018 BKN300 28/24 A2981 RMK SLP095
     8/101 T02780239 52007=
PTYA 272052Z 03008KT 12SM SCT016 SCT030 BKN130 BKN300 26/23 A2984
     RMK SLP105 8/871 T02580228 52007=
PWAK 272058Z AUTO 08022G26KT 9000 HZ FEW028 25/19 A3002 RMK AO2 PK
     WND 08027/38 SLP172 T02470186 52015=
####018000605####
SAPA32 KWBC 272100
METAR
NCRG 272100Z 07008KT 9999 SCT018 29/25 Q1013=
NFFN 272100Z 00000KT 9999 FEW025TCU BKN300 28/25 Q1008 NOSIG=
NFNA 272100Z 00000KT 9999 FEW020 BKN280 27/25 Q1008=
NFTF 272100Z 00000KT 9999 FEW017 SCT120 29/27 Q1011=
NFTV 272100Z 07007KT 9999 FEW009 SCT017TCU BKN120 29/25 Q1010=
NGFU 272100Z 00000KT 9999 VCSH SCT018CB OVC100 27/25 Q1009=
NSFA NIL=
NSTU 272055Z 10013KT 12SM SCT022 BKN110 31/26 A2978 RMK SLP085
     8/170 T03110261 52005=
NTAA 272100Z 05012KT 9999 FEW015TCU SCT023 30/24 Q1012 NOSIG=
NWWW 272100Z AUTO 00000KT 5000 BR ///TCU 24/23 Q1006=
####018000517####
SAPH31 KWBC 272100
METAR
RPLB 272100Z 00000KT 9999 FEW020 21/19 Q1013 NOSIG RMK A2991=
RPLC 272100Z 28004KT 9999 FEW020 OVC100 24/19 Q1014 N6SIG
     A2996=
RPLL 272100Z 07003KT 9999 FEW025 SCT100 24/21 Q1013 NOSIG RMK
     A2991=
RPMC NIL=
RPMD 272100Z 36003KT 9999 SCT016 SCT290 24/22 Q1011 RMK A2985=
RPMK NIL=
RPML NIL=
RPMM NIL=
RPMT NIL=
RPMZ 272100Z 00000KT 9999 FEW018 SCT300 24/22 Q1011 RMK A2985=
RPUW NIL=
RPVM 272100Z 35006KT 9999 FEW020 25/22 Q1012 RMK A2988=
RPWD NIL=
####018000107####
SAPH31 KWBC 272100 CCA
METAR
RPLC 272100Z 28004KT 9999 SCT020 OVC100 24/19 Q1014 N6SIG
     A2996=
####018000028####
SAPO31 KWBC 272100
NIL=
####018001670####
SARA31 KWBC 272100
METAR
UAAA 272100Z 14002MPS 2600 BR FU SCT100 M04/M07 Q1031 R88/CLRD65
     NOSIG=
UACC 272100Z 23004MPS CAVOK M13/M14 Q1033 R22/0/0070 NOSIG RMK
     QFE743/0991=
UAFM NIL=
UAFO NIL=
UAFP NIL=
UAOO 272100Z 05003MPS CAVOK M03/M07 Q1034 NOSIG RMK
     QFE764/1018=
UARR 272100Z NIL=
UATE 272100Z 11008MPS CAVOK M01/M04 Q1029 R12/0///70 NOSIG RMK
     QFE770/1027=
UATG 272100Z 10004MPS 5000 BR NSC M06/M06 Q1033 R14/CLRD70 NOSIG
     RMK QFE777/1036=
UATT 272100Z 11001MPS 1100 R13/1900 BR NSC M16/M17 Q1037
     R13/0///60 NOSIG RMK QFE757/1010=
UBBB 272100Z 17010KT CAVOK 06/05 Q1026 88CLRD70 NOSIG=
UBBG 272100Z 00000KT 9999 BKN066 06/04 Q1025 R12/CLRD70 NOSIG=
UBEE NIL=
UEEE NIL=
UGEE NIL=
UGEL NIL=
UGGG NIL=
UGGN NIL=
UGMM NIL=
UGSS NIL=
UHHH NIL=
UHMA NIL=
UHMD NIL=
UHME NIL=
UHML NIL=
UHMM NIL=
UHMO NIL=
UHMP NIL=
UHPP NIL=
UHSS NIL=
UHWW NIL=
UIAA NIL=
UIBB NIL=
UIII NIL=
UIUU NIL=
ULAA NIL=
UMBB NIL=
UMGG NIL=
UMII NIL=
UMMG NIL=
UMMM NIL=
UMMS NIL=
UNAA NIL=
UNNN NIL=
UNNT NIL=
USNN NIL=
UTAA 272100Z 12003MPS 9999 FEW041CB OVC041 04/01 Q1031 R12/CLRD70
     NOSIG=
UTAK NIL=
UTAT NIL=
UTAV NIL=
UTDD 272100Z 28004MPS 9999 SCT025 BKN029 OVC051 03/01 Q1027
     R09/CLRD// NOSIG RMK QFE701/0935=
UTDL 272100Z 25002MPS 5000 BR OVC045 04/02 Q1029 NOSIG RMK
     QFE734/0978 88CLRD70=
UTEE NIL=
UTKA NIL=
UTKF NIL=
UTKK NIL=
UTNK NIL=
UTNN NIL=
UTNR NIL=
UTNU NIL=
UTSA NIL=
UTSB NIL=
UTSD NIL=
UTSK NIL=
UTSS NIL=
UTST NIL=
UTTA NIL=
UTTR NIL=
UTTT NIL=
UTTW NIL=
UUEE NIL=
####018000125####
SARA31 KWBC 272000 RRI
METAR
UTST 272030Z 14001KT 2200 BR SCT066CB BKN100 02/02 Q1029
     R88/CLRD70 TEMPO 1000 BR=
####018000028####
SARS31 KWBC 272100
NIL=
####018000028####
SARS32 KWBC 272100
NIL=
####018000028####
SARS33 KWBC 272100
NIL=
####018000863####
SACI41 ZBBB 272100
METAR ZBHH 272100Z 20003MPS 4000 BR BKN030 M06/M06 Q1020 NOSIG=
METAR ZGHA 272100Z 34005MPS 5000 -RA BR SCT003 BKN004 OVC033
06/05
Q1019 NOSIG=
METAR ZHCC 272100Z 36004MPS CAVOK 01/M07 Q1028 NOSIG=
METAR ZHHH 272100Z 03003MPS 360V060 5000 RA BR SCT010
FEW030TCU
OVC040 04/03 Q1023 RETS NOSIG=
METAR ZJHK 272100Z 13003MPS 090V170 9999 SCT016 22/19 Q1012 NOSIG=
METAR ZJSY 272100Z 08004MPS 9999 BKN020 24/22 Q1012 NOSIG=
METAR ZLLL 272100Z 09002MPS 9999 SCT046 M05/M11 Q1024 NOSIG=
METAR ZSNJ 272100Z 07007MPS 5000 -RA BR BKN005 OVC033 03/02 Q1024
NOSIG=
METAR ZSOF 272100Z 06007MPS 8000 BKN009 OVC046 01/M00 Q1024 NOSIG=
METAR ZUCK 272100Z 02004MPS 9999 -RA SCT020 OVC050 10/08 Q1017
NOSIG=
METAR ZYCC 272100Z 15004MPS CAVOK M12/M17 Q1028 NOSIG=
METAR ZYHB 272100Z 16003MPS 5000 FU NSC M13/M15 Q1028 NOSIG=
####018001651####
SAUS31 KWBC 272100
METAR
KABQ 272052Z 35005KT 8SM -SN FEW009 BKN015 OVC025 M03/M06
     A2991=
KATL 272052Z 34008KT 10SM FEW250 08/M06 A3035=
KBGR 272053Z 27005KT 10SM CLR M06/M22 A3028=
KBHM 272053Z 03007KT 10SM CLR 06/M07 A3043=
KBNA 272053Z 03008KT 10SM SCT250 01/M12 A3054=
KBOS 272054Z VRB03KT 10SM FEW035 SCT250 M03/M19 A3036=
KBWI 272054Z 31013G18KT 10SM FEW050 SCT250 M01/M12 A3048=
KCHS 272056Z 11009KT 10SM BKN200 10/01 A3035=
KCLE 272051Z 26008KT 10SM BKN038 M10/M18 A3060=
KCLT 272052Z 34005KT 10SM FEW050 SCT250 09/M05 A3035=
KCVG 272052Z 00000KT 10SM FEW046 M06/M18 A3057=
KDEN 272053Z 16003KT 10SM FEW060 FEW110 M08/M15 A2990=
KDFW 272053Z 04007KT 1/2SM R17C/3000V6000FT SN BKN010 OVC015
     M03/M05 A3042=
KDTW 272053Z 21008KT 10SM FEW050 M07/M18 A3057=
KEWR 272051Z 29006G18KT 10SM FEW250 M02/M14 A3042=
KFLL 272053Z 35009KT 10SM BKN015 OVC250 22/18 A3009=
KIAD 272052Z 35010KT 10SM FEW050 M01/M13 A3048=
KIAH 272053Z 04005KT 8SM OVC022 06/00 A3035=
KIND 272054Z 28009KT 10SM FEW046 M08/M18 A3059=
KJAX 272056Z 04015KT 10SM FEW025 FEW150 OVC200 11/03 A3030=
KJFK 272051Z 31005KT 10SM SCT250 M01/M15 A3042=
KLAS 272056Z 00000KT 10SM FEW100 FEW250 17/M07 A2965=
KLAX 272053Z 20009KT 10SM FEW020 BKN035 BKN044 17/12 A2980=
KLGA 272051Z 34006KT 10SM FEW250 M01/M16 A3041=
KLGC 272055Z AUTO 03006KT 10SM CLR 12/M02 A3035=
KLIT 272053Z 35008KT 10SM BKN090 OVC150 M01/M15 A3058=
KLOU 272053Z VRB04KT 10SM CLR M03/M16 A3060=
KMCI 272053Z VRB04KT 10SM OVC200 M08/M18 A3055=
KMCO 272053Z 01011KT 10SM SCT019 OVC026 13/10 A3021=
KMEM 272054Z 07010KT 10SM BKN250 01/M11 A3051=
####018000028####
SARS41 KWBC 272100
NIL=
####018001453####
SASA31 KWBC 272100
METAR
SEGU 272100Z 02006KT 9999 FEW023 BKN100 29/22 Q1007 NOSIG RMK
     A2976=
SEQM 272100Z 36012KT 9999 FEW030 SCT090 20/12 Q1021 NOSIG RMK
     A3016=
SEQU NIL=
SKBO 272100Z 19012KT 9999 SCT023 SCT080 20/06 A3024=
SKBQ 272100Z 02010KT CAVOK 30/25 A2976=
SKCG NIL=
SKCL 272100Z 33012K SCT017 SCT200 31/27 A2972=
SKLT NIL=
SKRG 272100Z 15010KT 9999 FEW020 22/10 A3020=
SKSP 272100Z 08010KT 9999 SCT018 28/24 A2985=
SMNI NIL=
SMZO 272100Z 06009KT 9999 FEW018CB SCT035 28/22 Q1011 NOSIG=
SMZY NIL=
SOCA 272100Z AUTO 03008KT 9999 FEW022/// OVC068/// 28/23 Q1010=
SPIM 272100Z 17013KT CAVOK 27/19 Q1010 NOSIG RMK BKN230 PP000=
SPQT 272100Z 35004KT 9999 FEW030 SCT100 32/24 Q1006 NOSIG RMK BIRD
     HAZARD PP000=
SPQU 272100Z 26011KT 9999 SCT005 BKN020 15/12 Q1025 TEMPO -DZ RMK
     PP000=
SPSO 272100Z 23014KT 190V250 CAVOK 27/19 Q1010 RMK SCT230 BIRD
     HAZARD RWY 22/04 PP000=
SPTN 272100Z 22008KT 190V260 9999 OVC090 27/16 Q1013 RMK PP000=
SPYL 272100Z /////KT CAVOK 28/20 Q1008 RMK TX 31.4 BIRD HAZARD RWY
     17/35 SCT100 PP000=
SPZO 272100Z 04008KT 360V090 9999 VCSH FEW040TCU SCT050 BKN100
     16/05 Q1027 NOSIG RMK PP000=
SVBC NIL=
SVMC 272100Z /////KT 9999 FEW016 33/23 Q1010=
SVMG 272100Z /////KT 9999 FEW010 31/24 Q1014 NOSIG=
SVMI 272100Z 05003KT 9999 FEW023 31/24 Q1012 NOSIG=
SYCJ 272100Z 05010KT 9999 FEW022 SCT100 29/23 Q1011 NOSIG=
SYTM NIL=
####018001097####
SASA32 KWBC 272100
METAR
SCAR 272100Z 20009KT CAVOK 26/15 Q1011=
SCBA 272100Z 30021KT CAVOK 28/06 Q1010=
SCCF 272100Z 25021KT 9999 SCT060TCU 22/07 Q1023=
SCCH 272100Z 29004KT 8000 SCT066 27/15 Q1012=
SCCI 272100Z 29026KT 9999 FEW025 SCT160 BKN200 19/10 Q0997
     NOSIG=
SCDA 272100Z 18015KT CAVOK 27/15 Q1012=
SCEL 272100Z 18011KT CAVOK 28/09 Q1012 NOSIG=
SCFA 272100Z 18009KT 9999 FEW040 23/12 Q1012 NOSIG=
SCGE NIL=
SCIE 272100Z 23009KT CAVOK 21/14 Q1014=
SCIP 272100Z 08011KT 9999 SCT020 27/18 Q1020 NOSIG=
SCTE 272100Z 22010KT 8000 SKC 22/11 Q1013 NOSIG=
SGAS NIL=
SGES NIL=
SLCB 272100Z 00000KT 9999 FEW025 FEW027CB 23/10 Q1021=
SLCZ NIL=
SLLP 272100Z 28008KT 250V320 9999 SCT015 FEW017CB SCT070 BKN200
     10/03 Q1035=
SLTJ 272100Z 17006KT 9999 SCT030 FEW033CB BKN200 22/17 Q1015=
SLTR 272100Z 36007KT 8000 VCSH FEW017 FEW020CB BKN200 26/23
     Q1008=
SLVR 272100Z 35011KT 9999 FEW013 SCT017 BKN200 29/22 Q1008=
SUAA NIL=
SUCA NIL=
SULS NIL=
SUMU 272100Z 15010KT 9999 SCT026 20/12 Q1016 NOSIG=
SUPE NIL=
SURV NIL=
SUSO NIL=
####018000299####
SASA41 KWBC 272100
METAR
SEMT 272100Z 33007KT 9999 FEW020 SCT033 28/24 Q1009=
SEPA NIL=
SKBG 272100Z 32005KT 8000 SCT017 26/19 A2990 RMK HZ=
SKMD NIL=
SKPE 272100Z 28005KT 9999 FEW025 29/16 A2990=
SKSM NIL=
SKVG NIL=
SMJP 272100Z 01005KT 340V040 9999 FEW018CB 28/24 Q1011 NOSIG=
####018000248####
SASA42 KWBC 272100
METAR
SCAC NIL=
SCHA NIL=
SCSE 272100Z 26008KT 9999 FEW020 21/12 Q1014=
SCTC NIL=
SCTI NIL=
SCVD 272100Z NIL=
SELT 272100Z 18013KT 9999 SCT030 SCT300 19/10 Q1026=
SUAG NIL=
SUDU NIL=
SUPU NIL=
SUTB NIL=
####018000028####
SASD41 KWBC 272100
NIL=
####018000028####
SASD42 KWBC 272100
NIL=
####018000277####
SASD43 KWBC 272100
METAR
OEMK NIL=
OEML NIL=
OEMU NIL=
OENG NIL=
OEOA NIL=
OEOF NIL=
OEOH NIL=
OEOS NIL=
OEOT NIL=
OEPA NIL=
OERC NIL=
OERF NIL=
OERG NIL=
OERL NIL=
OERR NIL=
OERX NIL=
OERY 272100Z NIL=
OESH NIL=
OESK NIL=
OESM NIL=
####018000028####
SASD44 KWBC 272100
NIL=
####018001477####
SASP31 KWBC 272100
METAR
LEAL 272100Z 25006KT 210V270 CAVOK 11/06 Q1022 NOSIG=
LEAM 272100Z 34010KT 310V010 9999 FEW020 19/02 Q1020=
LEAS 272100Z VRB01KT 9000 -DZ FEW028 BKN040 08/06 Q1027 TEMPO
     RA=
LEBB 272100Z 10003KT 9999 SCT035 07/06 Q1028 NOSIG=
LEBL 272100Z 21013KT 9999 FEW025 12/06 Q1019 NOSIG=
LECO 272100Z VRB02KT 9999 OVC022 09/06 Q1028 NOSIG=
LEGE 272100Z VRB01KT 9999 FEW060 03/M02 Q1020=
LEGR 272100Z VRB02KT 9999 FEW030 09/06 Q1024=
LEIB 272100Z 00000KT CAVOK 07/05 Q1021 NOSIG=
LEJR 272100Z 22005KT CAVOK 12/11 Q1025=
LELC 272100Z 08006KT 030V120 CAVOK 14/07 Q1022 NOSIG=
LELL 272100Z NIL=
LEMD 272100Z 16003KT CAVOK 07/M02 Q1024 NOSIG=
LEMG 272100Z 29009KT 260V330 9999 FEW050 16/07 Q1023 NOSIG=
LEMH 272100Z 01023G35KT 9999 FEW028 09/02 Q1018=
LEPA 272100Z 00000KT 9999 FEW022 05/04 Q1021 NOSIG=
LEPP 272100Z 33005KT 9999 SCT028 03/01 Q1026=
LERS 272100Z 26008KT 210V320 CAVOK 10/M05 Q1019=
LESO 272100Z NIL=
LEST 272100Z VRB02KT 5000 -DZ SCT007 BKN016 06/05 Q1029 TEMPO
     BKN014=
LETO 272100Z 05004KT CAVOK 07/M02 Q1024 NOSIG=
LEVC 272100Z 34019KT 320V020 CAVOK 12/M03 Q1021 NOSIG=
LEVD NIL=
LEVS NIL=
LEVT 272100Z 32007KT 290V350 9999 FEW025 SCT045 04/02 Q1027=
LEVX 272100Z 27003KT 230V310 9999 SCT024 BKN027 09/06 Q1029
     NOSIG=
LEXJ 272100Z 22003KT 9999 FEW035 OVC044 09/05 Q1028=
LEZG 272100Z 31021KT 280V340 CAVOK 06/00 Q1024=
LEZL 272100Z 35001KT CAVOK 14/08 Q1025 NOSIG=
####018000183####
SAUY SUMU 272100

METAR SULS 272100Z 18013KT 9999 SCT026 20/11 Q1016=
METAR SUCA 272100Z 12010G20KT 9999 FEW016 21/12 Q1014=
METAR SUSO 272100Z 19006KT 9999 SCT027 30/18 Q1012=
####018000183####
SAUY41 SUMU 272100
METAR SULS 272100Z 18013KT 9999 SCT026 20/11 Q1016=
METAR SUCA 272100Z 12010G20KT 9999 FEW016 21/12 Q1014=
METAR SUSO 272100Z 19006KT 9999 SCT027 30/18 Q1012=
####018000363####
SATR31 UTAA 272100
METAR UTAA 272100Z 12003MPS 9999 FEW041CB OVC041 04/01 Q1031
R12/CLRD70 NOSIG=
METAR UTAK 272100Z 10005MPS CAVOK 01/M01 Q1029 R16/CLRD70 NOSIG=
METAR UTAV 272100Z 00000MPS 7000 FEW100 03/01 Q1031 NOSIG=
METAR UTAM 272100Z 29004MPS 6000 SKC 02/M00 Q1032 NOSIG RMK 881///60=
METAR UTAT 272100Z VRB02MPS CAVOK 00/M02 Q1033 99CLRD70 NOSIC=
####018001126####
SAUS31 KWBC 272100 RRA
METAR
KMIA 272053Z 36009KT 10SM FEW029 FEW110 FEW250 25/18 A3008=
KMSP 272053Z 21007KT 10SM CLR M09/M18 A3051=
KMSY 272053Z 01010KT 10SM FEW250 11/01 A3032=
KOAK 272053Z 28021KT 10SM FEW028 SCT140 17/08 A2983=
KOKC 272052Z 07006KT 2SM -SN BKN013 BKN019 OVC033 M07/M12
     A3047=
KONT 272053Z 28006KT 10SM OVC039 16/08 A2980=
KORD 272051Z 28011KT 10SM CLR M11/M20 A3059=
KORF 272051Z 02014KT 9SM FEW040 SCT055 00/M04 A3044=
KPBI 272053Z 35014KT 10SM OVC007 19/17 A3010=
KPHF 272054Z 03009KT 8SM OVC018 02/M03 A3046=
KPHL 272054Z 32008KT 10SM FEW250 M01/M13 A3046=
KPHX 272051Z 29007G15KT 10SM FEW110 FEW150 SCT250 24/M04 A2966=
KPIT 272051Z 30010KT 10SM FEW038 M08/M19 A3052=
KRDU 272051Z 34005KT 10SM SCT047 SCT250 07/M06 A3039=
KSAN 272051Z 18014KT 10SM SCT021 BKN036 18/11 A2985=
KSEA 272053Z 36008KT 10SM FEW005 OVC060 10/07 A2976=
KSFO 272056Z 29019G25KT 10SM FEW013 SCT025 BKN029 16/09 A2984=
KSTL 272051Z 00000KT 10SM FEW120 BKN250 M08/M18 A3063=
KSWF NIL=
KTEB 272051Z 31012KT 10SM CLR M02/M16 A3040=
KTPA 272053Z 02010KT 10SM OVC025 18/09 A3017=
####018000028####
SATN41 KWBC 272100
NIL=
####018000103####
SPUS52 KWBC 272106
SPECI
KMWL 272102Z AUTO 05008KT 1SM -SN FEW009 BKN031 OVC042 M05/M08
A3040=
####018000028####
SATS31 KWBC 272100
NIL=
####018000097####
SAUK42 KWBC 272050 RRB
METAR
EGPU 272050Z AUTO 20027KT 3700 BR OVC005/// 06/06 Q0999 RERA=
####018000629####
SAUR31 KWBC 272100
METAR
UKBB 272100Z 22003MPS 8000 OVC018 03/03 Q1018 88190060 NOSIG=
UKCC NIL=
UKCW NIL=
UKDD 272100Z 12005MPS CAVOK 06/03 Q1017 08090070 NOSIG=
UKDE 272100Z 07003MPS 030V110 CAVOK 06/03 Q1017 02210466 NOSIG=
UKDR 272100Z 01004MPS 3900 BR BKN100 05/04 Q1016 1809//65 TEMPO
     0300 FG VV002=
UKFF NIL=
UKHH 272100Z 15004MPS CAVOK 05/03 Q1019 07290063 NOSIG=
UKKE NIL=
UKKK NIL=
UKKM NIL=
UKLI NIL=
UKLL 272100Z 13003MPS 9999 OVC031 05/03 Q1015 13CLRD80 NOSIG=
UKLN NIL=
UKLR NIL=
UKLT NIL=
UKLU NIL=
UKON NIL=
UKOO 272100Z 03003MPS CAVOK 08/07 Q1015 16090060 NOSIG=
####018000360####
SAVN42 KWBC 272100
METAR
SVPC 272100Z NIL=
SVPM 272100Z NIL=
SVPR NIL=
SVSA 272100Z /////KT 9999 SCT020 30/18 Q1010=
SVSE NIL=
SVSO 272100Z NIL=
SVSP 272100Z NIL=
SVSR 272100Z /////KT 9999 FEW016 BKN300 35/XX Q1010=
SVST NIL=
SVSZ 272100Z NIL=
SVTM NIL=
SVVA 272100Z 29009KT 9999 SCT016 31/21 Q1012=
SVVL 272100Z NIL=
SVVP NIL=
####018001347####
SAXX61 KWBC 272100
METAR
EDAD NIL=
EDAH NIL=
EDAR NIL=
EDAS NIL=
EDDS 272050Z 31012KT 8000 -RASN SCT010 BKN024 02/02 Q1019
     NOSIG=
EDEB NIL=
EDEH NIL=
EDEU NIL=
EDIC NIL=
EDID NIL=
EDIE NIL=
EDIH NIL=
EDIK NIL=
EDMA NIL=
EGPK 272050Z 19016G26KT 9999 -SHRA SCT019 SCT023 07/04 Q1006=
EGUA NIL=
EGUL 272058Z AUTO 19007KT 9999 DZ OVC160 05/00 A3004 RMK AO2
     SLP176 P0000 60000 T00471004 57015=
EGUN 272058Z AUTO 20008KT 9999 OVC160 05/00 A3005 RMK AO2 SLP180
     T00461001 57015=
EGVA 272058Z AUTO 20009KT 9999 BKN110 05/02 A3003 RMK AO2 SLP176
     T00480018 57018 $=
EGVJ NIL=
EGWZ NIL=
ETAD 272058Z AUTO 28004KT 9999 CLR 01/M01 A3014 RMK AO2 SLP214
     T00071011 52018=
ETAR 272058Z AUTO 27002KT 9999 OVC100 02/00 A3014 RMK AO2 SLP220
     T00240001 52019 $=
KQHT NIL=
KQIR 272058Z 35008KT 8000 BR CLR 15/13 A3002 RMK AO2A SLP168
     T01450132 402240140 55002=
KQJL NIL=
KQUZ NIL=
LEMO 272100Z 21008KT CAVOK 12/10 Q1025 NOSIG=
LERT 272100Z 25009KT CAVOK 14/12 Q1025 NOSIG=
LICZ NIL=
LIRN 272050Z 34004KT 9999 SCT050 10/06 Q1012=
LIYW 272058Z AUTO 06004KT 9999 OVC120 07/07 A2991 RMK AO2 SLP134
     T00650065 52020 $=
LPLA NIL=
LTAC 272050Z VRB04KT 9999 -SHRA SCT035 BKN090 09/03 Q1010
     NOSIG=
LTAG 272050Z 08010KT CAVOK 15/04 Q1013 NOSIG=
####018001705####
SAXX62 KWBC 272100
METAR
FJDG 272055Z 32003KT 9999 FEW020 SCT220 27/25 A2983 RMK SLP098
     8/101 T02740253 57017=
FUDG NIL=
PHBK 272056Z AUTO 36020KT 10SM CLR 26/18 A3000 RMK AO2 SLP160
     T02560178 50007=
PHHI 272058Z AUTO 34010KT 10SM CLR 25/20 A3000 RMK AO2 SLP150
     T02480201 51007 $=
PHNG 272057Z 35010KT CLR 27/21 A2997 RMK AO2 SLP144 T02670211
     51007 $=
PHSF 272056Z AUTO 22002G10KT 10SM CLR 19/07 A3028 RMK AO2 SLP144
     T01850073 53004 $=
PJON NIL=
PKMJ 272057Z 07014KT 5SM SHRA SCT014TCU BKN045 OVC110 26/25 A2978
     RMK TCU ALQDS=
PKWA 272100Z AUTO 05017KT 10SM SCT021 SCT035 28/22 A2983 RMK AO2
     T02810223=
PMDY 272056Z AUTO 36007KT 10SM SCT025 BKN032 16/13 A3035 RMK AO2
     TSNO 53014 T01610133 SLP591 $=
PTSA NIL=
PWAK 272058Z AUTO 08022G26KT 9000 HZ FEW028 25/19 A3002 RMK AO2 PK
     WND 08027/38 SLP172 T02470186 52015=
RJOI 272055Z 30005KT 9999 FEW230 03/M02 A3036 RMK SLP279 T00281017
     52010=
RJTA NIL=
RJTX NIL=
RJTY 272058Z AUTO 31016G21KT 10SM CLR 03/M09 A3017 RMK AO2 SLP226
     T00331091 50012=
RKJJ NIL=
RKJK 272058Z AUTO 11003KT 10SM SCT160 SCT190 M02/M09 A3039 RMK AO2
     SLP296 T10161086 55004 $=
RKNC NIL=
RKPK 272100Z 28004KT 9999 BKN040 01/M05 Q1029 NOSIG=
RKSB NIL=
RKSG 272058Z AUTO 12003KT 10SM FEW160 M04/M07 A3041 RMK AO2 SLP302
     T10371074 55000 $=
RKSK NIL=
RKSM NIL=
RKSO 272058Z 09005KT 7SM FEW150 SCT200 M03/M04 A3040 RMK AO2A
     SLP298 T10341041 55002 $=
RKST NIL=
RKSY NIL=
RKTG NIL=
RKTH NIL=
RODN 272058Z AUTO 07013KT 7SM R05/5500FT BKN004 BKN027 OVC120
     17/16 A3007 RMK AO2 DZB33E49 SLP190 P0000 60000 T01710158
     57007 $=
####018000540####
SATS32 DTTA 272100
METAR DTKA NIL=
METAR DTMB 272100Z 15003KT CAVOK 12/09 Q1014 NOSIG=
METAR DTNH 272100Z AUTO 16003KT 5000NDV NCD 11/09 Q1014=
METAR DTTA 272100Z 00000KT 9999 FEW026TCU 10/08 Q1014 NOSIG=
METAR DTTF 272100Z 21004KT 9999 -RA SCT026 12/01 Q1014 NOSIG=
METAR DTTG 272100Z 21008KT 7000 FEW020 SCT030 12/03 Q1015 NOSIG=
METAR DTTJ 272100Z 23008KT 9999 FEW020 SCT026 13/07 Q1015 NOSIG=
METAR DTTX 272100Z 21006KT 9999 SCT020 SCT030 12/05 Q1014 NOSIG=
METAR DTTZ 272100Z 16008KT 9999 SCT030 15/05 Q1014 NOSIG=
####018001364####
SAAL41 DAMM 272100
METAR DAAD 272100Z NIL=
METAR DAAE 272100Z 26006KT 6000 -RA SCT020 BKN040 09/07 Q1018=
METAR DAAJ 272100Z 00000KT CAVOK 10/M02 Q1022=
METAR DAAP 272100Z 27004KT 8000 NSC 11/M01 Q1022=
METAR DAAS 272100Z 32008KT 8000 -RA FEW010 BKN026 02/01 Q1016=
METAR DAAV 272100Z 27008KT 8000 -RA SCT020 BKN030 10/06 Q1016=
METAR DAAY 272100Z NIL=
METAR COR DABT 272100Z 20008KT 6000 SHRA FEW010 BKN023 05/04 Q1016=
METAR DAEF 272100Z NIL=
METAR DAEN 272100Z NIL=
METAR DAFH 272100Z NIL=
METAR DAOB 272100Z 36012KT 9999 -RA BKN026 06/05 Q1019=
METAR DAOF 272100Z 24008KT CAVOK 20/M02 Q1021=
METAR DAOI 272100Z NIL=
METAR DAOL 272100Z NIL=
METAR DAOR 272100Z 02006KT CAVOK 15/01 Q1022=
METAR DAOV 272100Z 29014KT 9999 BKN033 10/08 Q1021=
METAR DATG 272100Z NIL=
METAR DATM 272100Z NIL=
METAR DAUA 272100Z 19008KT CAVOK 16/M01 Q1021=
METAR DAUB 272100Z 31016KT 9999 FEW033CB BKN040 13/07 Q1014=
METAR DAUE 272100Z 00000KT 9999 FEW040 14/06 Q1019=
METAR DAUG 272100Z 31011KT CAVOK 16/04 Q1018=
METAR DAUI 272100Z NIL=
METAR DAUK 272100Z 28014KT 9999 -RA SCT030CB BKN033 16/11 Q1015=
METAR DAUL 272100Z 30014KT 9000 SCT026 11/04 Q1018=
METAR COR DAUO 272100Z /////KT 9999 FEW026CB BKN033 14/11 Q1014 RERA=
METAR DAUT 272100Z 00000KT CAVOK 16/M05 Q1020=
METAR DAUU 272100Z NIL=
METAR DAER 272100Z NIL=
####018000250####
SATS41 DTTA 272100
METAR DTTB 272100Z 24003KT 9999 SCT016 11/09 Q1014=
METAR DTTD NIL=
METAR DTTG 272100Z 21008KT 7000 FEW020 SCT030 12/03 Q1015 NOSIG=
METAR DTTK 272100Z 00000KT 9999 SCT023 12/08 Q1014=
METAR DTTL NIL=
METAR DTTN NIL=
####018003703####
SAXX99 KWBC 272100
METAR
AYMO NIL=
BGAA NIL=
BGMQ NIL=
BGQQ NIL=
BGSS NIL=
BGUK NIL=
BGUQ NIL=
BKPR 272100Z 34008KT 9999 FEW015 BKN040 07/04 Q1010 NOSIG RMK
     17010095=
CMFM NIL=
CMGB NIL=
CWAE NIL=
CWBU NIL=
CWCA NIL=
CWCL NIL=
CWEU NIL=
CWFD NIL=
CWGZ NIL=
CWIK NIL=
CWIL NIL=
CWKM NIL=
CWKW NIL=
CWLI NIL=
CWLX NIL=
CWLY NIL=
CWMT NIL=
CWOB NIL=
CWRH NIL=
CWRX NIL=
CWSA NIL=
CWSW NIL=
CWTU NIL=
CWUP NIL=
CWUW NIL=
CWVD NIL=
CWVH NIL=
CWWU NIL=
CWXR NIL=
CWYM NIL=
CWZZ NIL=
CYAH NIL=
CYAM NIL=
CYAS NIL=
CYAY NIL=
CYAZ NIL=
CYBB NIL=
CYBC NIL=
CYBD NIL=
CYBK NIL=
CYBL NIL=
CYBN NIL=
CYBR NIL=
CYBU NIL=
CYBV NIL=
CYBW NIL=
CYBX NIL=
CYCB NIL=
CYCD NIL=
CYCG NIL=
CYCO NIL=
CYCP NIL=
CYCQ NIL=
CYCS NIL=
CYCX NIL=
CYCY NIL=
CYDA NIL=
CYDB NIL=
CYDC NIL=
CYDF NIL=
CYDN NIL=
CYDP NIL=
CYED NIL=
CYEK NIL=
CYEN NIL=
CYET NIL=
CYEV NIL=
CYFO NIL=
CYFR NIL=
CYFS NIL=
CYGE NIL=
CYGH NIL=
CYGK NIL=
CYGP NIL=
CYGQ NIL=
CYGR NIL=
CYGT NIL=
CYGV NIL=
CYGW NIL=
CYGX NIL=
CYHA NIL=
CYHD NIL=
CYHE NIL=
CYHH NIL=
CYHI NIL=
CYHK NIL=
CYHM NIL=
CYHU NIL=
CYHY NIL=
CYIK NIL=
CYIO NIL=
CYIV NIL=
CYJF NIL=
CYKA NIL=
CYKD NIL=
CYKF NIL=
CYKG NIL=
CYKJ NIL=
CYKO NIL=
CYKQ NIL=
CYKY NIL=
CYKZ NIL=
CYLD NIL=
CYLJ NIL=
CYLK NIL=
CYLL NIL=
CYLT NIL=
CYLU NIL=
CYLW NIL=
CYMA NIL=
CYMJ NIL=
CYMM NIL=
CYMO NIL=
CYMT NIL=
CYMU NIL=
CYNA NIL=
CYNC NIL=
CYND NIL=
CYNE NIL=
CYNM NIL=
CYOA NIL=
CYOC NIL=
CYOD NIL=
CYOJ NIL=
CYOY NIL=
CYPA NIL=
CYPC NIL=
CYPE NIL=
CYPG NIL=
CYPH NIL=
CYPQ NIL=
CYPR NIL=
CYPW NIL=
CYPX NIL=
CYPY NIL=
CYQA NIL=
CYQD NIL=
CYQF NIL=
CYQH NIL=
CYQI NIL=
CYQK NIL=
CYQL NIL=
CYQR NIL=
CYQT NIL=
CYQU NIL=
CYQV NIL=
CYQW NIL=
CYQZ NIL=
CYRA NIL=
CYRJ NIL=
CYRL NIL=
CYRT NIL=
CYRV NIL=
CYSB NIL=
CYSC NIL=
CYSD NIL=
CYSF NIL=
CYSK NIL=
CYSL NIL=
CYSM NIL=
CYSN NIL=
CYSY NIL=
CYTH NIL=
CYTQ NIL=
CYTS NIL=
CYTZ NIL=
CYUA NIL=
CYUB NIL=
CYUS NIL=
CYUT NIL=
CYUX NIL=
CYVC NIL=
CYVM NIL=
CYVO NIL=
CYVQ NIL=
CYVT NIL=
CYVV NIL=
CYWA NIL=
CYWH NIL=
CYWJ NIL=
CYWL NIL=
CYWY NIL=
CYXC NIL=
CYXD NIL=
CYXE NIL=
CYXH NIL=
CYXJ NIL=
CYXL NIL=
CYXN NIL=
CYXP NIL=
CYXQ NIL=
CYXR NIL=
CYXS NIL=
CYXT NIL=
CYXZ NIL=
CYYB NIL=
CYYD NIL=
CYYE NIL=
CYYF NIL=
CYYG NIL=
CYYH NIL=
CYYL NIL=
CYYN NIL=
CYYU NIL=
CYYY NIL=
CYZE NIL=
CYZG NIL=
CYZH NIL=
CYZP NIL=
CYZR NIL=
CYZS NIL=
CYZT NIL=
CYZU NIL=
CYZW NIL=
CZCP NIL=
CZEM NIL=
CZEV NIL=
CZFA NIL=
CZFM NIL=
CZFN NIL=
CZFS NIL=
CZHY NIL=
CZPC NIL=
CZSM NIL=
CZST NIL=
CZUM NIL=
DAAD NIL=
DAAE NIL=
DAAJ NIL=
DAAP NIL=
DAAS NIL=
DAAV NIL=
DAAY NIL=
DABT NIL=
DAFH NIL=
DAOB NIL=
DAOF NIL=
DAOL NIL=
DAOR NIL=
DAOV NIL=
DATG NIL=
DATM NIL=
DAUB NIL=
DAUE NIL=
DAUI NIL=
DAUK NIL=
DAUL NIL=
DAUO NIL=
DAUT NIL=
DAUU NIL=
DFFD NIL=
DFOO NIL=
DNEN NIL=
DNIB NIL=
DRZR NIL=
DTKA NIL=
DTTF NIL=
EDAC NIL=
EDDE 272050Z 29006KT 6000 -RA FEW005 BKN008 02/02 Q1017 TEMPO 4000
     -RA=
EDFH 272050Z 28006KT 9999 FEW045 BKN082 01/M01 Q1019=
EDGS NIL=
EDLV 272050Z 25004KT CAVOK 02/02 Q1021=
EDOP NIL=
EDRZ NIL=
EDSB 272050Z 21004KT 9999 -RA SCT030 BKN050 03/02 Q1021=
EDTL NIL=
EEKA 272050Z NIL=
EEKE 272050Z AUTO 00000KT 0750NDV R17/0900N R35/1000N FG VV003
     M00/M00 Q1017=
EEPU 272050Z NIL=
####018003679####
SAXX99 KWBC 272100 RRA
METAR
EETU 272050Z AUTO 01004KT 0250 R26/0800N FG VV001 00/M00 Q1017
     RESHUP=
EFET 272050Z AUTO 18009KT 130V220 9999 -SN OVC010 M01/M02
     Q1000=
EFHA 272050Z AUTO VRB03KT 130V230 9999 OVC012 01/M02 Q1016=
EFJO 272050Z AUTO 18006KT 150V230 3600 BR OVC003 M02/M02 Q1018=
EFKA NIL=
EFKI 272050Z AUTO 18008KT 070V220 9999 SCT018 M01/M04 Q1015=
EFKS 272050Z 19009KT 9999 OVC018 M02/M05 Q1012=
EFKT 272050Z 18017KT 4700 -SN BR OVC011 M01/M02 Q1003
     R16/39//92=
EFLP 272050Z AUTO 32001KT 0400 R06/P1500D R24/1200U FZFG OVC001
     M01/M01 Q1018=
EFMI 272050Z AUTO 17002KT 9999 OVC005 M01/M01 Q1018=
EFSA 272050Z AUTO 15002KT 9999 OVC004 M00/M01 Q1018=
EFSI 272050Z AUTO 18007KT 130V260 9999 OVC014 00/M02 Q1014=
EFUT 272050Z AUTO 17002KT 1000 BR VV002 M01/M01 Q1018=
EFVR 272050Z AUTO 8000 OVC005 ///// Q////=
EGCN 272050Z 15007KT CAVOK 05/00 Q1016=
EGDX NIL=
EGEC 272050Z NIL=
EGHK NIL=
EGMH NIL=
EGNO NIL=
EGNR 272050Z 17010KT 9999 BKN027 07/03 Q1014=
EGOM NIL=
EGOP NIL=
EGPI 272050Z AUTO 18019KT 160V220 9999 FEW012/// BKN021/// 06/05
     Q1003 RERA=
EGPI 272050Z NIL=
EGQA NIL=
EGTG NIL=
EGUB NIL=
EGUW NIL=
EGUY NIL=
EGVN 272050Z 19005KT CAVOK 05/01 Q1017 NOSIG=
EGVN 272050Z 19005KT CAVOK 05/01 Q1017 BLU NOSIG=
EGVN 272050Z NIL=
EGVO 272050Z 18009KT CAVOK 05/01 Q1018 BLU=
EGVP NIL=
EGWC NIL=
EGWU 272050Z 21007KT CAVOK 05/01 Q1019 BLU NOSIG=
EGWU 272050Z 21007KT CAVOK 05/01 Q1019 NOSIG=
EGWU 272050Z NIL=
EGXC 272050Z 20009KT CAVOK 05/00 Q1016 BLU=
EGXD NIL=
EGXE 272050Z 17009KT 9999 BKN047 05/M00 Q1013 BLU BECMG BKN020
     WHT=
EGXG NIL=
EGXT NIL=
EGXU NIL=
EGXW 272050Z 20013KT CAVOK 05/M00 Q1015 BLU=
EGXZ NIL=
EGYD NIL=
EGYH NIL=
EGYM NIL=
EKGF NIL=
ENBS 272050Z 22032G42KT 9999 -BLSN FEW014 SCT032 M01/M06 Q0998=
ENDR 272050Z AUTO 22042G56KT 04/04 Q0994=
ENHE 272050Z 23032KT 9999 BKN019 05/02 Q0991 W///S7=
ENHK 272050Z NIL=
ENSS 272050Z 20026KT 9999 BKN021 01/M02 Q1003 RMK WIND 500FT
     21034KT=
EPLL 272100Z 00000KT 4000 BR NSC 04/03 Q1015=
EPWR 272100Z 25003KT 9999 BKN046 07/02 Q1015=
ESGR 272050Z AUTO 19003KT 9000 BR OVC098/// 01/M00 Q1013=
ESGT 272050Z NIL=
ESKM 272050Z NIL=
ESMQ 272050Z AUTO 15004KT 3100 BR OVC002/// 03/02 Q1015=
ESMT 272050Z AUTO 29004KT 4100 DZ SCT013/// BKN021/// 02/01
     Q1014=
ESNG 272050Z 18009KT 9000 -SN OVC007 M01/M01 Q1000=
ESNK 272050Z AUTO 19006KT 9999 FEW012/// SCT015/// BKN018/// 02/01
     Q1008=
ESNL 272050Z AUTO 13009KT 9999 FEW016/// OVC034/// 00/M02 Q1005
     RESG=
ESNX 272050Z AUTO 18008KT 9999NDV OVC009/// M00/M02 Q1003=
ESNY 272050Z NIL=
ESOE 272050Z AUTO 21005KT 9999NDV OVC012/// 03/02 Q1013=
ESSF 272050Z NIL=
ESSK 272050Z NIL=
ESSL 272050Z 22007KT 6000 BR FEW007 BKN038 02/01 Q1014
     R29/09//95=
ESTA 272050Z 00000KT 5000 DZ BKN010 OVC031 03/01 Q1014=
ESTL 272050Z AUTO 11003KT 3600NDV BR NCD 02/01 Q1014=
ESUD 272050Z AUTO 18009KT 9999 OVC019/// 01/M03 Q1003=
ESUT 272050Z AUTO 16009KT 130V190 9999 FEW047/// SCT062///
     BKN098/// 00/M04 Q0999=
ETGG NIL=
ETGY NIL=
ETGZ NIL=
ETHA NIL=
ETHB NIL=
ETHC NIL=
ETHE NIL=
ETHF NIL=
ETHL NIL=
ETHN NIL=
ETHR NIL=
ETHS NIL=
ETMN NIL=
ETND NIL=
ETNH NIL=
ETNJ NIL=
ETNL NIL=
ETNN NIL=
ETNS NIL=
ETNT NIL=
ETNU NIL=
ETNW NIL=
ETOU 272058Z AUTO 31007KT 9999 OVC065 05/01 A3012 RMK AO2 SLP207
     60000 T00480005 52021 $=
ETSA NIL=
ETSB NIL=
ETSE NIL=
ETSH NIL=
ETSI NIL=
ETSL NIL=
ETSN NIL=
ETUO NIL=
ETWM NIL=
EVLA NIL=
EVVA 272050Z AUTO VRB01KT 9999 OVC013 02/00 Q1017=
####018003711####
SAXX99 KWBC 272100 RRB
METAR
EYKA 272050Z 10002KT 3100 -RA BR SCT005 BKN011 OVC037 01/00 Q1016
     R08/090095=
EYPA 272050Z 08003KT 9999 BKN022 BKN091 02/01 Q1016 R19/1///95=
FAGC 272100Z AUTO 10013KT //// // ////// 16/12 Q1022=
FAJB 272100Z AUTO 11003KT //// // ////// 16/12 Q1022=
FAMM 272100Z AUTO 05009KT //// // ////// 19/09 Q1018=
FAPP 272100Z AUTO 13004KT //// // ////// 20/13 Q1019=
FASI 272100Z AUTO /////KT //// // ////// 14/12 Q1023=
FAVV 272100Z AUTO /////KT //// // ////// 15/12 Q1023=
FKYS NIL=
FMEP NIL=
FMMS NIL=
FMNA NIL=
FMSD NIL=
FQCH NIL=
FQLC NIL=
FQNP NIL=
FQPB NIL=
FQQL 272100Z 14002KT 9999 FEW020 25/23 Q1011=
FQVL NIL=
FTTA NIL=
FTTD NIL=
FVKB NIL=
FVWN NIL=
FYGO NIL=
FYML NIL=
FYOA NIL=
FYOW NIL=
FYWE NIL=
FYWW NIL=
GMAD 272100Z 19003KT 150V250 8000 NSC 13/10 Q//// NOSIG=
GMFM 272100Z 25002KT 5000 BKN016 10/08 Q1027 NOSIG=
GMMC 272100Z NIL=
GMML 272100Z 03016KT 8000 BKN023 16/10 Q1026 NOSIG=
GMMW 272100Z 27009KT 9999 FEW020 BKN090 14/06 Q1022 NOSIG=
GMMZ 272100Z 26009KT 230V290 CAVOK 16/M08 Q1023 NOSIG=
HEAR NIL=
HEAT NIL=
HESH NIL=
HETB NIL=
HLLM NIL=
HTMT NIL=
HTSU NIL=
HUAR NIL=
HUGU NIL=
HUJI NIL=
HUKA NIL=
HUKB NIL=
HULI NIL=
HUMI NIL=
HUTO NIL=
K4O4 272055Z AUTO 05004KT 1 1/4SM OVC006 M02/M06 A3049 RMK AO2=
K8S0 NIL=
KAUD NIL=
KCBE NIL=
KEGI NIL=
KESN 272050Z 01010KT 10SM SKC 00/M08 A3050=
KFME NIL=
KGYH NIL=
LBGO 272100Z 00000KT CAVOK 07/06 Q1011 NOSIG=
LDLO 272100Z NIL=
LDSB 272100Z NIL=
LEAB 272100Z 31009KT CAVOK 08/M04 Q1022 NOSIG=
LEBA NIL=
LEBZ 272100Z NIL=
LEGA 272100Z NIL=
LEGT 272100Z NIL=
LELN 272100Z NIL=
LERI 272100Z NIL=
LESA NIL=
LETO 272100Z 05004KT CAVOK 07/M02 Q1024 NOSIG=
LFBE NIL=
LFBG 272100Z AUTO 24003KT 9999 NSC 05/02 Q1026=
LFCR 272100Z AUTO 30007KT 9999 NSC 01/M03 Q1023=
LFJL 272100Z AUTO 26005KT 9999 NSC 03/M01 Q1022=
LFLX 272100Z AUTO 00000KT 9999 NSC 03/01 Q1024=
LFMI 272100Z AUTO 34028KT 9999 NSC 07/M03 Q1016=
LFMK 272100Z AUTO 30017KT 9999 NSC 06/M00 Q1024=
LFMO 272100Z AUTO 35021G33KT 9999 NSC 06/M02 Q1018=
LFMU 272100Z AUTO 31016KT 9999 NSC 08/M04 Q1022=
LFMV 272100Z AUTO 34025G36KT 9999 NSC 07/M02 Q1017=
LFOA 272100Z AUTO 00000KT 9999 NSC 01/M03 Q1024=
LFOJ 272100Z AUTO 24003KT 9999 NSC 01/M01 Q1024=
LFOK 272100Z AUTO 31004KT 9999 NSC 01/M02 Q1023=
LGHI 272050Z NIL=
LGKC 272050Z NIL=
LGNX 272050Z NIL=
LGPA 272050Z AUTO 20016KT //// -RA ////// 13/09 Q1007 RE//=
LGSO 272050Z AUTO 21017G33KT 190V280 //// -RA ////// 12/09 Q1006
     RE//=
LHDC NIL=
LHKE NIL=
LHPP NIL=
LHSN NIL=
LHUD NIL=
LIMP NIL=
LIMZ NIL=
LIRM NIL=
LKCV 272100Z 00000KT 9999 BKN043 06/02 Q1015 NOSIG=
LKCV 272100Z 00000KT 9999 BKN043 06/02 Q1015 NOSIG RMK BLU BLU=
LKKB 272100Z 24005KT 9999 BKN040 01/M01 Q1015 NOSIG=
LKKU NIL=
LKKV 272100Z VRB02KT 9999 FEW046 01/M03 Q1014 R29/09//95=
LKLN 272100Z AUTO 19001KT CAVOK 03/M02 Q1015=
LKNA 272100Z 14002KT 9999 OVC017 03/02 Q1014=
LKNA 272100Z 14002KT 9999 OVC017 03/02 Q1014 RMK WHT=
LKPD 272100Z VRB02KT 9999 OVC041 04/02 Q1015=
LKPD 272100Z VRB02KT 9999 OVC041 04/02 Q1015 RMK BLU BLU=
LKPO NIL=
LLIB 272050Z NIL=
LLSD 272050Z NIL=
LOAN NIL=
LOXZ 272050Z 24001KT 15KM BKN060SC 00/M01 Q1013 RMK BKN=
LPAR NIL=
LQBK 272100Z 31004KT 7000 -RA SCT015 OVC030 05/04 Q1014 NOSIG=
LQMO 272100Z VRB02KT 9999 FEW070 07/04 Q1009=
LQTZ 272100Z NIL=
LTAZ 272050Z 11011KT 9999 FEW040 SCT100 09/M00 Q1013=
LTBR 272050Z 08008KT 9999 SCT035 BKN100 12/07 Q1006 NOSIG=
LTBU 272050Z 03016KT 9999 SCT035 BKN100 08/06 Q1007=
LTCD 272050Z 12008KT CAVOK 05/M05 Q1018 NOSIG=
####018003748####
SAXX99 KWBC 272100 RRC
METAR
LTCF 272050Z 32003KT CAVOK M13/M15 Q1023=
LTFC 272050Z 03007KT 9999 -TSRA FEW025CB BKN030 08/06 Q1010=
LTFH 272050Z VRB01KT 8000 SCT036 06/05 Q1009 NOSIG=
LTFJ 272050Z 04013KT 9999 FEW035 SCT080 09/06 Q1007 BECMG
     VRB02KT=
LWIS NIL=
LZPP 272100Z AUTO 00000KT 8000 OVC033/// 04/02 Q1016=
LZSL 272100Z 01001KT 4200 BR NSC 02/01 Q1015=
LZZI 272100Z VRB01KT 8000 BKN045 02/01 Q1015=
METAR UHHH 272100Z 00000MPS CAVOK M18/M20 Q1023 NOSIG=
MHTR 272100Z 09011KT 9999 FEW025TCU 30/23 TCU S SW HZ=
MMAN NIL=
MMCB NIL=
MMCP NIL=
MMCT NIL=
MMEP 272053Z 24006KT 12SM BKN250 28/08 A2995 RMK SLP143 57018 902
     8/008 PRESFR=
MMIA NIL=
MMIO NIL=
MMIT 272100Z 36015G25KT 6SM FEW010 27/16 A2988 RMK 8/500 HZ=
MMLM NIL=
MMLO NIL=
MMLT NIL=
MMMV NIL=
MMOX NIL=
MMPA NIL=
MMPB NIL=
MMPG NIL=
MMPN 272051Z 18010KT 15SM BKN270 23/11 A3006 RMK SLP/// 5//// 9//
     6//// 8/002 HZY CU=
MMPS NIL=
MMQT NIL=
MMTB 272100Z 34006KT 7SM BKN020 OVC070 22/17 A3003 RMK 8/47/ ST
     OVR MT N/NW=
MMTG NIL=
MMVA 272051Z 20004KT 7SM FEW006 BKN013 OVC060 24/21 A2998 RMK
     SLP149 57032 940 8/76/ VRBL CONDS=
MNBL NIL=
MNCH NIL=
MNJG NIL=
MNJU NIL=
MNRS NIL=
MUCF 272050Z 24007KT 220V280 9999 SCT030 31/19 Q1017=
MUHG 272050Z 05014KT 9999 FEW025 32/12 Q1015=
NFTL 272100Z 00000KT 9999 SCT018TCU BKN110 29/27 Q1011=
NGTT NIL=
OAHR 272055Z AUTO 25003KT CAVOK 00/M05 Q1023=
OEDM NIL=
OEKJ NIL=
OIIE 272100Z 31006KT CAVOK 04/M06 Q1023=
OSKL NIL=
OYAG NIL=
OYAM NIL=
OYAT 272100Z NIL=
OYDM 272100Z 09004KT CAVOK 10/M03 Q////=
OYHJ 272100Z NIL=
OYIB 272100Z NIL=
OYRN 272100Z 00000KT 6000 NSC 23/19 Q1014=
OYSH 272100Z NIL=
OYSQ 272100Z 08010KT 9999 FEW018 25/20 Q1013=
OYSY 272100Z NIL=
RJBB 272100Z 35010KT 9999 FEW025 BKN050 05/M02 Q1026 NOSIG=
RJBT NIL=
RJFS 272100Z 03011KT CAVOK 03/M04 Q1026=
RJGG 272100Z 31020KT 9999 FEW025 05/M03 Q1025 NOSIG=
RJNW NIL=
RJOW NIL=
RJSF NIL=
RJSR NIL=
RJSY NIL=
ROIG 272100Z 18005KT 9999 -RA FEW010 BKN040 22/21 Q1016=
ROMY NIL=
RORS NIL=
ROTM 272058Z 11016G23KT 9000 DZ BR OVC015 17/16 A3007 RMK SLP170
     P0001 60001 T01670153 58003=
RPLI 272100Z 00000KT 9999 FEW019 22/22 Q1013 NOSIG RMK A2991=
SADF NIL=
SAOC NIL=
SAWH 272100Z 09004KT 9999 BKN045 BKN100 10/07 Q0993=
SCJO 272100Z VRB06KT CAVOK 32/12 Q1011=
SKAR NIL=
SKCC NIL=
SKEJ NIL=
SKIB NIL=
SKIP NIL=
SKLC NIL=
SKMR NIL=
SKMZ NIL=
SKNV NIL=
SKPC NIL=
SKPS NIL=
SKPV NIL=
SKRH NIL=
SKUC NIL=
SKUI NIL=
SKVP NIL=
SKVV NIL=
SLET 272100Z 33014G25KT 9999 SCT020 BKN200 29/22 Q1007=
SLSB NIL=
SLTI NIL=
SVCP NIL=
SVCZ NIL=
SVGD NIL=
SVJM NIL=
SVLO NIL=
SVVG 272100Z 07005KT 9999 FEW020 SCT100 32/23 Q1006=
TRPG 272100Z 11014KT 9999 STC022 25/20 Q1017=
UACK 272100Z 27006MPS CAVOK M06/M11 Q1030 R20/410360 NOSIG RMK
     QFE748/0998=
UBBN 272100Z 03006KT 9999 NSC 01/M04 Q1022 R14R/CLRD60 NOSIG RMK
     MT OP QFE691=
UDYZ 272100Z VRB01MPS 6000 FEW100 M00/M04 Q1022 R09/0///70
     NOSIG=
UERP NIL=
UERR NIL=
UESO NIL=
UHNN NIL=
UHSH NIL=
ULDD NIL=
ULKK NIL=
ULOL NIL=
ULOO NIL=
ULWW NIL=
UMKK NIL=
UMOO NIL=
UNBB NIL=
UNEE NIL=
UNKL NIL=
UNOO NIL=
UNWW NIL=
UOII NIL=
URML NIL=
UTO8 NIL=
UWLL NIL=
UWOR NIL=
VIJP NIL=
VILK NIL=
VTBO NIL=
VTCH NIL=
VTCL NIL=
VTCN NIL=
VTCP NIL=
VTCT NIL=
VTPH NIL=
VTPO NIL=
VTPP NIL=
VTSB NIL=
VTSC NIL=
VTSF NIL=
VTSG NIL=
VTSM NIL=
VTSR NIL=
VTST NIL=
VTUD NIL=
VTUI NIL=
VTUK NIL=
VTUL NIL=
VTUO NIL=
VTUQ NIL=
VTUU NIL=
VTUV NIL=
VTUW NIL=
WADD NIL=
WALL NIL=
WARR NIL=
WBGB NIL=
####018001300####
SAXX99 KWBC 272100 RRD
METAR
WBGR NIL=
WBGS NIL=
WBGY NIL=
WBKL NIL=
WBKS NIL=
WBKT NIL=
WBKW NIL=
WIHH NIL=
WMAU NIL=
WMBA NIL=
WMKA NIL=
WMKB NIL=
WMKC NIL=
WMKD NIL=
WMKI NIL=
WMKL NIL=
WMKM NIL=
WMKN NIL=
YAMB 272100Z AUTO 00000KT 9999 // SCT035 OVC047 24/21 Q1010=
YBHM NIL=
YCIN NIL=
YFRT NIL=
YMAV NIL=
YMLT NIL=
YPGV NIL=
YPKG NIL=
YPKU NIL=
YSTW 272100Z AUTO 16007KT 9999 // SCT076 20/15 Q1012=
YSWG 272100Z 08007KT CAVOK 21/11 Q1008=
YTEF 272100Z AUTO 29011KT //// // ////// 29/20 Q1008=
YTNK 272100Z AUTO 01011KT 9999 // NCD 27/23 Q1008=
YTRE 272100Z AUTO 33003KT //// // ////// 19/19 Q1010=
YWGT 272100Z AUTO 07001KT //// // ////// 19/11 Q1008=
YWHA 272100Z AUTO 36005KT 9999 // NCD 21/14 Q1003=
YWLM 272100Z AUTO 00000KT 0700 // OVC001 18/18 Q1011=
ZBHH NIL=
ZBSJ 272100Z 17002MPS 3000 -SN BR OVC046 M01/M02 Q1028 NOSIG=
ZGHA NIL=
ZGKL 272100Z VRB01MPS 9999 -RA SCT020 OVC040 13/10 Q1015 NOSIG=
ZGOW 272100Z 11003MPS 9999 SCT013 BKN026 16/14 Q1018 NOSIG=
ZJHK NIL=
ZLXY 272100Z VRB01MPS 1800 BR SCT030 OVC040 00/M02 Q1028 NOSIG=
ZSQD 272100Z VRB01MPS CAVOK M00/M09 Q1029 NOSIG=
ZWSH 272100Z 31003MPS 6000 SCT040 03/M02 Q1026 NOSIG=
ZYCC NIL=
ZYTX 272100Z 12002MPS CAVOK M05/M11 Q1028 NOSIG=
####018000107####
SPUS54 KWBC 272106
SPECI
KAST 272102Z AUTO 34005KT 2 1/2SM RA BR SCT021 BKN026 OVC033 10/08
A2970=
####018001674####
SAUS41 KWBC 272100
METAR
K40B NIL=
KABE 272051Z VRB06KT 10SM CLR M03/M16 A3043=
KAGC 272053Z 27008KT 10SM FEW045 M08/M21 A3049=
KAKR 272054Z AUTO 31007KT 10SM FEW039 M09/M19 A3054=
KALB 272051Z 29013KT 10SM FEW034 M06/M17 A3042=
KART 272056Z AUTO 25008KT 1SM -SN VV016 M09/M14 A3048=
KAVP 272054Z 34009KT 10SM CLR M06/M18 A3040=
KBAF 272053Z 30009KT 10SM CLR M04/M19 A3036=
KBDL 272051Z 31011KT 10SM FEW250 M03/M18 A3036=
KBDR 272052Z 31007KT 10SM CLR M02/M16 A3040=
KBED 272056Z AUTO 25005KT 10SM CLR M04/M21 A3034=
KBTV 272054Z 35004KT 10SM FEW250 M07/M20 A3038=
KBUF 272054Z 23018KT 9SM -SN BKN019 BKN025 M12/M17 A3053=
KBVY 272053Z 32004KT 10SM CLR M03/M22 A3034=
KCAE 272056Z 00000KT 10SM FEW050 SCT220 13/M01 A3033=
KCAK 272051Z 30006KT 10SM SCT038 M09/M19 A3054=
KCEF NIL=
KCMH 272051Z 00000KT 10SM SCT043 M08/M18 A3058=
KCRQ 272053Z 20012KT 10SM FEW022 BKN027 OVC033 17/11 A2981=
KCRW 272054Z VRB04KT 10SM BKN037 M06/M15 A3055=
KCTZ 272055Z AUTO 31004KT 10SM CLR 10/M01 A3037=
KDAY 272056Z 31006KT 10SM FEW026 BKN034 BKN039 M08/M15 A3058=
KDOV NIL=
KERI 272051Z 26010KT 10SM CLR M12/M18 A3058=
KEWB 272053Z 28005KT 10SM CLR M02/M16 A3035=
KFDK NIL=
KFVE 272053Z AUTO 26012KT 10SM CLR M11/M23 A3011=
KGON 272056Z AUTO 33009KT 10SM CLR M03/M14 A3037=
KGSO 272054Z 32004KT 10SM SCT048 06/M06 A3036=
KGSP 272053Z 05005KT 10SM CLR 12/M03 A3031=
KHPN 272056Z 33011KT 10SM CLR M03/M17 A3037=
KHTS 272051Z 00000KT 9SM FEW043 M06/M14 A3057=
KHUL 272053Z AUTO 27012G19KT 10SM CLR M08/M23 A3019=
KHVN 272053Z 34009KT 10SM CLR M03/M18 A3039=
KIAG NIL=
KILG 272051Z AUTO 31014KT 10SM CLR M02/M12 A3047=
####018000927####
SAUS41 KWBC 272100 RRA
METAR
KILM 272053Z 03006KT 10SM CLR 11/00 A3036=
KINT 272054Z AUTO 32007KT 10SM FEW055 06/M07 A3038=
KLSV 272058Z AUTO VRB05KT 10SM CLR 17/M04 A2967=
KLUK 272053Z 02004KT 10SM FEW050 M06/M17 A3062=
KLWM 272054Z 34005KT 10SM CLR M04/M21 A3036=
KMDT 272056Z 34008KT 10SM SCT045 M03/M12 A3047=
KMMU NIL=
KMSS 272053Z AUTO 24011KT 10SM CLR M09/M22 A3044=
KOGS NIL=
KOLD NIL=
KOQU 272050Z 15008KT 15SM SKC M04/M11 A3035=
KORH 272054Z VRB05KT 10SM CLR M05/M19 A3028=
KPQI 272055Z AUTO 27012G15KT 10SM CLR M08/M26 A3018=
KPSM NIL=
KPVD 272051Z 30004KT 10SM FEW025 FEW300 M02/M17 A3035=
KPWM 272051Z 17006KT 10SM FEW200 M04/M15 A3033=
KRIC 272054Z 04006KT 10SM SCT060 BKN250 03/M06 A3044=
KROC 272054Z 25013G21KT 10SM FEW035 M11/M18 A3052=
KSCH NIL=
KSYR 272054Z 30011KT 10SM BKN031 BKN035 M08/M17 A3049=
KWDR 272055Z AUTO 33007KT 10SM CLR 11/M04 A3036=
KWRI NIL=
####018001686####
SAUS42 KWBC 272100
METAR
KAMA 272053Z 14008KT 4SM -SN OVC017 M09/M13 A3022=
KAUS 272053Z 02012KT 10SM OVC023 02/M04 A3032=
KBPP NIL=
KBPT 272053Z 07009KT 10SM CLR 11/00 A3032=
KBQK 272055Z AUTO 04013G16KT 10SM CLR 10/00 A3034=
KBRO 272053Z 04009KT 10SM FEW032 SCT041 BKN048 18/13 A3013=
KBTR 272053Z 06007KT 10SM CLR 11/01 A3033=
KCHA 272053Z 01007KT 10SM FEW250 04/M08 A3045=
KCRP 272051Z 07018KT 10SM OVC017 12/07 A3019=
KDAL 272053Z 07009KT 2SM -SN BR BKN013 OVC042 M02/M06 A3043=
KDRT 272053Z AUTO 08006KT 10SM OVC017 03/M01 A3024=
KELP 272051Z 10010KT 10SM FEW033 FEW240 07/M04 A2994=
KEYW 272053Z 01011KT 10SM OVC009 23/20 A3006=
KFPR 272053Z 35008G16KT 6SM OVC007 15/14 A3015=
KFTW 272053Z 01007KT 1/4SM R16/4000VP6000FT SN FZFG VV009 M03/M06
     A3042=
KFTY 272053Z 01008KT 10SM CLR 08/M06 A3036=
KFXE 272053Z AUTO 36007KT 10SM OVC011 21/18 A3010=
KGLE 272055Z AUTO 02006KT 3/4SM -SN VV005 M06/M07 A3047=
KGLS 272052Z 04015KT 10SM OVC016 07/03 A3032=
KGPT 272053Z 02007KT 340V060 10SM CLR 13/M01 A3029=
KHOU 272053Z 03010KT 10SM OVC021 06/01 A3034=
KHRL 272052Z 06008KT 10SM OVC045 17/12 A3014=
KHSV 272053Z 01008KT 10SM CLR 02/M08 A3046=
KLCH 272053Z 08010KT 10SM CLR 10/00 A3033=
KLGC 272055Z AUTO 03006KT 10SM CLR 12/M02 A3035=
KLRD 272056Z 02008KT 5SM -RA BR OVC009 03/02 A3025=
KMAF 272053Z 07013KT 3SM BR OVC010 M06/M08 A3022=
KMFE 272053Z 02007KT 10SM OVC030 17/09 A3016=
KMGM 272053Z 32009KT 10SM CLR 11/M02 A3036=
KMOB 272056Z 06011KT 10SM SCT200 12/M02 A3029=
KNEW 272053Z 31007KT 10SM CLR 12/01 A3032=
KOPF 272053Z 36011KT 10SM CLR 24/18 A3009=
KOPN 272055Z AUTO 01007KT 10SM CLR 13/M01 A3033=
####018000702####
SAUS42 KWBC 272100 RRA
METAR
KPDK 272053Z 33006KT 10SM CLR 08/M05 A3035=
KPFN NIL=
KPGL NIL=
KPIE 272053Z AUTO 07010KT 10SM OVC027 18/11 A3016=
KPNS 272053Z 06009KT 10SM CLR 14/M02 A3028=
KQAO NIL=
KRSW 272053Z AUTO 04011KT 10SM OVC016 17/12 A3014=
KSAT 272051Z 03012KT 1 1/2SM R12R/5500VP6000FT -RA BR OVC009
     01/M01 A3028=
KSAV 272053Z 04006KT 10SM FEW060 SCT180 BKN250 11/01 A3034=
KSHV 272056Z 02013KT 10SM OVC080 01/M06 A3043=
KSSI 272053Z AUTO 03014KT 10SM CLR 09/02 A3032=
KTMB 272053Z 01010KT 10SM CLR 25/18 A3008=
KTUL 272053Z 06009KT 1 1/2SM R36R/6000VP6000FT -SN FEW014 BKN022
     OVC034 M07/M10 A3054=
KTYS 272053Z 02006KT 10SM FEW030 01/M09 A3046=
####018000075####
SAER20 OMRK 272100
METAR OMRK 272100Z 17003KT CAVOK 14/09 Q1015 A2998=
####018000088####
SATS40 DTTA 272100 RRA
METAR DTTA 272100Z 00000KT 9999 FEW026TCU 10/08 Q1014 NOSIG=
####018000491####
SATS40 DTTA 272100
METAR DTKA NIL=
METAR DTMB 272100Z 15003KT CAVOK 12/09 Q1014 NOSIG=
METAR DTNH 272100Z AUTO 16003KT 5000NDV NCD 11/09 Q1014=
METAR DTTA 272100Z 00000KT 9999 FEW026TCU 10/08 Q1014 NOSIG=
METAR DTTF 272100Z 21004KT 9999 -RA SCT026 12/01 Q1014 NOSIG=
METAR DTTJ 272100Z 23008KT 9999 FEW020 SCT026 13/07 Q1015 NOSIG=
METAR DTTR NIL=
METAR DTTX 272100Z 21006KT 9999 SCT020 SCT030 12/05 Q1014 NOSIG=
METAR DTTZ 272100Z 16008KT 9999 SCT030 15/05 Q1014 NOSIG=
####018000201####
SATS42 DTTA 272100
METAR DTTB 272100Z 24003KT 9999 SCT016 11/09 Q1014=
METAR DTTD NIL=
METAR DTTK 272100Z 00000KT 9999 SCT023 12/08 Q1014=
METAR DTTL NIL=
METAR DTTN NIL=
METAR DTTR NIL=
####018001060####
SAHK31 VHHH 272100
METAR VHHH 272100Z 09025KT 9999 FEW010 SCT020 19/16 Q1014 NOSIG=
METAR RCTP 272100Z 03012KT 6000 -DZ SCT003 BKN006 BKN012 16/15
Q1019 NOSIG RMK A3010=
METAR RCKH 272100Z 01006KT 340V040 4800 BR FEW012 SCT025 20/18
Q1016 NOSIG RMK A3002=
METAR RCSS 272100Z 11005KT 9999 FEW012 BKN025 BKN040 17/14 Q1019
NOSIG RMK A3010=
METAR RCMQ 272100Z 01006KT 1000 R36/1400N BR BKN002 OVC010 15/14 
Q1017 BECMG FM 2130 0400 FG RMK A3004=
METAR RCNN 272100Z 01008KT 8000 FEW010 BKN018 BKN040 19/16 Q1016 
NOSIG RMK A3001=
METAR VMMC 272100Z 11020KT 090V150 9999 FEW006 SCT030 18/17 Q1014 
NOSIG=
METAR RPLL 272100Z 07003KT 9999 FEW025 SCT100 24/21 Q1013 NOSIG RMK 
      A2991=
METAR RPVM 272100Z 35006KT 9999 FEW020 25/22 Q1012 RMK A2988=
METAR RPMD 272100Z 36003KT 9999 SCT016 SCT290 24/22 Q1011 RMK A2985=
METAR RPLB 272100Z 00000KT 9999 FEW020 21/19 Q1013 NOSIG RMK A2991=
METAR RPLI 272100Z 00000KT 9999 FEW019 22/22 Q1013 NOSIG RMK A2991=
METAR RPMZ 272100Z 00000KT 9999 FEW018 SCT300 24/22 Q1011 RMK A2985=
####018001697####
SAUS43 KWBC 272100
METAR
K12C NIL=
K1H2 272055Z AUTO 31004KT 10SM CLR M09/M19 A3064=
KAAA 272055Z AUTO 01003KT 10SM OVC027 M09/M15 A3066=
KAPN 272054Z AUTO 23007KT 10SM UP CLR M07/M18 A3044=
KAZO 272053Z 26012KT 10SM BKN042 M08/M16 A3055=
KBDE 272053Z AUTO 27010KT 10SM CLR M08/M21 A3030=
KBTL 272053Z 28008KT 10SM OVC040 M08/M16 A3054=
KBTM 272053Z AUTO 11010KT 10SM OVC048 M01/M12 A2976=
KC09 272055Z AUTO 30006KT 10SM CLR M11/M17 A3062=
KC75 272055Z AUTO 34005KT 10SM CLR M11/M20 A3063=
KCGX NIL=
KCIU 272055Z AUTO 23010G15KT 190V250 10SM CLR M09/M16 A3041=
KCMX 272053Z AUTO 26013G21KT 10SM CLR M11/M20 A3034=
KCOS 272054Z 13005KT 1 1/2SM -SN BR BKN016 OVC021 M12/M16
     A2990=
KCPR 272053Z 21012KT 10SM CLR M04/M13 A2981=
KDET 272053Z 24007KT 10SM CLR M07/M20 A3055=
KDKB 272055Z AUTO 26007KT 10SM CLR M13/M20 A3059=
KDLH 272055Z 26012KT 10SM CLR M08/M21 A3035=
KDNV 272055Z AUTO 00000KT 10SM CLR M09/M18 A3059=
KDSM 272054Z 26004KT 10SM FEW030 FEW250 M11/M18 A3059=
KELO 272053Z AUTO 29006KT 10SM CLR M07/M24 A3030=
KENL 272055Z AUTO 33004KT 10SM CLR M08/M17 A3063=
KFAR 272053Z 22011KT 10SM CLR M09/M18 A3043=
KFEP 272055Z AUTO 21005KT 10SM CLR M12/M19 A3060=
KFNT 272053Z 26010KT 10SM FEW037 M08/M17 A3054=
KFOA 272055Z AUTO 01003KT 10SM CLR M08/M17 A3064=
KFWC 272055Z AUTO 01005KT 10SM CLR M08/M15 A3063=
KGBG 272055Z AUTO 30004KT 10SM CLR M12/M19 A3063=
KGFK 272053Z 22008KT 10SM FEW250 M08/M16 A3038=
KGRB 272053Z AUTO 24012KT 10SM CLR M08/M17 A3049=
KGRM NIL=
KGRR 272053Z 26008KT 2SM R26L/5500VP6000FT -SN FEW012 BKN018
     BKN031 M08/M12 A3054=
KHSB 272055Z AUTO 36005KT 10SM BKN029 BKN080 M06/M13 A3064=
####018001663####
SAUS43 KWBC 272100 RRA
METAR
KICT 272053Z 10003KT 1 1/4SM -SN SCT024 OVC036 M09/M13 A3050=
KIGQ 272055Z AUTO 26008KT 10SM CLR M09/M19 A3060=
KIJX 272055Z AUTO 00000KT 10SM CLR M10/M18 A3065=
KIKK 272055Z AUTO 25007KT 10SM CLR M11/M17 A3063=
KINL 272055Z AUTO 28011KT 10SM CLR M08/M22 A3031=
KISN 272052Z AUTO 16009KT 10SM CLR M04/M16 A3009=
KJOT 272055Z AUTO 29003KT 10SM CLR M11/M20 A3063=
KLEX 272054Z VRB05KT 10SM CLR M05/M16 A3057=
KLOT 272055Z AUTO 26008KT 10SM CLR M11/M19 A3061=
KMBS 272053Z 23015KT 10SM CLR M08/M17 A3053=
KMDW 272053Z 26009KT 230V310 10SM CLR M08/M19 A3060=
KMKC 272054Z VRB04KT 10SM SCT090 M08/M18 A3058=
KMKE 272052Z 26009KT 10SM CLR M08/M22 A3055=
KMLI 272052Z 28005KT 10SM CLR M10/M19 A3062=
KMOT 272054Z 17011KT 10SM CLR M09/M17 A3019=
KMQB 272055Z AUTO 33005KT 10SM CLR M12/M18 A3066=
KMQT NIL=
KMWA NIL=
KOLY 272055Z AUTO 36005KT 10SM CLR M08/M16 A3064=
KOMA 272052Z 00000KT 10SM FEW030 FEW200 M08/M17 A3055=
KPHN 272059Z AUTO 28004KT 10SM CLR M09/M19 A3055=
KPIA 272054Z 28005KT 10SM CLR M09/M19 A3064=
KPNT 272055Z AUTO 27003KT 10SM CLR M11/M18 A3064=
KPPQ 272055Z AUTO 00000KT 10SM CLR M10/M19 A3064=
KPRG 272055Z AUTO 30005KT 10SM CLR M10/M16 A3063=
KPTK 272053Z 27010KT 10SM FEW032 M09/M18 A3051=
KPUB 272053Z 10006KT 10SM BKN020 M08/M13 A2998=
KRAD NIL=
KSAR 272055Z AUTO 33004KT 10SM CLR M07/M15 A3062=
KSAW NIL=
KSDF 272056Z 01005KT 10SM SCT049 M03/M16 A3060=
KSGF 272052Z 35004KT 10SM OVC085 M06/M16 A3051=
KSLO 272055Z AUTO 35005KT 10SM CLR M08/M16 A3063=
KSTP 272053Z 24009KT 10SM CLR M09/M19 A3053=
KSUS 272054Z 02005KT 10SM CLR M07/M18 A3062=
####018000236####
SAUS43 KWBC 272100 RRB
METAR
KTAZ 272055Z AUTO 00000KT 10SM CLR M10/M17 A3064=
KTIP 272055Z AUTO 00000KT 10SM CLR M09/M17 A3061=
KTOL 272052Z 25009KT 10SM CLR M09/M19 A3059=
KVYS 272055Z AUTO 32008KT 10SM CLR M10/M18 A3063=
####018000107####
SPUS81 KWBC 272106
SPECI
KAST 272102Z AUTO 34005KT 2 1/2SM RA BR SCT021 BKN026 OVC033 10/08
A2970=
####018000105####
SAAU32 AMMC 272100 CCA
METAR YSCB 272100Z 36003KT 9999 FEW020 BKN180 17/16 Q1012
     NOSIG=


####018001673####
SAUS44 KWBC 272100
METAR
K11R 272055Z AUTO 05008KT 10SM BKN024 06/00 A3033=
KBFI 272053Z 02005KT 10SM OVC075 12/06 A2976=
KBIL 272053Z 22005KT 10SM FEW060 SCT160 BKN220 M04/M13 A2991=
KBKE 272053Z AUTO 08009KT 10SM OVC024 06/01 A2968=
KBLI 272053Z 02009G16KT 10SM -RA OVC070 11/02 A2981=
KBOI 272053Z 15012KT 10SM CLR 11/M02 A2968=
KBPG 272055Z AUTO 05011KT 10SM OVC009 M06/M08 A3029=
KBYY 272055Z AUTO 04011KT 7SM OVC017 06/03 A3029=
KCLM 272053Z AUTO 07007KT 7SM -RA SCT007 BKN015 OVC023 08/06
     A2982=
KCTB 272056Z AUTO 35018KT 3SM -SN OVC017 M08/M12 A3002=
KCXL NIL=
KDUG 272056Z AUTO 22024G30KT 10SM CLR 20/M05 A2979=
KEKA NIL=
KFAT 272053Z 30007KT 10SM SCT037 BKN085 17/08 A2979=
KGDV 272055Z AUTO 18009G18KT 10SM CLR M02/M14 A3003=
KGEG 272053Z 06010KT 10SM SCT050 SCT120 BKN200 08/M03 A2977=
KGGW 272053Z AUTO 00000KT 10SM CLR M07/M16 A3002=
KGLH 272053Z AUTO 03014G19KT 10SM SCT025 01/M04 A3047=
KGPI 272055Z 04018KT 10SM BKN080 OVC100 03/M12 A2990=
KGTF 272053Z 34009KT 8SM OVC019 M08/M12 A3000=
KGWO 272053Z AUTO A3044=
KHLN 272053Z 35015KT 10SM SCT029 M04/M12 A2994=
KHQM 272053Z AUTO 05014G19KT 8SM SCT015 BKN022 OVC029 12/08
     A2972=
KHVR 272053Z AUTO 27009KT 10SM BKN029 M05/M13 A3004=
KIPL 272053Z AUTO VRB04KT 10SM CLR 25/04 A2965=
KLBB 272053Z 09008KT 2SM -SN FEW000 OVC014 M08/M12 A3022=
KMSO 272053Z 12013KT 10SM BKN080 OVC100 03/M11 A2984=
KMWH 272052Z 05011G19KT 10SM FEW110 12/M01 A2978=
KNOW NIL=
KNUW 272056Z 01007KT 10SM -RA SCT035 BKN055 OVC070 10/07 A2982=
KOLF 272053Z AUTO 18010KT 10SM CLR M03/M13 A3004=
KOLM 272054Z 04006KT 10SM SCT008 BKN016 OVC037 10/08 A2974=
####018000949####
SAUS44 KWBC 272100 RRA
METAR
KOLS 272054Z AUTO 20021G27KT 10SM CLR 21/M06 A2979=
KOLV 272050Z 02010KT 10SM BKN250 00/M07 A3050=
KPAE 272053Z 35007G14KT 9SM OVC003 08/07 A2977=
KPDX 272053Z 00000KT 10SM FEW020 BKN030 BKN080 13/07 A2972=
KPMD 272053Z AUTO 25022KT 10SM CLR 16/06 A2974=
KRNO 272055Z VRB05KT 10SM BKN050 BKN090 11/M02 A2966=
KRNT 272053Z 30009KT 10SM SCT015 BKN080 10/M01 A2976=
KSAC 272053Z AUTO 20004KT 10SM FEW046 18/07 A2975=
KSCK 272055Z 30013KT 10SM FEW045 19/07 A2977=
KSDM 272053Z 19014KT 10SM BKN035 18/09 A2982=
KSFF 272053Z 05009KT 360V080 10SM SCT050 10/M04 A2979=
KSJC 272053Z 31011KT 10SM FEW015 BKN040 BKN250 16/08 A2983=
KSLC 272053Z 19004KT 10SM FEW047TCU FEW055 SCT095 SCT180 05/M04
     A2974=
KSMF 272053Z 00000KT 10SM FEW040 SCT200 18/08 A2974=
KTIW 272053Z 01009KT 4SM -RA BR FEW005 BKN009 OVC013 08/07
     A2975=
KTUS 272053Z 25015G22KT 10SM CLR 23/M04 A2974=
KYUM NIL=
####018001169####
SAUS51 KWBC 272100
METAR
K40B NIL=
KACY 272054Z 32006KT 10SM CLR 01/M09 A3043=
KAUG 272053Z AUTO 29007KT 10SM CLR M06/M23 A3029=
KAVL 272054Z 35014KT 10SM CLR 03/M06 A3033=
KBGM 272053Z 36011KT 10SM CLR M10/M19 A3036=
KBKW 272051Z AUTO 35008KT 10SM BKN028 M06/M14 A3039=
KCBE NIL=
KCHH NIL=
KCON 272051Z AUTO 33009KT 10SM CLR M05/M21 A3034=
KDCA 272052Z 33013G18KT 10SM FEW040 01/M12 A3050=
KEKN 272051Z AUTO 31005KT 10SM OVC037 M08/M15 A3044=
KESN 272050Z 01010KT 10SM SKC 00/M08 A3050=
KGFL 272053Z AUTO 16011KT 10SM CLR M06/M17 A3038=
KGSP 272053Z 05005KT 10SM CLR 12/M03 A3031=
KHAT NIL=
KHSS NIL=
KIPJ 272055Z AUTO 06003KT 10SM BKN050 09/M04 A3034=
KIPT 272054Z 27009KT 10SM CLR M02/M17 A3043=
KLYH 272054Z 26006KT 10SM CLR 03/M12 A3040=
KMHT 272053Z VRB06KT 10SM CLR M04/M21 A3033=
KMPV 272051Z AUTO 33006KT 10SM CLR M09/M22 A3034=
KMWN NIL=
KMYR NIL=
KNYC 272051Z AUTO 30007KT 260V320 10SM CLR M01/M17 A3042=
KPNE 272054Z 34010KT 10SM CLR M01/M15 A3046=
KROA 272054Z 31009KT 10SM FEW055 01/M11 A3042=
KSMQ 272053Z AUTO VRB06KT 10SM CLR M01/M16 A3041=
KWAL 272054Z 07005KT 4SM -SN OVC020 M01/M04 A3047=
####018000098####
SANL33 EHDB 272055 RRB
METAR EHSC 272055Z AUTO 21012G14KT 9999 ///////// 05/03 Q1020
W06/H10=
####018000098####
SANL33 EHDB 272055 RRA
METAR EHJR 272055Z AUTO 18014G16KT //// ///////// 05/02 Q1018
W06/H12=
####018000098####
SANL33 EHDB 272055 RRC
METAR EHSA 272055Z AUTO 22017G20KT //// ///////// 06/// Q1020
W///H11=
####018000303####
SAUR31 UKMS 272100
METAR UKLR 272100Z NIL=
METAR UKLI 272100Z NIL=
METAR UKON 272100Z NIL=
METAR UKLU 272100Z NIL=
METAR UKKK 272100Z 21002MPS 190V260 7000 OVC011 03/02
         Q1017  08290058 NOSIG=
METAR UKKM 272100Z AUTO 20002MPS 7000 ///014 04/04
         Q1017=
METAR UKLN 272100Z NIL=
####018001664####
SAUS52 KWBC 272100
METAR
K3R1 NIL=
KAAF 272053Z AUTO 05009KT 10SM CLR 15/04 A3025=
KABR 272053Z AUTO 20008KT 10SM CLR M09/M17 A3040=
KACT 272051Z 03008KT 10SM OVC017 M01/M04 A3038=
KAGS 272053Z VRB03KT 10SM CLR 13/00 A3032=
KAHN 272051Z 31005KT 10SM CLR 12/M04 A3032=
KALI 272053Z AUTO 05011KT 10SM OVC023 12/06 A3020=
KAUS 272053Z 02012KT 10SM OVC023 02/M04 A3032=
KAYS 272055Z AUTO 06007KT 10SM CLR 13/04 A3031=
KBVE 272051Z AUTO 05010G18KT 10SM BKN026 10/04 A3029=
KCAO 272055Z AUTO 17017KT 6SM HZ OVC017 M10/M13 A3005=
KCDS 272053Z AUTO 09006KT 2SM -SN SCT014 BKN022 OVC027 M08/M11
     A3038=
KCKL NIL=
KCLL 272053Z 04011KT 10SM OVC032 06/M03 A3034=
KCNM 272053Z AUTO 13009KT 10SM OVC013 M04/M08 A3016=
KCOT 272053Z AUTO 02009KT 6SM BR FEW009 OVC015 03/01 A3026=
KCSG 272051Z 09007KT 10SM CLR 13/M05 A3032=
KCTY 272053Z AUTO 04008G15KT 13/03 A3025=
KDAB 272053Z 36013G21KT 9SM OVC014 12/09 A3024=
KDHT 272053Z AUTO 16014KT 4SM -SN SCT017 OVC023 M08/M12 A3017=
KECP 272053Z 01008G16KT 10SM CLR 13/01 A3026=
KELD 272053Z AUTO 02006KT 10SM OVC090 01/M08 A3049=
KELP 272051Z 10010KT 10SM FEW033 FEW240 07/M04 A2994=
KESF 272053Z AUTO VRB06KT 10SM CLR 08/M03 A3038=
KFCL NIL=
KFSM 272053Z 10004KT 2SM R25/4500V5500FT -SN OVC016 M06/M09
     A3056=
KFYV 272053Z 11005KT 1 1/2SM -SN BKN028 OVC038 M07/M13 A3051=
KGAG 272053Z AUTO 12007KT 3SM -SN OVC023 M08/M13 A3037=
KGDP 272051Z AUTO 06022G28KT 3/4SM BR VV001 M07/M08 A2997=
KHBR 272053Z AUTO 08012KT 6SM HZ OVC040 M08/M11 A3043=
KHDO 272051Z AUTO 05010KT 2SM -RA SCT007 OVC013 02/ A3028=
KHOT 272053Z AUTO 06010KT 10SM OVC085 M01/M13 A3053=
####018001687####
SAUS52 KWBC 272100 RRA
METAR
KHRO 272053Z AUTO 10003KT 10SM OVC055 M07/M17 A3052=
KINK 272053Z AUTO 08011KT 10SM OVC012 M04/M08 A3019=
KIPT 272054Z 27009KT 10SM CLR M02/M17 A3043=
KJAN 272054Z 35007KT 10SM CLR 08/M04 A3037=
KJBR 272053Z AUTO 05010KT 10SM FEW024 FEW110 M04/M09 A3057=
KJCT 272051Z AUTO 07009KT 10SM OVC016 M01/M04 A3025=
KJQF 272052Z 36005KT 10SM CLR 08/M02 A3040=
KLFK 272053Z AUTO 01006KT 10SM OVC090 07/M03 A3037=
KLFT 272053Z 06009G14KT 030V090 10SM CLR 11/01 A3033=
KMCN 272053Z VRB04KT 10SM CLR 14/M01 A3031=
KMEI 272058Z 04007KT 10SM CLR 08/M05 A3037=
KMLC 272053Z AUTO 05005KT 3/4SM -SN SCT012 OVC017 M06/M09
     A3050=
KMLU 272053Z 04008KT 360V070 10SM BKN028 BKN095 02/M04 A3049=
KMWL 272053Z AUTO 03009KT 3/4SM -SN BR FEW009 BKN025 OVC044
     M05/M07 A3040=
KPBF 272053Z AUTO 02011KT 10SM BKN028 OVC095 M02/M08 A3056=
KPNC 272053Z AUTO 13006KT 2 1/2SM -SN SCT024 OVC038 M07/M12
     A3053=
KPSX 272053Z AUTO 05021KT 8SM -RA BKN050 09/03 A3026=
KPWA 272053Z 09007KT 1 1/2SM -SN FEW012 BKN044 OVC060 M07/M11
     A3048=
KQAO NIL=
KRMG 272053Z AUTO 35007G14KT 10SM CLR 06/M06 A3041=
KRSL 272053Z AUTO 14007KT 10SM FEW042 OVC055 M07/M17 A3042=
KSEP 272055Z AUTO 01006KT 2 1/2SM OVC010 M04/M06 A3039=
KSHV 272056Z 02013KT 10SM OVC080 01/M06 A3043=
KSPS 272052Z AUTO 05012KT 5SM HZ OVC060 M07/M10 A3045=
KTLH 272053Z 03007KT 10SM FEW005 BKN160 BKN250 14/04 A3027=
KTOP 272053Z 11003KT 10SM OVC090 M08/M18 A3056=
KTRI 272053Z 00000KT 10SM BKN039 00/M06 A3043=
KTUP 272053Z 10007KT 10SM CLR 04/M09 A3046=
KVCT 272051Z 05015KT 7SM OVC020 09/04 A3026=
KVGT 272053Z 17006KT 10SM CLR 16/M07 A2968=
####018000135####
SAUS52 KWBC 272100 RRB
METAR
KVUJ 272055Z AUTO 33007KT 10SM CLR 08/M02 A3042=
KWRB 272058Z AUTO 04006KT 10SM CLR 14/M01 A3031=
####018001666####
SAUS53 KWBC 272100
METAR
KAIA 272053Z AUTO 17020G28KT 3SM -SN FEW019 SCT024 OVC035 M07/M12
     A3005=
KAID NIL=
KALO 272054Z AUTO 25007KT 10SM CLR M14/M21 A3060=
KALS 272052Z AUTO 17011KT 10SM CLR M02/M08 A2976=
KANW 272055Z AUTO 18013KT 10SM CLR M04/M20 A3024=
KBBW 272053Z AUTO 18009G21KT 10SM CLR M05/M19 A3029=
KBFF 272053Z AUTO 17020KT 6SM -SN SCT030 OVC037 M05/M13 A3002=
KBIE 272055Z AUTO 13005KT 10SM CLR M06/M19 A3049=
KBIS 272052Z 20011G19KT 10SM CLR M07/M16 A3026=
KBPI 272053Z AUTO 10003KT 10SM SCT042 BKN070 M06/M13 A2974=
KBRL 272053Z AUTO 00000KT 10SM CLR M11/M19 A3063=
KCAG 272053Z AUTO VRB04KT 10SM CLR 00/M08 A2978=
KCGI 272053Z 05007KT 10SM CLR M05/M14 A3060=
KCID 272052Z 30005KT 10SM CLR M14/M18 A3060=
KCNK 272055Z AUTO 15009KT 10SM FEW090 M08/M18 A3048=
KCNU 272052Z AUTO 13008KT 090V160 10SM SCT047 OVC070 M07/M16
     A3054=
KCOU 272054Z 35003KT 10SM CLR M06/M17 A3057=
KCYS 272053Z 19015KT 4SM -SN OVC016 M11/M15 A2985=
KCZD NIL=
KDBQ 272053Z AUTO 27006KT 10SM CLR M13/M21 A3056=
KDDC 272052Z AUTO 14009KT 8SM OVC021 M09/M14 A3035=
KDVL 272055Z AUTO 21010KT 10SM CLR M11/M17 A3029=
KEAR 272055Z 16010KT 10SM CLR M06/M21 A3036=
KEHA NIL=
KEVV 272054Z VRB04KT 10SM FEW031 M06/M13 A3062=
KF55 NIL=
KFNB 272053Z AUTO 00000KT 10SM CLR M07/M19 A3054=
KFSD 272056Z 22007KT 10SM CLR M11/M18 A3045=
KFWA 272054Z 27004KT 10SM BKN044 M09/M17 A3059=
KGCC 272053Z AUTO 17015KT 10SM CLR M06/M12 A2987=
KGCK 272054Z 15013KT 4SM HZ SCT023 BKN055 OVC070 M10/M14 A3030=
KGJT 272053Z 10SM SCT100 05/M05 A2976=
KGLD 272053Z AUTO 17018G25KT 8SM -SN FEW017 OVC028 M09/M13
     A3018=
####018000101####
SAUS44 KEWX 272106
MTRATT
SPECI KATT 272104Z AUTO 02008KT 8SM 01/M04 A3033 RMK AO2 T00111039 $
####018001657####
SAUS53 KWBC 272100 RRA
METAR
KGPZ 272055Z AUTO 22009KT 200V260 10SM CLR M08/M21 A3034=
KGRI 272053Z 18008KT 10SM FEW120 M06/M19 A3041=
KHON 272055Z AUTO 15010KT 10SM CLR M08/M16 A3041=
KHSI 272053Z AUTO 15007KT 10SM FEW110 M06/M21 A3039=
KHTL 272053Z AUTO 24006KT 10SM FEW040 M09/M17 A3044=
KIML 272053Z AUTO 16016G22KT 6SM -SN M07/M13 A3019=
KIRK 272055Z AUTO 00000KT 10SM CLR M08/M16 A3058=
KJAC 272051Z 00000KT 10SM BKN038 OVC045 M07/M11 A2973=
KJKL 272053Z AUTO 31003KT 10SM CLR M03/M16 A3050=
KJLN 272053Z 04005KT 10SM OVC080 M06/M17 A3054=
KJNX 272055Z AUTO 36007KT 10SM SCT050 09/M02 A3038=
KLAN 272053Z 28011KT 10SM SCT039 M08/M17 A3054=
KLBF 272053Z AUTO 16011KT 10SM CLR M04/M17 A3024=
KLIH NIL=
KLNC 272055Z AUTO 04009KT 10SM BKN016 OVC022 M02/M05 A3043=
KLND 272053Z AUTO 00000KT 10SM FEW013 M11/M14 A2980=
KLNK 272054Z 12005KT 10SM CLR M07/M18 A3051=
KLXV 272053Z AUTO 17007KT 1 1/2SM -SN BR BKN019 OVC026 M09/M12
     A2965=
KMCK 272053Z AUTO 16010G20KT 10SM BKN040 OVC060 M05/M16 A3029=
KMCW 272053Z AUTO 27004KT 10SM CLR M14/M18 A3055=
KMFD 272052Z 30006KT 10SM CLR M10/M18 A3054=
KMHK 272052Z 10003KT 10SM BKN075 OVC090 M08/M18 A3054=
KMHN NIL=
KMKG 272055Z 26007KT 230V290 10SM BKN034 M08/M16 A3056=
KMMO NIL=
KMSN 272053Z VRB06KT 10SM CLR M09/M20 A3053=
KODX 272053Z AUTO 18011G17KT 10SM CLR M06/M21 A3035=
KONL 272055Z AUTO 19008KT 10SM CLR M04/M20 A3034=
KOTM 272053Z AUTO 30004KT 10SM CLR M11/M18 A3060=
KOVN NIL=
KPAH 272053Z 00000KT 10SM SCT038 M04/M13 A3059=
KPKD 272053Z AUTO 26008KT 10SM CLR M08/M21 A3036=
KRAP 272052Z 18018G26KT 10SM OVC038 M06/M11 A3004=
####018000826####
SAUS53 KWBC 272100 RRB
METAR
KRFD 272054Z 29007KT 10SM CLR M11/M21 A3061=
KRIW 272053Z AUTO 04006KT 10SM CLR M10/M15 A2982=
KRST 272054Z 25007KT 10SM CLR M14/M19 A3051=
KSBN 272054Z 26006KT 10SM CLR M08/M18 A3058=
KSHR 272053Z AUTO 27004KT 10SM CLR M08/M14 A2989=
KSLN 272053Z 09007KT 10SM OVC070 M06/M17 A3050=
KSPI 272052Z 22007KT 10SM CLR M11/M17 A3065=
KSSM NIL=
KSTC 272053Z 21005KT 10SM CLR M09/M19 A3046=
KSUX NIL=
KSVM NIL=
KTCS 272053Z AUTO 15009KT 10SM FEW037 08/M02 A2987=
KTDF 272055Z AUTO 36005KT 10SM SCT050 05/M07 A3041=
KUDG 272055Z AUTO 06006KT 10SM CLR 12/M01 A3036=
KUIN 272054Z AUTO 00000KT 10SM CLR M12/M21 A3063=
KVIH 272053Z AUTO 06006KT 10SM BKN100 M07/M19 A3051=
KVTN 272052Z AUTO 18013KT 10SM CLR M04/M18 A3022=
KYNG 272051Z 33005KT 10SM BKN040 M11/M19 A3052=
####018000223####
SAXX70 KAWN 272100 RRG
METAR KQL5 272056Z 33002KT 9000 HZ FEW150 10/05 A3010 RMK SLP191 T01000054
      57003=
METAR KQGX 272058Z COR 02007KT 9999 CLR 17/10 A3000 RMK AO2A SLP161
      T01740102 58004 $ COR 2102=
####018001668####
SAUS54 KWBC 272100
METAR
KAST 272055Z AUTO 32005KT 1 3/4SM RA BR FEW014 OVC022 10/08
     A2970=
KAWH NIL=
KBFL 272054Z 33007KT 10SM CLR 19/06 A2979=
KBIH 272056Z AUTO VRB03KT 10SM CLR 16/M08 A2961=
KBLU 272052Z AUTO 24009KT 10SM SCT016 BKN024 OVC075 04/M01
     A2976=
KBNY NIL=
KBUO NIL=
KBZN 272056Z 27005KT 10SM CLR M03/M12 A2986=
KCNY 272053Z AUTO 00000KT 10SM OVC065 07/M05 A2974=
KCQV NIL=
KCZK NIL=
KCZZ 272052Z AUTO 22015G20KT 13/07 A2978=
KDRA 272052Z AUTO 17008KT 10SM CLR 16/M07 A2966=
KELY 272053Z AUTO 20004KT 10SM OVC075 05/M11 A2966=
KEUG 272054Z 23009KT 10SM SCT026 BKN055 OVC080 11/07 A2976=
KFLG 272057Z 23013KT 10SM BKN049 OVC055 04/M05 A2975=
KGNG NIL=
KHMM NIL=
KHMS NIL=
KHTH NIL=
KIGM 272051Z AUTO 24011KT 10SM CLR 17/M05 A2969=
KINW 272056Z AUTO 35007KT 10SM OVC090 10/M02 A2974=
KIZA 272055Z AUTO 32009G16KT 10SM SCT039 18/07 A2982=
KJDN NIL=
KJNW NIL=
KJNX 272055Z AUTO 36007KT 10SM SCT050 09/M02 A3038=
KLGB 272053Z 18009KT 10SM OVC039 17/11 A2981=
KLWS 272056Z 00000KT 10SM CLR 11/03 A2972=
KMEH 272056Z AUTO 09003KT 4SM -RA SCT014 BKN027 OVC037 04/01
     A2966=
KMFR 272053Z 23005G16KT 10SM -RA FEW041 SCT050 BKN070 09/05
     A2977=
KMHS 272056Z AUTO VRB06KT 10SM FEW065 FEW080 10/03 A2969=
KMLD NIL=
KMLF 272052Z AUTO 36005KT 10SM OVC090 10/M11 A2968=
KMQM NIL=
KMWS NIL=
KNUQ 272056Z 30007KT 10SM SCT037 SCT044 17/08 A2984=
KOLM 272054Z 04006KT 10SM SCT008 BKN016 OVC037 10/08 A2974=
KOWY NIL=
KPDT 272053Z 27011KT 10SM -RA SCT042 BKN055 OVC070 07/04 A2969=
KPFC NIL=
KPGA 272053Z AUTO 05008KT 10SM FEW032 FEW043 OVC055 06/01
     A2976=
####018000870####
SAUS54 KWBC 272100 RRA
METAR
KPIH 272053Z VRB03KT 10SM FEW028 SCT037 BKN085 03/M03 A2975=
KPUC 272053Z AUTO VRB05KT 10SM SCT048 04/M09 A2972=
KRBL 272054Z AUTO 15011KT 10SM FEW060 18/05 A2972=
KRDD 272053Z 16008KT 10SM BKN090 18/06 A2968=
KSDB NIL=
KSHN 272053Z AUTO 03008KT 10SM -RA SCT011 BKN024 OVC038 08/06
     A2973=
KSJN 272054Z AUTO 25016G25KT 10SM OVC080 11/M07 A2973=
KSLC 272053Z 19004KT 10SM FEW047TCU FEW055 SCT095 SCT180 05/M04
     A2974=
KSMP NIL=
KSMX 272051Z 30015KT 10SM SCT022 18/10 A2984=
KSOW 272055Z AUTO 21023G30KT 10SM BKN090 10/M09 A2978=
KSVE NIL=
KTRK 272050Z 26013G25KT 10SM SCT040 SCT047 BKN070 06/M05 A2971=
KUIL 272053Z AUTO 04011G21KT 9SM FEW025 09/06 A2976=
KWEY NIL=
KWMC 272056Z AUTO 12003KT 5SM -RA BR OVC024 02/01 A2967=
KXCN NIL=
KYKM 272053Z 29007KT 10SM -RA SCT027 OVC036 08/04 A2978=
####018000088####
SAZA42 FAOR 272100 RRA
METAR FAOR 272100Z 10013KT 9999 -RA BKN060 15/13 Q1024 NOSIG=
####018000223####
SAIE32 EIDB 272100
METAR EIDL 272100Z NIL=
METAR EIKY 272100Z 25008KT 9999 SCT014 BKN026 09/08 Q1008=
METAR EIME 272100Z 21020G34KT 9999 -DZ SCT013 BKN050 07/05 Q1007=
METAR EISG 272100Z NIL=
METAR EIWF 272100Z NIL=
####018000074####
SABZ24 SBBG 272100
METAR SBBG 272100Z 17006KT 9999 FEW023 28/19 Q1012=
####018000074####
SABZ12 SBBR 272106
METAR SBBG 272100Z 17006KT 9999 FEW023 28/19 Q1012=
####018000714####
SAUS20 KNKA 272105
SPECI KAAO 272104Z AUTO 14006KT 3SM -SN FEW016 BKN025 OVC036 M09/M13 
 A3050 RMK AO2 P0000 T10941128=
SPECI KABI 272104Z 04007KT 2 1/2SM BR BKN007 OVC015 M06/M08 A3034 
 RMK AO2 CIG 005V009 T10611083=
SPECI KBOK 272104Z AUTO 35006G14KT 5SM -RA BR BKN010 BKN090 11/10 
 A2985 RMK AO2 CIG 001V021 RAB00 P0000=
SPECI KFMN 272104Z 13008KT 1SM -SN BR BKN006 OVC018 00/M01 A2979 RMK 
 AO2 P0000 T00001011=
SPECI KGKY 272104Z 03008KT 1SM -SN SCT010 BKN016 OVC020 M02/M06 
 A3042 RMK AO2 P0000 T10221056=
SPECI KHHR 272104Z 21006KT 10SM SCT023 BKN031 OVC040 18/12 A2980 RMK 
 AO2 T01780117=
METAR KNMM 272056Z 06009KT 10SM CLR 08/M06 A3039 RMK AO2 SLP302 T00831056
 56024=
####018000392####
SAMS32 WMKK 272100
METAR WBGG 272100Z 24002KT 8000 FEW020 BKN300 25/23 Q1009 NOSIG=
METAR WBKK 272100Z 11006KT 9999 FEW014 BKN270 25/22 Q1008 NOSIG=
METAR WMKJ 272100Z 00000KT 9999 FEW024 BKN300 23/22 Q1009=
METAR WMKK 272100Z 10003KT 9999 FEW017CB SCT140 BKN280 26/22 Q1008 NOSIG=
METAR WMKP 272100Z 02003KT 8000 FEW025 SCT140 BKN270 27/23 Q1008 NOSIG=
METAR WMSA 272100Z NIL=
####018000508####
SAMS31 WMKK 272100
METAR WBGG 272100Z 24002KT 8000 FEW020 BKN300 25/23 Q1009 NOSIG=
METAR WBKK 272100Z 11006KT 9999 FEW014 BKN270 25/22 Q1008 NOSIG=
METAR WBSB 272100Z 22001KT 9999 FEW004 BKN300 25/25 Q1009 NOSIG=
METAR WMKK 272100Z 10003KT 9999 FEW017CB SCT140 BKN280 26/22 Q1008 NOSIG=
METAR WMKP 272100Z 02003KT 8000 FEW025 SCT140 BKN270 27/23 Q1008 NOSIG=
METAR WSSL 272100Z 01007KT 9999 FEW020 SCT300 25/23 Q1008=
METAR WSSS 272100Z 03004KT 350V080 9999 FEW018 BKN350 26/24 Q1009 NOSIG=
####018000093####
SAYE20 OYSY 272100 RRA
METAR OYSY 272100Z AUTO 07005KT 040V130 //// ////// 22/M04 Q1018=
####018000708####
SAMS33 WMKK 272100
METAR WMAU 272100Z 36005KT 8000 FEW000 SCT140 BKN270 26/24 Q//// QFF1009=
METAR WMBA 272100Z 00000KT 9000 FEW009 BKN280 24/24 Q1008=
METAR WMKA 272100Z 01002KT 9999 FEW030 BKN300 24/22 Q1009=
METAR WMKB 272100Z 10002KT 8000 FEW025 SCT140 BKN280 26/23 Q1008 NOSIG=
METAR WMKC 272100Z 13002KT 9999 FEW020 BKN280 25/23 Q1009=
METAR WMKD 272100Z 36002KT 9999 FEW024 BKN280 23/22 Q1009 NOSIG=
METAR WMKE 272100Z NIL=
METAR WMKI 272100Z 07002KT 9000 FEW031 BKN290 24/23 Q1009=
METAR WMKL 272100Z 04003KT 9999 FEW026 BKN280 26/23 Q1008=
METAR WMKM 272100Z 03005KT 330V070 9999 FEW017CB BKN280 25/22 Q1009=
METAR WMKN 272100Z 19003KT 9999 SCT024 SCT140 BKN280 24/22 Q1009=
####018000545####
SAMS34 WMKK 272100
METAR WBGB 272100Z 08001KT 8000 FEW002 SCT016 BKN150 24/24 Q1009=
METAR WBGR 272100Z 00000KT 9999 FEW014 SCT150 BKN300 24/24 Q1009=
METAR WBGS 272100Z 00000KT 9999 FEW006 SCT018 BKN300 24/23 Q1008=
METAR WBGY 272100Z 00000KT 9999 SCT022 SCT150 25/24 Q1008=
METAR WBKL 272100Z 01001KT 9999 FEW012 BKN290 26/24 Q1009=
METAR WBKS 272100Z 07006KT 030V120 9999 FEW014 BKN290 27/23 Q1010=
METAR WBKT 272100Z 11006KT 9999 FEW014 BKN280 26/23 Q1010=
METAR WBKW 272100Z 02002KT 9999 FEW017 SCT140 BKN300 23/21 Q1009=
####018000085####
SASC20 FSIA 272100
METAR FSIA 272100Z 28006KT 9999
FEW018 27/22 Q1009
NOSIG=
####018000081####
SALC31 TLPC 272100
METAR TLPC 272100Z 08012KT 9999 FEW026 28/20 Q1015 NOSIG=
####018000440####
SAAL31 DAAA 272100
METAR DAAG 272100Z 36008KT 330V030 9999 FEW020TCU BKN080 11/07 Q1021=
METAR DAAT 272100Z 24002KT CAVOK 10/M14 Q1023=
METAR DABB 272100Z 28011KT 9999 FEW023 SCT040 BKN100 10/09 Q1014=
METAR DABC 272100Z 00000KT 9999 FEW013 BKN023 05/03 Q1015=
METAR DAON 272100Z 26010KT 9999 BKN026 14/09 Q1023=
METAR DAOO 272100Z 20006KT 9999 FEW023 SCT233 14/12 Q1021=
METAR DAUH 272100Z 29014KT 9999 SCT040 SCT100 17/09 Q1016=
####018000111####
SAUS41 KGYX 272106
MTRMWN
METAR KMWN 272051Z 30030G34KT 80SM FEW080 FEW180 FEW200 M23/M25
RMK ACSL NE=
####018000329####
SAJP35 RJTD 272100
METAR RJAA 272100Z 31013KT CAVOK 03/M07 Q1021 NOSIG=
METAR RJBB 272100Z 35010KT 9999 FEW025 BKN050 05/M02 Q1026 NOSIG=
METAR RJTT 272100Z 33012KT CAVOK 04/M07 Q1021 NOSIG=
METAR RJOO 272100Z 33006KT 9999 FEW030 SCT050 BKN070 04/M02 Q1026=
METAR RJGG 272100Z 31020KT 9999 FEW025 05/M03 Q1025 NOSIG=
####018000397####
SAJP31 RJTD 272100
METAR RJAA 272100Z 31013KT CAVOK 03/M07 Q1021 NOSIG=
METAR RJBB 272100Z 35010KT 9999 FEW025 BKN050 05/M02 Q1026 NOSIG=
METAR RJTT 272100Z 33012KT CAVOK 04/M07 Q1021 NOSIG=
METAR RJOO 272100Z 33006KT 9999 FEW030 SCT050 BKN070 04/M02 Q1026=
METAR ROAH 272100Z 10011KT 9999 FEW015 SCT050 BKN100 18/15 Q1018=
METAR RJGG 272100Z 31020KT 9999 FEW025 05/M03 Q1025 NOSIG=
####018000539####
SAJP37 RJTD 272100
METAR RJAA 272100Z 31013KT CAVOK 03/M07 Q1021 NOSIG=
METAR RJBB 272100Z 35010KT 9999 FEW025 BKN050 05/M02 Q1026 NOSIG=
METAR RJTT 272100Z 33012KT CAVOK 04/M07 Q1021 NOSIG=
METAR RJOO 272100Z 33006KT 9999 FEW030 SCT050 BKN070 04/M02 Q1026=
METAR RJFF 272100Z 07005KT 030V100 9999 FEW045 SCT/// 04/M03 Q1027=
METAR RJGG 272100Z 31020KT 9999 FEW025 05/M03 Q1025 NOSIG=
METAR RJFK 272100Z 03003KT 350V060 9999 FEW020 BKN025 03/M01 Q1023=
METAR RJFR 272100Z 08009KT 350V130 9999 FEW030 SCT/// 05/M00 Q1027=
####018000285####
SAJP32 RJTD 272100
METAR RJFF 272100Z 07005KT 030V100 9999 FEW045 SCT/// 04/M03 Q1027=
METAR RJCC 272100Z 36011KT 9999 -SHSN FEW015 BKN045 M02/M07 Q1017=
METAR RJFK 272100Z 03003KT 350V060 9999 FEW020 BKN025 03/M01 Q1023=
METAR RJSS 272100Z 29009KT 9999 FEW020 02/M05 Q1019=
####018000536####
SAAE31 VTBB 272100
METAR VTBS 272100Z 18007KT 9999 FEW020 SCT300 27/23 Q1010 NOSIG=
METAR VTBD 272100Z 16005KT 9999 FEW020 SCT300 28/24 Q1009 NOSIG=
METAR VTCC 272100Z 32001KT 7000 NSC 17/09 Q1013 A2992 NOSIG=
METAR VTBU 272100Z NIL=
METAR VTSS 272100Z 00000KT 9999 FEW020 SCT300 23/22 Q1009
           A2981 NOSIG=
METAR VTSP 272100Z VRB03KT 9999 FEW020 SCT300 25/20 Q1009 A2980 
NOSIG=
METAR VLVT 272100Z NIL=
METAR VYMD 272100Z NIL=
METAR VYYY 272100Z NIL=
METAR VDPP 272100Z NIL=
METAR VDSR 272100Z NIL=
####018000113####
SPCN43 CWAO 272106
SPECI CYBQ 272106Z AUTO 31012G17KT 290V360 9SM -SN OVC025 M12/M17
 A2992 RMK SLP162=

####018000832####
SACH11 SCSC 272100
METAR SCAR 272100Z 20009KT CAVOK 26/15 Q1011=
METAR SCBA 272100Z 30021KT CAVOK 28/06 Q1010=
METAR SCCF 272100Z 25021KT 9999 SCT060TCU 22/07 Q1023=
METAR SCCI 272100Z 29026KT 9999 FEW025 SCT160 BKN200 19/10 Q0997 
NOSIG=
METAR SCDA 272100Z 18015KT CAVOK 27/15 Q1012=
METAR SCEL 272100Z 18011KT CAVOK 28/09 Q1012 NOSIG=
METAR SCFA 272100Z 18009KT 9999 FEW040 23/12 Q1012 NOSIG=
METAR SCIE 272100Z 23009KT CAVOK 21/14 Q1014=
METAR SCIP 272100Z 08011KT 9999 SCT020 27/18 Q1020 NOSIG=
METAR SCJO 272100Z VRB06KT CAVOK 32/12 Q1011=
METAR SCNT 272100Z NIL=
METAR SCSE 272100Z 26008KT 9999 FEW020 21/12 Q1014=
METAR SCQP 272100Z 25012KT 230V290 CAVOK 21/14 Q1013=
METAR SCTE 272100Z 22010KT 8000 SKC 22/11 Q1013 NOSIG=
METAR SCPQ 272100Z NIL=
METAR SCTN 272100Z AUTO 20006KT 170V230 CAVOK 19/13 Q1013=
####018000330####
SABY31 UMMN 272100
METAR UMBB 272100Z NIL=
METAR UMGG 272100Z VRB01MPS 0200 R28/0650 FG VV002 02/02 Q1016
R28/290050 NOSIG RMK QBB070=
METAR UMII 272100Z NIL=
METAR UMMG 272100Z NIL=
METAR UMMM 272100Z NIL=
METAR UMMS 272100Z 00000MPS 2500 -SN BR OVC002 00/00 Q1015 R31/290060
NOSIG RMK QBB060=
METAR UMOO 272100Z NIL=
####018000126####
SAAK41 KNKA 272105
SPECI PAKV 272104Z AUTO 00000KT 10SM SCT013 OVC021 M01/M03 A3033 RMK 
    AO1 T10061028 FZRANO TSNO=
####018000142####
SAUS20 KNKA 272106
METAR KMTN 272045Z 30009KT 10SM FEW060 M01/M11 A3051=
METAR TUPJ 272100Z 11013KT 9999 SCT020 28/21 Q1017 RMK A3004 =
####018000099####
SAHW31 KMSC 272105
SPECI PHNY 272104Z AUTO 30007KT 10SM BKN013 26/19 A3004 RMK AO2 TSNO 
 $=
####018000410####
SAAE33 VTBB 272100
METAR VVTS 272100Z 13005KT 9999 FEW020 26/22 Q1010 NOSIG =
METAR VVNB 272100Z 10007KT 3100 DZ BR FEW007 SCT013 BKN050 23/22
Q1010 NOSIG=
METAR VVDN 272100Z 22002KT 7000 FEW015 BKN060 23/22 Q1011 NOSIG=
METAR VVPB 272100Z VRB01KT 8000 FEW020 SCT060 22/21 Q1010 NOSIG=
METAR VVCR 272100Z 05005KT 9999 FEW015 26/24 Q1012 NOSIG=
METAR VVCT 272100Z NIL=
METAR VVPQ 272100Z NIL=
####018000143####
SAUS46 KMFR 272106
MTRSXT
SPECI KSXT 272105Z AUTO VRB04KT 6SM -RA BR BKN003 BKN007 OVC017 
03/03 A2972 RMK AO2 RAB2059 P0000 T00330028
####018000717####
SPUS99 KWBC 272107
SPECI
KAAO 272104Z AUTO 14006KT 3SM -SN FEW016 BKN025 OVC036 M09/M13
     A3050 RMK AO2 P0000 T10941128=
KABI 272104Z 04007KT 2 1/2SM BR BKN007 OVC015 M06/M08 A3034 RMK
     AO2 CIG 005V009 T10611083=
KBOK 272104Z AUTO 35006G14KT 5SM -RA BR BKN010 BKN090 11/10 A2985
     RMK AO2 CIG 001V021 RAB00 P0000=
KFMN 272104Z 13008KT 1SM -SN BR BKN006 OVC018 00/M01 A2979 RMK AO2
     P0000 T00001011=
KGKY 272104Z 03008KT 1SM -SN SCT010 BKN016 OVC020 M02/M06 A3042
     RMK AO2 P0000 T10221056=
KHHR 272104Z 21006KT 10SM SCT023 BKN031 OVC040 18/12 A2980 RMK AO2
     T01780117=
PAKV 272104Z AUTO 00000KT 10SM SCT013 OVC021 M01/M03 A3033 RMK AO1
     T10061028 FZRANO TSNO=
####018000221####
SAUS99 KWBC 272107
METAR
KNMM 272056Z 06009KT 10SM CLR 08/M06 A3039 RMK AO2 SLP302
     T00831056 56024=
KMTN 272045Z 30009KT 10SM FEW060 M01/M11 A3051=
TUPJ 272100Z 11013KT 9999 SCT020 28/21 Q1017 RMK A3004=
####018000089####
SPUS31 KWBC 272107
SPECI
KOKC 272103Z 07007KT 3SM -SN BKN015 OVC055 M07/M12 A3047=
####018000077####
SPUS42 KWBC 272107
SPECI
KEYW 272103Z 02011KT 10SM OVC010 22/20 A3006=
####018000099####
SPUS43 KWBC 272107
SPECI
KGRR 272103Z 25007KT 4SM -SN BR FEW012 BKN018 BKN035 M08/M12 A3054=
####018000516####
SAMS31 WMKK 272100
METAR WBGG 272100Z 24002KT 8000 FEW020 BKN300 25/23 Q1009 NOSIG=
METAR WBKK 272100Z 11006KT 9999 FEW014 BKN270 25/22 Q1008 NOSIG=
METAR WBSB 272100Z 22001KT 9999 FEW004 BKN300 25/25 Q1009 NOSIG=
METAR WMKK 272100Z 10003KT 9999 FEW017CB SCT140 BKN280 26/22 Q1008
NOSIG=
METAR WMKP 272100Z 02003KT 8000 FEW025 SCT140 BKN270 27/23 Q1008 
NOSIG=
METAR WSSL 272100Z 01007KT 9999 FEW020 SCT300 25/23 Q1008=
METAR WSSS 272100Z 03004KT 350V080 9999 FEW018 BKN350 26/24 Q1009 
NOSIG=
####018000109####
SPUS44 KWBC 272107
SPECI
KCLM 272103Z AUTO 06007KT 030V100 7SM -RA BKN007 BKN012 OVC026
07/06 A2981=
####018000114####
SAUS42 KCHS 272106
MTRNBC
METAR KNBC 272056Z 08005KT 10SM CLR 10/02 A3034 RMK AO2 SLP275 
T01000022 55010
####018000101####
SAAG01 SABM 272100 RRA
METAR SARL 272100Z  27007KT 9999  FEW025TCU BKN100
BKN200  29/22 Q1011=
####018000105####
SAUS44 KEWX 272106 COR
MTRATT
SPECI KATT 272104Z AUTO 02008KT 8SM 01/M04 A3033 RMK AO2 T00111039 $
####018001001####
SAAU31 AMMC 272100
METAR YBAS 272100Z 33002KT CAVOK 23/09 Q1008=
METAR YBBN 272100Z 00000KT 9999 VCSH FEW018 SCT065 25/21 Q1010
     INTER 2100/2400 3000 SHRA BKN012=
METAR YBCS 272100Z 00000KT 9999 FEW024 BKN300 25/23 Q1007
     NOSIG=
METAR YBTL 272100Z 33001KT 9999 FEW022 27/24 Q1007=
METAR YMML 272100Z 36013KT CAVOK 20/11 Q1006
     FM2200 36018G28KT CAVOK
     FM2100 MOD TURB BLW 5000FT=
METAR YPAD 272100Z 03010KT CAVOK 26/13 Q1003
     NOSIG=
METAR YPCC 272100Z AUTO 09011KT 9999 DZ SCT037 BKN045 OVC057 26/24 Q1009=
METAR YPDN 272100Z 20010KT 9999 FEW016 SCT080 BKN300 24/22 Q1006
     NOSIG=
METAR YPKU 272100Z AUTO 00000KT 9999 // NCD 26/26 Q1006=
METAR YPLM 272100Z AUTO 22011KT 9999 // NCD 25/20 Q1007=
METAR YPPH 272100Z 13011KT 9999 FEW018 19/13 Q1014
     NOSIG=
METAR YPTN 272100Z AUTO 36002KT 9999 // NCD 24/22 Q1006=
METAR YPXM 272100Z AUTO 00000KT 9999 // NCD 22/22 Q1010=
METAR YSSY 272100Z 02005KT CAVOK 22/19 Q1010
     NOSIG=

####018001595####
SAZZ40 KAWN 272100 RRQ
METAR DAAE 272100Z 26006KT 6000 -RA SCT020 BKN040 09/07 Q1018=
METAR DAAJ 272100Z 00000KT CAVOK 10/M02 Q1022=
METAR DAAP 272100Z 27004KT 8000 NSC 11/M01 Q1022=
METAR DAAV 272100Z 27008KT 8000 -RA SCT020 BKN030 10/06 Q1016=
METAR COR DABT 272100Z 20008KT 6000 SHRA FEW010 BKN023 05/04 Q1016=
METAR DAOB 272100Z 36012KT 9999 -RA BKN026 06/05 Q1019=
METAR DAOF 272100Z 24008KT CAVOK 20/M02 Q1021=
METAR DAOR 272100Z 02006KT CAVOK 15/01 Q1022=
METAR DAUA 272100Z 19008KT CAVOK 16/M01 Q1021=
METAR DAUB 272100Z 31016KT 9999 FEW033CB BKN040 13/07 Q1014=
METAR DAUE 272100Z 00000KT 9999 FEW040 14/06 Q1019=
METAR DAUG 272100Z 31011KT CAVOK 16/04 Q1018=
METAR DAUK 272100Z 28014KT 9999 -RA SCT030CB BKN033 16/11 Q1015=
METAR DTTG 272100Z 21008KT 7000 FEW020 SCT030 12/03 Q1015 NOSIG=
METAR KADW 272058Z AUTO 33011KT 10SM CLR 00/M12 A3047 RMK AO2 SLP329
      T10031117 53019 $=
METAR KCEF 272058Z AUTO 33004KT 10SM CLR M04/M21 A3035 RMK AO2 SLP289
      T10361206 53007=
METAR KDAA 272058Z AUTO 36007KT 10SM CLR 01/M13 A3049 RMK AO2 SLP329
      T00061129 53016=
METAR KFTK 272058Z AUTO 04006KT 10SM CLR M04/M14 A3055 RMK AO2 SLP360
      T10411145 56007=
METAR KGTB 272058Z AUTO 25010G17KT 10SM CLR M11/M18 A3043 RMK AO2 SLP323
      T11081184=
METAR KHOP 272058Z AUTO 04005KT 10SM CLR M04/M13 A3056 RMK AO2 SLP359
      T10371127 55011=
METAR KLFI 272058Z AUTO 04011KT 9SM OVC029 00/M04 A3046 RMK AO2 SLP322
      T00001036 52017 $=
METAR PHNG 272057Z 35010KT CLR 27/21 A2997 RMK AO2 SLP144 T02670211
      51007 $=
####018000397####
SAMS32 WMKK 272100
METAR WBGG 272100Z 24002KT 8000 FEW020 BKN300 25/23 Q1009 NOSIG=
METAR WBKK 272100Z 11006KT 9999 FEW014 BKN270 25/22 Q1008 NOSIG=
METAR WMKJ 272100Z 00000KT 9999 FEW024 BKN300 23/22 Q1009=
METAR WMKK 272100Z 10003KT 9999 FEW017CB SCT140 BKN280 26/22 Q1008
NOSIG=
METAR WMKP 272100Z 02003KT 8000 FEW025 SCT140 BKN270 27/23 Q1008 
NOSIG=
METAR WMSA 272100Z NIL=
####018000401####
SAJP38 RJTD 272100
METAR RJNK 272100Z 07004KT 9999 FEW025 SCT035 BKN050 02/M02 Q1026=
METAR RJFR 272100Z 08009KT 350V130 9999 FEW030 SCT/// 05/M00 Q1027=
METAR RJAH 272100Z 16003KT 130V240 9999 FEW030 01/M06 Q1020=
METAR RJOH 272100Z 04011KT 9999 -SHRASN FEW030 BKN040 05/M04 Q1028=
METAR ROIG 272100Z 18005KT 9999 -RA FEW010 BKN040 22/21 Q1016=
METAR RJFS 272100Z 03011KT CAVOK 03/M04 Q1026=
####018000085####
SABE31 EGGY 272055
METAR TXKF 272055Z 24017KT 9000 -RA BKN007 OVC017 22/20 Q1022=
####018000221####
SANZ31 NZKL 272100
METAR NZAA 272100Z AUTO 10003KT 9999 NCD 21/16 Q1018 NOSIG=
METAR NZWN 272100Z AUTO 01016KT 9999 BKN029/// 20/12 Q1016 NOSIG=
METAR NZCH 272100Z AUTO 06006KT 030V100 9999 NCD 18/14 Q1012 NOSIG=
####018001703####
SAZZ40 KAWN 272100 RRP
METAR COR DAUO 272100Z /////KT 9999 FEW026CB BKN033 14/11 Q1014 RERA=
METAR FKKD 272100Z 00000KT 9999 SCT016 FEW020CB BKN120 26/25 Q1012
      NOSIG=
METAR KEGI 272055Z 01012KT 10SM FEW130 BKN200 BKN300 13/M01 A3027 RMK
      AO2A SLP254 CONTRAILS T01341010 57017 $=
METAR MKJP 272100Z 14022KT 9999 FEW024 30/23 Q1013=
METAR MNBL 272100Z 08006KT 9999 BKN017 29/24 Q1011=
METAR MNCH 272100Z 09006KT 9999 FEW025 33/22 Q1007=
METAR MNJG 272100Z 00000KT 9999 SCT020 27/16 Q1010=
METAR MNJU 272100Z 09006KT 9999 SCT020 SCT080 34/22 Q1011=
METAR MNPC 272100Z 09008KT 8000 BKN016 29/27 Q1011 HZ=
METAR MNRS 272100Z 05010KT CAVOK 31/22 Q1009=
METAR OLBA 272100Z 06003KT 020V100 CAVOK 18/11 Q1014=
METAR PASY 272056Z COR 33013KT 9SM -SN SCT030 OVC037 M03/M10 A3029
      RMK AO2 SNB17 SLP259 6//// T10281100 53024 $=
METAR TAPA 272100Z 08013KT 9999 BKN018 26/21 Q1017 NOSIG=
METAR TGPY 272100Z 09012KT 9999 FEW018 SCT034 28/23 Q1013 NOSIG=
METAR TTCP 272100Z 04010KT 9999 FEW016 BKN038 28/21 Q1014 NOSIG=
METAR TTPP 272100Z 08010KT 9999 FEW016 SCT036 26/23 Q1013 NOSIG=
METAR UACC 272100Z 23004MPS CAVOK M13/M14 Q1033 R22/0/0070 NOSIG RMK
      QFE743/0991=
METAR UATT 272100Z 11001MPS 1100 R13/1900 BR NSC M16/M17 Q1037 R13/0///60
      NOSIG RMK QFE757/1010=
METAR ZBHH 272100Z 20003MPS 4000 BR BKN030 M06/M06 Q1020 NOSIG=
METAR ZHHH 272100Z 03003MPS 360V060 5000 RA BR SCT010 FEW030TCU OVC040
      04/03 Q1023 RETS NOSIG=
METAR ZSNJ 272100Z 07007MPS 5000 -RA BR BKN005 OVC033 03/02 Q1024 NOSIG=
METAR ZUCK 272100Z 02004MPS 9999 -RA SCT020 OVC050 10/08 Q1017 NOSIG=
METAR ZWSH 272100Z 31003MPS 6000 SCT040 03/M02 Q1026 NOSIG=
####018000075####
SPUS81 KWBC 272107
SPECI
KATT 272104Z AUTO 02008KT 8SM 01/M04 A3033=
####018000768####
SACN70 CWAO 272100
PBO SA 2100 AUTO8 M M M 300/-13/-18/2305/M/     SOG 17 8027 00MM=
PGF NIL=
PGH NIL=
PLE SA 2100 AUTO8 M M M 197/-12/-16/3012+17/M/     PK WND 3218 2026Z 6001 60MM=
POY SA 2100 AUTO8 M M M 295/-10/-18/2608/M/     8021 86MM=
PQD SA 2100 AUTO8 M M M 220/-11/-18/2908/M/     SOG 21 7007 87MM=
PSU SA 2100 AUTO8 M M M 374/-11/-18/1906/M/     SOG 02 6020 76MM=
PTG SA 2100 AUTO8 M M M 305/-11/-16/2010/M/     SOG 02 8018 14MM=
PYQ NIL=
WEX SA 2100 AUTO8 M M M 317/-10/-16/2309/M/     SOG 07 7017 83MM=
WJD NIL=
WOO SA 2100 AUTO8 M M M M/-08/-20/2717+22/M/     PK WND 2627 2047Z M 37MM=
WSZ SA 2100 AUTO8 M M M 261/-09/-19/2210/M/     SOG 22 6013 37MM=
XMN NIL=
XWG SA 2100 AUTO8 M M M 294/-10/-16/2212/M/     7015 34MM=

####018003287####
SACN60 CWAO 272100
NTL SA 2100 AUTO8 M M M M/-05/-08/MMMM/M/     M 64MM=
PAC NIL=
PAF SA 2100 AUTO8 M M M M/-09/-15/MMMM/M/     M 59MM=
PAT NIL=
PAV SA 2100 AUTO8 M M M M/-08/-11/MMMM/M/     M 98MM=
PAZ NIL=
PBB SA 2100 AUTO8 M M M M/-10/-13/MMMM/M/     M 89MM=
PBC SA 2100 AUTO8 M M M M/-08/-12/MMMM/M/     M 89MM=
PBD NIL=
PBM SA 2100 AUTO8 M M M 230/-07/-12/0803/M/     SOG 12 0000 25MM=
PBN NIL=
PBU SA 2100 AUTO8 M M M M/-09/-13/3310/M/     M 96MM=
PCC NIL=
PCE SA 2100 AUTO8 M M M M/-10/-14/3414/M/     PK WND 3318 2059Z M 30MM=
PCH NIL=
PCI SA 2100 AUTO8 M M M 252/-08/-12/MMMM/M/     SOG 00 0000 04MM=
PCK NIL=
PCL NIL=
PCN SA 2100 AUTO8 M M M M/-10/-12/3312/M/     M 85MM=
PCS SA 2100 AUTO8 M M M M/-05/-13/MMMM/M/     M 38MM=
PCY NIL=
PDA NIL=
PDB NIL=
PDO SA 2100 AUTO8 M M M M/-05/-12/MMMM/M/     M 85MM=
PDU SA 2100 AUTO8 M M M M/-10/-16/MMMM/M/     M 17MM=
PEB NIL=
PEL NIL=
PET NIL=
PFA NIL=
PFB NIL=
PFE SA 2100 AUTO8 M M M M/-11/-14/MMMM/M/     M 09MM=
PFF SA 2100 AUTO8 M M M M/-08/-11/3013/M/     PK WND 3018 2032Z M 84MM=
PFM SA 2100 AUTO8 M M M M/-07/-11/3516/M/     PK WND 3522 2042Z M 86MM=
PGB SA 2100 AUTO8 M M M M/-12/-15/3510/M/     M 70MM=
PGC NIL=
PGI NIL=
PGT SA 2100 AUTO8 M M M M/-12/-15/MMMM/M/     M 01MM=
PHA NIL=
PHE NIL=
PHR NIL=
PHU NIL=
PHW SA 2100 AUTO8 M M M M/-09/-15/2206/M/     M 46MM=
PIA NIL=
PII SA 2100 AUTO8 M M M 250/-09/-18/3107/M/     SOG 10 8012 71MM=
PJT NIL=
PKA NIL=
PKG SA 2100 AUTO8 M M M M/-07/-12/MMMM/M/     M 61MM=
PKI NIL=
PKO SA 2100 AUTO8 M M M M/-08/-12/3416/M/     PK WND 3522 2032Z M 45MM=
PKR SA 2100 AUTO8 M M M M/-12/-16/3509/M/     M 86MM=
PKY SA 2100 AUTO8 M M M M/-11/-14/MMMM/M/     M 89MM=
PLA NIL=
PLC NIL=
PLF NIL=
PLG NIL=
PLY NIL=
PLZ SA 2100 AUTO8 M M M M/-10/-15/3212/M/     PK WND 3117 2021Z M 30MM=
PMA SA 2100 AUTO8 M M M M/-12/-16/MMMM/M/     M 43MM=
PMB NIL=
PML NIL=
PMN NIL=
PNS NIL=
PNU SA 2100 AUTO8 M M M M/-11/-13/3614/M/     PK WND 0017 2050Z M 53MM=
PNX SA 2100 AUTO8 M M M 273/-13/-16/3311/M/     SOG 12 0002 75MM=
PPL NIL=
PPN SA 2100 AUTO8 M M M M/-10/-13/3107/M/     M 61MM=
PPT SA 2100 AUTO8 M M M M/-08/-13/3415/M/     PK WND 3524 2023Z M 89MM=
PRD NIL=
PRF NIL=
PRH NIL=
PRS NIL=
PRW SA 2100 AUTO8 M M M M/-10/-14/MMMM/M/M M 94MM=
PSA NIL=
PSH NIL=
PSL NIL=
PSQ NIL=
PSR SA 2100 AUTO8 M M M M/-10/-13/3310/M/     M 93MM=
PSW NIL=
PTA NIL=
PTC NIL=
PTE SA 2100 AUTO8 M M M M/-09/-12/3412/M/     M 88MM=
PVI NIL=
PVR SA 2100 AUTO8 M M M M/-08/-12/3610/M/     PK WND 3317 2017Z M 79MM=
PWT NIL=
PXB SA 2100 AUTO8 M M M M/-09/-12/3011/M/     M 21MM=
PXC SA 2100 AUTO8 M M M M/-07/-11/3615/M/     PK WND 0024 2007Z M 12MM=
PXH SA 2100 AUTO8 M M M M/-10/-13/3415/M/     PK WND 3522 2044Z M 70MM=
PXS SA 2100 AUTO8 M M M M/-10/-13/3518/M/     PK WND 3524 2020Z M 00MM=
PXX SA 2100 AUTO8 M M M M/-08/-12/3510/M/     M 29MM=
PXZ NIL=
PYT NIL=
PZC NIL=
PZH NIL=
PZK SA 2100 AUTO8 M M M M/-11/-14/MMMM/M/     M 20MM=
PZL SA 2100 AUTO8 M M M M/-08/-12/3513/M/0035 PK WND 3519 2059Z M 06MM=
PZN SA 2100 AUTO8 M M M M/-11/-13/MMMM/M/     M 21MM=
PZW SA 2100 AUTO8 M M M M/-09/-11/MMMM/M/     M 64MM=

####018000128####
SACN40 CWAO 272100
METAR CYWH 272100Z 02006KT 340V050 10SM -RA FEW006 BKN025 OVC038
 08/05 A2982 RMK CF1SC4SC3 SLP097=

####018000966####
SACN98 CWAO 272100
XAF NIL=
XAG NIL=
XAJ NIL=
XBA NIL=
XBR NIL=
XBW NIL=
XCD NIL=
XCP SA 2100 AUTO8 M M M M/-08/-12/3517/M/     PK WND 3425 2012Z M 75MM=
XCS NIL=
XDK NIL=
XDP NIL=
XFR NIL=
XHR NIL=
XKI SA 2100 AUTO8 M M M 254/-08/-19/MMMM/M/     SOG 43 6001 37MM=
XKM NIL=
XLB SA 2100 AUTO8 M M M 245/-05/M/3010/M/M PK WND 3118 2016Z 1017 0MMM=
XOY NIL=
XPA NIL=
XPC NIL=
XRB NIL=
XRL SA 2100 AUTO8 M M M M/-12/-16/MMMM/M/     M 87MM=
XSE NIL=
XTD SA 2100 AUTO8 M M M 240/-10/-19/3107/M/     SOG 19 3016 69MM=
XTO NIL=
XVN NIL=
XWB NIL=
XWM NIL=
XYH NIL=
XZV SA 2100 AUTO8 M M M 180/-15/-26/2809/M/     PK WND 2618 2018Z SOG 41 3022 78MM=
ZKD SA 2100 AUTO8 M M M 165/-11/-18/3007/M/     SOG 57 3001 57MM=
ZLW NIL=
ZMJ SA 2100 AUTO8 M M M 254/-12/-19/3105/M/     SOG 10 6012 29MM=
ZPR NIL=
ZQZ NIL=
ZRP NIL=
ZTB SA 2100 AUTO8 M M M 280/-06/-20/2408/M/     6014 10MM=
ZZJ NIL=
ZZP NIL=

####018002316####
SACN50 CWAO 272100
VAS SA 2100 AUTO8 M M M M/04/-05/3510+19/M/0002 PCPN 0.2MM PAST HR PK WND 0121 2012Z M 29MM=
VBB SA 2100 AUTO8 M M M 101/11/06/3003/M/     1010 85MM=
VBR SA 2100 AUTO8 M M M 383/-09/-14/MMMM/M/     SOG 00 8011 24MM=
VCL SA 2100 AUTO8 M M M M/12/00/MMMM/M/     M 0-3MM=
VCW SA 2100 AUTO8 M M M 138/08/-11/1504/M/     SOG 21 8010 86MM=
VFS SA 2100 AUTO8 M M M 268/00/-10/3203/M/     SOG 34 0003 54MM=
VLY SA 2100 AUTO8 M M M 171/06/-05/3413+31/M/     PK WND 3131 2053Z 3013 90MM=
VME SA 2100 AUTO8 M M M M/05/-03/3310/M/M M 09MM=
VMO SA 2100 AUTO8 M M M M/M/M/MMMM/M/     M MMMM=
VNB SA 2100 AUTO8 M M M M/08/03/2814/M/M M 32MM=
VOC SA 2100 AUTO8 M M M 128/07/-05/MMMM/M/     0007 03MM=
VOD SA 2100 AUTO8 M M M 121/06/-08/3302/M/     0007 90MM=
VOI SA 2100 AUTO8 M M M 125/04/-06/3402/M/     1007 13MM=
VOM SA 2100 AUTO8 M M M 095/14/-01/1103/M/     0003 26MM=
VOO SA 2100 AUTO8 M M M 101/09/06/3302/M/     0010 59MM=
VOP SA 2100 AUTO8 M M M 108/08/M/MMMM/M/     SOG 00 1004 1MMM=
VOQ SA 2100 AUTO8 M M M 113/09/05/3308/M/     1003 89MM=
VOU SA 2100 AUTO8 M M M 102/09/05/3003/M/     SOG 00 1006 94MM=
VPE SA 2100 AUTO8 M M M 124/11/-01/0706+15/M/     1008 19MM=
VPX SA 2100 AUTO8 M M M 260/00/-11/3507/M/     2006 40MM=
VQZ SA 2100 AUTO8 M M M 236/01/-10/3212/M/     PK WND 3017 2047Z SOG 25 0000 69MM=
VRA SA 2100 AUTO8 M M M 152/05/M/MMMM/M/     SOG 37 8013 4MMM=
VSL NIL=
VTF SA 2100 AUTO8 M M M M/M/M/3412/M/M PK WND 3317 2021Z M MMMM=
VTS SA 2100 AUTO8 M M M 091/07/05/0104/M/0009 PCPN 0.2MM PAST HR 0006 92MM=
VVR SA 2100 AUTO8 M M M 102/09/06/2910/M/     1011 02MM=
VXC SA 2100 AUTO8 M M M 162/01/-08/0203/M/     SOG 01 8007 43MM=
VXS SA 2100 AUTO8 M M M 257/-02/-11/0110/M/     SOG 15 1007 62MM=
VYD SA 2100 AUTO8 M M M 268/00/-03/2202/M/0002 SOG 35 8002 -29MM=
VZP SA 2100 AUTO8 M M M 248/09/01/3407/M/     1010 33MM=
VZY SA 2100 AUTO8 M M M 277/-02/-10/3406/M/     SOG 42 8004 03MM=
WFG NIL=
WGP SA 2100 AUTO8 M M M 142/10/-05/MMMM/M/     SOG 00 1010 94MM=
WHC SA 2100 AUTO8 M M M M/09/05/MMMM/M/     M 74MM=
WPN SA 2100 AUTO8 M M M M/10/M/0103/M/M M 0MMM=
WPU SA 2100 AUTO8 M M M 234/-01/-09/2203/M/     SOG 33 0001 08MM=
ZKA SA 2100 AUTO8 M M M 163/06/-02/2819+26/M/     PK WND 2926 2052Z SOG 00 0000 57MM=

####018000229####
SACN86 CWAO 272100
WBE NIL=
WNL NIL=
WPO SA 2100 AUTO8 M M M 300/-13/-17/2112/M/     7020 68MM=
WPS NIL=
WSI NIL=
WWX NIL=
WWZ SA 2100 AUTO8 M M M 351/-09/-17/2407+15/M/     PK WND 2617 2050Z SOG 09 3007 83MM=

####018002360####
SACN41 CWAO 272100
METAR CBBC 272100Z AUTO 04010G16KT 010V070 9SM CLR 10/M08 A3012 RMK
 SLP200=
METAR CYBD 272100Z 06008G18KT 030V140 15SM SKC 08/M10 A3021 RMK TR CU
 TR TCU SLP231=
METAR CYCD 272100Z 00000KT 20SM FEW030 SCT090 BKN150 BKN230 10/05
 A2985 RMK SC1CC3AC2CI1 SLP109=
METAR CYCG 272100Z 35008KT 15SM VCSH FEW018 OVC050 03/M00 A2991 RMK
 SF1SC7 SLP144=
METAR CYDA 272100Z VRB02KT 20SM FEW040 SCT110 BKN180 M14/M16 A3048
 RMK SC1AC3CI2 SC TR SLP364=
METAR CYDL 272100Z AUTO 17013KT 9SM CLR M04/M11 A3036 RMK SLP326=
METAR CYGE 272100Z 31006KT 20SM FEW070 SCT150 BKN200 03/M12 A2997 RMK
 CU2AS1CS4 HALO SLP182=
METAR CYIN 272100Z AUTO 31014KT 9SM -SN OVC014 M05/M08 A3000 RMK
 SLP202=
METAR CYKA 272100Z 28020G29KT 40SM FEW025 FEW050 SCT075 BKN230 06/M02
 A2999 RMK CF1CU2AC2CI3 CF TR SLP168=
METAR CYLW 272100Z AUTO 34016KT 9SM OVC055 07/M04 A2991 RMK SLP141=
METAR CYMA 272100Z 11003KT 20SM FEW045 SCT090 M10/M12 A3040 RMK
 SC1AC3 SLP347=
METAR CYOC 272100Z 26016G24KT 20SM DRSN BKN015 BKN021 BKN030 M03/M06
 A3017 RMK SF5ST1SC2 ST TR CLIMAT -2.9/-4.0/TRCM/TRMWE/LAST STFD
 OBS/NEXT 28 1400 UTC SLP237=
METAR CYPW 272100Z 26005KT 50SM FEW013 FEW110 SCT230 08/06 A2986 RMK
 CF1AC2CI1 CF TR SLP113=
METAR CYQH 272100Z 29009KT 40SM FEW030 BKN085 BKN210 M06/M12 A3028
 RMK SC2AC3CS1 SLP311=
METAR CYQU 272100Z 24008KT 25SM FEW015 FEW230 M09/M13 A3026 RMK
 SC1CI1 SLP296=
METAR CYSD NIL=
METAR CYWL 272100Z 29008G16KT 270V330 15SM FEW010 FEW050 FEW120
 M03/M10 A3005 RMK CF1SC1AC1 CF TR SC TR AC TR SLP219=
METAR CYXJ 272100Z 25007KT 15SM SKC M06/M11 A3023 RMK SLP289=
METAR CYXT 272100Z 01008KT 20SM FEW055 05/M06 A3028 RMK CF1 CF TR
 SLP264=
METAR CYXY 272100Z 35002KT 40SM FEW220 M07/M13 A3043 RMK CI1 SLP365=
METAR CYYD 272100Z VRB02KT 25SM FEW040 00/M03 A3028 RMK SC1 SLP275=
METAR CYYE 272100Z 07002KT 30SM SCT210 M05/M10 A3024 RMK CI4 SLP273=
METAR CYYF 272100Z 05011G17KT 15SM FEW040 SCT060 BKN120 BKN210 07/M02
 A2990 RMK SC2SC2AC2CI1 SLP136=
METAR CYZW 272100Z 00000KT 40SM SKC M10/M14 A3041 RMK SLP357=
METAR CYZY 272100Z AUTO 35009KT 9SM CLR M02/M11 A3024 RMK SLP280=
METAR CZFA 272100Z 34004KT 330V030 30SM FEW070 SCT120 BKN220 M07/M12
 A3033 RMK AC2AC1CI2 ACSL SLP333=
METAR CZMT 272100Z 33008KT 15SM FEW210 09/01 A3030 RMK CI1 CI TR
 SLP261=

####018000744####
SACN49 CWAO 272100
METAR CYAY 272100Z AUTO 26006KT 9SM FEW070 M15/M19 A2982 RMK SLP102=
METAR CYCX 272100Z 23008KT 15SM SKC M08/M21 A3023 RMK DA-3071FT SLP240=
METAR CYDF NIL=
METAR CYDP 272100Z 29017KT 15SM FEW130 BKN220 M23/M31 A2976 RMK AC2CI1 SLP079=
METAR CYGW 272100Z AUTO 02003KT 330V040 9SM FEW021 SCT027 M23/M27
 A2993 RMK SLP137=
METAR CYHH 272100Z 24015G20KT 15SM DRSN SCT220 M14/M23 A2996 RMK CC0 LAST OBS/NEXT 021200 UTC SLP176=
METAR CYLU NIL=
METAR CYNC NIL=
METAR CYSJ 272100Z 24008KT 15SM FEW020 M09/M18 A3024 RMK SC1 SC TR
 SLP248=
METAR CYTQ 272100Z 23015KT 12SM FEW024 M28/M35 A2981 RMK SC1 SLP101=
METAR CYYG 272100Z 24005KT 15SM FEW025 FEW250 M11/M19 A3020 RMK
 CF1CI1 CF TR CI TR SLP230=

####018001891####
SACN47 CWAO 272100
METAR CYAM 272100Z 30007KT 15SM SKC M10/M18 A3041 RMK CU TR SLP317=
METAR CYFT 272100Z 27014KT 15SM BKN220 M21/M29 A2974 RMK CI3 LAST OB/NEXT 281000 UTC SLP082=
METAR CYGP 272100Z 28012G20KT 15SM DRSN BKN035 M12/M22 A3008 RMK CU5
 SLP190=
METAR CYGR 272100Z 27014KT 20SM FEW020 M14/M19 A3016 RMK SC1 SC TR
 SLP212=
METAR CYHD 272100Z AUTO 25014G21KT 9SM CLR M09/M22 A3020 RMK SLP271=
METAR CYHU 272100Z AUTO 25018KT 9SM CLR M10/M20 A3040 RMK SLP296=
METAR CYKO 272100Z 15003KT 15SM SKC M33/M36 A2986 RMK LAST OB NEXT / 021300 UTC REDUCED PROGRAM SLP116=
METAR CYMO 272100Z AUTO 26015G23KT 9SM CLR M07/M19 A3006 RMK SLP178=
METAR CYNA 272100Z AUTO 26022G33KT 1/2SM SN BLSN OVC020 M15/M17 A2997
 RMK SLP148=
METAR CYND 272100Z 25006KT 15SM SKC M09/M21 A3040 RMK SLP301=
METAR CYPQ 272100Z AUTO 29014G19KT 9SM CLR M11/M18 A3046 RMK SLP335=
METAR CYQT 272100Z 25011KT 20SM FEW250 M07/M21 A3031 RMK CI2 SLP282=
METAR CYRJ 272100Z 28011G18KT 40SM FEW025 M10/M22 A3015 RMK SC1 SC TR
 SLP229=
METAR CYRL 272100Z 24015G22KT 15SM DRSN FEW170 OVC200 M08/M20 A3013
 RMK AC2CS6 SLP242=
METAR CYTL 272100Z AUTO 29014KT 9SM BKN050 OVC080 M10/M17 A2994 RMK
 SLP160=
METAR CYTS 272100Z 26011G18KT 200V280 15SM SCT140 BKN240 M07/M19
 A3018 RMK AC4CI2 SLP248=
METAR CYTZ 272100Z AUTO 25014KT 9SM CLR M09/M18 A3054 RMK SLP347=
METAR CYVP 272100Z 26010KT 15SM IC FEW007 FEW026 FEW240 M27/M33 A2984
 RMK SF1SC2CI1 SF TR CI TR SLP110=
METAR CYVV 272100Z 25009G15KT 8SM -SN OVC022 M12/M17 A3048 RMK SC8
 SLP343=
METAR CYWA 272100Z AUTO 29006KT 210V320 9SM CLR M07/M22 A3036 RMK SLP295=
METAR CYXR 272100Z AUTO 21011KT 9SM CLR M09/M17 A3025 RMK SLP267=
METAR CYYY 272100Z 25018G25KT 30SM DRSN SCT030 M12/M20 A3016 RMK SC3
 SLP217=
METAR CYZE NIL=
METAR CYZR 272100Z AUTO 04003KT 360V070 9SM CLR M10/M20 A3055 RMK
 SLP361=

####018000110####
SACN91 CWAO 272000 RRF
WGR SA 2000 AUTO8 M M M 205/-13/-17/2616+22/M/     PK WND 2722 1955Z 1021 39MM=

####018000221####
SACN54 CWAO 272100
VXY SA 2100 AUTO8 M M M 359/-07/-12/0303/M/     SOG 33 8008 65MM=
WUM SA 2100 AUTO8 M M M 330/-07/-12/3404/M/     8006 42MM=
XQH SA 2100 AUTO8 M M M 313/-06/-12/3008/M/     SOG 37 8014 89MM=

####018002183####
SACN43 CWAO 272100
METAR CWHN 272100Z AUTO 30004KT 250V340 9SM FEW026 M10/M17 A3012 RMK SLP256=
METAR CWLO NIL=
METAR CYAB 272100Z 31007KT 1SM -SN BR BKN020 OVC070 M31/M35 A2945 RMK
 FG3SC2AS3 -30.6/-34.9/0.6/12 TRACE LOOSE LAST STFD OBS/NXT 281800Z
 SLP977=
METAR CYBK 272100Z 20007KT 6SM -SN FEW015 BKN050 M21/M24 A2969 RMK
 SC2SC5 SLP057=
METAR CYBQ 272100Z AUTO 32007G15KT 280V360 9SM OVC025 M12/M17 A2992
 RMK SLP161=
METAR CYBR 272100Z 22005KT 15SM OVC240 M13/M18 A3024 RMK CI8 SLP285=
METAR CYBU 272100Z AUTO 20006KT 9SM OVC060 M15/M20 A3014 RMK SLP250=
METAR CYDN 272100Z AUTO 29012KT 9SM CLR M09/M16 A3018 RMK SLP250=
METAR CYEN 272100Z 19006KT 15SM BKN230 M09/M17 A3012 RMK CI7 SLP256=
METAR CYET 272100Z AUTO 33008KT 9SM SCT029 M08/M14 A3016 RMK SLP272=
METAR CYGX 272100Z 29010G15KT 15SM OVC013 M13/M18 A2997 RMK SC8
 SLP163=
METAR CYKJ 272100Z AUTO 27008KT 240V300 9SM OVC009 M14/M17 A3008 RMK
 SLP235=
METAR CYLL 272100Z 33008KT 5SM -SN OVC023 M13/M16 A3013 RMK SC8
 SLP267=
METAR CYMM 272100Z AUTO 05003KT 350V090 9SM OVC021 M12/M15 A3022 RMK
 SLP267=
METAR CYNE 272100Z AUTO 29007KT 210V320 9SM CLR M11/M18 A3006 RMK
 SLP203=
METAR CYOJ NIL=
METAR CYPA 272100Z 34004KT 15SM OVC053 M14/M20 A3014 RMK SC8 SLP252=
METAR CYPG 272100Z 21009KT 15SM FEW180 BKN220 M09/M18 A3029 RMK AC2CI2 SLP285=
METAR CYPY 272100Z AUTO 26011KT 9SM CLR M11/M15 A3019 RMK SLP246=
METAR CYQF 272100Z 35008KT 6SM IC DRSN FEW016 OVC080 M09/M13 A3013
 RMK CU1AC7 SLP269=
METAR CYQL 272100Z 32012G19KT 10SM -SN OVC022 M06/M11 A3009 RMK SC8
 SLP251=
METAR CYQR 272100Z 13009KT 15SM OVC250 M16/M20 A3010 RMK CI8 SLP254=
METAR CYQW 272100Z AUTO 31005KT 9SM OVC041 M17/M21 A3016 RMK SLP273=
METAR CYVC 272100Z 27010KT 15SM FEW250 M10/M17 A3014 RMK CI1 SLP243=
METAR CYXD 272100Z AUTO 31011KT 8SM OVC020 M10/M14 A3020 RMK SLP276=
METAR CYYL 272100Z AUTO 31011G17KT 9SM OVC030 M12/M16 A3001 RMK
 SLP198=
METAR CYYN 272100Z AUTO 35010KT 9SM CLR M12/M17 A3002 RMK SLP228=
METAR CYZH 272100Z AUTO 32009KT 9SM SCT150 M10/M13 A3023 RMK SLP280=
METAR CZVL 272100Z AUTO 33010KT 9SM -SN OVC022 M09/M13 A3019 RMK
 SLP273=

####018001670####
SACN48 CWAO 272100
METAR CYAD 272100Z 24005KT 4SM -SHSN OVC020 M18/M24 A2986 RMK SC8 LAST OBS/NEXT 021200UTC SLP146=
METAR CYAH 272100Z AUTO 26007KT 4SM HZ BKN021 BKN026 OVC036 M22/M27
 A2986 RMK SLP153=
METAR CYAS 272100Z 27012KT 15SM BKN080 M33/M39 A2967 RMK AS2 SLP072=
METAR CYBX 272100Z 25005KT 15SM FEW150 M16/M19 A2981 RMK AC2 SLP097=
METAR CYGV 272100Z AUTO 27016KT 9SM FEW022 BKN026 M16/M20 A2999 RMK
 PRESRR SLP159=
METAR CYHA 272100Z 30013G18KT 3SM IC DRSN FEW012 FEW080 BKN150 OVC250 M23/M26 A2966 RMK SF1AS1AC0CI0 SLP048=
METAR CYIK 272100Z 20009KT 15SM FEW220 M29/M32 A2981 RMK CI1 SLP102=
METAR CYKG NIL=
METAR CYKQ NIL=
METAR CYLA 272100Z 25009KT 15SM SKC M30/M36 A2976 RMK SLP085=
METAR CYMH 272100Z AUTO 23008KT 9SM CLR M13/M20 A2978 RMK SLP085=
METAR CYML NIL=
METAR CYMT 272100Z 24012G17KT 15SM FEW075 M13/M21 A3003 RMK AS1
 SLP209=
METAR CYMU 272100Z 18006KT 15SM FEW006 FEW270 M27/M31 A2992 RMK SF1CI0 SLP144=
METAR CYNM 272100Z AUTO 24012G18KT 210V270 9SM CLR M10/M18 A3008 RMK
 SLP215=
METAR CYOY 272100Z AUTO 22012G18KT 190V250 9SM CLR M12/M22 A3025 RMK SLP266=
METAR CYPH 272100Z AUTO 22004KT 9SM CLR M29/M32 A2990 RMK SLP128=
METAR CYPX 272100Z AUTO 18006KT 9SM CLR M32/M36 A2987 RMK SLP119=
METAR CYQI 272100Z 30011KT 15SM FEW030 FEW250 M08/M14 A3031 RMK
 SC1CI1 SC TR SLP267=
METAR CYSK 272100Z 18004KT 15SM SKC M28/M31 A2992 RMK SLP137=
METAR CYUY 272100Z 23012G18KT 15SM FEW230 M10/M19 A3021 RMK CI1 CI TR
 SLP263=
METAR CYWK 272100Z 24012G18KT 4SM IC DRSN OVC026 M24/M28 A2973 RMK
 SC8 SLP142=
METAR CYZG 272100Z 25002KT 15SM FEW020 FEW200 M29/M32 A2968 RMK SC1CI0 SLP090=

####018000435####
SACN58 CWAO 272100
ERU SA 2100 AUTO8 M M M 248/-08/-15/2603/M/     SOG 75 2014 27MM=
EWS NIL=
STH NIL=
WDH SA 2100 AUTO5 23 SCT 28 SCT 3.0 M 125/-12/-18/2419G27/029/     PK WND 2429 3023 772M=
WLT NIL=
WZB SA 2100 AUTO5 M0 BKN 7 OVC 23 OVC 33 OVC 0.2 S- 191/-11/-13/2725G34/M/     PK WND 2734 1023 18XM=
XWT RS 2100 AUTO5 M 6.  S- 137/-05/-10/2722G28/029/     PK WND 2728 1030 44MM=
ZHD NIL=
ZQA NIL=
ZXR NIL=

####018001398####
SACN91 CWAO 272100
WGR SA 2100 AUTO8 M M M 213/-14/-18/2613/M/     PK WND 2721 2004Z 2022 11MM=
WGT SA 2100 AUTO8 M M M 105/09/04/3316/M/M PK WND 3319 2051Z 0002 73MM=
WGW SA 2100 AUTO8 M M M 195/-02/-12/1506/M/M SOG 02 8005 13MM=
WGX SA 2100 AUTO8 M M M 163/-13/-17/2810/M/     3007 22MM=
WGY SA 2100 AUTO8 M M M 254/-10/-14/3111/M/     0000 68MM=
WHD NIL=
WHI NIL=
WHL SA 2100 AUTO8 M M M 233/08/-02/3309/M/     0009 55MM=
WHM SA 2100 AUTO8 M M M M/-10/-19/2518/M/M PK WND 2321 2018Z M 01MM=
WHQ SA 2100 AUTO8 M M M M/-11/-20/2505/M/     M 65MM=
WHT SA 2100 AUTO8 M M M 362/-06/-15/2202/M/     SOG 23 8010 88MM=
WHV SA 2100 AUTO8 M M M 267/-12/-23/2505/M/     3013 77MM=
WID NIL=
WIG SA 2100 AUTO8 M M M M/M/M/2120+26/M/M PK WND 2129 2004Z M MMMM=
WII SA 2100 AUTO8 M M M M/-13/-18/2117/M/M PK WND 2122 2034Z M 70MM=
WIJ NIL=
WIN NIL=
WIO NIL=
WIP SA 2100 AUTO8 M M M M/-14/M/2709/M/M M 1MMM=
WIS SA 2100 AUTO8 M M M 226/-15/-21/2406/M/     SOG 107 3014 89MM=
WIT SA 2100 AUTO8 M M M 296/-09/-21/2808/M/     PK WND 2917 2020Z 3005 43MM=
WIW SA 2100 AUTO8 M M M 257/-18/-21/1604/M/     SOG 02 7012 90MM=
WIX NIL=
WIY NIL=
WIZ SA 2100 AUTO8 M M M M/-10/-20/2508+15/M/     M 19MM=
WJB SA 2100 AUTO8 M M M M/-11/-20/2510+16/M/     PK WND 2522 2029Z SOG 43 M 09MM=
WJC NIL=
WJH SA 2100 AUTO8 M M M 220/-10/-16/2805/M/     SOG 42 8006 77MM=

####018001909####
SACN78 CWAO 272100
OTL SA 2100 AUTO8 M M M 166/-10/-18/2913+18/M/     PK WND 2918 2056Z SOG 33 3001 85MM=
TAE NIL=
TAG NIL=
TAL NIL=
TBF SA 2100 AUTO8 M M M 354/-12/-20/2615/M/     PK WND 2619 2015Z SOG 08 3007 04MM=
TBO SA 2100 AUTO8 M M M 313/-11/-20/2211+16/M/     PK WND 2217 2041Z 3007 59MM=
TBT NIL=
TCK NIL=
TCW NIL=
TGT SA 2100 AUTO8 M M M M/-13/-20/2810+15/M/M M 99MM=
TKG SA 2100 AUTO8 M M M 324/-10/-18/2210/M/     3005 03MM=
TKR SA 2100 AUTO8 M M M 275/-11/-20/2009/M/     SOG 31 8013 05MM=
TLS SA 2100 AUTO8 M M M 319/-12/-13/3504/M/     SOG 122 3001 04MM=
TMS SA 2100 AUTO8 M M M 250/-08/-19/2411+17/M/     PK WND 2218 2026Z SOG 53 5005 67MM=
TNK NIL=
TPM SA 2100 AUTO8 M M M 294/-08/-22/3007/M/     5000 92MM=
TPQ NIL=
TRA SA 2100 AUTO8 M M M 291/-09/-23/2606/M/     6014 16MM=
TRY SA 2100 AUTO8 M M M 329/-13/-19/2511/M/     PK WND 2417 2017Z SOG 18 3008 14MM=
TSB SA 2100 AUTO8 M M M 305/-11/-17/1915/M/     PK WND 1920 2053Z SOG 33 5000 33MM=
TTR SA 2100 AUTO8 M M M 334/-12/-16/2509+17/M/     PK WND 2517 2057Z SOG 21 3004 70MM=
TUX SA 2100 AUTO8 M M M 336/-11/-18/2807/M/     SOG 06 3007 21MM=
TWL SA 2100 AUTO8 M M M 355/-11/-20/2608/M/     3007 81MM=
TWN NIL=
TXR SA 2100 AUTO8 M M M 266/-09/-18/2211/M/     SOG 16 5004 50MM=
TZE SA 2100 AUTO8 M M M 317/-11/-16/2515/M/     PK WND 2520 2051Z SOG 34 5001 75MM=
TZR NIL=
WAJ NIL=
WBE SA 2100 AUTO8 M M M 322/-11/-18/2913/M/M PK WND 2819 2015Z 5001 80MM=
WKK NIL=
WLS SA 2100 AUTO8 M M M 346/-14/-18/2607/M/     SOG 25 3009 70MM=
WNB NIL=
WNL NIL=
WPC SA 2100 AUTO8 M M M 354/-12/-16/2523/M/M PK WND 2625 2055Z 2005 14MM=
WPS NIL=
WWX NIL=
XBI SA 2100 AUTO8 M M M 340/-12/-16/2911/M/     3007 65MM=
XRG SA 2100 AUTO8 M M M 379/-11/-16/2308/M/     3003 35MM=
XZC NIL=
YLH NIL=
ZEL SA 2100 AUTO8 M M M 351/-14/-19/2513/M/     PK WND 2617 2033Z 3009 42MM=

####018001098####
SACN59 CWAO 272100
NLB NIL=
NLD NIL=
NNR NIL=
NPK NIL=
NTK NIL=
PAA NIL=
PAH NIL=
PBA NIL=
PBE SA 2100 AUTO8 M M M M/-08/-12/3414/M/     PK WND 3422 2013Z M 27MM=
PBH NIL=
PBL NIL=
PBR NIL=
PBS NIL=
PBT NIL=
PBV NIL=
PCA NIL=
PCM NIL=
PCR NIL=
PEA NIL=
PEH NIL=
PFI NIL=
PFO NIL=
PGE NIL=
PGL NIL=
PIR NIL=
PMR NIL=
PQL NIL=
PQU NIL=
PRA NIL=
PRL SA 2100 AUTO8 M M M M/-11/-14/MMMM/M/     M 92MM=
PRO NIL=
PRR NIL=
PRY NIL=
PSD NIL=
PSP NIL=
PST SA 2100 AUTO8 M M M M/-08/-12/3615/M/     PK WND 3520 2031Z M 08MM=
PSV SA 2100 AUTO8 M M M M/-09/-12/3412/M/     M 68MM=
PTH NIL=
PTR NIL=
PTU NIL=
PVA NIL=
PWB NIL=
PXL SA 2100 AUTO8 M M M M/-08/-11/3307/M/     M 38MM=
WCT SA 2100 AUTO8 M M M 258/-12/-16/3413/M/     PK WND 3317 2001Z SOG 07 1004 88MM=
WLB NIL=
XAK NIL=
XDB NIL=
XFM NIL=
XHD NIL=
XHP NIL=
XMG NIL=
XMO NIL=
XOL NIL=
XPL NIL=
XSC NIL=
XSL SA 2100 AUTO8 M M M M/-11/-15/3107/M/     M 64MM=
XSP NIL=
XTH NIL=
XVM NIL=
XVW NIL=
ZMU NIL=
ZOL NIL=
ZPS NIL=

####018000440####
SACN87 CWAO 272100
WEK NIL=
WEQ SA 2100 AUTO8 M M M 243/-13/-20/2311+16/M/     PK WND 2318 2041Z 6016 40MM=
WJD SA 2100 AUTO8 M M M 222/-10/-20/2810+18/M/     PK WND 2820 2023Z SOG 45 7011 62MM=
WLP SA 2100 AUTO8 M M M 137/09/06/2702/M/     0008 29MM=
WPU NIL=
WRO SA 2100 AUTO8 M M M 248/09/02/3616/M/M PK WND 0023 2025Z 1008 29MM=
WWL NIL=
WWS NIL=
WZG SA 2100 AUTO8 M M M 205/-05/-14/0606/M/     SOG 01 8005 15MM=

####018001680####
SACN89 CWAO 272100
WAF SA 2100 AUTO8 M M M M/-09/-19/MMMM/M/M M 61MM=
WAG SA 2100 AUTO8 M M M 101/-09/-11/MM01/M/0012 PCPN 1.2MM PAST HR 3010 11MM=
WAQ SA 2100 AUTO8 M M M 205/-06/-15/1707/M/     SOG 00 6022 63MM=
WAS SA 2100 AUTO8 M M M 085/13/-04/0625+31/M/     PK WND 0634 2044Z 3002 00MM=
WAV SA 2100 AUTO8 M M M 244/-08/-12/0109/M/     SOG 10 8004 76MM=
WAY NIL=
WBA SA 2100 AUTO8 M M M M/-09/-20/2108/M/     SOG 57 M 32MM=
WBG NIL=
WBJ NIL=
WBM SA 2100 AUTO8 M M M 279/-09/-16/1904/M/     SOG 10 8013 81MM=
WBO NIL=
WBS SA 2100 AUTO8 M M M M/-10/-19/1916/M/M PK WND 1923 2027Z M 26MM=
WBT SA 2100 AUTO8 M M M 166/-15/-20/2708/M/     PK WND 2522 2003Z 2016 66MM=
WBY SA 2100 AUTO8 M M M 172/-15/-19/2719+29/M/     PK WND 2832 2035Z SOG 13 3012 64MM=
WBZ SA 2100 AUTO8 M M M 309/-10/-20/2510/M/     3004 73MM=
WCF NIL=
WCG NIL=
WCH SA 2100 AUTO8 M M M 296/-09/-23/2707+15/M/     SOG 43 6015 84MM=
WCI NIL=
WCJ SA 2100 AUTO8 M M M 283/-10/-16/2409+15/M/     SOG 64 5005 69MM=
WCO NIL=
WCQ NIL=
WDB NIL=
WDD NIL=
WDE NIL=
WDF NIL=
WDI SA 2100 AUTO8 M M M 137/-08/-15/2609/M/     PK WND 2318 2033Z SOG 28 3025 57MM=
WDJ NIL=
WDK SA 2100 AUTO8 M M M 249/-06/-12/0110+15/M/     SOG 02 0002 37MM=
WDN NIL=
WDP NIL=
WDQ SA 2100 AUTO8 M M M 258/-09/-22/2207+15/M/     SOG 38 3004 45MM=
WDR SA 2100 AUTO8 M M M 090/09/05/0412/M/M PK WND 0120 2000Z 1005 76MM=
WDT NIL=
WDU SA 2100 AUTO8 M M M M/-08/-11/0310/M/     M 81MM=
WDV SA 2100 AUTO8 M M M 278/-10/-23/2609/M/     SOG 57 6011 56MM=
WDW SA 2100 AUTO8 M M M M/M/M/MMMM/M/0006 SOG 17 3005 MMMM=
WDZ SA 2100 AUTO8 M M M 251/-07/-12/3509/M/M 8002 61MM=

####018001322####
SACN90 CWAO 272100
WEA SA 2100 AUTO8 M M M 280/-10/-20/2407/M/     SOG 05 7011 29MM=
WEB SA 2100 AUTO8 M M M 101/12/09/3009/M/     SOG 00 0002 01MM=
WEC SA 2100 AUTO8 M M M 271/-06/-22/2807/M/M 6016 18MM=
WEE NIL=
WEF NIL=
WEI SA 2100 AUTO8 M M M 287/-15/-19/1809/M/     8025 92MM=
WEL SA 2100 AUTO8 M M M 105/08/05/3317/M/     PK WND 3224 2013Z 1005 07MM=
WEO NIL=
WEP NIL=
WER SA 2100 AUTO8 M M M M/M/M/2419+24/M/M PK WND 2327 2003Z M MMMM=
WEW SA 2100 AUTO8 M M M 301/-11/-21/2311+17/M/     PK WND 2318 2000Z SOG 19 3004 78MM=
WEZ NIL=
WFE SA 2100 AUTO8 M M M M/-08/-14/3205/M/     SOG 25 M 48MM=
WFF NIL=
WFJ SA 2100 AUTO8 M M M M/-08/-10/3308/M/     M 31MM=
WFO SA 2100 AUTO8 M M M 219/-08/-16/2907/M/M SOG 45 8010 24MM=
WFP SA 2100 AUTO8 M M M 073/-23/-31/2815+23/M/     PK WND 2924 2006Z SOG 36 3014 68MM=
WFQ SA 2100 AUTO8 M M M 292/-12/-22/3505/M/     SOG 45 3004 72MM=
WFW SA 2100 AUTO8 M M M 198/-12/-24/2913+19/M/     PK WND 2926 2013Z 3019 55MM=
WFX NIL=
WFZ NIL=
WGB SA 2100 AUTO8 M M M 104/08/05/2715/M/     PK WND 2818 2003Z 1004 09MM=
WGD NIL=
WGF SA 2100 AUTO8 M M M M/-11/M/2403/M/M M 9MMM=
WGH NIL=
WGL SA 2100 AUTO8 M M M 329/-12/-18/2912/M/M PK WND 2917 2018Z 3008 76MM=
WGM NIL=
WGN SA 2100 AUTO8 M M M 299/-10/-18/2412/M/     8015 38MM=

####018000573####
SACN74 CWAO 272100
NBB NIL=
NBI NIL=
NCD SA 2100 AUTO8 M M M 070/-28/-31/3007/M/     1009 22MM=
NCO NIL=
NDT SA 2100 AUTO8 M M M 014/-35/-39/1905/M/     8006 22MM=
NEK SA 2100 AUTO8 M M M 029/-45/-49/1202/M/M 3004 84MM=
NFR NIL=
NGC NIL=
NGH NIL=
NPL NIL=
NSG SA 2100 AUTO8 M M M 031/-36/-40/1906/M/     SOG 21 3005 42MM=
NZS NIL=
WIC NIL=
XBL NIL=
XCM NIL=
XFB NIL=
XUX SA 2100 AUTO8 M M M 014/-33/-36/2006/M/     SOG 09 8015 02MM=
ZCY NIL=
ZHK NIL=
ZLT SA 2100 AUTO8 M M M 044/-37/-41/2908/M/     SOG 16 6005 88MM=
ZVM NIL=

####018003055####
SACN88 CWAO 272100
AAW NIL=
ABB SA 2100 AUTO8 M M M M/-05/-14/2912/M/M M 21MM=
ABF SA 2100 AUTO8 M M M 174/-09/-15/3018+25/M/     PK WND 2927 2046Z SOG 49 1033 08MM=
ABR SA 2100 AUTO8 M M M M/-06/-18/3005/M/     SOG 17 1018 80MM=
ABT SA 2100 AUTO8 M M M 223/-09/-19/2508+15/M/     PK WND 2518 2028Z 3012 36MM=
ACM SA 2100 AUTO8 M M M 145/-12/-13/2507/M/0002 PCPN 0.2MM PAST HR PK WND 2617 2011Z SOG 77 3030 84MM=
ACP SA 2100 AUTO8 M M M 268/-06/-11/2815/M/     PK WND 2820 2012Z SOG 06 3016 98MM=
ACQ NIL=
ADN SA 2100 AUTO8 M M M 223/-09/-22/2510+15/M/     PK WND 2217 2019Z SOG 102 3015 90MM=
ADS NIL=
AEI SA 2100 AUTO8 M M M 222/-09/-18/2507/M/     SOG 26 3025 56MM=
AFC NIL=
AFY SA 2100 AUTO8 M M M M/-09/-17/2702/M/     SOG 71 M 32MM=
AGL SA 2100 AUTO8 M M M 215/-09/-17/3304/M/     SOG 25 3016 71MM=
AHD SA 2100 AUTO8 M M M M/-05/-15/2808/M/M M 14MM=
AHK SA 2100 AUTO8 M M M 226/-06/-18/2811+17/M/M PK WND 2819 2015Z 3015 84MM=
AHR SA 2100 AUTO8 M M M 224/-12/-19/2508/M/M 3012 69MM=
AHW SA 2100 AUTO8 M M M M/-06/-18/2908/M/M SOG 27 M 11MM=
AJT NIL=
AJW SA 2100 AUTO8 M M M 125/-05/-09/2607/M/     1020 69MM=
AKC SA 2100 AUTO8 M M M M/-08/-19/MMMM/M/     SOG 139 M 28MM=
AMR SA 2100 AUTO8 M M M 148/-10/-14/3003/M/     SOG 62 3031 32MM=
AMS NIL=
ANH SA 2100 AUTO8 M M M M/-11/-19/2404/M/     SOG 87 M 57MM=
AOH SA 2100 AUTO8 M M M 230/-07/-16/2608/M/     SOG 43 3017 55MM=
AOS SA 2100 AUTO8 M M M M/-06/-16/3010/M/M M 60MM=
APR SA 2100 AUTO8 M M M 241/-09/-16/2606/M/     3014 99MM=
AQY SA 2100 AUTO8 M M M 218/-09/-17/2910/M/     PK WND 2920 2033Z 3029 36MM=
ARP SA 2100 AUTO8 M M M 222/-11/-20/2607/M/     SOG 101 3020 75MM=
AVA SA 2100 AUTO8 M M M 118/-04/-11/25MM/M/     1014 26MM=
AWR SA 2100 AUTO8 M M M 196/-11/-15/2719+24/M/     PK WND 2725 2023Z 1024 98MM=
EQI SA 2100 AUTO8 M M M 262/-07/-15/2908/M/     2016 28MM=
ERM SA 2100 AUTO8 M M M 229/-09/-23/2708+15/M/     SOG 46 3016 43MM=
EWD SA 2100 AUTO8 M M M 254/-08/-23/2510/M/     PK WND 2517 2040Z SOG 48 3013 84MM=
WAR NIL=
WBK SA 2100 AUTO8 M M M 230/-12/-17/3105/M/     SOG 75 3013 53MM=
WBV SA 2100 AUTO8 M M M 231/-06/-14/3113/M/M PK WND 3318 2008Z 3019 63MM=
WDA NIL=
WDO NIL=
WHO SA 2100 AUTO8 M M M 090/-21/-28/2713/M/0007 PK WND 2523 2036Z 3018 80MM=
WNS SA 2100 AUTO8 M M M 237/-12/-17/3002/M/     SOG 62 3023 49MM=
WRN SA 2100 AUTO8 M M M M/-07/M/2909/M/M PK WND 3117 2035Z M 0MMM=
WSS SA 2100 AUTO8 M M M 244/-06/-20/2608/M/     SOG 71 3008 16MM=
WXI SA 2100 AUTO8 M M M 095/-12/-14/2906/M/     SOG 51 3001 18MM=
WZF NIL=
WZN NIL=
WZU SA 2100 AUTO8 M M M M/-05/-13/2913/M/M M 62MM=
XGD SA 2100 AUTO8 M M M 121/-06/-13/2708/M/     3020 81MM=
XKT SA 2100 AUTO8 M M M 241/-09/-17/2207/M/     PK WND 2417 2000Z SOG 83 1015 90MM=
XNP SA 2100 AUTO8 M M M 237/-10/-15/2314/M/     PK WND 2320 2018Z 3013 62MM=
ZCR SA 2100 AUTO8 M M M 211/-10/-22/2612+20/M/     PK WND 2823 2009Z SOG 36 2016 37MM=
ZDB NIL=
ZSP SA 2100 AUTO8 M M M 234/-12/-20/2508/M/     SOG 69 3015 68MM=

####018001453####
SACN93 CWAO 272100
WMU NIL=
WMX SA 2100 AUTO8 M M M M/-10/-15/1805/M/     SOG 40 M 53MM=
WMY NIL=
WMZ NIL=
WNC NIL=
WND NIL=
WNE SA 2100 AUTO8 M M M 213/-13/-17/2209/M/     3009 89MM=
WNH SA 2100 AUTO8 M M M 234/-12/-19/2007/M/     PK WND 1818 2048Z SOG 32 3013 81MM=
WNK SA 2100 AUTO8 M M M M/-09/-17/2310/M/     M 47MM=
WNM SA 2100 AUTO8 M M M 136/06/-04/0807/M/     8003 75MM=
WNP SA 2100 AUTO8 M M M 148/04/00/2302/M/     SOG 01 8006 3-1MM=
WNQ SA 2100 AUTO8 M M M 274/-11/-19/2115+20/M/     PK WND 2020 2027Z 5001 81MM=
WNR NIL=
WNT NIL=
WNV NIL=
WNX NIL=
WNZ NIL=
WOC SA 2100 AUTO8 M M M 205/-11/-20/2814+21/M/     PK WND 2823 2019Z 3012 33MM=
WOD SA 2100 AUTO8 M M M 211/-11/-20/2613+18/M/     PK WND 2518 2058Z SOG 06 3004 83MM=
WOE NIL=
WOI NIL=
WOJ SA 2100 AUTO8 M M M 277/-12/-17/2216/M/     PK WND 2319 2029Z SOG 14 8015 36MM=
WOK SA 2100 AUTO8 M M M 252/-15/-21/2904/M/     SOG 32 7007 52MM=
WON SA 2100 AUTO8 M M M 364/-13/-16/1402/M/     SOG 41 8009 35MM=
WOQ NIL=
WOV NIL=
WOW NIL=
WPA NIL=
WPD SA 2100 AUTO8 M M M 266/-16/-21/2109+16/M/     3015 52MM=
WPE SA 2100 AUTO8 M M M 251/-06/-16/2606/M/     SOG 34 3008 30MM=
WPF NIL=
WPG SA 2100 AUTO8 M M M 280/-09/-18/2207/M/     SOG 07 7017 39MM=
WPL NIL=
WPR SA 2100 AUTO8 M M M 133/04/-04/3412/M/     PK WND 3317 2050Z SOG 14 0004 28MM=
WPZ SA 2100 AUTO8 M M M 264/01/-12/0404/M/     SOG 63 8001 18MM=
WQA NIL=

####018001466####
SACN82 CWAO 272100
EUQ NIL=
GAH SA 2100 AUTO8 M M M 154/-22/-27/2407/M/     SOG 55 3016 91MM=
GBC SA 2100 AUTO8 M M M 209/-12/-23/2612+18/M/     PK WND 2622 2027Z SOG 22 3019 94MM=
GKL NIL=
GMG SA 2100 AUTO8 M M M 219/-10/-15/2511+17/M/     PK WND 2322 2009Z 5002 54MM=
GRQ SA 2100 AUTO8 M M M 277/-11/-18/2014+19/M/     PK WND 1921 2000Z SOG 45 3001 09MM=
GVO SA 2100 AUTO8 M M M 267/-10/-19/2308+15/M/     SOG 40 3002 11MM=
MAN NIL=
MBR NIL=
MCT NIL=
MCW NIL=
MFM SA 2100 AUTO8 M M M 238/-14/-21/2707/M/0004 PCPN 0.2MM PAST HR PK WND 2718 2042Z SOG 70 3014 86MM=
MFX NIL=
MGB SA 2100 AUTO8 M M M 300/-11/-22/2508/M/M SOG 43 3003 11MM=
MHB NIL=
MHN NIL=
MHW NIL=
MIN NIL=
MJK NIL=
MLA NIL=
MLI NIL=
MLT NIL=
MLU SA 2100 AUTO8 M M M 290/-11/-20/2112/M/     PK WND 2121 2011Z 3003 42MM=
MMY NIL=
MNT SA 2100 AUTO8 M M M 142/-15/-16/2422+30/M/     PK WND 2232 2011Z SOG 03 2017 82MM=
MPD NIL=
MPL NIL=
MQK NIL=
MQL NIL=
MQP NIL=
MQQ NIL=
MQU NIL=
MQV NIL=
MRF NIL=
MRI NIL=
MRU NIL=
MRY NIL=
MSB NIL=
MSC NIL=
MSI SA 2100 AUTO8 M M M 302/-12/-20/2112/M/     PK WND 2318 2017Z SOG 34 3002 15MM=
MSR NIL=
MSX NIL=
MTH SA 2100 AUTO8 M M M 270/-14/-24/2310/M/     3011 71MM=
MUS SA 2100 AUTO8 M M M 233/-12/-23/2709/M/M PK WND 2518 2033Z 3010 42MM=
MWD NIL=
MYT NIL=
NSQ NIL=
WDM SA 2100 AUTO8 M M M 131/-15/-19/2512+17/M/M PK WND 2620 2041Z SOG 65 3019 82MM=
WHP NIL=

####018002874####
SACN46 CWAO 272100
METAR CYAT 272100Z AUTO 25015KT 9SM SCT180 BKN210 M10/M19 A2996 RMK
 SLP146=
METAR CYBC 272100Z AUTO 28011G19KT 9SM CLR M12/M24 A3014 RMK SLP208=
METAR CYBN 272100Z AUTO 30006KT 230V340 9SM SCT037 M10/M19 A3047 RMK SLP341=
METAR CYCK 272100Z AUTO 25009KT 9SM CLR M11/M17 A3058 RMK SLP372=
METAR CYER 272100Z AUTO 35007KT 8SM OVC055 M15/M17 A2993 RMK SLP138=
METAR CYFR 272100Z 27006G16KT 15SM FEW090 BKN270 M11/M15 A3009 RMK
 AC1CS7 AC TR SLP210=
METAR CYGK 272100Z 23010G15KT 15SM FEW030 M10/M18 A3047 RMK CU1 CU TR
 SLP327=
METAR CYGQ 272100Z 24013KT 15SM DRSN BKN220 BKN250 M10/M22 A3017 RMK
 CI6CS1 SLP252=
METAR CYHM 272100Z 25016KT 15SM DRSN FEW030 M12/M21 A3051 RMK CF1 CF
 TR SLP355=
METAR CYKF 272100Z AUTO 26009G15KT 9SM CLR M13/M20 A3049 RMK SLP355=
METAR CYKL 272100Z AUTO 28012G17KT 9SM OVC035 M26/M34 A2967 RMK
 SLP118=
METAR CYKP 272100Z AUTO 25012G20KT 210V270 9SM FEW220 M06/M20 A3002
 RMK SLP183=
METAR CYKZ 272100Z 27007KT 15SM FEW032 M09/M18 A3048 RMK CU2 SLP341=
METAR CYLD 272100Z 23011KT 15SM FEW040 M10/M18 A3023 RMK CU2 SLP280=
METAR CYLH 272100Z AUTO 25017G23KT 9SM SCT150 M07/M19 A2998 RMK
 SLP177=
METAR CYOO 272100Z AUTO 26010KT 9SM FEW041 M09/M18 A3049 RMK SLP337=
METAR CYPL 272100Z 26015G26KT 230V300 15SM DRSN BKN230 M08/M22 A3004
 RMK CI7 SLP210=
METAR CYPO 272100Z AUTO 27010G16KT 5SM HZ FEW025 OVC038 M12/M17 A2990
 RMK SLP130=
METAR CYQA 272100Z AUTO 28009G15KT 250V310 9SM OVC033 M12/M18 A3042
 RMK SLP334=
METAR CYQK NIL=
METAR CYRB 272100Z 08018KT 4SM -SN DRSN BKN029 BKN090 M28/M31 A2931
 RMK SC5AC2 SLP938=
METAR CYRQ 272100Z AUTO 20014G20KT 9SM -SN CLR M11/M18 A3033 RMK
 SLP277=
METAR CYSB 272100Z 22015KT 20SM SKC M11/M18 A3030 RMK SLP297=
METAR CYSC 272100Z AUTO 28010G15KT 9SM CLR M11/M22 A3032 RMK SLP292=
METAR CYSN 272100Z 24012G19KT 15SM FEW030 M10/M18 A3056 RMK SC1
 SLP355=
METAR CYSP 272100Z VRB06G18KT 15SM SCT030 M11/M15 A3025 RMK SC4
 SLP282=
METAR CYVO 272100Z 25005G16KT 200V300 15SM FEW250 M10/M19 A3020 RMK
 CI1 CI TR SLP262=
METAR CYVQ 272100Z 15002KT 3SM -SN OVC250 M10/M12 A3014 RMK SN5CS3
 SLP214=
METAR CYXL 272100Z 23009G17KT 15SM BKN200 M09/M21 A3019 RMK CS7
 SLP267=
METAR CYXU 272100Z 25011KT 15SM FEW030 M12/M20 A3053 RMK CF1 SLP365=
METAR CYXZ 272100Z 24011G18KT 15SM FEW020 SCT350 M11/M16 A3032 RMK
 SC2CI1 SLP300=
METAR CYYB 272100Z 24012G20KT 30SM FEW030 M11/M19 A3031 RMK SC1
 SLP302=
METAR CYYH 272100Z 14007KT 1 1/4SM -SN BR SCT009 OVC030 M21/M24 A2925
 RMK FG1ST2SC5 OCNL DRSN SLP910=
METAR CYYU 272100Z 25014G20KT 15SM FEW230 M07/M18 A3016 RMK CI2
 SLP234=
METAR CYYW NIL=
METAR CZMD 272100Z AUTO 25016G21KT 9SM FEW040 BKN050 BKN065 OVC079
 M10/M18 A2997 RMK SLP179=
METAR CZSJ 272100Z AUTO 25011G19KT 220V290 9SM FEW075 M09/M21 A3001
 RMK SLP190=

####018001858####
SACN95 CWAO 272100
WTA SA 2100 AUTO8 M M M 291/-09/-21/2005/M/M 3004 50MM=
WTD NIL=
WTE NIL=
WTG SA 2100 AUTO8 M M M 195/-11/-20/2818+24/M/     PK WND 2530 2026Z 3012 45MM=
WTM NIL=
WTN SA 2100 AUTO8 M M M 257/-11/-20/2411+20/M/     PK WND 2221 2018Z 3010 71MM=
WTR NIL=
WTS SA 2100 AUTO8 M M M 260/-16/-19/3407/M/     SOG 13 1003 60MM=
WTT SA 2100 AUTO8 M M M M/-12/-22/2812/M/M PK WND 2819 2044Z M 55MM=
WTX NIL=
WTY SA 2100 AUTO8 M M M 277/-10/-16/2016/M/     PK WND 1921 2002Z 3001 77MM=
WUI NIL=
WUK NIL=
WUS SA 2100 AUTO8 M M M 139/07/-04/3307/M/     8001 15MM=
WUT SA 2100 AUTO8 M M M 270/-14/-18/2208/M/M 8020 55MM=
WUX SA 2100 AUTO8 M M M 231/-11/-21/2912+19/M/M PK WND 2820 2038Z 1005 18MM=
WUY SA 2100 AUTO8 M M M 259/-10/-20/2210/M/     3001 88MM=
WVC NIL=
WVF SA 2100 AUTO8 M M M M/07/06/3219/M/M PK WND 3224 2015Z M 46MM=
WVI NIL=
WVN NIL=
WVO SA 2100 AUTO8 M M M 258/-07/-11/3511/M/     1001 11MM=
WVP SA 2100 AUTO8 M M M 213/-12/-19/3506/M/     SOG 10 1004 52MM=
WVQ SA 2100 AUTO8 M M M 301/-10/-22/2513+18/M/     PK WND 2420 2030Z 3005 96MM=
WVT SA 2100 AUTO8 M M M 266/-12/-18/3107/M/     SOG 39 8007 36MM=
WVU NIL=
WVW SA 2100 AUTO8 M M M M/-04/M/2518/M/M PK WND 2524 2033Z M 2MMM=
WVZ NIL=
WWA SA 2100 AUTO8 M M M 100/09/03/2001/M/     SOG 00 1010 74MM=
WWB SA 2100 AUTO8 M M M 354/-10/-19/2408/M/M 3007 99MM=
WWC SA 2100 AUTO8 M M M 209/-13/-17/2708+15/M/     SOG 11 8007 73MM=
WWE NIL=
WWF SA 2100 AUTO8 M M M 251/-14/-17/1609/M/     SOG 16 6028 74MM=
WWK NIL=
WWN NIL=
WWO NIL=
WWP SA 2100 AUTO8 M M M 272/-13/-20/2409/M/     6016 72MM=
WXA SA 2100 AUTO8 M M M 223/-07/-12/0703/M/     8004 93MM=
WXB SA 2100 AUTO8 M M M 284/-14/-19/2208/M/     SOG 18 8024 02MM=
WXC NIL=
WXG SA 2100 AUTO8 M M M 259/-18/-22/1904/M/     SOG 10 8014 97MM=
WZW NIL=

####018002165####
SACN45 CWAO 272100
METAR CYBB 272100Z 20022G29KT 3/4SM -SN BLSN OVC008 M22/M25 A2938 RMK
 BLSN6ST2 PRESSFR SLP952=
METAR CYCB 272100Z 29016KT 2 1/2SM -SN BLSN SCT020 BKN095 M15/M17
 A2928 RMK BLSN1SC3AC3 VIS VRB 13/4-4 SLP918=
METAR CYCO 272100Z 32029KT 8SM DRSN SCT030 SCT300 M12/M15 A2973 RMK
 SC3CC1 CC TR SLP070=
METAR CYCS 272100Z 17006KT 10SM IC FEW060 BKN150 M29/M32 A2984 RMK
 SC2AC4 SLP105=
METAR CYFS 272100Z 13002KT 15SM SCT100 OVC210 M08/M11 A3016 RMK
 AS3CS5 HALO SLP231=
METAR CYGH 272100Z 28016G24KT 5SM BLSN BKN035 OVC060 M01/M04 A3011 RMK SC6ST2 SLP206=
METAR CYGT 272100Z 17006KT 15SM FEW030 SCT150 BKN230 M35/M39 A2954
 RMK SC1AS3CI2 SLP013=
METAR CYHI NIL=
METAR CYHK NIL=
METAR CYHY 272100Z 27009KT 15SM BKN120 OVC230 M06/M12 A3013 RMK
 AS5CS3 SLP222=
METAR CYJF 272100Z 24006KT 15SM FEW160 SCT210 M06/M12 A3021 RMK
 AC2CI2 SLP246=
METAR CYKD 272100Z 28006KT 15SM SCT030 SCT080 BKN140 01/M07 A3010 RMK
 SC3AC1AC3 SLP192=
METAR CYLC NIL=
METAR CYLK NIL=
METAR CYOA 272100Z 29025G30KT 1/2SM -SN BLSN VV005 M11/M12 A2967 RMK BLSN8 SLP097=
METAR CYPC 272100Z 32010KT 15SM FEW020 SCT070 BKN100 BKN200 M17/M20
 A2997 RMK SC1AC3AS1CI1 SLP148=
METAR CYRA 272100Z 28005KT 240V300 15SM OVC012 M06/M11 A2996 RMK ST8
 SLP165=
METAR CYRT 272100Z 21004KT 5SM IC BKN030 OVC300 M27/M31 A2984 RMK
 SC6CI2 SLP111=
METAR CYSY 272100Z 35013KT 10SM IC DRSN SCT030 BKN080 M27/M30 A2990
 RMK SC4AC2 HALO PRESRR SLP137=
METAR CYTE 272100Z 27007KT 15SM SKC M27/M31 A2970 RMK SLP067=
METAR CYUT 272100Z 12005KT 13SM IC FEW040 OVC200 M31/M35 A2963 RMK
 SC1CS7 SLP039=
METAR CYVM 272100Z 00000KT 15SM FEW220 M34/M38 A2961 RMK CI1 SLP026=
METAR CYWE 272100Z AUTO 26015KT 6SM BR OVC032 M10/M12 A2982 RMK
 SLP137=
METAR CYWJ 272100Z 29020G27KT 15SM -SN FEW015 SCT080 BKN120 OVC250
 M02/M07 A3000 RMK SC1AS3AS2CS2 OCNL BLSN VIS S 30 SLP180=
METAR CYWY 272100Z 21002KT 15SM SCT035 BKN090 M13/M15 A3018 RMK SC3AC4 SLP236=
METAR CYXN 272100Z 23006KT 10SM OVC040 M25/M28 A2986 RMK SC8 SLP115=
METAR CYXP 272100Z 24004KT 15SM FEW220 M30/M33 A2959 RMK CI1 CI TR
 SLP023=
METAR CYZS NIL=

####018000974####
SACN66 CWAO 272100
PIF SA 2100 AUTO8 M M M 207/-09/-16/2806/M/     SOG 37 7007 55MM=
PIL SA 2100 AUTO8 M M M 265/-12/-17/3208/M/     SOG 24 8004 89MM=
PJM SA 2100 AUTO8 M M M 256/-08/-18/2005/M/     SOG 13 8026 45MM=
PLS NIL=
PMK NIL=
POX NIL=
PQW SA 2100 AUTO8 M M M 272/-17/-22/3005/M/     SOG 15 8003 00MM=
PRJ SA 2100 AUTO8 M M M 256/-12/-20/2308/M/     SOG 19 6019 25MM=
PUN SA 2100 AUTO8 M M M 246/-17/-24/0701/M/     SOG 44 8005 63MM=
PWX SA 2100 AUTO8 M M M 289/-12/-20/3204/M/     SOG 42 0001 55MM=
WBD NIL=
WBU SA 2100 AUTO8 M M M 247/-16/-20/2005/M/     SOG 23 8007 52MM=
WDC NIL=
WEH SA 2100 AUTO8 M M M 215/-10/-16/0209/M/     SOG 29 5000 87MM=
WIK NIL=
WKO SA 2100 AUTO8 M M M 219/-08/-16/2507/M/     SOG 04 6012 18MM=
WOY SA 2100 AUTO8 M M M 239/-14/-20/2308/M/     SOG 09 8013 17MM=
XBK SA 2100 AUTO8 M M M 234/-14/-20/1507/M/     SOG 19 6017 57MM=
ZHB SA 2100 AUTO8 M M M 232/-10/-20/2310/M/     SOG 16 8016 63MM=

####018001010####
SACN52 CWAO 272100
METAR CWEU 272100Z 00000KT 15SM FEW100 M45/M47 A2962 RMK AC1 SLP033=
METAR CWFD 272100Z AUTO 35006KT 9SM CLR M27/ A2910 RMK SLP963=
METAR CWGZ NIL=
METAR CWKP 272100Z AUTO 28021G26KT M21/ A2973 RMK SLP110=
METAR CWRH 272100Z AUTO ///// M23/ A2940 RMK SLP011=
METAR CWSA 272100Z AUTO 27011G16KT 9SM FEW026 M05/M09 A3022 RMK
 SLP234=
METAR CWTU 272100Z AUTO 29006KT M25/ A2945 RMK SLP051=
METAR CWWU NIL=
METAR CWXR 272100Z AUTO 31025KT M18/ A2980 RMK SLP104=
METAR CWYM 272100Z AUTO 29005KT M24/ A2925 RMK SLP982=
METAR CYPD 272100Z AUTO 29011G17KT 9SM CLR M11/M19 A3017 RMK SLP227=
METAR CZEM 272100Z 21007KT 15SM FEW260 M15/M20 A3003 RMK CI1 LAST
 OBS/NEXT 011700 UTC SLP169=
METAR CZFM 272100Z 27010G16KT 230V300 35SM FEW050 BKN080 01/M06 A3014
 RMK SC2AS5 SLP209=
METAR CZFN NIL=
METAR CZPC 272100Z AUTO 10009KT 4SM -SN FEW009 OVC035 M08/M10 A3005
 RMK SLP247=
METAR CZUM 272100Z AUTO 27011G17KT 9SM BKN037 OVC055 M24/M29 A2973
 RMK SLP125=

####018002505####
SACN31 CWAO 272100
METAR CYAW NIL=
METAR CYBG 272100Z 26010KT 25SM FEW045 M10/M12 A3017 RMK CF1 SLP234=
METAR CYEG 272100Z 35008KT 12SM -SN BKN021 OVC230 M10/M15 A3019 RMK
 SC7CI1 SLP278=
METAR CYFB 272100Z 33018KT 6SM IC BLSN FEW025 M28/M33 A2963 RMK SC1
 SLP038=
METAR CYFC 272100Z AUTO 23009G15KT 9SM CLR M08/M19 A3023 RMK SLP238=
METAR CYGL 272100Z 24009KT 5SM -SN FEW015 BKN240 M17/M21 A2988 RMK
 SC2CI4 SLP142=
METAR CYHZ 272100Z 28008KT 15SM FEW250 M08/M17 A3020 RMK CI2 SLP237=
METAR CYJT 272100Z 28020G26KT 6SM -SN DRSN BKN016 M11/M15 A3002 RMK
 SC7 SLP168=
METAR CYMX 272100Z 23011G16KT 45SM DRSN FEW210 M10/M22 A3039 RMK CI1
 CI TR SLP299=
METAR CYOW 272100Z 22010KT 15SM SKC M08/M22 A3038 RMK SLP300=
METAR CYQB 272100Z 24017KT 30SM DRSN FEW020 M12/M20 A3030 RMK SF1 SF
 TR SLP267=
METAR CYQG 272100Z 18016KT 15SM FEW044 M10/M17 A3056 RMK SC1 SLP364=
METAR CYQM 272100Z 23014KT 15SM FEW220 M11/M19 A3019 RMK CI1 CI TR
 SLP230=
METAR CYQQ 272100Z 33017KT 20SM FEW110 SCT250 13/02 A2985 RMK AC2CI0 SLP110=
METAR CYQX 272100Z 28011KT 20SM FEW035 SCT048 BKN140 M06/M14 A2985
 RMK SC1SC2AC2 CI TR SLP120=
METAR CYQY 272100Z 30010KT 15SM FEW030 M10/M17 A3015 RMK SC1 PRESRR
 SLP215=
METAR CYTR 272100Z 29011G16KT 15SM FEW030 M09/M20 A3047 RMK SC1 SLP326=
METAR CYUL 272100Z 24018G24KT 30SM FEW210 M10/M21 A3041 RMK CI1 CI TR
 SLP300=
METAR CYVR 272100Z 29015KT 30SM FEW060 BKN093 BKN130 BKN240 09/06
 A2985 RMK SC1AC4AC1CI1 TR CF SLP107=
METAR CYWG 272100Z 22010G16KT 15SM BKN230 M10/M17 A3031 RMK CI7
 SLP287=
METAR CYXX 272100Z 05017G24KT 25SM SCT050 BKN080 BKN180 OVC240 12/M02
 A2983 RMK SC3AC2AC1CI2 SLP104=
METAR CYYC 272100Z 36013KT 6SM -SHSN BKN020 OVC300 M08/M13 A3008 RMK
 SC6CI2 SLP258=
METAR CYYJ 272100Z 36004KT 310V030 30SM -RA BKN054 OVC075 09/05 A2983
 RMK SC6AC2 SLP103=
METAR CYYQ 272100Z 33010KT 15SM IC FEW008 M18/M21 A2996 RMK ST1
 SLP149=
METAR CYYR 272100Z 28008KT 15SM FEW040 FEW080 FEW120 BKN220 M18/M29 A2983 RMK CF1AC1AC1CI2 SLP107=
METAR CYYT 272100Z 25014G19KT 15SM SCT025 BKN090 M05/M10 A2989 RMK
 SC3AC2 SLP131=
METAR CYYZ 272100Z 26014G21KT 15SM FEW030 SCT035 M11/M18 A3051 RMK
 CU1SC2 SLP349=
METAR CYZF 272100Z 25008KT 15SM SCT110 BKN240 M08/M13 A2999 RMK
 AC4CI3 SLP180=
METAR CYZV 272100Z 28011G17KT 30SM DRSN FEW020 SCT250 M15/M26 A3005
 RMK CF1CI2 SLP181=
METAR CYZX 272100Z 27012KT 15SM FEW035 SCT120 M09/M13 A3027 RMK SC2AC1 WNDY HILL 28010G15KT SLP252=

####018002026####
SACN42 CWAO 272100
METAR CYAZ 272100Z 18005KT 15SM FEW050 SCT080 BKN220 11/07 A2980 RMK
 SC1AC3CI2 SLP092=
METAR CYBL 272100Z 31011G18KT 30SM FEW040 FEW130 BKN250 12/02 A2987
 RMK CU1AC1CI4 SLP116=
METAR CYBV 272100Z 26006KT 15SM FEW100 BKN220 M10/M19 A3014 RMK
 AC1CS5 SLP230=
METAR CYCP 272100Z 02008G15KT 15SM FEW070 FEW170 FEW300 04/M12 A3000
 RMK CU1AC1CI2 CU TR AC TR SLP190=
METAR CYCQ 272100Z 23004KT 35SM FEW045 M03/M10 A3025 RMK CU1 CU TR
 SLP284=
METAR CYDB 272100Z 12005KT 30SM FEW250 M08/M14 A3041 RMK CI2 SLP371=
METAR CYDC 272100Z 36012G18KT 15SM BKN040 BKN100 BKN150 04/M04 A2989
 RMK SC5AC1AS1 SLP138=
METAR CYDQ 272100Z AUTO VRB02KT 9SM CLR M05/M11 A3023 RMK SLP284=
METAR CYEV 272100Z 27009KT 15SM BKN037 M00/M07 A3006 RMK SC7 SLP185=
METAR CYFO 272100Z 27008KT 250V320 15SM SCT040 M08/M17 A3008 RMK SC4
 SLP215=
METAR CYHE NIL=
METAR CYIV 272100Z 26011KT 15SM DRSN BKN100 M11/M18 A3001 RMK AC5
 SLP185=
METAR CYKY 272100Z 32006KT 15SM BKN015 OVC090 M13/M16 A3009 RMK
 SC7AC1 SLP252=
METAR CYMD NIL=
METAR CYPR 272100Z AUTO 34007KT 9SM CLR 10/M03 A3023 RMK SLP239=
METAR CYPS NIL=
METAR CYQD 272100Z 29007KT 15SM FEW080 FEW210 M10/M17 A3011 RMK
 AC1CI1 AC TR SLP221=
METAR CYQZ 272100Z AUTO 33015KT 9SM CLR=
METAR CYRV 272100Z AUTO 30007KT 9SM CLR 06/M07 A2993 RMK SLP151=
METAR CYSE NIL=
METAR CYUA 272100Z AUTO 23011G16KT 9SM -SN FEW013 SCT018 OVC023 OVC040 M02/ A3012 RMK SLP204=
METAR CYVL 272100Z AUTO 27012G18KT 6SM -SN BKN040 OVC048 M05/M06
 A2996 RMK SLP170=
METAR CYXC 272100Z 04003KT 360V070 20SM SCT045 BKN085 01/M09 A2992
 RMK SC4AC3 SH ALQDS SLP165=
METAR CYXE 272100Z 34004KT 15SM OVC170 M16/M21 A3014 RMK AS8 SLP263=
METAR CYXQ 272100Z 00000KT 30SM FEW210 M10/M12 A3041 RMK CI2 SLP357=
METAR CYXS 272100Z AUTO 01010G16KT 9SM CLR M01/M11 A3019 RMK SLP261=
METAR CYZP 272100Z AUTO 35017KT 9SM CLR 09/02 A3027 RMK SLP252=
METAR CYZT 272100Z 02006KT 340V040 20SM FEW015 SCT090 09/06 A2995 RMK
 SC2AC2 SLP141=

####018000186####
SACN85 CWAO 272100
WBK NIL=
WHO NIL=
WPK SA 2100 AUTO8 M M M 253/-11/-22/2408/M/     SOG 46 3006 15MM=
WWE SA 2100 AUTO8 M M M 248/-05/-13/3106/M/     3015 62MM=
YGS NIL=

####018002052####
SACN94 CWAO 272100
WQC SA 2100 AUTO8 M M M 106/12/06/2001/M/     8002 59MM=
WQD NIL=
WQE NIL=
WQF NIL=
WQH SA 2100 AUTO8 M M M M/-11/-22/2409/M/     SOG 25 M 64MM=
WQK SA 2100 AUTO8 M M M 092/08/06/0221/M/M PK WND 0227 2006Z 0004 25MM=
WQL NIL=
WQM NIL=
WQO SA 2100 AUTO8 M M M M/-10/-19/2524+31/M/M PK WND 2635 2008Z M 27MM=
WQP NIL=
WQQ SA 2100 AUTO8 M M M M/-08/-12/3506/M/     M 24MM=
WQR SA 2100 AUTO8 M M M M/-14/M/2926+32/M/M PK WND 2635 2022Z M 2MMM=
WQS NIL=
WQU NIL=
WQV SA 2100 AUTO8 M M M M/-11/-20/2817+22/M/M PK WND 2826 2000Z M 93MM=
WQW NIL=
WQY NIL=
WQZ NIL=
WRA NIL=
WRD NIL=
WRE NIL=
WRJ SA 2100 AUTO8 M M M 246/-14/-17/2705/M/     SOG 17 6006 94MM=
WRK SA 2100 AUTO8 M M M 310/-10/-21/3105/M/     SOG 40 3009 92MM=
WRM SA 2100 AUTO8 M M M 257/-08/-12/3407/M/     SOG 34 8006 65MM=
WRR NIL=
WRT SA 2100 AUTO8 M M M M/-07/-11/1410+16/M/M M 22MM=
WRU NIL=
WRV SA 2100 AUTO8 M M M M/-09/-13/3111/M/     SOG 03 M 57MM=
WRY SA 2100 AUTO8 M M M 239/-09/-11/3514/M/     PK WND 3419 2001Z SOG 04 1004 13MM=
WRZ SA 2100 AUTO8 M M M 192/-12/-19/2810+17/M/     PK WND 2819 2028Z 3022 92MM=
WSB SA 2100 AUTO8 M M M 093/08/06/2713/M/0001 PCPN 0.1MM PAST HR 1009 79MM=
WSD SA 2100 AUTO8 M M M 225/-11/-18/2410/M/     SOG 78 3012 48MM=
WSF SA 2100 AUTO8 M M M 190/-13/-23/2713+19/M/     PK WND 2724 2007Z 3019 03MM=
WSG SA 2100 AUTO8 M M M 201/-13/-17/2320+26/M/     PK WND 2430 2009Z 2010 91MM=
WSK SA 2100 AUTO8 M M M 102/14/-06/3213+22/M/0020 PCPN 0.8MM PAST HR PK WND 3329 2017Z 1006 45MM=
WSL SA 2100 AUTO8 M M M 147/07/-03/2901/M/     SOG 00 8007 51MM=
WSN NIL=
WSP SA 2100 AUTO8 M M M 093/09/04/0909+16/M/     1007 93MM=
WSQ NIL=
WSR SA 2100 AUTO8 M M M 248/-13/-17/3306/M/     SOG 20 8003 09MM=
WST SA 2100 AUTO8 M M M 240/-12/-20/2220+28/M/     PK WND 2229 2006Z SOG 09 3009 87MM=
WSU SA 2100 AUTO8 M M M 301/-10/-19/2308/M/     SOG 34 6016 13MM=
WSV SA 2100 AUTO8 M M M 191/04/-12/0209+16/M/     PK WND 0019 2004Z 0000 89MM=
WSX NIL=
WSY NIL=

####018001705####
SACN92 CWAO 272100
VKU SA 2100 AUTO8 M M M 145/07/-03/MMMM/M/     SOG 00 8005 27MM=
WJI SA 2100 AUTO8 M M M 228/-10/-20/0102/M/     SOG 07 6012 24MM=
WJK NIL=
WJL SA 2100 AUTO8 M M M 243/-04/-11/MMMM/M/M 8023 54MM=
WJM NIL=
WJN NIL=
WJO SA 2100 AUTO8 M M M 241/-11/-21/2809/M/     PK WND 2617 2007Z 2004 16MM=
WJR SA 2100 AUTO8 M M M 147/05/-07/0508+15/M/     SOG 02 8006 92MM=
WJT SA 2100 AUTO8 M M M 298/-08/-22/2505/M/     3003 24MM=
WJU NIL=
WJV SA 2100 AUTO8 M M M 143/05/01/1103/M/     8003 97MM=
WJW SA 2100 AUTO8 M M M 236/-04/-15/3408/M/     PK WND 3217 2016Z SOG 18 8004 08MM=
WJX SA 2100 AUTO8 M M M 243/-09/-14/3006/M/     SOG 00 8006 25MM=
WKA SA 2100 AUTO8 M M M M/M/M/2803/M/M M MMMM=
WKB SA 2100 AUTO8 M M M 153/-12/-13/2611+18/M/     PK WND 2618 2058Z 1026 74MM=
WKD NIL=
WKF SA 2100 AUTO8 M M M 192/05/-06/MMMM/M/     1016 35MM=
WKG SA 2100 AUTO8 M M M 246/-08/-13/2704/M/     SOG 76 3015 91MM=
WKH SA 2100 AUTO8 M M M 089/05/04/MMMM/M/0006 PCPN 0.4MM PAST HR 0008 05MM=
WKX SA 2100 AUTO8 M M M 341/-04/-12/2103/M/     SOG 47 8010 96MM=
WLC SA 2100 AUTO8 M M M M/08/-03/3524/M/M PK WND 3529 2001Z M 89MM=
WLE SA 2100 AUTO8 M M M 245/-14/-18/3109/M/     SOG 22 8006 09MM=
WLF NIL=
WLG NIL=
WLJ SA 2100 AUTO8 M M M 267/-12/-15/2705/M/     SOG 12 8005 02MM=
WLK NIL=
WLM SA 2100 AUTO8 M M M 097/07/06/0407/M/0010 PCPN 0.2MM PAST HR PK WND 0320 2011Z 1007 35MM=
WLQ NIL=
WLU NIL=
WLV SA 2100 AUTO8 M M M 236/-10/-19/3005/M/     SOG 39 8007 14MM=
WME NIL=
WMF NIL=
WMI NIL=
WMJ SA 2100 AUTO8 M M M 284/-09/-23/2207/M/     SOG 28 3003 80MM=
WMM NIL=
WMQ SA 2100 AUTO8 M M M 237/-09/-16/3503/M/     SOG 00 8003 61MM=

####018001756####
SACN44 CWAO 272100
METAR CQTF NIL=
METAR CWIQ NIL=
METAR CWRF 272100Z AUTO ///// M24/ A2925 RMK SLP960=
METAR CWVD 272100Z AUTO 28004KT M27/ A2926 RMK SLP999=
METAR CYBW 272100Z AUTO 02011KT 9SM FEW034 BKN042 OVC050 M07/M11
 A3005 RMK SLP247=
METAR CYCY NIL=
METAR CYED 272100Z 32014KT 6SM -SHSN OVC020 M10/M16 A3018 RMK SC8 DA-633FT VIS LWR N SLP273=
METAR CYEK 272100Z 28007KT 15SM FEW300 M23/M26 A2992 RMK CI1 SLP135=
METAR CYIO 272100Z 18005KT 15SM FEW070 BKN240 M35/M39 A2953 RMK
 AC2CI3 SLP012=
METAR CYLJ 272100Z 27005KT 3SM -SN OVC020 M13/M17 A3017 RMK SC8
 SLP268=
METAR CYLT NIL=
METAR CYMJ 272100Z 33004KT 15SM FEW200 BKN240 M12/M18 A3010 RMK CS1CI3 SLP251=
METAR CYOD 272100Z 32007KT 15SM SCT026 M10/M17 A3017 RMK SC4 SLP267=
METAR CYPE 272100Z 22011KT 15SM FEW015 FEW250 M10/M13 A3023 RMK
 SF1CI1 SLP281=
METAR CYQV 272100Z AUTO 23007KT 9SM CLR M12/M19 A3013 RMK SLP255=
METAR CYSF 272100Z AUTO 28016G21KT 9SM -SN FEW026 M13/M18 A3011 RMK
 SLP223=
METAR CYSM 272100Z 24009KT 15SM FEW040 OVC140 M07/M15 A3010 RMK
 SC2AS6 SLP215=
METAR CYTH 272100Z 31010G18KT 15SM -SN SCT028 OVC065 M11/M18 A3000
 RMK SC4SC4 SLP182=
METAR CYUB 272100Z 27026G37KT 1/4SM -SN +BLSN BKN020 OVC080 M03/M05 A2995 RMK BLSN5SC1AS2 SUN DMLY VISBL SLP144=
METAR CYUJ NIL=
METAR CYUS 272100Z AUTO 21022KT 1/8SM OVC016 M19/ A2927 RMK SLP919=
METAR CYUX 272100Z 22006KT 15SM FEW006 FEW150 BKN270 M33/M36 A2960
 RMK SF1AS1CS6 SF TR BR OVR BASIN SLP024=
METAR CYVT 272100Z 31007KT 15SM FEW250 FEW270 M12/M18 A3017 RMK
 CI1CI1 SLP255=
METAR CYXH 272100Z 32011KT 10SM -SHSN OVC023 M08/M12 A3011 RMK SC8
 SLP247=
METAR CYZU 272100Z 29013G18KT 15SM FEW015 FEW100 M09/M14 A3019 RMK
 SC2AC1 AC TR SLP277=

####018001841####
SACN96 CWAO 272100
WXL SA 2100 AUTO8 M M M M/-08/-11/3307/M/     M 02MM=
WXN NIL=
WXP NIL=
WXS NIL=
WXW NIL=
WXZ NIL=
WYA NIL=
WYE SA 2100 AUTO8 M M M 278/-15/-20/3006/M/     SOG 30 8003 26MM=
WYF NIL=
WYH NIL=
WYI SA 2100 AUTO8 M M M 095/-06/-11/3304/M/M 1019 00MM=
WYJ SA 2100 AUTO8 M M M 097/08/05/0205/M/0004 0006 94MM=
WYL SA 2100 AUTO8 M M M 180/-04/-16/0807/M/     SOG 84 8003 46MM=
WYQ NIL=
WYW NIL=
WYY SA 2100 AUTO8 M M M 133/06/01/3004/M/     PK WND 3417 2025Z 0001 68MM=
WZA SA 2100 AUTO8 M M M 112/12/-01/2906/M/     1013 87MM=
WZE SA 2100 AUTO8 M M M M/-11/-18/2613/M/     PK WND 2517 2054Z M 74MM=
WZL NIL=
WZO SA 2100 AUTO8 M M M M/M/M/0514/M/M PK WND 0420 2003Z M MMMM=
WZQ NIL=
WZR NIL=
WZS SA 2100 AUTO8 M M M 212/-13/-21/2711+18/M/     PK WND 2620 2010Z 3017 86MM=
WZT SA 2100 AUTO8 M M M 251/-09/-17/2812/M/     SOG 09 6020 26MM=
WZV NIL=
WZY NIL=
XBD SA 2100 AUTO8 M M M 277/-08/-13/3006/M/     SOG 117 8008 39MM=
XBQ SA 2100 AUTO8 M M M 162/-12/-17/3110+15/M/     PK WND 3017 2003Z SOG 37 2004 56MM=
XEL NIL=
XFV SA 2100 AUTO8 M M M M/-07/-14/0000/M/     M 43MM=
XGM SA 2100 AUTO8 M M M 257/-07/-18/2706/M/     3010 89MM=
XHM NIL=
XKA NIL=
XKE SA 2100 AUTO8 M M M 301/-08/-22/2508/M/     SOG 26 3002 39MM=
XND NIL=
XOA SA 2100 AUTO8 M M M 302/-08/-22/1902/M/     SOG 34 5000 26MM=
XPS NIL=
XPT SA 2100 AUTO8 M M M 378/-09/-18/MMMM/M/M 3003 46MM=
XWF SA 2100 AUTO8 M M M 133/04/-01/3308/M/     PK WND 0017 2012Z SOG 00 8003 50MM=
ZGH SA 2100 AUTO8 M M M M/00/-04/2415+21/M/M PK WND 2424 2000Z SOG 55 M -56MM=
ZOC NIL=
ZPK SA 2100 AUTO8 M M M M/-16/-18/3309/M/     M 50MM=
ZQT NIL=
ZUB SA 2100 AUTO8 M M M 141/-04/-05/2730+38/M/M PK WND 2838 2057Z 3005 96MM=
ZWN SA 2100 AUTO8 M M M 266/-13/-18/3509/M/     SOG 00 0002 01MM=

####018001698####
SACN97 CWAO 272100
XAT NIL=
XBK NIL=
XBO SA 2100 AUTO8 M M M M/M/M/2413/M/     PK WND 2422 2045Z M MMMM=
XCA SA 2100 AUTO8 M M M 270/-06/-21/2606/M/     PK WND 2317 2034Z 6015 72MM=
XCH SA 2100 AUTO8 M M M M/-13/-17/MMMM/M/     SOG 47 M 66MM=
XCK SA 2100 AUTO8 M M M 362/-08/-16/2902/M/     SOG 29 8009 84MM=
XDE NIL=
XDI NIL=
XDW NIL=
XEA SA 2100 AUTO8 M M M 254/-08/-21/2508/M/     PK WND 2517 2045Z SOG 47 5014 18MM=
XEC NIL=
XEG NIL=
XET SA 2100 AUTO8 M M M 332/-10/-19/2905/M/     SOG 13 3007 17MM=
XFA SA 2100 AUTO8 M M M 122/08/06/2915/M/     PK WND 2917 2055Z 0004 39MM=
XGH SA 2100 AUTO8 M M M M/-09/-18/1910/M/M M 50MM=
XHA NIL=
XHF SA 2100 AUTO8 M M M M/-09/-22/MMMM/M/M M 31MM=
XHI SA 2100 AUTO8 M M M M/M/M/3115+21/M/     PK WND 3121 2100Z SOG 49 1040 MMMM=
XIB SA 2100 AUTO8 M M M 213/-13/-20/2506/M/     3027 67MM=
XLC NIL=
XLL NIL=
XLT SA 2100 AUTO8 M M M 228/-10/-21/2709+15/M/M PK WND 2721 2005Z 1005 81MM=
XLU NIL=
XMD SA 2100 AUTO8 M M M 292/-10/-17/2407/M/     SOG 07 7016 23MM=
XMI SA 2100 AUTO8 M M M 238/-05/-15/2806/M/M 3015 57MM=
XMM NIL=
XMP SA 2100 AUTO8 M M M M/-11/-18/2505/M/M M 20MM=
XMW NIL=
XMY NIL=
XNM SA 2100 AUTO8 M M M M/-18/-20/2918+23/M/M PK WND 3029 2011Z SOG 168 M 97MM=
XOX NIL=
XPV NIL=
XQT NIL=
XRH NIL=
XSH SA 2100 AUTO8 M M M 265/-10/-21/1908/M/M 3002 28MM=
XSR NIL=
XTL SA 2100 AUTO8 M M M 253/-02/-08/0108/M/     SOG 04 0006 90MM=
XTN NIL=
XTP NIL=
XTV NIL=
XVG SA 2100 AUTO8 M M M 268/-07/-14/3008/M/M SOG 32 8007 45MM=
XWN SA 2100 AUTO8 M M M 282/-10/-17/2308/M/     6015 64MM=
XZU SA 2100 AUTO8 M M M 274/-08/-14/MM11+17/M/M PK WND MM20 2040Z 8007 25MM=

####018000106####
SACN46 CWAO 272100 CCA
METAR CYLD 272100Z CCA 23011G18KT 15SM FEW040 M10/M18 A3023 RMK CU2 SLP280=

####018001442####
SACN51 CWAO 272100
METAR CWAE 272100Z 36004KT 15SM SCT060 SCT120 BKN200 07/M06 A2990 RMK
 CU3AC1CI1 WND ESTD SLP137=
METAR CWCA 272100Z 29011KT 15SM FEW070 BKN250 M18/M26 A2978 RMK AC1CS3 SLP087=
METAR CWCL 272100Z AUTO 34004KT 9SM M04/M09 A3000 RMK SLP201=
METAR CWIL 272100Z AUTO 25021KT M15/ A2924 RMK SLP913=
METAR CWKM 272100Z AUTO 28027KT M01/ A3008 RMK SLP191=
METAR CWKW 272100Z AUTO ///// M30/ A2935 RMK SLP017=
METAR CWLI 272100Z AUTO 06011KT M11/ A2995 RMK SLP155=
METAR CWLX 272100Z AUTO 32004KT M30/ A2952 RMK SLP027=
METAR CWLY 272100Z AUTO 36012G28KT 310V040 9SM BKN049 OVC060 06/M06
 A3001 RMK SLP168=
METAR CWOB 272100Z AUTO 03011KT M23/ A2937 RMK SLP008=
METAR CWPX 272100Z AUTO 30026KT M14/ A2926 RMK SLP933=
METAR CWRX 272100Z AUTO 20009KT M31/ A2956=
METAR CWSW 272100Z 14008KT 110V190 15SM BKN045 BKN080 BKN200 M02/M13
 A2996 RMK SC6AC1CS1 CS TR SLP194=
METAR CWUP 272100Z AUTO ///// M29/ A2936 RMK SLP004=
METAR CWUW 272100Z AUTO 28007KT 9SM FEW054 FEW060 FEW092 M28/ A2933 RMK SLP016=
METAR CWVH 272100Z AUTO 26036KT M04/ A2996 RMK SLP169=
METAR CWYK 272100Z AUTO ///// M29/ A2923 RMK SLP007=
METAR CWZZ 272100Z AUTO 29011KT M26/ A2942 RMK SLP029=
METAR CZBF 272100Z 27011G18KT 15SM DRSN FEW045 M10/M22 A3014 RMK CF1
 CF TR SLP213=
METAR CZCP 272100Z AUTO 31006KT 9SM CLR M20/ A2992 RMK SLP145=
METAR CZST 272100Z VRB02KT 15SM FEW200 05/M04 A3033 RMK CI2 SLP272=

####018000219####
SACN63 CWAO 272100
NPV NIL=
NVQ SA 2100 AUTO8 M M M 209/-09/-12/1801/M/0002 SOG 39 5003 85MM=
WMT SA 2100 AUTO8 M M M 178/-07/-10/2810+15/M/M 8019 93MM=
XAR NIL=
ZEV NIL=
ZFS NIL=
ZHY NIL=
ZSM NIL=

####018000099####
SPUS81 KWBC 272107
SPECI
KGRR 272103Z 25007KT 4SM -SN BR FEW012 BKN018 BKN035 M08/M12 A3054=
####018000104####
SPUS81 KWBC 272107
SPECI
KSXT 272105Z AUTO VRB04KT 6SM -RA BR BKN003 BKN007 OVC017 03/03
A2972=
####018000074####
SAJM31 MKJS 272100
METAR MKJS 272100Z 08017KT 9999 FEW022 29/22 Q1013=
####018001550####
SAZZ40 KAWN 272100 RRR
METAR DAUT 272100Z 00000KT CAVOK 16/M05 Q1020=
METAR KBLV 272058Z AUTO 06007KT 10SM CLR M06/M16 A3063 RMK AO2 SLP385
      T10571163 55009=
METAR KDOV 272058Z AUTO 31008G16KT 10SM CLR M01/M09 A3047 RMK AO2 SLP322
      T10091095 53016=
METAR KFAF 272058Z AUTO 04008KT 10SM OVC019 01/M03 A3044 RMK AO2 SLP311
      T00111026 52021 $=
METAR KFFO 272058Z 36008KT 10SM SCT044 M08/M19 A3058 RMK AO2A SLP376
      T10771186 55001=
METAR KGUS 272058Z AUTO 28004KT 10SM CLR M09/M14 A3058 RMK AO2 SLP378
      T10901145 56005=
METAR KMUI 272058Z AUTO VRB04KT 10SM FEW050 M04/M16 A3045 RMK AO2 SLP322
      T10361158 53009=
METAR KOFF 272058Z AUTO 13006KT 10SM CLR M08/M18 A3053 RMK AO2 SLP366
      T10801177 57028=
METAR KPSM 272058Z 26007KT 10SM FEW250 M04/M21 A3032 RMK AO2A SLP273
      T10381206 53007=
METAR KRCA 272058Z AUTO 19018KT 10SM BKN024 BKN030 OVC035 M05/M11 A3001
      RMK AO2 PK WND 18029/04 CIG 024V030 SLP231 T10511115 57027 $=
METAR KRDR 272058Z AUTO 25009KT 10SM CLR M07/M17 A3037 RMK AO2 SLP313
      T10731167 57019=
METAR KVOK 272058Z 27008KT 10SM CLR M09/M19 A3051 RMK AO2A SLP359 57012=
METAR KWRI 272058Z AUTO 30009KT 10SM CLR M02/M13 A3041 RMK AO2 SLP303
      T10171130 53013=
METAR TLPC 272100Z 08012KT 9999 FEW026 28/20 Q1015 NOSIG=
METAR WMKJ 272100Z 00000KT 9999 FEW024 BKN300 23/22 Q1009=
METAR WMKK 272100Z 10003KT 9999 FEW017CB SCT140 BKN280 26/22 Q1008
      NOSIG=
METAR WMKP 272100Z 02003KT 8000 FEW025 SCT140 BKN270 27/23 Q1008 NOSIG=
####018000197####
SACA31 TNCC 272100
METAR TNCC 272100Z 11015KT 9999 SCT018 28/23 Q1012 NOSIG=
METAR TNCE 272100Z AUTO 06014KT //// ////// ///// Q1017=
METAR TNCB 272100Z 06019KT 9999 BKN018 29/23 Q1012 NOSIG=
####018000085####
SAMX41 MMMX 272106
METAR MMES 272100Z 25004KT 8SM SCT025 18/10 A2986 RMK 8/400 = 
####018001280####
SASA KAWN 272100 RRF
METAR SACO 272100Z 23004KT 5000 -DZ SCT003 BKN008 19/17 Q1019=
METAR SBBG 272100Z 17006KT 9999 FEW023 28/19 Q1012=
METAR SBCT 272100Z 28008KT 9999 SCT045 FEW050TCU BKN100 23/16 Q1014=
METAR SBKP 272100Z 32007KT 9999 FEW040 FEW045TCU 27/18 Q1011=
METAR SBLO 272100Z 23009KT 9999 FEW035 FEW040TCU 24/23 Q1012=
METAR COR SBMQ 272100Z 08005KT 9999 SCT020 31/25 Q1008=
METAR SBNT 272100Z 11010KT 9999 FEW023 28/22 Q1010=
METAR SBPA 272100Z 18012KT 9999 BKN035 FEW045TCU 25/22 Q1010=
METAR SBPV 272100Z 00000KT 9999 VCSH SCT023 FEW025TCU SCT100 28/23
      Q1 007=
METAR SBRP 272100Z 13003KT 100V180 9000 -TSRA BKN040 FEW045CB SCT090
      21/20 Q1012=
METAR SBSP 272100Z 19006KT 9999 VCSH SCT045 26/13 Q1012=
METAR SBTE 272100Z 21003KT 9999 FEW030 30/23 Q1008=
METAR SBTF 272100Z 09003KT 5000 -TSRA SCT010 FEW032CB BKN070 25/24
      Q1 010=
METAR SBTT 272100Z 31004KT 9999 FEW020 FEW025TCU 32/24 Q1007=
METAR SCBA 272100Z 30021KT CAVOK 28/06 Q1010=
METAR SCTE 272100Z 22010KT 8000 SKC 22/11 Q1013 NOSIG=
METAR SUCA 272100Z 12010G20KT 9999 FEW016 21/12 Q1014=
METAR SULS 272100Z 18013KT 9999 SCT026 20/11 Q1016=
METAR SUSO 272100Z 19006KT 9999 SCT027 30/18 Q1012=
METAR SVVA 272100Z 29009KT 9999 SCT016 31/21 Q1012=
####018000361####
SPNA14 KAWN 272107
SPECI KNFL 272100Z 26025G38KT 3SM -RA SCT030 BKN050 OVC060 07/02 A2968
      RMK AO2 PK WND 26033/2057 PRESRR WR// P0000 T00670017=
SPECI KTCM 272103Z AUTO 02006KT 10SM -RA BKN008 BKN027 OVC032 09/09
      A2974 RMK AO2 $=
SPECI KTIK 272106Z AUTO 05008KT 4SM -SN BKN013 OVC020 M08/M11 A3046
      RMK AO2 CIG 013V019 BKN V FEW=
####018001535####
SAUS17 KAWN 272100 RRE
METAR KADW 272058Z AUTO 33011KT 10SM CLR 00/M12 A3047 RMK AO2 SLP329
      T10031117 53019 $=
METAR KBLV 272058Z AUTO 06007KT 10SM CLR M06/M16 A3063 RMK AO2 SLP385
      T10571163 55009=
METAR KCEF 272058Z AUTO 33004KT 10SM CLR M04/M21 A3035 RMK AO2 SLP289
      T10361206 53007=
METAR KDAA 272058Z AUTO 36007KT 10SM CLR 01/M13 A3049 RMK AO2 SLP329
      T00061129 53016=
METAR KDOV 272058Z AUTO 31008G16KT 10SM CLR M01/M09 A3047 RMK AO2 SLP322
      T10091095 53016=
METAR KDYS 272058Z 04008KT 6SM -FZRA OVC008 M07/M08 A3033 RMK AO2A
      SLP302 P0000 60000 T10661084 57019 $=
METAR KEGI 272055Z 01012KT 10SM FEW130 BKN200 BKN300 13/M01 A3027 RMK
      AO2A SLP254 CONTRAILS T01341010 57017 $=
METAR KFAF 272058Z AUTO 04008KT 10SM OVC019 01/M03 A3044 RMK AO2 SLP311
      T00111026 52021 $=
METAR KFFO 272058Z 36008KT 10SM SCT044 M08/M19 A3058 RMK AO2A SLP376
      T10771186 55001=
METAR KFTK 272058Z AUTO 04006KT 10SM CLR M04/M14 A3055 RMK AO2 SLP360
      T10411145 56007=
METAR KGUS 272058Z AUTO 28004KT 10SM CLR M09/M14 A3058 RMK AO2 SLP378
      T10901145 56005=
METAR KHOP 272058Z AUTO 04005KT 10SM CLR M04/M13 A3056 RMK AO2 SLP359
      T10371127 55011=
METAR KLFI 272058Z AUTO 04011KT 9SM OVC029 00/M04 A3046 RMK AO2 SLP322
      T00001036 52017 $=
METAR KMIB 272058Z AUTO 18009KT 9SM CLR M10/M15 A3019 RMK AO2 SLP277
      T11011154 57027 $=
METAR KMUI 272058Z AUTO VRB04KT 10SM FEW050 M04/M16 A3045 RMK AO2 SLP322
      T10361158 53009=
####018000081####
SAMZ40 FQMA 272100
METAR FQMA 272100Z 20008KT 9999 SCT020 24/22 Q1014 NOSIG=
####018000203####
SACA31 TNCC 272100
METAR TNCC 272100Z 11015KT 9999 SCT018 28/23 Q1012 NOSIG=
METAR TNCE 272100Z AUTO 06014KT //// ////// ///// Q1017=
METAR TNCB 272100Z 06019KT 9999 BKN018 29/23 Q1012 NOSIG=
####018000124####
SAVN23 SVBC 272100
METAR SVBC 272100Z 00000KT 9999 BKN013 29/26 Q1012=
METAR SVMT 272100Z NIL=
METAR SVHG 272100Z NIL=
####018001930####
SAUS90 KWBC 272100 RRC
METAR KABE 272051Z VRB06KT 10SM CLR M03/M16 A3043=
METAR KALB 272051Z 29013KT 10SM FEW034 M06/M17 A3042=
METAR KART 272056Z AUTO 25008KT 1SM -SN VV016 M09/M14 A3048=
METAR KAVP 272054Z 34009KT 10SM CLR M06/M18 A3040=
METAR KBDL 272051Z 31011KT 10SM FEW250 M03/M18 A3036=
METAR KBDR 272052Z 31007KT 10SM CLR M02/M16 A3040=
METAR KBTV 272054Z 35004KT 10SM FEW250 M07/M20 A3038=
METAR KBUF 272054Z 23018KT 9SM -SN BKN019 BKN025 M12/M17 A3053=
METAR KCAE 272056Z 00000KT 10SM FEW050 SCT220 13/M01 A3033=
METAR KCAK 272051Z 30006KT 10SM SCT038 M09/M19 A3054=
METAR KCMH 272051Z 00000KT 10SM SCT043 M08/M18 A3058=
METAR KCRQ 272053Z 20012KT 10SM FEW022 BKN027 OVC033 17/11
     A2981=
METAR KCRW 272054Z VRB04KT 10SM BKN037 M06/M15 A3055=
METAR KDAY 272056Z 31006KT 10SM FEW026 BKN034 BKN039 M08/M15
     A3058=
METAR KERI 272051Z 26010KT 10SM CLR M12/M18 A3058=
METAR KGSO 272054Z 32004KT 10SM SCT048 06/M06 A3036=
METAR KGSP 272053Z 05005KT 10SM CLR 12/M03 A3031=
METAR KHTS 272051Z 00000KT 9SM FEW043 M06/M14 A3057=
METAR KHUL 272053Z AUTO 27012G19KT 10SM CLR M08/M23 A3019=
METAR KILG 272051Z AUTO 31014KT 10SM CLR M02/M12 A3047=
METAR KILM 272053Z 03006KT 10SM CLR 11/00 A3036=
METAR KINT 272054Z AUTO 32007KT 10SM FEW055 06/M07 A3038=
METAR KMSS 272053Z AUTO 24011KT 10SM CLR M09/M22 A3044=
METAR KORH 272054Z VRB05KT 10SM CLR M05/M19 A3028=
METAR KPVD 272051Z 30004KT 10SM FEW025 FEW300 M02/M17 A3035=
METAR KPWM 272051Z 17006KT 10SM FEW200 M04/M15 A3033=
METAR KRIC 272054Z 04006KT 10SM SCT060 BKN250 03/M06 A3044=
METAR KROC 272054Z 25013G21KT 10SM FEW035 M11/M18 A3052=
METAR KSYR 272054Z 30011KT 10SM BKN031 BKN035 M08/M17 A3049=
METAR KMWN 272051Z 30030G34KT 80SM FEW080 FEW180 FEW200 M23/M25
     RMK ACSL NE=
METAR PASY 272056Z COR 33013KT 9SM -SN SCT030 OVC037 M03/M10 A3029
     RMK AO2 SNB17 SLP259 6//// T10281100 53024 $=
####018000104####
SPUS90 KWBC 272108 CCA
SPECI KATT 272104Z AUTO 02008KT 8SM 01/M04 A3033 RMK AO2 T00111039
     $=
####018000218####
SPUS90 KWBC 272108
SPECI KATT 272104Z AUTO 02008KT 8SM 01/M04 A3033 RMK AO2 T00111039
     $=
SPECI KSXT 272105Z AUTO VRB04KT 6SM -RA BR BKN003 BKN007 OVC017
     03/03 A2972 RMK AO2 RAB2059 P0000 T00330028=
####018001330####
SAIY40 LIIB 272100
METAR LIMG 272100Z NIL=
METAR LIMK 272055Z 24005KT CAVOK 05/M04 Q1011 RMK BKN SCT110 SCT210
      VAL FOSCHIA VIS MIN 9999=
METAR LIMN 272100Z NIL=
METAR LIMP 272050Z 23004KT CAVOK 07/03 Q1014=
METAR LIMS 272100Z NIL=
METAR LIMZ 272050Z 24004KT 9999 SCT120 03/00 Q1013=
METAR LIPA 272055Z 08004KT 9999 BKN110 07/05 Q1012 RMK BKN VIS MIN
      9999 A2990 BLU=
METAR LIPB 272050Z VRB01KT 9999 FEW120 04/01 Q1015=
METAR LIPC 272055Z 28004KT CAVOK 05/04 Q1013 RMK SKC VIS MIN 9999
      WIND THR11 27004KT BLU=
METAR LIPF 272100Z NIL=
METAR LIPH 272045Z /////KT 9000 NSC 09/06 Q1012 RMK BKN BKN120 VIS
      MIN 9000 WIND THR07 23002KT BLU=
METAR LIPI 272100Z NIL=
METAR LIPL 272100Z NIL=
METAR LIPO 272050Z 28006KT CAVOK 07/03 Q1013=
METAR LIPQ 272050Z 10004KT CAVOK 07/00 Q1013=
METAR LIPR 272100Z NIL=
METAR LIPS 272055Z 00000KT 8000 SCT080 09/06 Q1012 RMK BKN SCT200 VIS
      MIN 8000 WIND THR26 /////KT WIND THR08 00000KT BLU=
METAR LIPU 272100Z NIL=
METAR LIPX 272045Z 27006KT CAVOK 06/03 Q1013 RMK SCT SCT200 VIS MIN
      9999 BLU=
METAR LIPY 272050Z 19004KT CAVOK 05/04 Q1013=
METAR LIVC 272055Z 00000KT CAVOK M01/M03 Q1010 RMK SCT SCT160 MON LIB
      VAL NIL VIS MIN 9999=
METAR LIVP 272055Z 36015KT CAVOK M05/M07 Q1009 RMK SCT SCT170 MON LIB
      VAL NIL VIS MIN 9999=
####018001219####
SAIY43 LIIB 272100
METAR LIBA 272100Z NIL=
METAR LIBC 272100Z NIL=
METAR LIBD 272050Z 31008KT 9999 -DZ SCT030 09/07 Q1011=
METAR LIBG 272100Z NIL=
METAR LIBN 272100Z NIL=
METAR LIBP 272050Z VRB03KT 9999 SCT025 SCT080 09/06 Q1013=
METAR LIBQ 272055Z 03002KT 0000 FZFG VV/// M00/M00 Q1006 RMK MON
      INVIS VAL INVIS VIS MIN 0000=
METAR LIBR 272045Z 29011KT 9999 -RA FEW012 FEW015TCU SCT025 10/09
      Q1009 NOSIG RMK BKN BKN070 VIS MIN 9999 WIND THR13 /////KT WIND
    THR31
      29010KT BLU=
METAR LIBV 272055Z 33012KT 3200 -DZ BR SCT006 BKN020 07/06 Q1009 RMK
      OVC VIS MIN 3200 WIND THR32 33014KT WIND THR14 33012KT YLO=
METAR LICA 272050Z 24003KT 9999 FEW025 SCT070 11/07 Q1011=
METAR LICB 272050Z 07003KT 9999 FEW030 05/03 Q1013=
METAR LICC 272050Z 26007KT 220V310 9999 FEW040 08/04 Q1011=
METAR LICD 272050Z 28004KT 9999 FEW025 12/08 Q1015=
METAR LICG 272100Z NIL=
METAR LICJ 272050Z 28006KT 9999 SCT024 14/09 Q1013=
METAR LICR 272050Z 02011KT 9999 BKN050 11/08 Q1011=
METAR LICT 272055Z VRB01KT 9999 SCT023 10/08 Q1013 RMK SCT VIS MIN
      9999 WIND THR13 /////KT BLU=
METAR LICZ 272055Z 28011KT 9999 SCT120 09/06 Q1012 RMK SCT VIS MIN
      9999 WIND THR28 26009KT A2990 BLU=
####018000711####
SAUS20 KNKA 272106
METAR K24J 272115Z AUTO 06010KT 3SM CLR 12/04 A3030 RMK AO1=
METAR KD60 272055Z AUTO 17009KT 10SM CLR M08/M15 A3013 RMK AO2 =
SPECI KDFW 272105Z 05008KT 1/2SM R17C/3000V5000FT SN SCT007 OVC013 
 M03/M05 A3042 RMK AO2 SCT V BKN P0001 T10331050 $=
METAR KFYG 272055Z AUTO 35007KT 10SM CLR M05/M18 A3060 RMK AO2=
SPECI KGED 272105Z AUTO 30006KT 10SM FEW029 SCT070 08/M09 A3046 RMK 
 AO2 T00831089=
SPECI KICT 272105Z 12003KT 1 1/4SM -SN SCT016 BKN022 OVC039 M09/M12 
 A3050 RMK AO2 P0001 T10891122=
METAR KO22 272055Z AUTO 19004KT 10SM SCT022 BKN039 OVC065 13/08 
 A2977 RMK AO1=
SPECI KSAF 272105Z 14016KT 2 1/2SM -SN OVC017 M07/M11 A2989 RMK AO2 
 P0000 T10671111=
####018000426####
SPUS99 KWBC 272108
SPECI
KDFW 272105Z 05008KT 1/2SM R17C/3000V5000FT SN SCT007 OVC013
     M03/M05 A3042 RMK AO2 SCT V BKN P0001 T10331050 $=
KGED 272105Z AUTO 30006KT 10SM FEW029 SCT070 08/M09 A3046 RMK AO2
     T00831089=
KICT 272105Z 12003KT 1 1/4SM -SN SCT016 BKN022 OVC039 M09/M12
     A3050 RMK AO2 P0001 T10891122=
KSAF 272105Z 14016KT 2 1/2SM -SN OVC017 M07/M11 A2989 RMK AO2
     P0000 T10671111=
####018000288####
SAUS99 KWBC 272108
METAR
K24J 272115Z AUTO 06010KT 3SM CLR 12/04 A3030 RMK AO1=
KD60 272055Z AUTO 17009KT 10SM CLR M08/M15 A3013 RMK AO2=
KFYG 272055Z AUTO 35007KT 10SM CLR M05/M18 A3060 RMK AO2=
KO22 272055Z AUTO 19004KT 10SM SCT022 BKN039 OVC065 13/08 A2977
     RMK AO1=
####018001187####
SACN87 KWBC 272108
METAR CWCT 272100Z AUTO 34013KT M12/M16 RMK AO1 SOG 07 1004 PK WND
33017/2001 SLP258 T11181158=
CWLB RMK NIL=
CWEK RMK NIL=
METAR CWEQ 272100Z AUTO 23011G16KT M13/M20 RMK AO1 PK WND
23018/2041 SLP243 T11341200 56016=
METAR CWJD 272100Z AUTO 28010G18KT M10/M20 RMK AO1 SOG 45 7011 PK
WND 28020/2023 SLP222 T10961202=
METAR CWLP 272100Z AUTO 27002KT 09/06 RMK AO1 SLP137 T00920059
50008=
CWPU RMK NIL=
METAR CWRO 272100Z AUTO 36016KT 09/02 RMK AO1 PK WND 00023/2025
SLP248 T00920019 51008=
CWWL RMK NIL=
CWWS RMK NIL=
METAR CWZG 272100Z AUTO 06006KT M05/M14 RMK AO1 SOG 01 8005 SLP205
T10511135=
CWQS RMK NIL=
METAR CWRM 272100Z AUTO 34007KT M08/M12 RMK AO1 SOG 34 8006 SLP257
T10761115=
CWRU RMK NIL=
CWME RMK NIL=
CWDC RMK NIL=
METAR CWEH 272100Z AUTO 02009KT M10/M16 RMK AO1 SOG 29 5000 SLP215
T10981157=
METAR CWKO 272100Z AUTO 25007KT M08/M16 RMK AO1 SOG 04 6012 SLP219
T10811158=
METAR CWOY 272100Z AUTO 23008KT M14/M20 RMK AO1 SOG 09 8013 SLP239
T11411197=
CWME RMK NIL=
METAR CWVT 272100Z AUTO 31007KT M12/M18 RMK AO1 SOG 39 8007 SLP266
T11231176=
CWZW RMK NIL=
CWZW RMK NIL=
CWZW RMK NIL=
####018000226####
SACN88 KWBC 272108 RRA
METAR CZCR 272100Z AUTO 26012G20KT M10/M22 RMK AO1 SOG 36 2016 PK
WND 28023/2009 SLP211 T11031217=
CZDB RMK NIL=
METAR CZSP 272100Z AUTO 25008KT M12/M20 RMK AO1 SOG 69 3015 SLP234
T11161198=
####018001521####
SACN94 KWBC 272108
CWND RMK NIL=
METAR CWQH 272100Z AUTO 24009KT M11/M22 RMK AO1 SOG 25 T11061224=
METAR CWQK 272100Z AUTO 02021KT 08/06 RMK AO1 PK WND 02027/2006
SLP092 T00820055 50004=
METAR CWQO 272100Z AUTO 25024G31KT M10/M19 RMK AO1 PK WND
26035/2008 T11021187=
CWQP RMK NIL=
METAR CWQR 272100Z AUTO 29026G32KT M14/ RMK AO1 PK WND 26035/2022
T1142=
METAR CWQV 272100Z AUTO 28017G22KT M11/M20 RMK AO1 PK WND
28026/2000 T11091203=
METAR CWRJ 272100Z AUTO 27005KT M14/M17 RMK AO1 SOG 17 6006 SLP246
T11391174=
METAR CWRK 272100Z AUTO 31005KT M10/M21 RMK AO1 SOG 40 3009 SLP310
T10991212=
METAR CWRT 272100Z AUTO 14010G16KT M07/M11 RMK AO1 T10721112=
METAR CWRY 272100Z AUTO 35014KT M09/M11 RMK AO1 SOG 04 1004 PK WND
34019/2001 SLP239 T10911113=
METAR CWRZ 272100Z AUTO 28010G17KT M12/M19 RMK AO1 PK WND
28019/2028 SLP192 T11191192 53022=
METAR CWSD 272100Z AUTO 24010KT M11/M18 RMK AO1 SOG 78 3012 SLP225
T11141178=
METAR CWSG 272100Z AUTO 23020G26KT M13/M17 RMK AO1 PK WND
24030/2009 SLP201 T11291171 52010=
METAR CWSK 272100Z AUTO 32013G22KT 14/M06 RMK AO1 8PAST HR 1006 PK
WND 33029/2017 SLP102 P0003 T01441055 50020=
METAR CWSL 272100Z AUTO 29001KT 07/M03 RMK AO1 SOG 00 8007 SLP147
T00651031=
METAR CWSP 272100Z AUTO 09009G16KT 09/04 RMK AO1 SLP093 T00890043
51007=
METAR CWSR 272100Z AUTO 33006KT M13/M17 RMK AO1 SOG 20 8003 SLP248
T11301169=
METAR CWST 272100Z AUTO 22020G28KT M12/M20 RMK AO1 SOG 09 3009 PK
WND 22029/2006 SLP240 T11181197=
####018001230####
SACN95 KWBC 272108
METAR CWTA 272100Z AUTO 20005KT M09/M21 RMK AO1 SLP291 T10851210
53004=
METAR CWTG 272100Z AUTO 28018G24KT M11/M20 RMK AO1 PK WND
25030/2026 SLP195 T11141195 53012=
METAR CWTN 272100Z AUTO 24011G20KT M11/M20 RMK AO1 PK WND
22021/2018 SLP257 T11071201 53010=
METAR CWTT 272100Z AUTO 28012KT M12/M22 RMK AO1 PK WND 28019/2044
T11151215=
METAR CWTY 272100Z AUTO 20016KT M10/M16 RMK AO1 PK WND 19021/2002
SLP277 T10971157 53001=
METAR CWUS 272100Z AUTO 33007KT 07/M04 RMK AO1 SLP139 T00711035
58001=
METAR CWUX 272100Z AUTO 29012G19KT M11/M21 RMK AO1 PK WND
28020/2038 SLP231 T11111208 51005=
METAR CWVF 272100Z AUTO 32019KT 07/06 RMK AO1 PK WND 32024/2015
T00740056=
CWVI RMK NIL=
CWVN RMK NIL=
METAR CWVP 272100Z AUTO 35006KT M12/M19 RMK AO1 SOG 10 1004 SLP213
T11151192=
METAR CWVQ 272100Z AUTO 25013G18KT M10/M22 RMK AO1 PK WND
24020/2030 SLP301 T10991216 53005=
CWVU RMK NIL=
CWVZ RMK NIL=
METAR CWWA 272100Z AUTO 20001KT 09/03 RMK AO1 SOG 00 1010 SLP100
T00870034=
METAR CWWF 272100Z AUTO 16009KT M14/M17 RMK AO1 SOG 16 6028 SLP251
T11371174=
CWWK RMK NIL=
METAR CWXA 272100Z AUTO 07003KT M07/M12 RMK AO1 SLP223 T10691123
58004=
CWXC RMK NIL=
####018003118####
SACN91 KWBC 272108
METAR CWGR 272100Z AUTO 26013KT M14/M18 RMK AO1 PK WND 27021/2004
SLP213 T11411181 52022=
METAR CWGT 272100Z AUTO 33016KT 09/04 RMK AO1 PK WND 33019/2051
SLP105 T00870043 50002=
METAR CWGW 272100Z AUTO 15006KT M02/M12 RMK AO1 SOG 02 8005 SLP195
T10211123=
METAR CWGX 272100Z AUTO 28010KT M13/M17 RMK AO1 SLP163 T11321172
53007=
METAR CWGY 272100Z AUTO 31011KT M10/M14 RMK AO1 SLP254 T10961138
50000=
CWHD RMK NIL=
CWHI RMK NIL=
METAR CWHL 272100Z AUTO 33009KT 08/M02 RMK AO1 SLP233 T00751015
50009=
METAR CWHM 272100Z AUTO 25018KT M10/M19 RMK AO1 PK WND 23021/2018
T11001191=
METAR CWHQ 272100Z AUTO 25005KT M11/M20 RMK AO1 T11061195=
METAR CWHT 272100Z AUTO 22002KT M06/M15 RMK AO1 SOG 23 8010 SLP362
T10581148=
METAR CWHV 272100Z AUTO 25005KT M12/M23 RMK AO1 SLP267 T11171227
53013=
CWID RMK NIL=
METAR CWIG 272100Z AUTO 21020G26KT RMK AO1 PK WND 21029/2004=
METAR CWII 272100Z AUTO 21017KT M13/M18 RMK AO1 PK WND 21022/2034
T11271180=
CWIJ RMK NIL=
CWIN RMK NIL=
CWIO RMK NIL=
METAR CWIP 272100Z AUTO 27009KT M14/ RMK AO1 T1141=
METAR CWIS 272100Z AUTO 24006KT M15/M21 RMK AO1 SOG 107 3014
SLP226 T11481209=
METAR CWIT 272100Z AUTO 28008KT M09/M21 RMK AO1 PK WND 29017/2020
SLP296 T10941213 53005=
METAR CWIW 272100Z AUTO 16004KT M18/M21 RMK AO1 SOG 02 7012 SLP257
T11791210=
CWIX RMK NIL=
CWIY RMK NIL=
METAR CWIZ 272100Z AUTO 25008G15KT M10/M20 RMK AO1 T11011199=
METAR CWJB 272100Z AUTO 25010G16KT M11/M20 RMK AO1 SOG 43 PK WND
25022/2029 T11101199=
CWJC RMK NIL=
METAR CWJH 272100Z AUTO 28005KT M10/M16 RMK AO1 SOG 42 8006 SLP220
T10971157=
METAR CWGX 272100Z AUTO 28010KT M13/M17 RMK AO1 SLP163 T11321172
53007=
METAR CWGY 272100Z AUTO 31011KT M10/M14 RMK AO1 SLP254 T10961138
50000=
CWHD RMK NIL=
CWHI RMK NIL=
METAR CWHL 272100Z AUTO 33009KT 08/M02 RMK AO1 SLP233 T00751015
50009=
METAR CWHM 272100Z AUTO 25018KT M10/M19 RMK AO1 PK WND 23021/2018
T11001191=
METAR CWHQ 272100Z AUTO 25005KT M11/M20 RMK AO1 T11061195=
METAR CWHT 272100Z AUTO 22002KT M06/M15 RMK AO1 SOG 23 8010 SLP362
T10581148=
METAR CWHV 272100Z AUTO 25005KT M12/M23 RMK AO1 SLP267 T11171227
53013=
CWID RMK NIL=
METAR CWIG 272100Z AUTO 21020G26KT RMK AO1 PK WND 21029/2004=
METAR CWII 272100Z AUTO 21017KT M13/M18 RMK AO1 PK WND 21022/2034
T11271180=
CWIJ RMK NIL=
CWIN RMK NIL=
CWIO RMK NIL=
METAR CWIP 272100Z AUTO 27009KT M14/ RMK AO1 T1141=
METAR CWIS 272100Z AUTO 24006KT M15/M21 RMK AO1 SOG 107 3014
SLP226 T11481209=
METAR CWIT 272100Z AUTO 28008KT M09/M21 RMK AO1 PK WND 29017/2020
SLP296 T10941213 53005=
METAR CWIW 272100Z AUTO 16004KT M18/M21 RMK AO1 SOG 02 7012 SLP257
T11791210=
CWIX RMK NIL=
CWIY RMK NIL=
METAR CWIZ 272100Z AUTO 25008G15KT M10/M20 RMK AO1 T11011199=
METAR CWJB 272100Z AUTO 25010G16KT M11/M20 RMK AO1 SOG 43 PK WND
25022/2029 T11101199=
CWJC RMK NIL=
METAR CWJH 272100Z AUTO 28005KT M10/M16 RMK AO1 SOG 42 8006 SLP220
T10971157=
METAR CWGR 272000Z AUTO 26016G22KT M13/M17 RMK AO1 PK WND
27022/1955 SLP205 T11331169 51021=
####018000113####
SAUS80 KWBC 272100 RRE
METAR
KMWN 272051Z 30030G34KT 80SM FEW080 FEW180 FEW200 M23/M25 RMK ACSL
     NE=
####018003716####
SACN88 KWBC 272108
METAR CAHR 272100Z AUTO 25008KT M12/M19 RMK AO1 SLP224 T11161189
53012=
METAR CERM 272100Z AUTO 27008G15KT M09/M23 RMK AO1 SOG 46 3016
SLP229 T10941233=
CWAR RMK NIL=
METAR CWBK 272100Z AUTO 31005KT M12/M17 RMK AO1 SOG 75 3013 SLP230
T11151173=
CWDA RMK NIL=
METAR CWXI 272100Z AUTO 29006KT M12/M14 RMK AO1 SOG 51 3001 SLP095
T11211138=
CWZN RMK NIL=
METAR CXNP 272100Z AUTO 23014KT M10/M15 RMK AO1 PK WND 23020/2018
SLP237 T10961152 53013=
METAR CZCR 272100Z AUTO 26012G20KT M10/M22 RMK AO1 SOG 36 2016 PK
WND 28023/2009 SLP211 T11031217=
CZDB RMK NIL=
METAR CZSP 272100Z AUTO 25008KT M12/M20 RMK AO1 SOG 69 3015 SLP234
T11161198=
METAR CERM 272100Z AUTO 27008G15KT M09/M23 RMK AO1 SOG 46 3016
SLP229 T10941233=
CWAR RMK NIL=
METAR CWBK 272100Z AUTO 31005KT M12/M17 RMK AO1 SOG 75 3013 SLP230
T11151173=
CWDA RMK NIL=
METAR CWXI 272100Z AUTO 29006KT M12/M14 RMK AO1 SOG 51 3001 SLP095
T11211138=
CWZN RMK NIL=
METAR CXNP 272100Z AUTO 23014KT M10/M15 RMK AO1 PK WND 23020/2018
SLP237 T10961152 53013=
METAR CZCR 272100Z AUTO 26012G20KT M10/M22 RMK AO1 SOG 36 2016 PK
WND 28023/2009 SLP211 T11031217=
CZDB RMK NIL=
METAR CZSP 272100Z AUTO 25008KT M12/M20 RMK AO1 SOG 69 3015 SLP234
T11161198=
CWBK RMK NIL=
METAR CERM 272100Z AUTO 27008G15KT M09/M23 RMK AO1 SOG 46 3016
SLP229 T10941233=
CWAR RMK NIL=
METAR CWBK 272100Z AUTO 31005KT M12/M17 RMK AO1 SOG 75 3013 SLP230
T11151173=
CWDA RMK NIL=
METAR CWXI 272100Z AUTO 29006KT M12/M14 RMK AO1 SOG 51 3001 SLP095
T11211138=
CWZN RMK NIL=
METAR CXNP 272100Z AUTO 23014KT M10/M15 RMK AO1 PK WND 23020/2018
SLP237 T10961152 53013=
METAR CZCR 272100Z AUTO 26012G20KT M10/M22 RMK AO1 SOG 36 2016 PK
WND 28023/2009 SLP211 T11031217=
CZDB RMK NIL=
METAR CZSP 272100Z AUTO 25008KT M12/M20 RMK AO1 SOG 69 3015 SLP234
T11161198=
CWAR RMK NIL=
METAR CWBK 272100Z AUTO 31005KT M12/M17 RMK AO1 SOG 75 3013 SLP230
T11151173=
CWDA RMK NIL=
METAR CWXI 272100Z AUTO 29006KT M12/M14 RMK AO1 SOG 51 3001 SLP095
T11211138=
CWZN RMK NIL=
METAR CXNP 272100Z AUTO 23014KT M10/M15 RMK AO1 PK WND 23020/2018
SLP237 T10961152 53013=
METAR CZCR 272100Z AUTO 26012G20KT M10/M22 RMK AO1 SOG 36 2016 PK
WND 28023/2009 SLP211 T11031217=
CZDB RMK NIL=
METAR CZSP 272100Z AUTO 25008KT M12/M20 RMK AO1 SOG 69 3015 SLP234
T11161198=
CWAR RMK NIL=
METAR CWBK 272100Z AUTO 31005KT M12/M17 RMK AO1 SOG 75 3013 SLP230
T11151173=
CWDA RMK NIL=
METAR CWXI 272100Z AUTO 29006KT M12/M14 RMK AO1 SOG 51 3001 SLP095
T11211138=
CWZN RMK NIL=
METAR CXNP 272100Z AUTO 23014KT M10/M15 RMK AO1 PK WND 23020/2018
SLP237 T10961152 53013=
METAR CZCR 272100Z AUTO 26012G20KT M10/M22 RMK AO1 SOG 36 2016 PK
WND 28023/2009 SLP211 T11031217=
CZDB RMK NIL=
METAR CZSP 272100Z AUTO 25008KT M12/M20 RMK AO1 SOG 69 3015 SLP234
T11161198=
CWAR RMK NIL=
METAR CWBK 272100Z AUTO 31005KT M12/M17 RMK AO1 SOG 75 3013 SLP230
T11151173=
CWDA RMK NIL=
METAR CWXI 272100Z AUTO 29006KT M12/M14 RMK AO1 SOG 51 3001 SLP095
T11211138=
CWZN RMK NIL=
METAR CXNP 272100Z AUTO 23014KT M10/M15 RMK AO1 PK WND 23020/2018
SLP237 T10961152 53013=
METAR CZCR 272100Z AUTO 26012G20KT M10/M22 RMK AO1 SOG 36 2016 PK
WND 28023/2009 SLP211 T11031217=
CZDB RMK NIL=
METAR CZSP 272100Z AUTO 25008KT M12/M20 RMK AO1 SOG 69 3015 SLP234
T11161198=
CWAR RMK NIL=
METAR CWBK 272100Z AUTO 31005KT M12/M17 RMK AO1 SOG 75 3013 SLP230
T11151173=
CWDA RMK NIL=
METAR CWXI 272100Z AUTO 29006KT M12/M14 RMK AO1 SOG 51 3001 SLP095
T11211138=
CWZN RMK NIL=
METAR CXNP 272100Z AUTO 23014KT M10/M15 RMK AO1 PK WND 23020/2018
SLP237 T10961152 53013=
####018001933####
SACN92 KWBC 272108
METAR CWJI 272100Z AUTO 01002KT M10/M20 RMK AO1 SOG 07 6012 SLP228
T11021204=
CWJM RMK NIL=
METAR CWJO 272100Z AUTO 28009KT M11/M21 RMK AO1 PK WND 26017/2007
SLP241 T11111206 52004=
METAR CWJR 272100Z AUTO 05008G15KT 05/M07 RMK AO1 SOG 02 8006
SLP147 T00491072=
METAR CWJT 272100Z AUTO 25005KT M08/M22 RMK AO1 SLP298 T10821224
53003=
CWJU RMK NIL=
METAR CWJV 272100Z AUTO 11003KT 05/01 RMK AO1 SLP143 T00490007
58003=
METAR CWJW 272100Z AUTO 34008KT M04/M15 RMK AO1 SOG 18 8004 PK WND
32017/2016 SLP236 T10401148=
METAR CWJX 272100Z AUTO 30006KT M09/M14 RMK AO1 SOG 00 8006 SLP243
T10921135=
CWKD RMK NIL=
METAR CWKG 272100Z AUTO 27004KT M08/M13 RMK AO1 SOG 76 3015 SLP246
T10791131=
METAR CWKH 272100Z AUTO 05/04 RMK AO1 4PAST HR 0008 SLP089 P0002
T00500035 50006=
METAR CWKX 272100Z AUTO 21003KT M04/M12 RMK AO1 SOG 47 8010 SLP341
T10391116=
METAR CWLC 272100Z AUTO 35024KT 08/M03 RMK AO1 PK WND 35029/2001
T00781029=
METAR CWLE 272100Z AUTO 31009KT M14/M18 RMK AO1 SOG 22 8006 SLP245
T11401179=
METAR CWLM 272100Z AUTO 04007KT 07/06 RMK AO1 2PAST HR 1007 PK WND
03020/2011 SLP097 P0001 T00730055 50010=
CWLU RMK NIL=
METAR CWMJ 272100Z AUTO 22007KT M09/M23 RMK AO1 SOG 28 3003 SLP284
T10881230=
CWMM RMK NIL=
METAR CWMQ 272100Z AUTO 35003KT M09/M16 RMK AO1 SOG 00 8003 SLP237
T10861161=
METAR CWKX 272100Z AUTO 21003KT M04/M12 RMK AO1 SOG 47 8010 SLP341
T10391116=
METAR CWLC 272100Z AUTO 35024KT 08/M03 RMK AO1 PK WND 35029/2001
T00781029=
METAR CWLE 272100Z AUTO 31009KT M14/M18 RMK AO1 SOG 22 8006 SLP245
T11401179=
METAR CWLM 272100Z AUTO 04007KT 07/06 RMK AO1 2PAST HR 1007 PK WND
03020/2011 SLP097 P0001 T00730055 50010=
CWLU RMK NIL=
METAR CWMJ 272100Z AUTO 22007KT M09/M23 RMK AO1 SOG 28 3003 SLP284
T10881230=
CWMM RMK NIL=
METAR CWMQ 272100Z AUTO 35003KT M09/M16 RMK AO1 SOG 00 8003 SLP237
T10861161=
####018001341####
SACN90 KWBC 272108
METAR CWEB 272100Z AUTO 30009KT 12/09 RMK AO1 SOG 00 0002 SLP101
T01200091=
CWEE RMK NIL=
METAR CWEL 272100Z AUTO 33017KT 08/05 RMK AO1 PK WND 32024/2013
SLP105 T00800047 51005=
METAR CWEW 272100Z AUTO 23011G17KT M11/M21 RMK AO1 SOG 19 3004 PK
WND 23018/2000 SLP301 T11071208=
CWEZ RMK NIL=
CWFF RMK NIL=
METAR CWFJ 272100Z AUTO 33008KT M08/M10 RMK AO1 T10831101=
METAR CWFQ 272100Z AUTO 35005KT M12/M22 RMK AO1 SOG 45 3004 SLP292
T11171222=
METAR CWGB 272100Z AUTO 27015KT 08/05 RMK AO1 PK WND 28018/2003
SLP104 T00800049 51004=
CWGD RMK NIL=
CWGH RMK NIL=
METAR CWGL 272100Z AUTO 29012KT M12/M18 RMK AO1 PK WND 29017/2018
SLP329 T11171176 53008=
CWGM RMK NIL=
CWEE RMK NIL=
METAR CWEL 272100Z AUTO 33017KT 08/05 RMK AO1 PK WND 32024/2013
SLP105 T00800047 51005=
METAR CWEW 272100Z AUTO 23011G17KT M11/M21 RMK AO1 SOG 19 3004 PK
WND 23018/2000 SLP301 T11071208=
CWEZ RMK NIL=
CWFF RMK NIL=
METAR CWFJ 272100Z AUTO 33008KT M08/M10 RMK AO1 T10831101=
METAR CWFQ 272100Z AUTO 35005KT M12/M22 RMK AO1 SOG 45 3004 SLP292
T11171222=
METAR CWGB 272100Z AUTO 27015KT 08/05 RMK AO1 PK WND 28018/2003
SLP104 T00800049 51004=
CWGD RMK NIL=
CWGH RMK NIL=
METAR CWGL 272100Z AUTO 29012KT M12/M18 RMK AO1 PK WND 29017/2018
SLP329 T11171176 53008=
CWGM RMK NIL=
####018000979####
SACN89 KWBC 272108
METAR CWAF 272100Z AUTO M09/M19 RMK AO1 T10861191=
METAR CWAQ 272100Z AUTO 17007KT M06/M15 RMK AO1 SOG 00 6022 SLP205
T10561153=
METAR CWAV 272100Z AUTO 01009KT M08/M12 RMK AO1 SOG 10 8004 SLP244
T10771116=
METAR CWBA 272100Z AUTO 21008KT M09/M20 RMK AO1 SOG 57 T10931202=
CWBG RMK NIL=
CWBO RMK NIL=
METAR CWBS 272100Z AUTO 19016KT M10/M19 RMK AO1 PK WND 19023/2027
T11021186=
METAR CWBT 272100Z AUTO 27008KT M15/M20 RMK AO1 PK WND 25022/2003
SLP166 T11461196 52016=
METAR CWBZ 272100Z AUTO 25010KT M10/M20 RMK AO1 SLP309 T10971203
53004=
CWCF RMK NIL=
CWCG RMK NIL=
CWCI RMK NIL=
METAR CWCJ 272100Z AUTO 24009G15KT M10/M16 RMK AO1 SOG 64 5005
SLP283 T10961159=
CWCO RMK NIL=
CWCQ RMK NIL=
CWDD RMK NIL=
CWDF RMK NIL=
CWDJ RMK NIL=
METAR CWDK 272100Z AUTO 01010G15KT M06/M12 RMK AO1 SOG 02 0002
SLP249 T10631117=
CWDT RMK NIL=
METAR CWDZ 272100Z AUTO 35009KT M07/M12 RMK AO1 SLP251 T10661121
58002=
####018002262####
SACN97 KWBC 272108
METAR CXKT 272100Z AUTO 22007KT M09/M17 RMK AO1 SOG 83 1015 PK WND
24017/2000 SLP241 T10891170=
METAR CXKT 272100Z AUTO 22007KT M09/M17 RMK AO1 SOG 83 1015 PK WND
24017/2000 SLP241 T10891170=
METAR CXKT 272100Z AUTO 22007KT M09/M17 RMK AO1 SOG 83 1015 PK WND
24017/2000 SLP241 T10891170=
METAR CXKT 272100Z AUTO 22007KT M09/M17 RMK AO1 SOG 83 1015 PK WND
24017/2000 SLP241 T10891170=
METAR CXBK 272100Z AUTO 15007KT M14/M20 RMK AO1 SOG 19 6017 SLP234
T11351197=
METAR CXKT 272100Z AUTO 22007KT M09/M17 RMK AO1 SOG 83 1015 PK WND
24017/2000 SLP241 T10891170=
METAR CXKT 272100Z AUTO 22007KT M09/M17 RMK AO1 SOG 83 1015 PK WND
24017/2000 SLP241 T10891170=
CXAT RMK NIL=
CXBK RMK NIL=
METAR CXBO 272100Z AUTO 24013KT RMK AO1 PK WND 24022/2045=
METAR CXCA 272100Z AUTO 26006KT M06/M21 RMK AO1 PK WND 23017/2034
SLP270 T10571212 56015=
METAR CXCH 272100Z AUTO M13/M17 RMK AO1 SOG 47 T11261166=
METAR CXCK 272100Z AUTO 29002KT M08/M16 RMK AO1 SOG 29 8009 SLP362
T10781164=
CXDE RMK NIL=
CXDI RMK NIL=
CXDW RMK NIL=
METAR CXEA 272100Z AUTO 25008KT M08/M21 RMK AO1 SOG 47 5014 PK WND
25017/2045 SLP254 T10811208=
CXEC RMK NIL=
CXEG RMK NIL=
METAR CXET 272100Z AUTO 29005KT M10/M19 RMK AO1 SOG 13 3007 SLP332
T11011187=
METAR CXGH 272100Z AUTO 19010KT M09/M18 RMK AO1 T10851180=
CXHA RMK NIL=
METAR CXHF 272100Z AUTO M09/M22 RMK AO1 T10931221=
METAR CXIB 272100Z AUTO 25006KT M13/M20 RMK AO1 SLP213 T11261197
53027=
CXLC RMK NIL=
CXLL RMK NIL=
METAR CXMD 272100Z AUTO 24007KT M10/M17 RMK AO1 SOG 07 7016 SLP292
T11021173=
METAR CXMI 272100Z AUTO 28006KT M05/M15 RMK AO1 SLP238 T10451147
53015=
CXMM RMK NIL=
CXMY RMK NIL=
METAR CXNM 272100Z AUTO 29018G23KT M18/M20 RMK AO1 SOG 168 PK WND
30029/2011 T11791197=
CXOX RMK NIL=
CXPV RMK NIL=
CXQT RMK NIL=
CXRH RMK NIL=
METAR CXSH 272100Z AUTO 19008KT M10/M21 RMK AO1 SLP265 T11021208
53002=
CXSR RMK NIL=
CXTN RMK NIL=
CXTP RMK NIL=
CXTV RMK NIL=
METAR CXWN 272100Z AUTO 23008KT M10/M17 RMK AO1 SLP282 T10961174
56015=
METAR CXZU 272100Z AUTO M08/M14 RMK AO1 20 8007 SLP274 T10821135=
METAR CXKT 272100Z AUTO 22007KT M09/M17 RMK AO1 SOG 83 1015 PK WND
24017/2000 SLP241 T10891170=
####018000730####
SACN96 KWBC 272108
METAR CWXL 272100Z AUTO 33007KT M08/M11 RMK AO1 T10801112=
METAR CWYJ 272100Z AUTO 02005KT 08/05 RMK AO1 0006 SLP097
T00790054 50004=
METAR CWYL 272100Z AUTO 08007KT M04/M16 RMK AO1 SOG 84 8003 SLP180
T10441156=
METAR CWYY 272100Z AUTO 30004KT 06/01 RMK AO1 PK WND 34017/2025
SLP133 T00560008 50001=
METAR CWZA 272100Z AUTO 29006KT 12/M01 RMK AO1 SLP112 T01181007
51013=
CWZL RMK NIL=
METAR CWZO 272100Z AUTO 05014KT RMK AO1 PK WND 04020/2003=
CWZQ RMK NIL=
METAR CWZS 272100Z AUTO 27011G18KT M13/M21 RMK AO1 PK WND
26020/2010 SLP212 T11281206 53017=
CWZV RMK NIL=
CXHM RMK NIL=
CXKA RMK NIL=
METAR CXKE 272100Z AUTO 25008KT M08/M22 RMK AO1 SOG 26 3002 SLP301
T10831219=
####018002051####
SACN86 KWBC 272108
CWHP RMK NIL=
CTAE RMK NIL=
CTAL RMK NIL=
CTCK RMK NIL=
CTCW RMK NIL=
CTWN RMK NIL=
CWAJ RMK NIL=
METAR CWBE 272100Z AUTO 29013KT M11/M18 RMK AO1 PK WND 28019/2015
SLP322 T11081180 55001=
METAR CWLS 272100Z AUTO 26007KT M14/M18 RMK AO1 SOG 25 3009 SLP346
T11371180=
CWNB RMK NIL=
CWNL RMK NIL=
METAR CWPC 272100Z AUTO 25023KT M12/M16 RMK AO1 PK WND 26025/2055
SLP354 T11211164 52005=
CWPS RMK NIL=
CWWX RMK NIL=
CTWN RMK NIL=
CWAJ RMK NIL=
METAR CWBE 272100Z AUTO 29013KT M11/M18 RMK AO1 PK WND 28019/2015
SLP322 T11081180 55001=
METAR CWLS 272100Z AUTO 26007KT M14/M18 RMK AO1 SOG 25 3009 SLP346
T11371180=
CWNB RMK NIL=
CWNL RMK NIL=
METAR CWPC 272100Z AUTO 25023KT M12/M16 RMK AO1 PK WND 26025/2055
SLP354 T11211164 52005=
CWPS RMK NIL=
CWWX RMK NIL=
METAR CWBE 272100Z AUTO 29013KT M11/M18 RMK AO1 PK WND 28019/2015
SLP322 T11081180 55001=
METAR CWLS 272100Z AUTO 26007KT M14/M18 RMK AO1 SOG 25 3009 SLP346
T11371180=
CWNB RMK NIL=
CWNL RMK NIL=
METAR CWPC 272100Z AUTO 25023KT M12/M16 RMK AO1 PK WND 26025/2055
SLP354 T11211164 52005=
CWPS RMK NIL=
CWWX RMK NIL=
CWBE RMK NIL=
CWNL RMK NIL=
METAR CWPO 272100Z AUTO 21012KT M13/M17 RMK AO1 SLP300 T11261168
57020=
CWPS RMK NIL=
CWSI RMK NIL=
CWWX RMK NIL=
METAR CWWZ 272100Z AUTO 24007G15KT M09/M17 RMK AO1 SOG 09 3007 PK
WND 26017/2050 SLP351 T10881173=
METAR CWBE 272100Z AUTO 29013KT M11/M18 RMK AO1 PK WND 28019/2015
SLP322 T11081180 55001=
METAR CWLS 272100Z AUTO 26007KT M14/M18 RMK AO1 SOG 25 3009 SLP346
T11371180=
CWNB RMK NIL=
CWNL RMK NIL=
METAR CWPC 272100Z AUTO 25023KT M12/M16 RMK AO1 PK WND 26025/2055
SLP354 T11211164 52005=
CWPS RMK NIL=
CWWX RMK NIL=
METAR CWDQ 272100Z AUTO 22007G15KT M09/M22 RMK AO1 SOG 38 3004
SLP258 T10941215=
METAR CWDV 272100Z AUTO 26009KT M10/M23 RMK AO1 SOG 57 6011 SLP278
T10951226=
CWNC RMK NIL=
CWNZ RMK NIL=
CWNZ RMK NIL=
METAR CWWB 272100Z AUTO 24008KT M10/M19 RMK AO1 SLP354 T10991189
53007=
####018001983####
SACN93 KWBC 272108
CWMZ RMK NIL=
METAR CWNE 272100Z AUTO 22009KT M13/M17 RMK AO1 SLP213 T11281169
53009=
METAR CWNK 272100Z AUTO 23010KT M09/M17 RMK AO1 T10941167=
METAR CWNM 272100Z AUTO 08007KT 06/M04 RMK AO1 SLP136 T00571035
58003=
METAR CWNP 272100Z AUTO 23002KT 04/M00 RMK AO1 SOG 01 8006 SLP148
T00431001=
METAR CWNQ 272100Z AUTO 21015G20KT M11/M19 RMK AO1 PK WND
20020/2027 SLP274 T11081191 55001=
CWNX RMK NIL=
METAR CWOC 272100Z AUTO 28014G21KT M11/M20 RMK AO1 PK WND
28023/2019 SLP205 T11131203 53012=
METAR CWOD 272100Z AUTO 26013G18KT M11/M20 RMK AO1 SOG 06 3004 PK
WND 25018/2058 SLP211 T11081203=
CWOE RMK NIL=
CWOQ RMK NIL=
METAR CWPD 272100Z AUTO 21009G16KT M16/M21 RMK AO1 SLP266
T11551212 53015=
METAR CWPE 272100Z AUTO 26006KT M06/M16 RMK AO1 SOG 34 3008 SLP251
T10631160=
CWPF RMK NIL=
METAR CWPR 272100Z AUTO 34012KT 04/M04 RMK AO1 SOG 14 0004 PK WND
33017/2050 SLP133 T00421038=
METAR CWPZ 272100Z AUTO 04004KT 01/M12 RMK AO1 SOG 63 8001 SLP264
T00111118=
CWQA RMK NIL=
METAR CWNK 272100Z AUTO 23010KT M09/M17 RMK AO1 T10941167=
METAR CWNM 272100Z AUTO 08007KT 06/M04 RMK AO1 SLP136 T00571035
58003=
METAR CWNP 272100Z AUTO 23002KT 04/M00 RMK AO1 SOG 01 8006 SLP148
T00431001=
METAR CWNQ 272100Z AUTO 21015G20KT M11/M19 RMK AO1 PK WND
20020/2027 SLP274 T11081191 55001=
CWNX RMK NIL=
METAR CWOC 272100Z AUTO 28014G21KT M11/M20 RMK AO1 PK WND
28023/2019 SLP205 T11131203 53012=
METAR CWOD 272100Z AUTO 26013G18KT M11/M20 RMK AO1 SOG 06 3004 PK
WND 25018/2058 SLP211 T11081203=
CWOE RMK NIL=
CWOQ RMK NIL=
METAR CWPD 272100Z AUTO 21009G16KT M16/M21 RMK AO1 SLP266
T11551212 53015=
METAR CWPE 272100Z AUTO 26006KT M06/M16 RMK AO1 SOG 34 3008 SLP251
T10631160=
CWPF RMK NIL=
METAR CWPR 272100Z AUTO 34012KT 04/M04 RMK AO1 SOG 14 0004 PK WND
33017/2050 SLP133 T00421038=
METAR CWPZ 272100Z AUTO 04004KT 01/M12 RMK AO1 SOG 63 8001 SLP264
T00111118=
CWQA RMK NIL=
####018003493####
SACN85 KWBC 272108
METAR CWDM 272100Z AUTO 25012G17KT M15/M19 RMK AO1 SOG 65 3019 PK
WND 26020/2041 SLP131 T11481192=
CWEF RMK NIL=
CWEP RMK NIL=
METAR CWER 272100Z AUTO 24019G24KT RMK AO1 PK WND 23027/2003=
CWEF RMK NIL=
CWEP RMK NIL=
METAR CWER 272100Z AUTO 24019G24KT RMK AO1 PK WND 23027/2003=
METAR CWBY 272100Z AUTO 27019G29KT M15/M19 RMK AO1 SOG 13 3012 PK
WND 28032/2035 SLP172 T11461194=
METAR CWBV 272100Z AUTO 31013KT M06/M14 RMK AO1 PK WND 33018/2008
SLP231 T10561143 53019=
CWDO RMK NIL=
METAR CWHO 272100Z AUTO 27013KT M21/M28 RMK AO1 3018 PK WND
25023/2036 SLP090 T12081280 50007=
METAR CWRN 272100Z AUTO 29009KT M07/ RMK AO1 PK WND 31017/2035
T1070=
METAR CWSS 272100Z AUTO 26008KT M06/M20 RMK AO1 SOG 71 3008 SLP244
T10611196=
METAR CWNH 272100Z AUTO 20007KT M12/M19 RMK AO1 SOG 32 3013 PK WND
18018/2048 SLP234 T11181191=
METAR CWBV 272100Z AUTO 31013KT M06/M14 RMK AO1 PK WND 33018/2008
SLP231 T10561143 53019=
CWDO RMK NIL=
METAR CWHO 272100Z AUTO 27013KT M21/M28 RMK AO1 3018 PK WND
25023/2036 SLP090 T12081280 50007=
METAR CWRN 272100Z AUTO 29009KT M07/ RMK AO1 PK WND 31017/2035
T1070=
METAR CWSS 272100Z AUTO 26008KT M06/M20 RMK AO1 SOG 71 3008 SLP244
T10611196=
CWHO RMK NIL=
METAR CWPK 272100Z AUTO 24008KT M11/M22 RMK AO1 SOG 46 3006 SLP253
T11111215=
METAR CWWE 272100Z AUTO 31006KT M05/M13 RMK AO1 SLP248 T10461132
53015=
CYGS RMK NIL=
METAR CWNH 272100Z AUTO 20007KT M12/M19 RMK AO1 SOG 32 3013 PK WND
18018/2048 SLP234 T11181191=
METAR CWBV 272100Z AUTO 31013KT M06/M14 RMK AO1 PK WND 33018/2008
SLP231 T10561143 53019=
CWDO RMK NIL=
METAR CWHO 272100Z AUTO 27013KT M21/M28 RMK AO1 3018 PK WND
25023/2036 SLP090 T12081280 50007=
METAR CWRN 272100Z AUTO 29009KT M07/ RMK AO1 PK WND 31017/2035
T1070=
METAR CWSS 272100Z AUTO 26008KT M06/M20 RMK AO1 SOG 71 3008 SLP244
T10611196=
CWRA RMK NIL=
METAR CWSF 272100Z AUTO 27013G19KT M13/M23 RMK AO1 PK WND
27024/2007 SLP190 T11301233 53019=
METAR CWBV 272100Z AUTO 31013KT M06/M14 RMK AO1 PK WND 33018/2008
SLP231 T10561143 53019=
CWDO RMK NIL=
METAR CWHO 272100Z AUTO 27013KT M21/M28 RMK AO1 3018 PK WND
25023/2036 SLP090 T12081280 50007=
METAR CWRN 272100Z AUTO 29009KT M07/ RMK AO1 PK WND 31017/2035
T1070=
METAR CWSS 272100Z AUTO 26008KT M06/M20 RMK AO1 SOG 71 3008 SLP244
T10611196=
CWWE RMK NIL=
METAR CWBV 272100Z AUTO 31013KT M06/M14 RMK AO1 PK WND 33018/2008
SLP231 T10561143 53019=
CWDO RMK NIL=
METAR CWHO 272100Z AUTO 27013KT M21/M28 RMK AO1 3018 PK WND
25023/2036 SLP090 T12081280 50007=
METAR CWRN 272100Z AUTO 29009KT M07/ RMK AO1 PK WND 31017/2035
T1070=
METAR CWSS 272100Z AUTO 26008KT M06/M20 RMK AO1 SOG 71 3008 SLP244
T10611196=
METAR CWBV 272100Z AUTO 31013KT M06/M14 RMK AO1 PK WND 33018/2008
SLP231 T10561143 53019=
CWDO RMK NIL=
METAR CWHO 272100Z AUTO 27013KT M21/M28 RMK AO1 3018 PK WND
25023/2036 SLP090 T12081280 50007=
METAR CWRN 272100Z AUTO 29009KT M07/ RMK AO1 PK WND 31017/2035
T1070=
METAR CWSS 272100Z AUTO 26008KT M06/M20 RMK AO1 SOG 71 3008 SLP244
T10611196=
METAR CWBV 272100Z AUTO 31013KT M06/M14 RMK AO1 PK WND 33018/2008
SLP231 T10561143 53019=
CWDO RMK NIL=
METAR CWHO 272100Z AUTO 27013KT M21/M28 RMK AO1 3018 PK WND
25023/2036 SLP090 T12081280 50007=
METAR CWRN 272100Z AUTO 29009KT M07/ RMK AO1 PK WND 31017/2035
T1070=
METAR CWSS 272100Z AUTO 26008KT M06/M20 RMK AO1 SOG 71 3008 SLP244
T10611196=
####018001199####
SACN78 KWBC 272108
CTNK RMK NIL=
METAR CTRA 272100Z AUTO 26006KT M09/M23 RMK AO1 SLP291 T10911226
56014=
CWKK RMK NIL=
METAR CXBI 272100Z AUTO 29011KT M12/M16 RMK AO1 SLP340 T11161155
53007=
CXZC RMK NIL=
METAR CZEL 272100Z AUTO 25013KT M14/M19 RMK AO1 PK WND 26017/2033
SLP351 T11441192 53009=
CTNK RMK NIL=
METAR CTRA 272100Z AUTO 26006KT M09/M23 RMK AO1 SLP291 T10911226
56014=
CWKK RMK NIL=
METAR CXBI 272100Z AUTO 29011KT M12/M16 RMK AO1 SLP340 T11161155
53007=
CXZC RMK NIL=
METAR CZEL 272100Z AUTO 25013KT M14/M19 RMK AO1 PK WND 26017/2033
SLP351 T11441192 53009=
CWKK RMK NIL=
METAR CXBI 272100Z AUTO 29011KT M12/M16 RMK AO1 SLP340 T11161155
53007=
CXZC RMK NIL=
METAR CZEL 272100Z AUTO 25013KT M14/M19 RMK AO1 PK WND 26017/2033
SLP351 T11441192 53009=
CWKK RMK NIL=
METAR CXBI 272100Z AUTO 29011KT M12/M16 RMK AO1 SLP340 T11161155
53007=
CXZC RMK NIL=
METAR CZEL 272100Z AUTO 25013KT M14/M19 RMK AO1 PK WND 26017/2033
SLP351 T11441192 53009=
METAR CXBI 272100Z AUTO 29011KT M12/M16 RMK AO1 SLP340 T11161155
53007=
CXZC RMK NIL=
METAR CZEL 272100Z AUTO 25013KT M14/M19 RMK AO1 PK WND 26017/2033
SLP351 T11441192 53009=
####018000149####
SPXX60 KWBC 272108
SPECI
KBAN 272104Z AUTO 28008G22KT 1 1/4SM -SN BKN029 OVC050 03/M04
     A2968 RMK AO2 RAB2058E02SNB02 P0000 T00281039 $=
####018000475####
SPUS80 KWBC 272108
SPECI
KATT 272104Z AUTO 02008KT 8SM 01/M04 A3033 RMK AO2 T00111039 $=
KABI 272104Z 04007KT 2 1/2SM BR BKN007 OVC015 M06/M08 A3034 RMK
     AO2 CIG 005V009 T10611083=
KFMN 272104Z 13008KT 1SM -SN BR BKN006 OVC018 00/M01 A2979 RMK AO2
     P0000 T00001011=
PHNY 272104Z AUTO 30007KT 10SM BKN013 26/19 A3004 RMK AO2 TSNO
     $=
KSXT 272105Z AUTO VRB04KT 6SM -RA BR BKN003 BKN007 OVC017 03/03
     A2972 RMK AO2 RAB2059 P0000 T00330028=
####018000099####
SPUS80 KWBC 272108 CCA
SPECI
KATT 272104Z AUTO 02008KT 8SM 01/M04 A3033 RMK AO2 T00111039 $=
####018000168####
SAAK41 KNKA 272106
SPECI PATE 272105Z AUTO 19031G35KT 2 1/2SM -SN BR SCT008 BKN015 
 OVC048 M01/M02 A3001 RMK AO2 PK WND 18036/2104 VIS 1 3/4V4 P0000 
 FZRANO=
####018003506####
SAXX60 KWBC 272100 RRJ
METAR
KNMM 272056Z 06009KT 10SM CLR 08/M06 A3039 RMK AO2 SLP302
     T00831056 56024=
KNBC 272056Z 08005KT 10SM CLR 10/02 A3034 RMK AO2 SLP275 T01000022
     55010=
KADW 272058Z AUTO 33011KT 10SM CLR 00/M12 A3047 RMK AO2 SLP329
     T10031117 53019 $=
KCEF 272058Z AUTO 33004KT 10SM CLR M04/M21 A3035 RMK AO2 SLP289
     T10361206 53007=
KDAA 272058Z AUTO 36007KT 10SM CLR 01/M13 A3049 RMK AO2 SLP329
     T00061129 53016=
KFTK 272058Z AUTO 04006KT 10SM CLR M04/M14 A3055 RMK AO2 SLP360
     T10411145 56007=
KGTB 272058Z AUTO 25010G17KT 10SM CLR M11/M18 A3043 RMK AO2 SLP323
     T11081184=
KHOP 272058Z AUTO 04005KT 10SM CLR M04/M13 A3056 RMK AO2 SLP359
     T10371127 55011=
KLFI 272058Z AUTO 04011KT 9SM OVC029 00/M04 A3046 RMK AO2 SLP322
     T00001036 52017 $=
PHNG 272057Z 35010KT CLR 27/21 A2997 RMK AO2 SLP144 T02670211
     51007 $=
PASY 272056Z COR 33013KT 9SM -SN SCT030 OVC037 M03/M10 A3029 RMK
     AO2 SNB17 SLP259 6//// T10281100 53024 $=
TTPP 272100Z 08010KT 9999 FEW016 SCT036 26/23 Q1013 NOSIG=
KBLV 272058Z AUTO 06007KT 10SM CLR M06/M16 A3063 RMK AO2 SLP385
     T10571163 55009=
KDOV 272058Z AUTO 31008G16KT 10SM CLR M01/M09 A3047 RMK AO2 SLP322
     T10091095 53016=
KFAF 272058Z AUTO 04008KT 10SM OVC019 01/M03 A3044 RMK AO2 SLP311
     T00111026 52021 $=
KFFO 272058Z 36008KT 10SM SCT044 M08/M19 A3058 RMK AO2A SLP376
     T10771186 55001=
KGUS 272058Z AUTO 28004KT 10SM CLR M09/M14 A3058 RMK AO2 SLP378
     T10901145 56005=
KMUI 272058Z AUTO VRB04KT 10SM FEW050 M04/M16 A3045 RMK AO2 SLP322
     T10361158 53009=
KOFF 272058Z AUTO 13006KT 10SM CLR M08/M18 A3053 RMK AO2 SLP366
     T10801177 57028=
KPSM 272058Z 26007KT 10SM FEW250 M04/M21 A3032 RMK AO2A SLP273
     T10381206 53007=
KRCA 272058Z AUTO 19018KT 10SM BKN024 BKN030 OVC035 M05/M11 A3001
     RMK AO2 PK WND 18029/04 CIG 024V030 SLP231 T10511115 57027
     $=
KRDR 272058Z AUTO 25009KT 10SM CLR M07/M17 A3037 RMK AO2 SLP313
     T10731167 57019=
KVOK 272058Z 27008KT 10SM CLR M09/M19 A3051 RMK AO2A SLP359
     57012=
KWRI 272058Z AUTO 30009KT 10SM CLR M02/M13 A3041 RMK AO2 SLP303
     T10171130 53013=
KADW 272058Z AUTO 33011KT 10SM CLR 00/M12 A3047 RMK AO2 SLP329
     T10031117 53019 $=
KBLV 272058Z AUTO 06007KT 10SM CLR M06/M16 A3063 RMK AO2 SLP385
     T10571163 55009=
KCEF 272058Z AUTO 33004KT 10SM CLR M04/M21 A3035 RMK AO2 SLP289
     T10361206 53007=
KDAA 272058Z AUTO 36007KT 10SM CLR 01/M13 A3049 RMK AO2 SLP329
     T00061129 53016=
KDOV 272058Z AUTO 31008G16KT 10SM CLR M01/M09 A3047 RMK AO2 SLP322
     T10091095 53016=
KDYS 272058Z 04008KT 6SM -FZRA OVC008 M07/M08 A3033 RMK AO2A
     SLP302 P0000 60000 T10661084 57019 $=
KFAF 272058Z AUTO 04008KT 10SM OVC019 01/M03 A3044 RMK AO2 SLP311
     T00111026 52021 $=
KFFO 272058Z 36008KT 10SM SCT044 M08/M19 A3058 RMK AO2A SLP376
     T10771186 55001=
KFTK 272058Z AUTO 04006KT 10SM CLR M04/M14 A3055 RMK AO2 SLP360
     T10411145 56007=
KGUS 272058Z AUTO 28004KT 10SM CLR M09/M14 A3058 RMK AO2 SLP378
     T10901145 56005=
KHOP 272058Z AUTO 04005KT 10SM CLR M04/M13 A3056 RMK AO2 SLP359
     T10371127 55011=
KLFI 272058Z AUTO 04011KT 9SM OVC029 00/M04 A3046 RMK AO2 SLP322
     T00001036 52017 $=
KMIB 272058Z AUTO 18009KT 9SM CLR M10/M15 A3019 RMK AO2 SLP277
     T11011154 57027 $=
KMUI 272058Z AUTO VRB04KT 10SM FEW050 M04/M16 A3045 RMK AO2 SLP322
     T10361158 53009=
####018000921####
SPUS70 KWBC 272108
SPECI
KAAO 272104Z AUTO 14006KT 3SM -SN FEW016 BKN025 OVC036 M09/M13
     A3050 RMK AO2 P0000 T10941128=
KBOK 272104Z AUTO 35006G14KT 5SM -RA BR BKN010 BKN090 11/10 A2985
     RMK AO2 CIG 001V021 RAB00 P0000=
KGKY 272104Z 03008KT 1SM -SN SCT010 BKN016 OVC020 M02/M06 A3042
     RMK AO2 P0000 T10221056=
KHHR 272104Z 21006KT 10SM SCT023 BKN031 OVC040 18/12 A2980 RMK AO2
     T01780117=
PAKV 272104Z AUTO 00000KT 10SM SCT013 OVC021 M01/M03 A3033 RMK AO1
     T10061028 FZRANO TSNO=
KDFW 272105Z 05008KT 1/2SM R17C/3000V5000FT SN SCT007 OVC013
     M03/M05 A3042 RMK AO2 SCT V BKN P0001 T10331050 $=
KGED 272105Z AUTO 30006KT 10SM FEW029 SCT070 08/M09 A3046 RMK AO2
     T00831089=
KICT 272105Z 12003KT 1 1/4SM -SN SCT016 BKN022 OVC039 M09/M12
     A3050 RMK AO2 P0001 T10891122=
KSAF 272105Z 14016KT 2 1/2SM -SN OVC017 M07/M11 A2989 RMK AO2
     P0000 T10671111=
####018000086####
SAUS70 KWBC 272108
METAR
K24J 272115Z AUTO 06010KT 3SM CLR 12/04 A3030 RMK AO1=
####018000285####
SAUS70 KWBC 272100 RRR
METAR
KMTN 272045Z 30009KT 10SM FEW060 M01/M11 A3051=
KD60 272055Z AUTO 17009KT 10SM CLR M08/M15 A3013 RMK AO2=
KFYG 272055Z AUTO 35007KT 10SM CLR M05/M18 A3060 RMK AO2=
KO22 272055Z AUTO 19004KT 10SM SCT022 BKN039 OVC065 13/08 A2977
     RMK AO1=
####018000087####
SAAF33 KWBC 272100 RRA
METAR
FQMA 272100Z 20008KT 9999 SCT020 24/22 Q1014 NOSIG=
####018000605####
SAAL31 KWBC 272100 RRA
METAR
DAAG 272100Z 36008KT 330V030 9999 FEW020TCU BKN080 11/07 Q1021=
DAAT 272100Z 24002KT CAVOK 10/M14 Q1023=
DABB 272100Z 28011KT 9999 FEW023 SCT040 BKN100 10/09 Q1014=
DABC 272100Z 00000KT 9999 FEW013 BKN023 05/03 Q1015=
DABS 272100Z 10008KT 9999 SCT026 BKN033 07/06 Q1013 RERA=
DAON 272100Z 26010KT 9999 BKN026 14/09 Q1023=
DAOO 272100Z 20006KT 9999 FEW023 SCT233 14/12 Q1021=
DAUA 272100Z 19008KT CAVOK 16/M01 Q1021=
DAUG 272100Z 31011KT CAVOK 16/04 Q1018=
DAUH 272100Z 29014KT 9999 SCT040 SCT100 17/09 Q1016=
DAUZ 272100Z 28003KT CAVOK 10/M02 Q1020=
####018001057####
SAIY44 LIIB 272100
METAR LIMG 272100Z NIL=
METAR LIMK 272055Z 24005KT CAVOK 05/M04 Q1011 RMK BKN SCT110 SCT210
      VAL FOSCHIA VIS MIN 9999=
METAR LIMP 272050Z 23004KT CAVOK 07/03 Q1014=
METAR LIMS 272100Z NIL=
METAR LIMZ 272050Z 24004KT 9999 SCT120 03/00 Q1013=
METAR LIPB 272050Z VRB01KT 9999 FEW120 04/01 Q1015=
METAR LIPC 272055Z 28004KT CAVOK 05/04 Q1013 RMK SKC VIS MIN 9999
      WIND THR11 27004KT BLU=
METAR LIPF 272100Z NIL=
METAR LIPH 272045Z /////KT 9000 NSC 09/06 Q1012 RMK BKN BKN120 VIS
      MIN 9000 WIND THR07 23002KT BLU=
METAR LIPL 272100Z NIL=
METAR LIPO 272050Z 28006KT CAVOK 07/03 Q1013=
METAR LIPQ 272050Z 10004KT CAVOK 07/00 Q1013=
METAR LIPR 272100Z NIL=
METAR LIPX 272045Z 27006KT CAVOK 06/03 Q1013 RMK SCT SCT200 VIS MIN
      9999 BLU=
METAR LIPY 272050Z 19004KT CAVOK 05/04 Q1013=
METAR LIVC 272055Z 00000KT CAVOK M01/M03 Q1010 RMK SCT SCT160 MON LIB
      VAL NIL VIS MIN 9999=
METAR LIVP 272055Z 36015KT CAVOK M05/M07 Q1009 RMK SCT SCT170 MON LIB
      VAL NIL VIS MIN 9999=
####018001450####
SAUK39 EGRR 272050 RRA
METAR EGDM 272050Z AUTO 19007KT 9999 BKN110/// OVC140/// 05/02 Q1018=
METAR EGDX 272050Z AUTO 19007KT 9999 FEW026/// BKN050/// 07/03 Q1016=
METAR EGDY 272050Z AUTO 20007KT 9999 FEW100/// BKN130/// 05/02 Q1018=
METAR EGOM 272050Z AUTO 21019KT 9999 BKN023/// 04/01 Q1008=
METAR EGOP 272050Z AUTO 18023KT 9999 // FEW013/// BKN017/// 07/05 Q1015=
METAR EGOS 272050Z AUTO 18009KT 9999 SCT033/// BKN100/// 06/01 Q1014=
METAR EGOV 272050Z AUTO 19027KT 9000 HZ BKN015/// 07/05 Q1011=
METAR EGQK 272050Z AUTO 19014G24KT 9999 BKN047/// BKN190/// 06/01 Q1000=
METAR EGQL 272050Z AUTO 22016KT 9999 FEW042/// OVC080/// 06/01 Q1005=
METAR EGQS 272050Z AUTO 18011KT 9999 // NCD 06/M00 Q1000=
METAR EGUB 272050Z AUTO 17008KT 9999 // OVC130/// 04/01 Q1018=
METAR EGUW 272050Z AUTO 16009KT 9999 FEW210/// 03/M01 Q1018=
METAR EGVP 272050Z AUTO 21009KT 9999 // OVC120/// 06/02 Q1018=
METAR EGXD 272050Z AUTO 20011KT 9999 // OVC110/// 05/M00 Q1013=
METAR EGXP 272050Z AUTO 20010KT 9999 // BKN150/// 05/01 Q1015=
METAR EGXS 272050Z AUTO 17009KT 9999 // OVC150/// 04/01 Q1015=
METAR EGXT 272050Z AUTO 20008KT 9999 BKN140/// 04/00 Q1016=
METAR EGXU 272050Z AUTO 18009KT 9999 // FEW049/// BKN110/// 05/M01 Q1013=
METAR EGXZ 272050Z AUTO 15010KT 9999 BKN049/// SCT100/// 05/M00 Q1013=
METAR EGYD 272050Z AUTO 20009KT 9999 // BKN150/// 03/M00 Q1016=
METAR EGYM 272050Z AUTO 17009KT 9999 OVC150/// 04/00 Q1017=
####018000774####
SAIY45 LIIB 272100
METAR LIMH 272055Z /////KT 9999 FEW040 M14/M16 Q1008 RMK FEW MON LIB
      VAL N MAR CLD VIS MIN 9999=
METAR LIMT 272100Z NIL=
METAR LIMU 272055Z 01004KT CAVOK 10/02 Q1013 RMK FEW FEW200 QUK / QUL
      / VIS MAR 30 KM VIS MIN 9999=
METAR LIMV 272100Z NIL=
METAR LIMY 272100Z NIL=
METAR LIVD 272100Z NIL=
METAR LIVE 272055Z /////KT 9999 SCT030 M01/M04 Q1013 RMK SCT VIS MIN
      9999=
METAR LIVF 272055Z 21003KT CAVOK 04/M00 Q1009 RMK SKC MON LIB VAL NIL
      VIS MIN 9999=
METAR LIVM 272100Z NIL=
METAR LIVO 272100Z NIL=
METAR LIVR 272055Z 33005KT CAVOK M05/M06 Q1006 RMK SCT SCT200 MON LIB
      VIS MIN 9999=
METAR LIVT 272055Z 04014G31KT CAVOK 08/M00 Q1012 RMK SKC QUK / QUL /
      VIS MAR 10 KM VIS MIN 9999=
####018000938####
SAIY46 LIIB 272100
METAR LIBF 272100Z NIL=
METAR LIEA 272050Z 02002KT 9999 FEW040 08/07 Q1014=
METAR LIEO 272050Z 22003KT 200V260 9999 FEW040 07/06 Q1014=
METAR LIMA 272100Z NIL=
METAR LIQN 272100Z NIL=
METAR LIQO 272055Z 02008KT CAVOK 07/01 Q1009 RMK SKC VAL NIL NC VIS
      MIN 9999=
METAR LIQW 272100Z NIL=
METAR LIRG 272100Z NIL=
METAR LIRH 272100Z NIL=
METAR LIRI 272100Z NIL=
METAR LIRK 272055Z AUTO 36000KT //// 00/00 Q0000=
METAR LIRL 272100Z NIL=
METAR LIRM 272055Z 36003KT 9999 SCT080 07/06 Q1011 RMK BKN VIS MIN
      9999 WIND THR06 35005KT BLU=
METAR LIRS 272055Z /////KT CAVOK 06/02 Q1011 RMK SKC VIS MIN 9999
      WIND THR03 35006KT WIND THR21 /////KT BLU=
METAR LIRT 272055Z 33005KT 0000 FG VV/// 02/M01 Q1009 RMK MON INVIS
      VAL INVIS VIS MIN 0000=
METAR LIRU 272100Z NIL=
METAR LIRV 272100Z NIL=
METAR LIRX 272100Z NIL=
METAR LIRZ 272050Z 36009KT CAVOK 06/02 Q1012=
####018000881####
SAIY47 LIIB 272100
METAR LIBC 272100Z NIL=
METAR LIBD 272050Z 31008KT 9999 -DZ SCT030 09/07 Q1011=
METAR LIBG 272100Z NIL=
METAR LIBP 272050Z VRB03KT 9999 SCT025 SCT080 09/06 Q1013=
METAR LIBQ 272055Z 03002KT 0000 FZFG VV/// M00/M00 Q1006 RMK MON
      INVIS VAL INVIS VIS MIN 0000=
METAR LIBR 272045Z 29011KT 9999 -RA FEW012 FEW015TCU SCT025 10/09
      Q1009 NOSIG RMK BKN BKN070 VIS MIN 9999 WIND THR13 /////KT WIND THR31
      29010KT BLU=
METAR LICA 272050Z 24003KT 9999 FEW025 SCT070 11/07 Q1011=
METAR LICC 272050Z 26007KT 220V310 9999 FEW040 08/04 Q1011=
METAR LICD 272050Z 28004KT 9999 FEW025 12/08 Q1015=
METAR LICG 272100Z NIL=
METAR LICJ 272050Z 28006KT 9999 SCT024 14/09 Q1013=
METAR LICR 272050Z 02011KT 9999 BKN050 11/08 Q1011=
METAR LICT 272055Z VRB01KT 9999 SCT023 10/08 Q1013 RMK SCT VIS MIN
      9999 WIND THR13 /////KT BLU=
####018000594####
SAAU31 KWBC 272100 RRA
METAR
YMML 272100Z 36013KT CAVOK 20/11 Q1006 FM2200 36018G28KT CAVOK
     FM2100 MOD TURB BLW 5000FT=
YPAD 272100Z 03010KT CAVOK 26/13 Q1003 NOSIG=
YPCC 272100Z AUTO 09011KT 9999 DZ SCT037 BKN045 OVC057 26/24
     Q1009=
YPDN 272100Z 20010KT 9999 FEW016 SCT080 BKN300 24/22 Q1006
     NOSIG=
YPLM 272100Z AUTO 22011KT 9999 // NCD 25/20 Q1007=
YPPH 272100Z 13011KT 9999 FEW018 19/13 Q1014 NOSIG=
YPTN 272100Z AUTO 36002KT 9999 // NCD 24/22 Q1006=
YPXM 272100Z AUTO 00000KT 9999 // NCD 22/22 Q1010=
YSSY 272100Z 02005KT CAVOK 22/19 Q1010 NOSIG=
####018000126####
SAUS41 KLWX 272107
MTRRYT
METAR KRYT 272053Z AUTO VRB04KT 10SM FEW041 M03/M14 A3042 RMK AO2 
SLP322 T10331144 53012 $
####018000103####
SAAW31 KWBC 272100 RRA
METAR
OJAI 272100Z NIL=
OLBA 272100Z 06003KT 020V100 CAVOK 18/11 Q1014=
####018000081####
SAXX99 SBBR 272100
METAR SBPB 272100Z 24004KT 9999 SCT017 BKN090 23/22 Q1010=
####018000081####
SABZ12 SBBR 272107
METAR SBPB 272100Z 24004KT 9999 SCT017 BKN090 23/22 Q1010=
####018000812####
SAGU31 MGGT 272100
METAR
METAR MGMM 272100Z 32006KT 9999 SCT020 32/22 Q1012 A2988=
METAR MGHT 272100Z 18012KT 9999 SCT030 25/09 QFE 816.6=
METAR MGPB 272100Z 35004KT 9999 SCT020 29/25 Q1012 A2988=
METAR MGGT 272100Z 36012KT 9999 FEW020 26/11 Q1021 A3015 FEW080=  
METAR MGSJ 272100Z 15008KT 8000 SKC 33/20 Q1009 A2980 FU=
METAR MGRT 272100Z 24014KT 9999 BKN025TCU 33/19 Q1011 A2985 TCU N/NE
VOL. STA. MARIA Y SANTIAGUITO EN ACTIVIDAD=
METAR MGQZ 272100Z 05020KT 9999 BKN012 21/10 QFE 767.9=
METAR MGCB 272100Z 05006KT 9999 BKN016 23/19 QFE 869.5 MTN N/NE/W
CUB/CL=
METAR MGZA 272100Z 07012KT 9999 FEW022 33/19 QFE 985.1 FEW080=
METAR MGES 272100Z 03006KT 9999 SCT020TCU 27/18 QFE 909.8 TCU S/SSW=
METAR MGMT 272100Z 18006KT CAVOK 33/22 QFE 1003.4=
METAR MGTU 272100Z 23012KT CAVOK 34/23 FEW080=
####018000810####
SAGU31 MGGT 272100
METAR
METAR MGMM 272100Z 32006KT 9999 SCT020 32/22 Q1012 A2988=
METAR MGHT 272100Z 18012KT 9999 SCT030 25/09 QFE 816.6=
METAR MGPB 272100Z 35004KT 9999 SCT020 29/25 Q1012 A2988=
METAR MGGT 272100Z 36012KT 9999 FEW020 26/11 Q1021 A3015 FEW080=  
METAR MGSJ 272100Z 15008KT 8000 SKC 33/20 Q1009 A2980 FU=
METAR MGRT 272100Z 24014KT 9999 BKN025TCU 33/19 Q1011 A2985 TCU N/NE VOL. STA. MARIA Y SANTIAGUITO EN ACTIVIDAD=
METAR MGQZ 272100Z 05020KT 9999 BKN012 21/10 QFE 767.9=
METAR MGCB 272100Z 05006KT 9999 BKN016 23/19 QFE 869.5 MTN N/NE/W CUB/CL=
METAR MGZA 272100Z 07012KT 9999 FEW022 33/19 QFE 985.1 FEW080=
METAR MGES 272100Z 03006KT 9999 SCT020TCU 27/18 QFE 909.8 TCU S/SSW=
METAR MGMT 272100Z 18006KT CAVOK 33/22 QFE 1003.4=
METAR MGTU 272100Z 23012KT CAVOK 34/23 FEW080=
####018000081####
SABZ41 KWBC 272100 RRA
METAR
SBBG 272100Z 17006KT 9999 FEW023 28/19 Q1012=
####018000091####
SACA32 KWBC 272100 RRA
METAR
TUPJ 272100Z 11013KT 9999 SCT020 28/21 Q1017 RMK A3004=
####018000209####
SACA33 KWBC 272100 RRA
METAR
TLPC 272100Z 08012KT 9999 FEW026 28/20 Q1015 NOSIG=
TTCP 272100Z 04010KT 9999 FEW016 BKN038 28/21 Q1014 NOSIG=
TTPP 272100Z 08010KT 9999 FEW016 SCT036 26/23 Q1013 NOSIG=
####018000084####
SACA35 KWBC 272100 RRA
METAR
MNPC 272100Z 09008KT 8000 BKN016 29/27 Q1011 HZ=
####018000084####
SACA45 KWBC 272100 RRA
METAR
MNPC 272100Z 09008KT 8000 BKN016 29/27 Q1011 HZ=
####018000450####
SACI32 KWBC 272100 RRA
METAR
ZHHH 272100Z 03003MPS 360V060 5000 RA BR SCT010 FEW030TCU OVC040
     04/03 Q1023 RETS NOSIG=
ZLLL 272100Z 09002MPS 9999 SCT046 M05/M11 Q1024 NOSIG=
ZSNJ 272100Z 07007MPS 5000 -RA BR BKN005 OVC033 03/02 Q1024
     NOSIG=
ZSOF 272100Z 06007MPS 8000 BKN009 OVC046 01/M00 Q1024 NOSIG=
ZUCK 272100Z 02004MPS 9999 -RA SCT020 OVC050 10/08 Q1017 NOSIG=
ZYHB 272100Z 16003MPS 5000 FU NSC M13/M15 Q1028 NOSIG=
####018000296####
SACI31 KWBC 272100 RRA
METAR
RCKH 272100Z 01006KT 340V040 4800 BR FEW012 SCT025 20/18 Q1016
     NOSIG RMK A3002=
RCSS 272100Z 11005KT 9999 FEW012 BKN025 BKN040 17/14 Q1019 NOSIG
     RMK A3010=
RCTP 272100Z 03012KT 6000 -DZ SCT003 BKN006 BKN012 16/15 Q1019
     NOSIG RMK A3010=
####018000225####
SACI41 KWBC 272100 RRA
METAR
RCMQ 272100Z 01006KT 1000 R36/1400N BR BKN002 OVC010 15/14 Q1017
     BECMG FM 2130 0400 FG RMK A3004=
RCNN 272100Z 01008KT 8000 FEW010 BKN018 BKN040 19/16 Q1016 NOSIG
     RMK A3001=
####018003666####
SACN31 KWBC 272100 RRA
METAR
CYBG 272100Z 26010KT 25SM FEW045 M10/M12 A3017 RMK CF1 SLP234=
CYDQ 272100Z AUTO VRB02KT 9SM CLR M05/M11 A3023 RMK SLP284=
CYEG 272100Z 35008KT 12SM -SN BKN021 OVC230 M10/M15 A3019 RMK
     SC7CI1 SLP278=
CYFB 272100Z 33018KT 6SM IC BLSN FEW025 M28/M33 A2963 RMK SC1
     SLP038=
CYFC 272100Z AUTO 23009G15KT 9SM CLR M08/M19 A3023 RMK SLP238=
CYFT 272100Z 27014KT 15SM BKN220 M21/M29 A2974 RMK CI3 LAST
     OB/NEXT 281000 UTC SLP082=
CYGL 272100Z 24009KT 5SM -SN FEW015 BKN240 M17/M21 A2988 RMK
     SC2CI4 SLP142=
CYHZ 272100Z 28008KT 15SM FEW250 M08/M17 A3020 RMK CI2 SLP237=
CYJT 272100Z 28020G26KT 6SM -SN DRSN BKN016 M11/M15 A3002 RMK SC7
     SLP168=
CYKL 272100Z AUTO 28012G17KT 9SM OVC035 M26/M34 A2967 RMK
     SLP118=
CYMH 272100Z AUTO 23008KT 9SM CLR M13/M20 A2978 RMK SLP085=
CYMX 272100Z 23011G16KT 45SM DRSN FEW210 M10/M22 A3039 RMK CI1 CI
     TR SLP299=
CYOW 272100Z 22010KT 15SM SKC M08/M22 A3038 RMK SLP300=
CYPL 272100Z 26015G26KT 230V300 15SM DRSN BKN230 M08/M22 A3004 RMK
     CI7 SLP210=
CYQB 272100Z 24017KT 30SM DRSN FEW020 M12/M20 A3030 RMK SF1 SF TR
     SLP267=
CYQG 272100Z 18016KT 15SM FEW044 M10/M17 A3056 RMK SC1 SLP364=
CYQM 272100Z 23014KT 15SM FEW220 M11/M19 A3019 RMK CI1 CI TR
     SLP230=
CYQQ 272100Z 33017KT 20SM FEW110 SCT250 13/02 A2985 RMK AC2CI0
     SLP110=
CYQX 272100Z 28011KT 20SM FEW035 SCT048 BKN140 M06/M14 A2985 RMK
     SC1SC2AC2 CI TR SLP120=
CYQY 272100Z 30010KT 15SM FEW030 M10/M17 A3015 RMK SC1 PRESRR
     SLP215=
CYRB 272100Z 08018KT 4SM -SN DRSN BKN029 BKN090 M28/M31 A2931 RMK
     SC5AC2 SLP938=
CYSJ 272100Z 24008KT 15SM FEW020 M09/M18 A3024 RMK SC1 SC TR
     SLP248=
CYTE 272100Z 27007KT 15SM SKC M27/M31 A2970 RMK SLP067=
CYTL 272100Z AUTO 29014KT 9SM BKN050 OVC080 M10/M17 A2994 RMK
     SLP160=
CYTR 272100Z 29011G16KT 15SM FEW030 M09/M20 A3047 RMK SC1
     SLP326=
CYUL 272100Z 24018G24KT 30SM FEW210 M10/M21 A3041 RMK CI1 CI TR
     SLP300=
CYUY 272100Z 23012G18KT 15SM FEW230 M10/M19 A3021 RMK CI1 CI TR
     SLP263=
CYVP 272100Z 26010KT 15SM IC FEW007 FEW026 FEW240 M27/M33 A2984
     RMK SF1SC2CI1 SF TR CI TR SLP110=
CYVR 272100Z 29015KT 30SM FEW060 BKN093 BKN130 BKN240 09/06 A2985
     RMK SC1AC4AC1CI1 TR CF SLP107=
CYWG 272100Z 22010G16KT 15SM BKN230 M10/M17 A3031 RMK CI7
     SLP287=
CYWK 272100Z 24012G18KT 4SM IC DRSN OVC026 M24/M28 A2973 RMK SC8
     SLP142=
CYXU 272100Z 25011KT 15SM FEW030 M12/M20 A3053 RMK CF1 SLP365=
CYXX 272100Z 05017G24KT 25SM SCT050 BKN080 BKN180 OVC240 12/M02
     A2983 RMK SC3AC2AC1CI2 SLP104=
CYXY 272100Z 35002KT 40SM FEW220 M07/M13 A3043 RMK CI1 SLP365=
CYYC 272100Z 36013KT 6SM -SHSN BKN020 OVC300 M08/M13 A3008 RMK
     SC6CI2 SLP258=
CYYJ 272100Z 36004KT 310V030 30SM -RA BKN054 OVC075 09/05 A2983
     RMK SC6AC2 SLP103=
CYYQ 272100Z 33010KT 15SM IC FEW008 M18/M21 A2996 RMK ST1
     SLP149=
CYYR 272100Z 28008KT 15SM FEW040 FEW080 FEW120 BKN220 M18/M29
     A2983 RMK CF1AC1AC1CI2 SLP107=
CYYT 272100Z 25014G19KT 15SM SCT025 BKN090 M05/M10 A2989 RMK
     SC3AC2 SLP131=
CYYZ 272100Z 26014G21KT 15SM FEW030 SCT035 M11/M18 A3051 RMK
     CU1SC2 SLP349=
CYZF 272100Z 25008KT 15SM SCT110 BKN240 M08/M13 A2999 RMK AC4CI3
     SLP180=
CYZV 272100Z 28011G17KT 30SM DRSN FEW020 SCT250 M15/M26 A3005 RMK
     CF1CI2 SLP181=
CYZX 272100Z 27012KT 15SM FEW035 SCT120 M09/M13 A3027 RMK SC2AC1
     WNDY HILL 28010G15KT SLP252=
CYZY 272100Z AUTO 35009KT 9SM CLR M02/M11 A3024 RMK SLP280=
CZBF 272100Z 27011G18KT 15SM DRSN FEW045 M10/M22 A3014 RMK CF1 CF
     TR SLP213=
####018000243####
SAEE31 KWBC 272100 RRA
METAR
UKKK 272100Z 21002MPS 190V260 7000 OVC011 03/02 Q1017 08290058
     NOSIG=
UMII 272100Z NIL=
UMMM 272100Z NIL=
UMMS 272100Z 00000MPS 2500 -SN BR OVC002 00/00 Q1015 R31/290060
     NOSIG RMK QBB060=
####018000087####
SAID31 KWBC 272100 RRA
METAR
WAMM 272100Z 04001KT 9000 SCT020 24/23 Q1010 NOSIG=
####018000217####
SAIY32 KWBC 271950 RRC
METAR
LIPH 272045Z /////KT 9000 NSC 09/06 Q1012 RMK BKN BKN120 VIS MIN
     9000 WIND THR07 23002KT BLU=
LIPX 272045Z 27006KT CAVOK 06/03 Q1013 RMK SCT SCT200 VIS MIN 9999
     BLU=
####018000192####
SAIY31 KWBC 271950 RRB
METAR
LIBR 272045Z 29011KT 9999 -RA FEW012 FEW015TCU SCT025 10/09 Q1009
     NOSIG RMK BKN BKN070 VIS MIN 9999 WIND THR13 /////KT WIND
     THR31 29010KT BLU=
####018000310####
SAIO31 KWBC 272100 RRA
METAR
FSIA 272100Z 28006KT 9999 FEW018 27/22 Q1009 NOSIG=
VYMD 272100Z NIL=
VYYY 272100Z NIL=
WBGG 272100Z 24002KT 8000 FEW020 BKN300 25/23 Q1009 NOSIG=
WBKK 272100Z 11006KT 9999 FEW014 BKN270 25/22 Q1008 NOSIG=
WBSB 272100Z 22001KT 9999 FEW004 BKN300 25/25 Q1009 NOSIG=
####018000137####
SAIY32 KWBC 272050 RRA
METAR
LIPO 272050Z 28006KT CAVOK 07/03 Q1013=
LIPR 272100Z NIL=
LIPY 272050Z 19004KT CAVOK 05/04 Q1013=
####018000350####
SAIY31 KWBC 272050 RRA
METAR
LIBC 272100Z NIL=
LIBP 272050Z VRB03KT 9999 SCT025 SCT080 09/06 Q1013=
LICA 272050Z 24003KT 9999 FEW025 SCT070 11/07 Q1011=
LICG 272100Z NIL=
LICR 272050Z 02011KT 9999 BKN050 11/08 Q1011=
LICT 272055Z VRB01KT 9999 SCT023 10/08 Q1013 RMK SCT VIS MIN 9999
     WIND THR13 /////KT BLU=
LIMG 272100Z NIL=
####018000476####
SAIY41 KWBC 272050 RRA
METAR
LIBA 272100Z NIL=
LIBG 272100Z NIL=
LIBN 272100Z NIL=
LIBQ 272055Z 03002KT 0000 FZFG VV/// M00/M00 Q1006 RMK MON INVIS
     VAL INVIS VIS MIN 0000=
LIBV 272055Z 33012KT 3200 -DZ BR SCT006 BKN020 07/06 Q1009 RMK OVC
     VIS MIN 3200 WIND THR32 33014KT WIND THR14 33012KT YLO=
LICD 272050Z 28004KT 9999 FEW025 12/08 Q1015=
LICZ 272055Z 28011KT 9999 SCT120 09/06 Q1012 RMK SCT VIS MIN 9999
     WIND THR28 26009KT A2990 BLU=
####018000554####
SAIY42 KWBC 272050 RRA
METAR
LIMK 272055Z 24005KT CAVOK 05/M04 Q1011 RMK BKN SCT110 SCT210 VAL
     FOSCHIA VIS MIN 9999=
LIMN 272100Z NIL=
LIMS 272100Z NIL=
LIPA 272055Z 08004KT 9999 BKN110 07/05 Q1012 RMK BKN VIS MIN 9999
     A2990 BLU=
LIPC 272055Z 28004KT CAVOK 05/04 Q1013 RMK SKC VIS MIN 9999 WIND
     THR11 27004KT BLU=
LIPF 272100Z NIL=
LIPI 272100Z NIL=
LIPL 272100Z NIL=
LIPS 272055Z 00000KT 8000 SCT080 09/06 Q1012 RMK BKN SCT200 VIS
     MIN 8000 WIND THR26 /////KT WIND THR08 00000KT BLU=
LIPU 272100Z NIL=
####018000223####
SAIY43 KWBC 272050 RRA
METAR
LIVC 272055Z 00000KT CAVOK M01/M03 Q1010 RMK SCT SCT160 MON LIB
     VAL NIL VIS MIN 9999=
LIVP 272055Z 36015KT CAVOK M05/M07 Q1009 RMK SCT SCT170 MON LIB
     VAL NIL VIS MIN 9999=
####018000114####
SAIY43 KWBC 271950 RRD
METAR
LIPX 272045Z 27006KT CAVOK 06/03 Q1013 RMK SCT SCT200 VIS MIN 9999
     BLU=
####018000474####
SARA31 KWBC 272100 RRA
METAR
UMBB 272100Z NIL=
UMGG 272100Z VRB01MPS 0200 R28/0650 FG VV002 02/02 Q1016
     R28/290050 NOSIG RMK QBB070=
UMII 272100Z NIL=
UMMG 272100Z NIL=
UMMM 272100Z NIL=
UMMS 272100Z 00000MPS 2500 -SN BR OVC002 00/00 Q1015 R31/290060
     NOSIG RMK QBB060=
UTAK 272100Z 10005MPS CAVOK 01/M01 Q1029 R16/CLRD70 NOSIG=
UTAT 272100Z VRB02MPS CAVOK 00/M02 Q1033 99CLRD70 NOSIC=
UTAV 272100Z 00000MPS 7000 FEW100 03/01 Q1031 NOSIG=
####018000099####
SARS31 KWBC 272100 RRA
METAR
UTAM 272100Z 29004MPS 6000 SKC 02/M00 Q1032 NOSIG RMK 881///60=
####018000081####
SASA31 KWBC 272100 RRA
METAR
SVBC 272100Z 00000KT 9999 BKN013 29/26 Q1012=
####018000180####
SASA32 KWBC 272100 RRA
METAR
SUCA 272100Z 12010G20KT 9999 FEW016 21/12 Q1014=
SULS 272100Z 18013KT 9999 SCT026 20/11 Q1016=
SUSO 272100Z 19006KT 9999 SCT027 30/18 Q1012=
####018000471####
SATS31 KWBC 272100 RRA
METAR
DTMB 272100Z 15003KT CAVOK 12/09 Q1014 NOSIG=
DTTA 272100Z 00000KT 9999 FEW026TCU 10/08 Q1014 NOSIG=
DTTB 272100Z 24003KT 9999 SCT016 11/09 Q1014=
DTTG 272100Z 21008KT 7000 FEW020 SCT030 12/03 Q1015 NOSIG=
DTTJ 272100Z 23008KT 9999 FEW020 SCT026 13/07 Q1015 NOSIG=
DTTK 272100Z 00000KT 9999 SCT023 12/08 Q1014=
DTTX 272100Z 21006KT 9999 SCT020 SCT030 12/05 Q1014 NOSIG=
DTTZ 272100Z 16008KT 9999 SCT030 15/05 Q1014 NOSIG=
####018000266####
SAUR31 KWBC 272100 RRA
METAR
UKKK 272100Z 21002MPS 190V260 7000 OVC011 03/02 Q1017 08290058
     NOSIG=
UKKM 272100Z AUTO 20002MPS 7000 ///014 04/04 Q1017=
UKLI 272100Z NIL=
UKLN 272100Z NIL=
UKLR 272100Z NIL=
UKLU 272100Z NIL=
UKON 272100Z NIL=
####018000138####
SAXX61 KWBC 272100 RRA
METAR
LICZ 272055Z 28011KT 9999 SCT120 09/06 Q1012 RMK SCT VIS MIN 9999
     WIND THR28 26009KT A2990 BLU=
####018003736####
SAXX99 KWBC 272100 RRE
METAR
CWAE 272100Z 36004KT 15SM SCT060 SCT120 BKN200 07/M06 A2990 RMK
     CU3AC1CI1 WND ESTD SLP137=
CWCA 272100Z 29011KT 15SM FEW070 BKN250 M18/M26 A2978 RMK AC1CS3
     SLP087=
CWCL 272100Z AUTO 34004KT 9SM M04/M09 A3000 RMK SLP201=
CWEU 272100Z 00000KT 15SM FEW100 M45/M47 A2962 RMK AC1 SLP033=
CWFD 272100Z AUTO 35006KT 9SM CLR M27/ A2910 RMK SLP963=
CWIL 272100Z AUTO 25021KT M15/ A2924 RMK SLP913=
CWKM 272100Z AUTO 28027KT M01/ A3008 RMK SLP191=
CWKW 272100Z AUTO ///// M30/ A2935 RMK SLP017=
CWLI 272100Z AUTO 06011KT M11/ A2995 RMK SLP155=
CWLX 272100Z AUTO 32004KT M30/ A2952 RMK SLP027=
CWLY 272100Z AUTO 36012G28KT 310V040 9SM BKN049 OVC060 06/M06
     A3001 RMK SLP168=
CWOB 272100Z AUTO 03011KT M23/ A2937 RMK SLP008=
CWRH 272100Z AUTO ///// M23/ A2940 RMK SLP011=
CWRX 272100Z AUTO 20009KT M31/ A2956=
CWSA 272100Z AUTO 27011G16KT 9SM FEW026 M05/M09 A3022 RMK
     SLP234=
CWSW 272100Z 14008KT 110V190 15SM BKN045 BKN080 BKN200 M02/M13
     A2996 RMK SC6AC1CS1 CS TR SLP194=
CWTU 272100Z AUTO 29006KT M25/ A2945 RMK SLP051=
CWUP 272100Z AUTO ///// M29/ A2936 RMK SLP004=
CWUW 272100Z AUTO 28007KT 9SM FEW054 FEW060 FEW092 M28/ A2933 RMK
     SLP016=
CWVD 272100Z AUTO 28004KT M27/ A2926 RMK SLP999=
CWVH 272100Z AUTO 26036KT M04/ A2996 RMK SLP169=
CWXR 272100Z AUTO 31025KT M18/ A2980 RMK SLP104=
CWYM 272100Z AUTO 29005KT M24/ A2925 RMK SLP982=
CWZZ 272100Z AUTO 29011KT M26/ A2942 RMK SLP029=
CYAH 272100Z AUTO 26007KT 4SM HZ BKN021 BKN026 OVC036 M22/M27
     A2986 RMK SLP153=
CYAM 272100Z 30007KT 15SM SKC M10/M18 A3041 RMK CU TR SLP317=
CYAS 272100Z 27012KT 15SM BKN080 M33/M39 A2967 RMK AS2 SLP072=
CYAY 272100Z AUTO 26006KT 9SM FEW070 M15/M19 A2982 RMK SLP102=
CYAZ 272100Z 18005KT 15SM FEW050 SCT080 BKN220 11/07 A2980 RMK
     SC1AC3CI2 SLP092=
CYBB 272100Z 20022G29KT 3/4SM -SN BLSN OVC008 M22/M25 A2938 RMK
     BLSN6ST2 PRESSFR SLP952=
CYBC 272100Z AUTO 28011G19KT 9SM CLR M12/M24 A3014 RMK SLP208=
CYBD 272100Z 06008G18KT 030V140 15SM SKC 08/M10 A3021 RMK TR CU TR
     TCU SLP231=
CYBK 272100Z 20007KT 6SM -SN FEW015 BKN050 M21/M24 A2969 RMK
     SC2SC5 SLP057=
CYBL 272100Z 31011G18KT 30SM FEW040 FEW130 BKN250 12/02 A2987 RMK
     CU1AC1CI4 SLP116=
CYBN 272100Z AUTO 30006KT 230V340 9SM SCT037 M10/M19 A3047 RMK
     SLP341=
CYBR 272100Z 22005KT 15SM OVC240 M13/M18 A3024 RMK CI8 SLP285=
CYBU 272100Z AUTO 20006KT 9SM OVC060 M15/M20 A3014 RMK SLP250=
CYBV 272100Z 26006KT 15SM FEW100 BKN220 M10/M19 A3014 RMK AC1CS5
     SLP230=
CYBW 272100Z AUTO 02011KT 9SM FEW034 BKN042 OVC050 M07/M11 A3005
     RMK SLP247=
CYBX 272100Z 25005KT 15SM FEW150 M16/M19 A2981 RMK AC2 SLP097=
CYCB 272100Z 29016KT 2 1/2SM -SN BLSN SCT020 BKN095 M15/M17 A2928
     RMK BLSN1SC3AC3 VIS VRB 13/4-4 SLP918=
CYCD 272100Z 00000KT 20SM FEW030 SCT090 BKN150 BKN230 10/05 A2985
     RMK SC1CC3AC2CI1 SLP109=
CYCG 272100Z 35008KT 15SM VCSH FEW018 OVC050 03/M00 A2991 RMK
     SF1SC7 SLP144=
CYCO 272100Z 32029KT 8SM DRSN SCT030 SCT300 M12/M15 A2973 RMK
     SC3CC1 CC TR SLP070=
CYCP 272100Z 02008G15KT 15SM FEW070 FEW170 FEW300 04/M12 A3000 RMK
     CU1AC1CI2 CU TR AC TR SLP190=
CYCQ 272100Z 23004KT 35SM FEW045 M03/M10 A3025 RMK CU1 CU TR
     SLP284=
CYCS 272100Z 17006KT 10SM IC FEW060 BKN150 M29/M32 A2984 RMK
     SC2AC4 SLP105=
CYCX 272100Z 23008KT 15SM SKC M08/M21 A3023 RMK DA-3071FT
     SLP240=
CYDA 272100Z VRB02KT 20SM FEW040 SCT110 BKN180 M14/M16 A3048 RMK
     SC1AC3CI2 SC TR SLP364=
CYDB 272100Z 12005KT 30SM FEW250 M08/M14 A3041 RMK CI2 SLP371=
CYDC 272100Z 36012G18KT 15SM BKN040 BKN100 BKN150 04/M04 A2989 RMK
     SC5AC1AS1 SLP138=
####018003720####
SAXX99 KWBC 272100 RRF
METAR
CYDN 272100Z AUTO 29012KT 9SM CLR M09/M16 A3018 RMK SLP250=
CYDP 272100Z 29017KT 15SM FEW130 BKN220 M23/M31 A2976 RMK AC2CI1
     SLP079=
CYED 272100Z 32014KT 6SM -SHSN OVC020 M10/M16 A3018 RMK SC8
     DA-633FT VIS LWR N SLP273=
CYEK 272100Z 28007KT 15SM FEW300 M23/M26 A2992 RMK CI1 SLP135=
CYEN 272100Z 19006KT 15SM BKN230 M09/M17 A3012 RMK CI7 SLP256=
CYET 272100Z AUTO 33008KT 9SM SCT029 M08/M14 A3016 RMK SLP272=
CYEV 272100Z 27009KT 15SM BKN037 M00/M07 A3006 RMK SC7 SLP185=
CYFO 272100Z 27008KT 250V320 15SM SCT040 M08/M17 A3008 RMK SC4
     SLP215=
CYFR 272100Z 27006G16KT 15SM FEW090 BKN270 M11/M15 A3009 RMK
     AC1CS7 AC TR SLP210=
CYFS 272100Z 13002KT 15SM SCT100 OVC210 M08/M11 A3016 RMK AS3CS5
     HALO SLP231=
CYGE 272100Z 31006KT 20SM FEW070 SCT150 BKN200 03/M12 A2997 RMK
     CU2AS1CS4 HALO SLP182=
CYGH 272100Z 28016G24KT 5SM BLSN BKN035 OVC060 M01/M04 A3011 RMK
     SC6ST2 SLP206=
CYGK 272100Z 23010G15KT 15SM FEW030 M10/M18 A3047 RMK CU1 CU TR
     SLP327=
CYGP 272100Z 28012G20KT 15SM DRSN BKN035 M12/M22 A3008 RMK CU5
     SLP190=
CYGQ 272100Z 24013KT 15SM DRSN BKN220 BKN250 M10/M22 A3017 RMK
     CI6CS1 SLP252=
CYGR 272100Z 27014KT 20SM FEW020 M14/M19 A3016 RMK SC1 SC TR
     SLP212=
CYGT 272100Z 17006KT 15SM FEW030 SCT150 BKN230 M35/M39 A2954 RMK
     SC1AS3CI2 SLP013=
CYGV 272100Z AUTO 27016KT 9SM FEW022 BKN026 M16/M20 A2999 RMK
     PRESRR SLP159=
CYGW 272100Z AUTO 02003KT 330V040 9SM FEW021 SCT027 M23/M27 A2993
     RMK SLP137=
CYGX 272100Z 29010G15KT 15SM OVC013 M13/M18 A2997 RMK SC8
     SLP163=
CYHA 272100Z 30013G18KT 3SM IC DRSN FEW012 FEW080 BKN150 OVC250
     M23/M26 A2966 RMK SF1AS1AC0CI0 SLP048=
CYHD 272100Z AUTO 25014G21KT 9SM CLR M09/M22 A3020 RMK SLP271=
CYHH 272100Z 24015G20KT 15SM DRSN SCT220 M14/M23 A2996 RMK CC0
     LAST OBS/NEXT 021200 UTC SLP176=
CYHM 272100Z 25016KT 15SM DRSN FEW030 M12/M21 A3051 RMK CF1 CF TR
     SLP355=
CYHU 272100Z AUTO 25018KT 9SM CLR M10/M20 A3040 RMK SLP296=
CYHY 272100Z 27009KT 15SM BKN120 OVC230 M06/M12 A3013 RMK AS5CS3
     SLP222=
CYIK 272100Z 20009KT 15SM FEW220 M29/M32 A2981 RMK CI1 SLP102=
CYIO 272100Z 18005KT 15SM FEW070 BKN240 M35/M39 A2953 RMK AC2CI3
     SLP012=
CYIV 272100Z 26011KT 15SM DRSN BKN100 M11/M18 A3001 RMK AC5
     SLP185=
CYJF 272100Z 24006KT 15SM FEW160 SCT210 M06/M12 A3021 RMK AC2CI2
     SLP246=
CYKA 272100Z 28020G29KT 40SM FEW025 FEW050 SCT075 BKN230 06/M02
     A2999 RMK CF1CU2AC2CI3 CF TR SLP168=
CYKD 272100Z 28006KT 15SM SCT030 SCT080 BKN140 01/M07 A3010 RMK
     SC3AC1AC3 SLP192=
CYKF 272100Z AUTO 26009G15KT 9SM CLR M13/M20 A3049 RMK SLP355=
CYKJ 272100Z AUTO 27008KT 240V300 9SM OVC009 M14/M17 A3008 RMK
     SLP235=
CYKO 272100Z 15003KT 15SM SKC M33/M36 A2986 RMK LAST OB NEXT /
     021300 UTC REDUCED PROGRAM SLP116=
CYKY 272100Z 32006KT 15SM BKN015 OVC090 M13/M16 A3009 RMK SC7AC1
     SLP252=
CYKZ 272100Z 27007KT 15SM FEW032 M09/M18 A3048 RMK CU2 SLP341=
CYLD 272100Z 23011KT 15SM FEW040 M10/M18 A3023 RMK CU2 SLP280=
CYLJ 272100Z 27005KT 3SM -SN OVC020 M13/M17 A3017 RMK SC8
     SLP268=
CYLL 272100Z 33008KT 5SM -SN OVC023 M13/M16 A3013 RMK SC8
     SLP267=
CYLW 272100Z AUTO 34016KT 9SM OVC055 07/M04 A2991 RMK SLP141=
CYMA 272100Z 11003KT 20SM FEW045 SCT090 M10/M12 A3040 RMK SC1AC3
     SLP347=
CYMJ 272100Z 33004KT 15SM FEW200 BKN240 M12/M18 A3010 RMK CS1CI3
     SLP251=
CYMM 272100Z AUTO 05003KT 350V090 9SM OVC021 M12/M15 A3022 RMK
     SLP267=
CYMO 272100Z AUTO 26015G23KT 9SM CLR M07/M19 A3006 RMK SLP178=
CYMT 272100Z 24012G17KT 15SM FEW075 M13/M21 A3003 RMK AS1
     SLP209=
####018003676####
SAXX99 KWBC 272100 RRG
METAR
CYMU 272100Z 18006KT 15SM FEW006 FEW270 M27/M31 A2992 RMK SF1CI0
     SLP144=
CYNA 272100Z AUTO 26022G33KT 1/2SM SN BLSN OVC020 M15/M17 A2997
     RMK SLP148=
CYND 272100Z 25006KT 15SM SKC M09/M21 A3040 RMK SLP301=
CYNE 272100Z AUTO 29007KT 210V320 9SM CLR M11/M18 A3006 RMK
     SLP203=
CYNM 272100Z AUTO 24012G18KT 210V270 9SM CLR M10/M18 A3008 RMK
     SLP215=
CYOA 272100Z 29025G30KT 1/2SM -SN BLSN VV005 M11/M12 A2967 RMK
     BLSN8 SLP097=
CYOC 272100Z 26016G24KT 20SM DRSN BKN015 BKN021 BKN030 M03/M06
     A3017 RMK SF5ST1SC2 ST TR CLIMAT -2.9/-4.0/TRCM/TRMWE/LAST
     STFD OBS/NEXT 28 1400 UTC SLP237=
CYOD 272100Z 32007KT 15SM SCT026 M10/M17 A3017 RMK SC4 SLP267=
CYOY 272100Z AUTO 22012G18KT 190V250 9SM CLR M12/M22 A3025 RMK
     SLP266=
CYPA 272100Z 34004KT 15SM OVC053 M14/M20 A3014 RMK SC8 SLP252=
CYPC 272100Z 32010KT 15SM FEW020 SCT070 BKN100 BKN200 M17/M20
     A2997 RMK SC1AC3AS1CI1 SLP148=
CYPE 272100Z 22011KT 15SM FEW015 FEW250 M10/M13 A3023 RMK SF1CI1
     SLP281=
CYPG 272100Z 21009KT 15SM FEW180 BKN220 M09/M18 A3029 RMK AC2CI2
     SLP285=
CYPH 272100Z AUTO 22004KT 9SM CLR M29/M32 A2990 RMK SLP128=
CYPQ 272100Z AUTO 29014G19KT 9SM CLR M11/M18 A3046 RMK SLP335=
CYPR 272100Z AUTO 34007KT 9SM CLR 10/M03 A3023 RMK SLP239=
CYPW 272100Z 26005KT 50SM FEW013 FEW110 SCT230 08/06 A2986 RMK
     CF1AC2CI1 CF TR SLP113=
CYPX 272100Z AUTO 18006KT 9SM CLR M32/M36 A2987 RMK SLP119=
CYPY 272100Z AUTO 26011KT 9SM CLR M11/M15 A3019 RMK SLP246=
CYQA 272100Z AUTO 28009G15KT 250V310 9SM OVC033 M12/M18 A3042 RMK
     SLP334=
CYQD 272100Z 29007KT 15SM FEW080 FEW210 M10/M17 A3011 RMK AC1CI1
     AC TR SLP221=
CYQF 272100Z 35008KT 6SM IC DRSN FEW016 OVC080 M09/M13 A3013 RMK
     CU1AC7 SLP269=
CYQH 272100Z 29009KT 40SM FEW030 BKN085 BKN210 M06/M12 A3028 RMK
     SC2AC3CS1 SLP311=
CYQI 272100Z 30011KT 15SM FEW030 FEW250 M08/M14 A3031 RMK SC1CI1
     SC TR SLP267=
CYQL 272100Z 32012G19KT 10SM -SN OVC022 M06/M11 A3009 RMK SC8
     SLP251=
CYQR 272100Z 13009KT 15SM OVC250 M16/M20 A3010 RMK CI8 SLP254=
CYQT 272100Z 25011KT 20SM FEW250 M07/M21 A3031 RMK CI2 SLP282=
CYQU 272100Z 24008KT 25SM FEW015 FEW230 M09/M13 A3026 RMK SC1CI1
     SLP296=
CYQV 272100Z AUTO 23007KT 9SM CLR M12/M19 A3013 RMK SLP255=
CYQW 272100Z AUTO 31005KT 9SM OVC041 M17/M21 A3016 RMK SLP273=
CYQZ 272100Z AUTO 33015KT 9SM CLR=
CYRA 272100Z 28005KT 240V300 15SM OVC012 M06/M11 A2996 RMK ST8
     SLP165=
CYRJ 272100Z 28011G18KT 40SM FEW025 M10/M22 A3015 RMK SC1 SC TR
     SLP229=
CYRL 272100Z 24015G22KT 15SM DRSN FEW170 OVC200 M08/M20 A3013 RMK
     AC2CS6 SLP242=
CYRT 272100Z 21004KT 5SM IC BKN030 OVC300 M27/M31 A2984 RMK SC6CI2
     SLP111=
CYRV 272100Z AUTO 30007KT 9SM CLR 06/M07 A2993 RMK SLP151=
CYSB 272100Z 22015KT 20SM SKC M11/M18 A3030 RMK SLP297=
CYSC 272100Z AUTO 28010G15KT 9SM CLR M11/M22 A3032 RMK SLP292=
CYSF 272100Z AUTO 28016G21KT 9SM -SN FEW026 M13/M18 A3011 RMK
     SLP223=
CYSK 272100Z 18004KT 15SM SKC M28/M31 A2992 RMK SLP137=
CYSM 272100Z 24009KT 15SM FEW040 OVC140 M07/M15 A3010 RMK SC2AS6
     SLP215=
CYSN 272100Z 24012G19KT 15SM FEW030 M10/M18 A3056 RMK SC1
     SLP355=
CYSY 272100Z 35013KT 10SM IC DRSN SCT030 BKN080 M27/M30 A2990 RMK
     SC4AC2 HALO PRESRR SLP137=
CYTH 272100Z 31010G18KT 15SM -SN SCT028 OVC065 M11/M18 A3000 RMK
     SC4SC4 SLP182=
CYTQ 272100Z 23015KT 12SM FEW024 M28/M35 A2981 RMK SC1 SLP101=
CYTS 272100Z 26011G18KT 200V280 15SM SCT140 BKN240 M07/M19 A3018
     RMK AC4CI2 SLP248=
CYTZ 272100Z AUTO 25014KT 9SM CLR M09/M18 A3054 RMK SLP347=
####018003729####
SAXX99 KWBC 272100 RRH
METAR
CYUA 272100Z AUTO 23011G16KT 9SM -SN FEW013 SCT018 OVC023 OVC040
     M02/ A3012 RMK SLP204=
CYUB 272100Z 27026G37KT 1/4SM -SN +BLSN BKN020 OVC080 M03/M05
     A2995 RMK BLSN5SC1AS2 SUN DMLY VISBL SLP144=
CYUS 272100Z AUTO 21022KT 1/8SM OVC016 M19/ A2927 RMK SLP919=
CYUT 272100Z 12005KT 13SM IC FEW040 OVC200 M31/M35 A2963 RMK
     SC1CS7 SLP039=
CYUX 272100Z 22006KT 15SM FEW006 FEW150 BKN270 M33/M36 A2960 RMK
     SF1AS1CS6 SF TR BR OVR BASIN SLP024=
CYVC 272100Z 27010KT 15SM FEW250 M10/M17 A3014 RMK CI1 SLP243=
CYVM 272100Z 00000KT 15SM FEW220 M34/M38 A2961 RMK CI1 SLP026=
CYVO 272100Z 25005G16KT 200V300 15SM FEW250 M10/M19 A3020 RMK CI1
     CI TR SLP262=
CYVQ 272100Z 15002KT 3SM -SN OVC250 M10/M12 A3014 RMK SN5CS3
     SLP214=
CYVT 272100Z 31007KT 15SM FEW250 FEW270 M12/M18 A3017 RMK CI1CI1
     SLP255=
CYVV 272100Z 25009G15KT 8SM -SN OVC022 M12/M17 A3048 RMK SC8
     SLP343=
CYWA 272100Z AUTO 29006KT 210V320 9SM CLR M07/M22 A3036 RMK
     SLP295=
CYWH 272100Z 02006KT 340V050 10SM -RA FEW006 BKN025 OVC038 08/05
     A2982 RMK CF1SC4SC3 SLP097=
CYWJ 272100Z 29020G27KT 15SM -SN FEW015 SCT080 BKN120 OVC250
     M02/M07 A3000 RMK SC1AS3AS2CS2 OCNL BLSN VIS S 30 SLP180=
CYWL 272100Z 29008G16KT 270V330 15SM FEW010 FEW050 FEW120 M03/M10
     A3005 RMK CF1SC1AC1 CF TR SC TR AC TR SLP219=
CYWY 272100Z 21002KT 15SM SCT035 BKN090 M13/M15 A3018 RMK SC3AC4
     SLP236=
CYXC 272100Z 04003KT 360V070 20SM SCT045 BKN085 01/M09 A2992 RMK
     SC4AC3 SH ALQDS SLP165=
CYXD 272100Z AUTO 31011KT 8SM OVC020 M10/M14 A3020 RMK SLP276=
CYXE 272100Z 34004KT 15SM OVC170 M16/M21 A3014 RMK AS8 SLP263=
CYXH 272100Z 32011KT 10SM -SHSN OVC023 M08/M12 A3011 RMK SC8
     SLP247=
CYXJ 272100Z 25007KT 15SM SKC M06/M11 A3023 RMK SLP289=
CYXL 272100Z 23009G17KT 15SM BKN200 M09/M21 A3019 RMK CS7
     SLP267=
CYXN 272100Z 23006KT 10SM OVC040 M25/M28 A2986 RMK SC8 SLP115=
CYXP 272100Z 24004KT 15SM FEW220 M30/M33 A2959 RMK CI1 CI TR
     SLP023=
CYXQ 272100Z 00000KT 30SM FEW210 M10/M12 A3041 RMK CI2 SLP357=
CYXR 272100Z AUTO 21011KT 9SM CLR M09/M17 A3025 RMK SLP267=
CYXS 272100Z AUTO 01010G16KT 9SM CLR M01/M11 A3019 RMK SLP261=
CYXT 272100Z 01008KT 20SM FEW055 05/M06 A3028 RMK CF1 CF TR
     SLP264=
CYXZ 272100Z 24011G18KT 15SM FEW020 SCT350 M11/M16 A3032 RMK
     SC2CI1 SLP300=
CYYB 272100Z 24012G20KT 30SM FEW030 M11/M19 A3031 RMK SC1
     SLP302=
CYYD 272100Z VRB02KT 25SM FEW040 00/M03 A3028 RMK SC1 SLP275=
CYYE 272100Z 07002KT 30SM SCT210 M05/M10 A3024 RMK CI4 SLP273=
CYYF 272100Z 05011G17KT 15SM FEW040 SCT060 BKN120 BKN210 07/M02
     A2990 RMK SC2SC2AC2CI1 SLP136=
CYYG 272100Z 24005KT 15SM FEW025 FEW250 M11/M19 A3020 RMK CF1CI1
     CF TR CI TR SLP230=
CYYH 272100Z 14007KT 1 1/4SM -SN BR SCT009 OVC030 M21/M24 A2925
     RMK FG1ST2SC5 OCNL DRSN SLP910=
CYYL 272100Z AUTO 31011G17KT 9SM OVC030 M12/M16 A3001 RMK
     SLP198=
CYYN 272100Z AUTO 35010KT 9SM CLR M12/M17 A3002 RMK SLP228=
CYYU 272100Z 25014G20KT 15SM FEW230 M07/M18 A3016 RMK CI2
     SLP234=
CYYY 272100Z 25018G25KT 30SM DRSN SCT030 M12/M20 A3016 RMK SC3
     SLP217=
CYZG 272100Z 25002KT 15SM FEW020 FEW200 M29/M32 A2968 RMK SC1CI0
     SLP090=
CYZH 272100Z AUTO 32009KT 9SM SCT150 M10/M13 A3023 RMK SLP280=
CYZP 272100Z AUTO 35017KT 9SM CLR 09/02 A3027 RMK SLP252=
CYZR 272100Z AUTO 04003KT 360V070 9SM CLR M10/M20 A3055 RMK
     SLP361=
CYZT 272100Z 02006KT 340V040 20SM FEW015 SCT090 09/06 A2995 RMK
     SC2AC2 SLP141=
CYZU 272100Z 29013G18KT 15SM FEW015 FEW100 M09/M14 A3019 RMK
     SC2AC1 AC TR SLP277=
CYZW 272100Z 00000KT 40SM SKC M10/M14 A3041 RMK SLP357=
####018003702####
SAXX99 KWBC 272100 RRI
METAR
CZCP 272100Z AUTO 31006KT 9SM CLR M20/ A2992 RMK SLP145=
CZEM 272100Z 21007KT 15SM FEW260 M15/M20 A3003 RMK CI1 LAST
     OBS/NEXT 011700 UTC SLP169=
CZFA 272100Z 34004KT 330V030 30SM FEW070 SCT120 BKN220 M07/M12
     A3033 RMK AC2AC1CI2 ACSL SLP333=
CZFM 272100Z 27010G16KT 230V300 35SM FEW050 BKN080 01/M06 A3014
     RMK SC2AS5 SLP209=
CZPC 272100Z AUTO 10009KT 4SM -SN FEW009 OVC035 M08/M10 A3005 RMK
     SLP247=
CZST 272100Z VRB02KT 15SM FEW200 05/M04 A3033 RMK CI2 SLP272=
CZUM 272100Z AUTO 27011G17KT 9SM BKN037 OVC055 M24/M29 A2973 RMK
     SLP125=
DAAD 272100Z NIL=
DAAE 272100Z 26006KT 6000 -RA SCT020 BKN040 09/07 Q1018=
DAAJ 272100Z 00000KT CAVOK 10/M02 Q1022=
DAAP 272100Z 27004KT 8000 NSC 11/M01 Q1022=
DAAS 272100Z 32008KT 8000 -RA FEW010 BKN026 02/01 Q1016=
DAAV 272100Z 27008KT 8000 -RA SCT020 BKN030 10/06 Q1016=
DAAY 272100Z NIL=
DABT 272100Z 20008KT 6000 SHRA FEW010 BKN023 05/04 Q1016=
DAFH 272100Z NIL=
DAOB 272100Z 36012KT 9999 -RA BKN026 06/05 Q1019=
DAOF 272100Z 24008KT CAVOK 20/M02 Q1021=
DAOL 272100Z NIL=
DAOR 272100Z 02006KT CAVOK 15/01 Q1022=
DAOV 272100Z 29014KT 9999 BKN033 10/08 Q1021=
DATG 272100Z NIL=
DATM 272100Z NIL=
DAUB 272100Z 31016KT 9999 FEW033CB BKN040 13/07 Q1014=
DAUE 272100Z 00000KT 9999 FEW040 14/06 Q1019=
DAUI 272100Z NIL=
DAUK 272100Z 28014KT 9999 -RA SCT030CB BKN033 16/11 Q1015=
DAUL 272100Z 30014KT 9000 SCT026 11/04 Q1018=
DAUO 272100Z /////KT 9999 FEW026CB BKN033 14/11 Q1014 RERA=
DAUT 272100Z 00000KT CAVOK 16/M05 Q1020=
DAUU 272100Z NIL=
DTTF 272100Z 21004KT 9999 -RA SCT026 12/01 Q1014 NOSIG=
KEGI 272055Z 01012KT 10SM FEW130 BKN200 BKN300 13/M01 A3027 RMK
     AO2A SLP254 CONTRAILS T01341010 57017 $=
LIMP 272050Z 23004KT CAVOK 07/03 Q1014=
LIMZ 272050Z 24004KT 9999 SCT120 03/00 Q1013=
MNBL 272100Z 08006KT 9999 BKN017 29/24 Q1011=
MNCH 272100Z 09006KT 9999 FEW025 33/22 Q1007=
MNJG 272100Z 00000KT 9999 SCT020 27/16 Q1010=
MNJU 272100Z 09006KT 9999 SCT020 SCT080 34/22 Q1011=
MNRS 272100Z 05010KT CAVOK 31/22 Q1009=
UMOO 272100Z NIL=
UTO8 M M M 031/-36/-40/1906/M/ SOG 21 3005 42MM=
UTO8 M M M 014/-33/-36/2006/M/ SOG 09 8015 02MM=
UTO8 M M M 044/-37/-41/2908/M/ SOG 16 6005 88MM=
UTO8 M M M 014/-35/-39/1905/M/ 8006 22MM=
UTO8 M M M 029/-45/-49/1202/M/M 3004 84MM=
UTO8 M M M 070/-28/-31/3007/M/ 1009 22MM=
UTO8 M M M 248/-08/-15/2603/M/ SOG 75 2014 27MM=
UTO8 M M M 313/-06/-12/3008/M/ SOG 37 8014 89MM=
UTO8 M M M 330/-07/-12/3404/M/ 8006 42MM=
UTO8 M M M 359/-07/-12/0303/M/ SOG 33 8008 65MM=
WBGB 272100Z 08001KT 8000 FEW002 SCT016 BKN150 24/24 Q1009=
WBGR 272100Z 00000KT 9999 FEW014 SCT150 BKN300 24/24 Q1009=
WBGS 272100Z 00000KT 9999 FEW006 SCT018 BKN300 24/23 Q1008=
WBGY 272100Z 00000KT 9999 SCT022 SCT150 25/24 Q1008=
WBKL 272100Z 01001KT 9999 FEW012 BKN290 26/24 Q1009=
WBKS 272100Z 07006KT 030V120 9999 FEW014 BKN290 27/23 Q1010=
WBKT 272100Z 11006KT 9999 FEW014 BKN280 26/23 Q1010=
WBKW 272100Z 02002KT 9999 FEW017 SCT140 BKN300 23/21 Q1009=
WMAU 272100Z 36005KT 8000 FEW000 SCT140 BKN270 26/24 Q////
     QFF1009=
WMBA 272100Z 00000KT 9000 FEW009 BKN280 24/24 Q1008=
WMKA 272100Z 01002KT 9999 FEW030 BKN300 24/22 Q1009=
WMKB 272100Z 10002KT 8000 FEW025 SCT140 BKN280 26/23 Q1008
     NOSIG=
WMKC 272100Z 13002KT 9999 FEW020 BKN280 25/23 Q1009=
WMKD 272100Z 36002KT 9999 FEW024 BKN280 23/22 Q1009 NOSIG=
WMKI 272100Z 07002KT 9000 FEW031 BKN290 24/23 Q1009=
WMKL 272100Z 04003KT 9999 FEW026 BKN280 26/23 Q1008=
WMKM 272100Z 03005KT 330V070 9999 FEW017CB BKN280 25/22 Q1009=
WMKN 272100Z 19003KT 9999 SCT024 SCT140 BKN280 24/22 Q1009=
####018000423####
SAXX99 KWBC 272100 RRJ
METAR
YMAV 272100Z AUTO 03007KT 9999 -SHRA SCT071 SCT100 OVC125 18/15
     Q1005=
YPKU 272100Z AUTO 00000KT 9999 // NCD 26/26 Q1006=
ZBHH 272100Z 20003MPS 4000 BR BKN030 M06/M06 Q1020 NOSIG=
ZGHA 272100Z 34005MPS 5000 -RA BR SCT003 BKN004 OVC033 06/05 Q1019
     NOSIG=
ZJHK 272100Z 13003MPS 090V170 9999 SCT016 22/19 Q1012 NOSIG=
ZYCC 272100Z 15004MPS CAVOK M12/M17 Q1028 NOSIG=
####018000112####
SAXX99 KWBC 272100 CCA
METAR
CYLD 272100Z CCA 23011G18KT 15SM FEW040 M10/M18 A3023 RMK CU2
     SLP280=
####018000207####
SARE20 FMEE 272100
METAR FMCZ 272100Z AUTO 26006KT 9999 NCD 27/24 Q1009=
METAR FMEE 272100Z AUTO 12001KT 9999 NSC 23/21 Q1008=
METAR FMEP 272100Z AUTO 05007KT 9999 BKN025/// BKN034/// 25/19
Q1009=
####018000297####
SATH32 VTBB 272100
METAR VTSB 272100Z 00000KT 7000 FEW022 21/21 Q1009 A2982=
METAR VTSC 272100Z NIL=
METAR VTSF 272100Z NIL=
METAR VTSG 272100Z VRB02KT 9999 FEW020 21/19 Q1010 A2982=
METAR VTSH 272100Z NIL=
METAR VTSM 272100Z NIL=
METAR VTSR 272100Z NIL=
METAR VTST 272100Z NIL=
####018000229####
SATH31 VTBB 272100
METAR VTCH 272100Z NIL=
METAR VTCL 272100Z NIL=
METAR VTCN 272100Z NIL=
METAR VTCP 272100Z NIL=
METAR VTCT 272100Z NIL=
METAR VTPH 272100Z NIL=
METAR VTPO 272100Z NIL=
METAR VTPP 272100Z NIL=
####018000281####
SATH33 VTBB 272100
METAR VTBO 272100Z NIL=
METAR VTUD 272100Z NIL=
METAR VTUI 272100Z NIL=
METAR VTUK 272100Z NIL=
METAR VTUL 272100Z NIL=
METAR VTUO 272100Z NIL=
METAR VTUQ 272100Z NIL=
METAR VTUU 272100Z NIL=
METAR VTUV 272100Z NIL=
METAR VTUW 272100Z NIL=
####018000105####
SAUS44 KEWX 272107 COR
MTRATT
SPECI KATT 272104Z AUTO 02008KT 8SM 01/M04 A3033 RMK AO2 T00111039 $
####018001309####
SAAL41 DAMM 272100
METAR DAAD 272100Z NIL=
METAR DAAE 272100Z 26006KT 6000 -RA SCT020 BKN040 09/07 Q1018=
METAR DAAJ 272100Z 00000KT CAVOK 10/M02 Q1022=
METAR DAAP 272100Z 27004KT 8000 NSC 11/M01 Q1022=
METAR DAAS 272100Z 32008KT 8000 -RA FEW010 BKN026 02/01 Q1016=
METAR DAAV 272100Z 27008KT 8000 -RA SCT020 BKN030 10/06 Q1016=
METAR DAAY 272100Z NIL=
METAR COR DABT 272100Z 20008KT 6000 SHRA FEW010 BKN023 05/04 Q1016=
METAR DAEF 272100Z NIL=
METAR DAEN 272100Z NIL=
METAR DAFH 272100Z NIL=
METAR DAOB 272100Z 36012KT 9999 -RA BKN026 06/05 Q1019=
METAR DAOF 272100Z 24008KT CAVOK 20/M02 Q1021=
METAR DAOI 272100Z NIL=
METAR DAOL 272100Z NIL=
METAR DAOR 272100Z 02006KT CAVOK 15/01 Q1022=
METAR DAOV 272100Z 29014KT 9999 BKN033 10/08 Q1021=
METAR DATG 272100Z NIL=
METAR DATM 272100Z NIL=
METAR DAUA 272100Z 19008KT CAVOK 16/M01 Q1021=
METAR DAUB 272100Z 31016KT 9999 FEW033CB BKN040 13/07 Q1014=
METAR DAUE 272100Z 00000KT 9999 FEW040 14/06 Q1019=
METAR DAUG 272100Z 31011KT CAVOK 16/04 Q1018=
METAR DAUI 272100Z NIL=
METAR DAUK 272100Z 28014KT 9999 -RA SCT030CB BKN033 16/11 Q1015=
METAR DAUL 272100Z 30014KT 9000 SCT026 11/04 Q1018=
METAR COR DAUO 272100Z /////KT 9999 FEW026CB BKN033 14/11 Q1014 RERA=
METAR DAUT 272100Z 00000KT CAVOK 16/M05 Q1020=
METAR DAUU 272100Z NIL=
####018002232####
ISID10 EBUM 272100
BUFR                	  P t !""M.MO?k?\{T G	){?G-")*M8B/ O?+a{ZO G	 Q?G*"*)$'"Mc0O?k?^Y_ G	){?G&&"M0`"O??XQ G	 ?G"M2p~	N??YP G	?G'!"M43Z]M??TT G	{?G' MB3@
Nm??WU G	){?G)"$M4^9O?D?XXo G	?G$*Mm5VM#@$?XS G 	)?G$"!"M75Os?d?\{R G	 )?G!*"'MX6X`4$L@?PKPO G	 {?G&*$MU70)I{?
?QM GO	)?G7777 
####018000092####
SPUS81 KWBC 272108
SPECI
KABI 272104Z 04007KT 2 1/2SM BR BKN007 OVC015 M06/M08 A3034=
####018000091####
SPUS81 KWBC 272108
SPECI
KFMN 272104Z 13008KT 1SM -SN BR BKN006 OVC018 00/M01 A2979=
####018000176####
SABO10 SABM 272100
METAR SLLP 272100Z 28008KT 250V320 9999 SCT015 FEW017CB SCT070 BKN200
10/03 Q1035=
METAR SLVR 272100Z 35011KT 9999 FEW013 SCT017 BKN200 29/22 Q1008=
####018000655####
SAAL33 DAAA 272100
METAR DAAD 272100Z NIL=
METAR DAAE 272100Z 26006KT 6000 -RA SCT020 BKN040 09/07 Q1018=
METAR DAAJ 272100Z 00000KT CAVOK 10/M02 Q1022=
METAR DAAP 272100Z 27004KT 8000 NSC 11/M01 Q1022=
METAR DAAV 272100Z 27008KT 8000 -RA SCT020 BKN030 10/06 Q1016=
METAR COR DABT 272100Z 20008KT 6000 SHRA FEW010 BKN023 05/04 Q1016=
METAR DAFH 272100Z NIL=
METAR DATM 272100Z NIL=
METAR DAUK 272100Z 28014KT 9999 -RA SCT030CB BKN033 16/11 Q1015=
METAR COR DAUO 272100Z /////KT 9999 FEW026CB BKN033 14/11 Q1014 RERA=
METAR DAUT 272100Z 00000KT CAVOK 16/M05 Q1020=
METAR DAOV 272100Z 29014KT 9999 BKN033 10/08 Q1021=
METAR DAOY 272100Z NIL=
####018000143####
SAAF11 LFPW 272100 RRA
METAR FKKR 272100Z VRB02KT 2000 HZ NSC 29/04 Q1011 NOSIG=
METAR FKYS 272100Z VRB02KT 9999 SCT010 22/20 Q1016 NOSIG=
####018000688####
SAAL32 DAAA 272100
METAR DAAS 272100Z 32008KT 8000 -RA FEW010 BKN026 02/01 Q1016=
METAR DABS 272100Z 10008KT 9999 SCT026 BKN033 07/06 Q1013 RERA=
METAR DAOB 272100Z 36012KT 9999 -RA BKN026 06/05 Q1019=
METAR DAOF 272100Z 24008KT CAVOK 20/M02 Q1021=
METAR DAOR 272100Z 02006KT CAVOK 15/01 Q1022=
METAR DAUA 272100Z 19008KT CAVOK 16/M01 Q1021=
METAR DAUB 272100Z 31016KT 9999 FEW033CB BKN040 13/07 Q1014=
METAR DAUG 272100Z 31011KT CAVOK 16/04 Q1018=
METAR DAUU 272100Z NIL=
METAR DAUZ 272100Z 28003KT CAVOK 10/M02 Q1020=
METAR DAOL 272100Z NIL=
METAR DAAY 272100Z NIL=
METAR DAOI 272100Z 00000KT 9999 SCT026 09/07 Q1021=
METAR DAUL 272100Z 30014KT 9000 SCT026 11/04 Q1018=
####018000080####
SAAF18 LFPW 272100 RRA
METAR FMEE 272100Z AUTO 12001KT 9999 NSC 23/21 Q1008=
####018000147####
SAAF20 LFPW 272100 RRA
METAR FABL 272100Z AUTO 11008KT //// // ////// 18/10 Q1022=
METAR FAGG 272100Z AUTO 09005KT 9999 OVC034/// 19/17 Q1019=
####018000376####
SAAF21 LFPW 272100 RRA
METAR FAKM 272100Z AUTO 12007KT //// // ////// 18/10 Q1021=
METAR FALA 272100Z AUTO 11013KT //// // 18/13 Q1021=
METAR FAMM 272100Z AUTO 05009KT //// // ////// 19/09 Q1018=
METAR FAPE 272100Z 00000KT CAVOK 17/16 Q1019 NOSIG=
METAR FAUP 272100Z AUTO 31001KT //// // ////// 24/04 Q1014=
METAR FAWK 272100Z AUTO 15009KT //// // ////// 17/13 Q1022=
####018000359####
SAUK KAWN 272100 RRB
METAR EGPU 272050Z AUTO 20027KT 3700 BR OVC005/// 06/06 Q0999 RERA=
METAR EICK 272100Z 24008KT 1400 R17/P2000 R35/1600U -DZ SCT001 BKN002
      09/09 Q1008 BECMG 3000 SCT001 BKN004=
METAR EIDW 272100Z 20017KT 9999 FEW014 BKN042 BKN050 07/05 Q1008 NOSIG=
METAR EINN 272100Z 18010KT 9999 FEW010 SCT014 BKN030 08/07 Q1008 NOSIG=
####018000871####
SARA34 RUMS 272100
METAR UNAA 272100Z 23006MPS 9999 SCT030CB OVC066 M01/M10 Q1021 NOSIG
RMK QFE743 20190055=
METAR UNBB 272100Z 23009MPS 9999 DRSN BKN012 M04/M07 Q1024 NOSIG RMK
QFE745/0994 24450551=
METAR UNEE 272100Z 19003MPS 1900 SHSN OVC006CB M05/M05 Q1019 NOSIG
RMK QFE741 23451037=
METAR UNKL 272100Z 25006G09MPS 7000 -SHSN SCT033CB OVC083 M04/M08
Q1016 NOSIG RMK QFE737 29////40=
METAR UNNT 272100Z 23007MPS 9999 OVC008 M04/M06 Q1020 25490150
16490150 NOSIG RMK QFE755/1007=
METAR UNOO 272100Z 27004MPS CAVOK M05/M08 Q1023 25810550 NOSIG RMK
QFE759=
METAR UNTT 272100Z 23005MPS 2900 -SHSN SCT008 BKN016CB OVC100 M04/M05
Q1016 RESHSN NOSIG RMK QFE747=
METAR USTR 272100Z 32005MPS CAVOK M02/M06 Q1030 NOSIG RMK QFE763/1017
21CLRD65 30CLRD65=
METAR USHH 272100Z 28002MPS 9999 SCT023 OVC080 M02/M04 Q1027 TEMPO
0800 FZFG VV003 RMK QFE766 24////40=
####018000570####
SARS33 RUMS 272100
METAR ULLI 272100Z VRB01MPS 2800 BR BKN002 OVC038 M00/M00 Q1018
60////// 10190055 TEMPO 0500 FZFG RMK QBB080 OBST OBSC=
METAR UUBW 272100Z 12005MPS 1500 BR OVC003 01/01 Q1021 NOSIG RMK
QBB100=
METAR UUDD 272100Z 13005MPS 3900 -RA BR BKN003 OVC100 01/01 Q1020
64290095 14290095 TEMPO 1000 BR=
METAR UUDL 272100Z NIL=
METAR UUEE 272100Z 10004MPS 1900 BR OVC002 00/00 Q1020 07290145
57290151 TEMPO 1000 BR OVC002=
METAR UUWW 272100Z 11005MPS 1500 BR OVC001 00/00 Q1019 06290050 TEMPO
0900 +SHSN BKN015CB RMK QBB050=
METAR UUMO 272100Z NIL=
####018000088####
SAAL32 DAAA 272100 RRA
METAR DAUU 272100Z 00000KT 9999 FEW033TCU SCT040 18/06 Q1016=
####018000251####
SARS31 RUMS 272100
METAR ULWC 272100Z NIL=
METAR UUBP 272100Z NIL=
METAR UUOB 272100Z 15007MPS 7000 SCT040 04/03 Q1019 29290055 NOSIG=
METAR UUOK 272100Z NIL=
METAR UWGG 272100Z 13002MPS 5000 -SN OVC010 00/M01 Q1027 NOSIG
18190040 RMK QFE763=
####018000101####
SARA35 RUMS 272100
METAR USCM 272100Z 30002MPS 8000 SKC M01/M25 Q1033 NOSIG 01090060 RMK
QFE735=
####018000643####
SARA32 RUMS 272100
METAR UHBB 272100Z 22003MPS CAVOK M11/M17 Q1019 NOSIG RMK QFE746/0995
36450250=
METAR UHHH 272100Z 00000MPS CAVOK M18/M20 Q1023 NOSIG RMK QFE761/1014
23090060=
METAR UHMA 272100Z 35008G11MPS 9999 DRSN SCT200 M30/M33 Q1018 NOSIG
RMK QFE760/1013=
METAR UHMD 272100Z NIL=
METAR UHMM 272100Z 00000MPS 9999 SKC M38/M42 Q1017 RMK QFE748=
METAR UHPP 272100Z 01004MPS 9999 SCT020CB BKN046 M10/M15 Q1015 NOSIG
RMK MT OBSC QFE757/1010 SC070=
METAR UHSS 272100Z 36006MPS 9999 FEW033 M09/M12 Q1017 NOSIG RMK
QFE761/1015 01820342=
METAR UHWW 272100Z 07003MPS 9999 SKC M10/M16 Q1029 NOSIG RMK 530005
QFE770/1027 25450255=
####018001313####
SAUS20 KNKA 272107
SPECI KBMQ 272106Z AUTO 05009KT 3SM BR OVC011 M02/M03 A3032 RMK AO2 
 CIG 007V013 T10221033=
METAR KCEF 272058Z AUTO 33004KT 10SM CLR M04/M21 A3035 RMK AO2 SLP289
 T10361206 53007=
METAR KECU 272050Z AUTO 00000KT 1SM UP OVC006 00/M01 A3021 RMK 
 AO2=
METAR KFAF 272058Z AUTO 04008KT 10SM OVC019 01/M03 A3044 RMK AO2 SLP311
 T00111026 52021 $=
METAR KGLY 272115Z AUTO 09006KT 10SM CLR M05/M16 A3057 RMK AO2=
METAR KGUS 272058Z AUTO 28004KT 10SM CLR M09/M14 A3058 RMK AO2 SLP378
 T10901145 56005=
SPECI KLBB 272106Z 09009KT 2SM -SN OVC017 M08/M12 A3023 RMK AO2 
 P0000 T10831117=
METAR KLFI 272058Z AUTO 04011KT 9SM OVC029 00/M04 A3046 RMK AO2 SLP322
 T00001036 52017 $=
SPECI KMLU 272106Z 05011KT 10SM FEW029 BKN095 02/M04 A3048 RMK AO2 
 T00171039=
METAR KPWA 272053Z COR 09007KT 1 1/2SM -SN FEW012 BKN044 OVC060 
 M07/M11 A3048 RMK AO2 SFC VIS 3 SLP340 P0000 60000 T10721111 
 56020=
SPECI KROG 272106Z 08006KT 1SM -SN BKN016 OVC021 M08/M12 A3051 RMK 
 AO2 P0000=
SPECI KSLE 272106Z 17012KT 10SM BKN019 BKN044 OVC060 11/06 A2971 RMK 
 AO2 T01110061=
METAR KSPA 272115Z AUTO 04005KT 10SM CLR 11/M04 A3032 RMK AO2=
SPECI KTUL 272106Z 04006KT 3/4SM R36R/5500VP6000FT -SN SCT014 OVC020 
 M07/M10 A3055 RMK AO2 TWR VIS 2 1/2 P0000 T10721100=
####018000298####
SAGL KAWN 272100 RRA
METAR BIAR 272100Z 33008KT 9999 -SN FEW010 BKN044 M00/M02 Q0982 R01/190070=
METAR BIEG 272100Z 17004KT 9999 FEW031 SCT037 BKN046 M02/M05 Q0979=
METAR BIKF 272100Z 05017KT 9999 FEW020 SCT130 OVC150 M00/M03 Q0977=
METAR BIRK 272100Z 03009KT 350V080 CAVOK 00/M06 Q0976=
####018000110####
SAXX70 KAWN 272100 RRH
METAR KQGA 272059Z AUTO VRB05KT 2800 HZ CLR 24/M08 A3001 RMK CDP03659
      CLR=
####018000679####
SARS36 RUMS 272100
METAR ULAA 272100Z 21003G07MPS 170V250 9999 OVC009 M02/M03 Q1023
26920565 TEMPO 0300 FZFG OVC002 RMK QFE766/1021=
METAR ULMM 272100Z 20004G10MPS 160V240 9999 BKN024 00/M05 Q1008 NOSIG
RMK QFE749 13190055=
METAR ULOO 272100Z 08001MPS P6000 OVC011 01/00 Q1016 19190060 NOSIG
RMK QFE758=
METAR ULPB 272100Z AUTO 12002MPS 090V170 4900 ////// M01/M01 Q1020=
METAR UMKK 272100Z 00000MPS 6000 OVC011 03/02 Q1016 R24/19//60 NOSIG
RMK QFE761/1015=
METAR UUOO 272100Z 14009G13MPS 1000 R12/P1500U BR OVC002 01/00 Q1022
NOSIG RMK 12801042 QBB060=
METAR UUYY 272100Z 00000MPS 6000 SCT200 M07/M09 Q1028 TEMPO 2000 BR
FU 01CLRD61 RMK QFE761/1015=
####018001085####
SARS32 RUMS 272100
METAR URKA 272100Z 08013G17MPS CAVOK 09/04 Q1011 RMK QFE754/1005=
METAR URKK 272100Z 07007G10MPS CAVOK 05/03 Q1015 NOSIG RMK QFE758
SC065=
METAR URML 272100Z 14007MPS 5000 BR OVC016 05/04 Q1021 NOSIG RMK
QFE766/1021 SC070=
METAR URMM 272100Z 12010G12MPS 5000 -DZ BR OVC004 03/02 Q1017
R12/290050 NOSIG RMK MT OBSC QFE735/0980=
METAR URMN 272100Z 26001MPS 2000 BR OVC002 01/01 Q1017 NOSIG RMK
QBB080 MT OBSC OBST OBSC QFE726=
METAR URMO 272100Z NIL=
METAR URMT 272100Z 11008G11MPS 0150 R07/0450N FG VV001 02/02 Q1016
NOSIG RMK QBB040 OBST OBSC QFE722 SC060=
METAR URRR 272100Z 10009G13MPS P8000 BKN008 BKN100 03/02 Q1020
04CLRD70 TEMPO 09012G17MPS=
METAR URSS 272100Z 00000MPS 9999 BKN240 09/01 Q1010 NOSIG RMK
R02/06004MPS QFE757 06000070 02//////=
METAR URWA 272100Z 08005MPS 8000 NSC M03/M04 Q1028 NOSIG RMK
QFE773/1031 SC060=
METAR URWI 272100Z NIL=
METAR URWW 272100Z 08005MPS 0800 R11/P1500 FZFG VV003 M01/M01 Q1027
NOSIG RMK QBB090 OBST OBSC 11290055=
METAR URFF 272100Z 07006MPS CAVOK 09/04 Q1012 01010065 NOSIG=
####018000928####
SARS35 RUMS 272100
METAR USPP 272100Z 22004MPS CAVOK M07/M09 Q1032 21090060 NOSIG RMK
QFE763/1018=
METAR UWKD 272100Z 16004MPS 5000 -SN BR OVC005 M05/M05 Q1032
R11/7/0045 TEMPO 2000 BR OVC005 RMK QFE763/1018=
METAR UWKE 272100Z 19006MPS 0600 R21/1400U FZFG VV002 M06/M07 Q1033
NOSIG RMK  QBB060 QFE757/1010 21190060=
METAR UWKS 272100Z 16005MPS 9999 OVC013 M03/M04 Q1029 NOSIG RMK
QFE758 24920555=
METAR UWLW 272100Z 18005MPS 5000 BR OVC025 M05/M05 Q1033 20800255
NOSIG RMK QFE769=
METAR UWOR 272100Z 27005MPS CAVOK M09/M12 Q1035 25CLRD65 NOSIG RMK
QFE752/1003=
METAR UWOO 272100Z 00000MPS 0100 R08/0300N FZFG VV001 M18/M21 Q1037
08810252 NOSIG RMK QBB030 QFE767/1023=
METAR UWSS 272100Z 12002MPS 0900 R12/1900 FZDZ FZFG VV003 M05/M06
Q1031 12390141 TEMPO 0500 FZFG RMK QFE761=
METAR UWWW 272100Z 16002MPS 3300 BR OVC002 M07/M08 Q1034 23350040
15//99// TEMPO OVC002 RMK QBB060 QFE764/1019=
####018000510####
SARA36 RUMS 272100
METAR UWUU 272100Z 20002MPS 160V220 CAVOK M13/M14 Q1036 141///50
NOSIG RMK QFE766/1021=
METAR USCC 272100Z 28005MPS CAVOK M05/M12 Q1032 27000060 NOSIG RMK
QFE754=
METAR USNN 272100Z 35003MPS 9999 BKN004 M03/M03 Q1020 TEMPO 2000 BR
BKN005 RMK QFE760 QBB120 21490734=
METAR USRR 272100Z 32004MPS 290V350 6000 SCT006 BKN017 M04/M05 Q1023
TEMPO 2000 BR BKN003 RMK QBB180 OBST OBSC QFE762 25////35=
METAR USSS 272100Z 27002MPS CAVOK M03/M07 Q1032 7611//60 NOSIG RMK
QFE753=
####018000409####
SARA33 RUMS 272100
METAR UIAA 272100Z 22004MPS 9999 SKC M16/M21 Q1013 NOSIG RMK QFE701
29CLRD70=
METAR COR UIBB 272100Z 23004MPS 5000 -SHSN BKN020CB OVC100 M08/M10
Q1012 NOSIG RMK QFE716/0955 30490240=
METAR UIII 272100Z VRB01MPS CAVOK M18/M20 Q1020 TEMPO 1500 BR FU RMK
QFE720/0960 30450150=
METAR UIUU 272100Z VRB01MPS 5000 BR FEW043CB BKN100 M20/M23 Q1019
NOSIG RMK QFE720/0960 26820550=
####018000110####
SARA31 RUMS 272100
METAR UEEE 272100Z 00000MPS 5000 -SN OVC100 M26/M29 Q1014 NOSIG RMK
QFE751 23490150=
####018000088####
SAAL41 DAMM 272100 RRB
METAR DAUU 272100Z 00000KT 9999 FEW033TCU SCT040 18/06 Q1016=
####018001695####
SAEU KAWN 272100 RRR
METAR EGDX 272050Z AUTO 19007KT 9999 FEW026/// BKN050/// 07/03 Q1016=
METAR EGOP 272050Z AUTO 18023KT 9999 // FEW013/// BKN017/// 07/05 Q1015=
METAR EGQK 272050Z AUTO 19014G24KT 9999 BKN047/// BKN190/// 06/01 Q1000=
METAR EGQS 272050Z AUTO 18011KT 9999 // NCD 06/M00 Q1000=
METAR EGYM 272050Z AUTO 17009KT 9999 OVC150/// 04/00 Q1017=
METAR COR LIBY 272055Z 04005KT 7000 -RA SCT015 BKN025 10/08 Q1008 RMK
      OVC QUK / QUL / VIS MAR 7 KM VIS MIN 7000=
METAR LIEB 272055Z 31002KT 9999 FEW040 09/09 Q1012 RMK BKN SCT080 QUK
      / QUL / VIS MAR 20 KM MON INVIS VIS MIN 9999=
METAR LIEC 272055Z 01004KT 9999 FEW020 SCT030 11/08 Q1012 RMK BKN QUK
      / QUL / VIS MAR 20 KM VIS MIN 9999=
METAR LIMU 272055Z 01004KT CAVOK 10/02 Q1013 RMK FEW FEW200 QUK / QUL
      / VIS MAR 30 KM VIS MIN 9999=
METAR LIPC 272055Z 28004KT CAVOK 05/04 Q1013 RMK SKC VIS MIN 9999 WIND
      THR11 27004KT BLU=
METAR LIPH 272045Z /////KT 9000 NSC 09/06 Q1012 RMK BKN BKN120 VIS
      MIN 9000 WIND THR07 23002KT BLU=
METAR LIQC 272055Z ///02KT 9999 SCT020 BKN030 11/06 Q1011 RMK OVC QUK
      / QUL / VIS MAR 20 KM VIS MIN 9999=
METAR LIRE 272055Z VRB02KT CAVOK 07/05 Q1011 RMK SKC VIS MIN 9999 WIND
      THR31 00000KT BLU=
METAR LIRK 272055Z AUTO 36000KT //// 00/00 Q0000=
METAR LIVC 272055Z 00000KT CAVOK M01/M03 Q1010 RMK SCT SCT160 MON LIB
      VAL NIL VIS MIN 9999=
METAR LIVE 272055Z /////KT 9999 SCT030 M01/M04 Q1013 RMK SCT VIS MIN
      9999=
METAR LIVF 272055Z 21003KT CAVOK 04/M00 Q1009 RMK SKC MON LIB VAL NIL
      VIS MIN 9999=
METAR LIVR 272055Z 33005KT CAVOK M05/M06 Q1006 RMK SCT SCT200 MON LIB
      VIS MIN 9999=
####018000721####
SAUS99 KWBC 272109
METAR
KCEF 272058Z AUTO 33004KT 10SM CLR M04/M21 A3035 RMK AO2 SLP289
     T10361206 53007=
KECU 272050Z AUTO 00000KT 1SM UP OVC006 00/M01 A3021 RMK AO2=
KFAF 272058Z AUTO 04008KT 10SM OVC019 01/M03 A3044 RMK AO2 SLP311
     T00111026 52021 $=
KGLY 272115Z AUTO 09006KT 10SM CLR M05/M16 A3057 RMK AO2=
KGUS 272058Z AUTO 28004KT 10SM CLR M09/M14 A3058 RMK AO2 SLP378
     T10901145 56005=
KLFI 272058Z AUTO 04011KT 9SM OVC029 00/M04 A3046 RMK AO2 SLP322
     T00001036 52017 $=
KPWA 272053Z COR 09007KT 1 1/2SM -SN FEW012 BKN044 OVC060 M07/M11
     A3048 RMK AO2 SFC VIS 3 SLP340 P0000 60000 T10721111
     56020=
KSPA 272115Z AUTO 04005KT 10SM CLR 11/M04 A3032 RMK AO2=
####018000728####
SPUS99 KWBC 272109
SPECI
PATE 272105Z AUTO 19031G35KT 2 1/2SM -SN BR SCT008 BKN015 OVC048
     M01/M02 A3001 RMK AO2 PK WND 18036/2104 VIS 1 3/4V4 P0000
     FZRANO=
KBMQ 272106Z AUTO 05009KT 3SM BR OVC011 M02/M03 A3032 RMK AO2 CIG
     007V013 T10221033=
KLBB 272106Z 09009KT 2SM -SN OVC017 M08/M12 A3023 RMK AO2 P0000
     T10831117=
KMLU 272106Z 05011KT 10SM FEW029 BKN095 02/M04 A3048 RMK AO2
     T00171039=
KROG 272106Z 08006KT 1SM -SN BKN016 OVC021 M08/M12 A3051 RMK AO2
     P0000=
KSLE 272106Z 17012KT 10SM BKN019 BKN044 OVC060 11/06 A2971 RMK AO2
     T01110061=
KTUL 272106Z 04006KT 3/4SM R36R/5500VP6000FT -SN SCT014 OVC020
     M07/M10 A3055 RMK AO2 TWR VIS 2 1/2 P0000 T10721100=
####018001000####
SARS32 RUMS 272100
METAR URKA 272100Z 08013G17MPS CAVOK 09/04 Q1011 RMK QFE754/1005=
METAR URKK 272100Z 07007G10MPS CAVOK 05/03 Q1015 NOSIG RMK QFE758
SC065=
METAR URML 272100Z 14007MPS 5000 BR OVC016 05/04 Q1021 NOSIG RMK
QFE766/1021 SC070=
METAR URMM 272100Z 12010G12MPS 5000 -DZ BR OVC004 03/02 Q1017
R12/290050 NOSIG RMK MT OBSC QFE735/0980=
METAR URMN 272100Z 26001MPS 2000 BR OVC002 01/01 Q1017 NOSIG RMK
QBB080 MT OBSC OBST OBSC QFE726=
METAR URMO 272100Z NIL=
METAR URMT 272100Z 11008G11MPS 0150 R07/0450N FG VV001 02/02 Q1016
NOSIG RMK QBB040 OBST OBSC QFE722 SC060=
METAR URRR 272100Z 10009G13MPS P8000 BKN008 BKN100 03/02 Q1020
04CLRD70 TEMPO 09012G17MPS=
METAR URSS 272100Z 00000MPS 9999 BKN240 09/01 Q1010 NOSIG RMK
R02/06004MPS QFE757 06000070 02//////=
METAR URWA 272100Z 08005MPS 8000 NSC M03/M04 Q1028 NOSIG RMK
QFE773/1031 SC060=
METAR URWI 272100Z NIL=
METAR URWW 272100Z 08005MPS 0800 R11/P1500 FZFG VV003 M01/M01 Q1027
NOSIG RMK QBB090 OBST OBSC 11290055=
####018000097####
SAMX52 MMGL 272108
METAR MMZO 272045Z RTD 24005KT 10SM SCT210 25/20 A2982
      RMK 8/004 =
####018000109####
SPUS31 KWBC 272109
SPECI
KDFW 272105Z 05008KT 1/2SM R17C/3000V5000FT SN SCT007 OVC013
M03/M05 A3042=
####018001727####
SAEU KAWN 272100 RRP
METAR EGPU 272050Z AUTO 20027KT 3700 BR OVC005/// 06/06 Q0999 RERA=
METAR LELO 272100Z 29004KT 250V340 9999 SCT030 06/03 Q1027=
METAR LERT 272100Z 25009KT CAVOK 14/12 Q1025 NOSIG=
METAR LFAT 272100Z AUTO 12006KT 9999 NSC 03/00 Q1022=
METAR LFBE 272100Z AUTO 26006KT 9999 NSC 06/01 Q1026=
METAR LFGJ 272100Z AUTO VRB01KT 9999 NSC 02/00 Q1023=
METAR LFLN 272100Z AUTO 32001KT 9999 NSC 02/M02 Q1023=
METAR LFLW 272100Z AUTO VRB03KT 9999 NSC 01/M03 Q1022=
METAR LFMD 272100Z AUTO 36003KT 320V030 9999 NSC 06/04 Q1013=
METAR LFRK 272100Z AUTO 18005KT 9999 NSC 02/00 Q1022=
METAR LFRT 272100Z AUTO 21004KT 180V250 9999 NSC 06/03 Q1021=
METAR LIBP 272050Z VRB03KT 9999 SCT025 SCT080 09/06 Q1013=
METAR LIBR 272045Z 29011KT 9999 -RA FEW012 FEW015TCU SCT025 10/09 Q1009
      NOSIG RMK BKN BKN070 VIS MIN 9999 WIND THR13 /////KT WIND
      THR31 29010KT BLU=
METAR LIBV 272055Z 33012KT 3200 -DZ BR SCT006 BKN020 07/06 Q1009 RMK
      OVC VIS MIN 3200 WIND THR32 33014KT WIND THR14 33012KT YLO=
METAR LICA 272050Z 24003KT 9999 FEW025 SCT070 11/07 Q1011=
METAR LICD 272050Z 28004KT 9999 FEW025 12/08 Q1015=
METAR LICR 272050Z 02011KT 9999 BKN050 11/08 Q1011=
METAR LICT 272055Z VRB01KT 9999 SCT023 10/08 Q1013=
METAR LICZ 272055Z 28011KT 9999 SCT120 09/06 Q1012 RMK SCT VIS MIN
      9999 WIND THR28 26009KT A2990 BLU=
METAR LIMK 272055Z 24005KT CAVOK 05/M04 Q1011 RMK BKN SCT110 SCT210
      VAL FOSCHIA VIS MIN 9999=
METAR LIPC 272055Z 28004KT CAVOK 05/04 Q1013=
METAR LIPY 272050Z 19004KT CAVOK 05/04 Q1013=
METAR LIRM 272055Z 36003KT 9999 SCT080 07/06 Q1011=
METAR LIRS 272055Z /////KT CAVOK 06/02 Q1011=
METAR LIRZ 272050Z 36009KT CAVOK 06/02 Q1012=
####018001720####
SAEU KAWN 272100 RRQ
METAR EGDM 272050Z AUTO 19007KT 9999 BKN110/// OVC140/// 05/02 Q1018=
METAR EGDY 272050Z AUTO 20007KT 9999 FEW100/// BKN130/// 05/02 Q1018=
METAR EGOM 272050Z AUTO 21019KT 9999 BKN023/// 04/01 Q1008=
METAR EGOS 272050Z AUTO 18009KT 9999 SCT033/// BKN100/// 06/01 Q1014=
METAR EGOV 272050Z AUTO 19027KT 9000 HZ BKN015/// 07/05 Q1011=
METAR EGQL 272050Z AUTO 22016KT 9999 FEW042/// OVC080/// 06/01 Q1005=
METAR EGUB 272050Z AUTO 17008KT 9999 // OVC130/// 04/01 Q1018=
METAR EGVP 272050Z AUTO 21009KT 9999 // OVC120/// 06/02 Q1018=
METAR EGXT 272050Z AUTO 20008KT 9999 BKN140/// 04/00 Q1016=
METAR EGXU 272050Z AUTO 18009KT 9999 // FEW049/// BKN110/// 05/M01
      Q1013=
METAR EGXZ 272050Z AUTO 15010KT 9999 BKN049/// SCT100/// 05/M00 Q1013=
METAR EGYD 272050Z AUTO 20009KT 9999 // BKN150/// 03/M00 Q1016=
METAR LIBQ 272055Z 03002KT 0000 FZFG VV/// M00/M00 Q1006 RMK MON INVIS
      VAL INVIS VIS MIN 0000=
METAR LICT 272055Z VRB01KT 9999 SCT023 10/08 Q1013 RMK SCT VIS MIN
      9999 WIND THR13 /////KT BLU=
METAR LIED 272055Z 00000KT 9999 FEW010 SCT030 10/08 Q1013 RMK BKN BKN200
      VIS MIN 9999 WIND THR35 32003KT WIND THR17 32003KT BLU=
METAR LIPA 272055Z 08004KT 9999 BKN110 07/05 Q1012 RMK BKN VIS MIN
      9999 A2990 BLU=
METAR LIPS 272055Z 00000KT 8000 SCT080 09/06 Q1012 RMK BKN SCT200 VIS
      MIN 8000 WIND THR26 /////KT WIND THR08 00000KT BLU=
METAR LIPX 272045Z 27006KT CAVOK 06/03 Q1013 RMK SCT SCT200 VIS MIN
      9999 BLU=
METAR LIRT 272055Z 33005KT 0000 FG VV/// 02/M01 Q1009 RMK MON INVIS
      VAL INVIS VIS MIN 0000=
METAR LIVP 272055Z 36015KT CAVOK M05/M07 Q1009 RMK SCT SCT170 MON LIB
      VAL NIL VIS MIN 9999=
####018000170####
SAAG01 SABM 272100 RRB
METAR SASA 272100Z 11009KT 8000 SCT005 SCT015 BKN100 21/17 Q1015=
METAR SASJ 272100Z  23006KT 2500 VCRA SCT004
SCT015 OVC070  24/20 Q1013=
####018000242####
SAUS41 KWBC 272100 RRB
METAR
KCEF 272058Z AUTO 33004KT 10SM CLR M04/M21 A3035=
KDOV 272058Z AUTO 31008G16KT 10SM CLR M01/M09 A3047=
KPSM 272058Z 26007KT 10SM FEW250 M04/M21 A3032=
KWRI 272058Z AUTO 30009KT 10SM CLR M02/M13 A3041=
####018000102####
SPUS43 KWBC 272109
SPECI
KICT 272105Z 12003KT 1 1/4SM -SN SCT016 BKN022 OVC039 M09/M12
A3050=
####018000094####
SAUS51 KWBC 272100 RRA
METAR
KMWN 272051Z 30030G34KT 80SM FEW080 FEW180 FEW200 M23/M25=
####018000099####
SAUS41 KLWX 272109 COR
MTRDMH
METAR KDMH 271954Z AUTO M02/M13 A3046 RMK AO1 SLP313 T10171128
####018000319####
SAAO32 GOOY 272100
METAR GABS 272100Z 05009KT 4000  DU NSC 26/M09 Q1016 NOSIG=
METAR GAGO 272100Z NIL=
METAR GAKY 272100Z 04010KT 2000 DU NSC 30/04 Q1014=
METAR GAKL 272100Z NIL=
METAR GAMB 272100Z 36006KT 6000 NSC 24/M06 Q1016=
METAR GANR 272100Z 08006KT 6000 NSC 26/M15 Q////=
METAR GATB 272100Z NIL=
####018000077####
SASD32 OEJD 272100
METAR OETF 272100Z 10005KT 6000 SKC 17/00 Q1022 NOSIG=
####018001448####
SASD20 OEJD 272100
METAR OEAB 272100Z 01005KT CAVOK 15/M04 Q1026 NOSIG=
METAR OEAH 272100Z NIL=
METAR OEAO 272100Z 09002KT CAVOK 21/M01 Q1018=
METAR OEBA 272100Z 10008KT 7000 SKC 16/02 Q1023 NOSIG=
METAR OEBH 272100Z 02004KT 6000 SKC 16/M01 Q1021 NOSIG=
METAR OEDF 272100Z 00000KT CAVOK 12/07 Q1017 NOSIG=
METAR OEDM 272100Z NIL=
METAR OEDR 272100Z 30003KT CAVOK 13/09 Q1015 NOSIG=
METAR OEGN 272100Z 29003KT 7000 SKC 28/23 Q1013 NOSIG=
METAR OEGS 272100Z NIL=
METAR OEGT 272100Z 08004KT CAVOK 12/02 Q1017 NOSIG=
METAR OEHL 272100Z 24002KT CAVOK 11/M05 Q1021 NOSIG=
METAR OEJN 272100Z 30004KT CAVOK 25/14 Q1011 NOSIG=
METAR OEKJ 272100Z NIL=
METAR OEKK 272100Z NIL=
METAR OEKM 272100Z NIL=
METAR OEMA 272100Z 09002KT CAVOK 24/M04 Q1020 NOSIG=
METAR OEMK 272100Z NIL=
METAR OENG 272100Z NIL=
METAR OEPA 272100Z NIL=
METAR OERF 272100Z 23003KT CAVOK 10/01 Q1020=
METAR OERK 272100Z 22004KT CAVOK 12/M06 Q1021 NOSIG=
METAR OERR 272100Z 18004KT CAVOK 13/05 Q1019 NOSIG=
METAR OERY 272100Z NIL=
METAR OESH 272100Z 06006KT CAVOK 19/M06 Q1019 NOSIG=
METAR OESK 272100Z 13008KT CAVOK 13/M05 Q1019 NOSIG=
METAR OETB 272100Z 19008KT 9999 SCT040 21/02 Q1016 NOSIG=
METAR OETF 272100Z 10005KT 6000 SKC 17/00 Q1022 NOSIG=
METAR OETR 272100Z 12010KT CAVOK 12/01 Q1017 NOSIG=
METAR OEWD 272100Z 13006KT 8000 SKC 16/05 Q1019 NOSIG=
METAR OEWJ 272000Z 06005KT CAVOK 23/18 Q1013=
METAR OEYN 272100Z 35004KT CAVOK 24/15 Q1011 NOSIG=
####018001592####
SARS18 KAWN 272100 RRC
METAR UAAA 272100Z 14002MPS 2600 BR FU SCT100 M04/M07 Q1031 R88/65D
      NOSIG=
METAR UACC 272100Z 23004MPS CAVOK M13/M14 Q1033 R22/0/0070 NOSIG RMK
      QFE743/0991=
METAR UATE 272100Z 11008MPS CAVOK M01/M04 Q1029 R12/0///70 NOSIG RMK
      QFE770/1027=
METAR UATT 272100Z 11001MPS 1100 R13/1900 BR NSC M16/M17 Q1037 R13/0///60
      NOSIG RMK QFE757/1010=
METAR UHMM 272100Z 00000MPS 9999 SKC M38/M42 Q1017 RMK QFE748=
METAR UHPP 272100Z 01004MPS 9999 SCT020CB BKN046 M10/M15 Q1015 NOSIG
      RMK MT OBSC QFE757/1010 SC070=
METAR UIAA 272100Z 22004MPS 9999 SKC M16/M21 Q1013 NOSIG RMK QFE701
      29CLRD70=
METAR UIUU 272100Z VRB01MPS 5000 BR FEW043CB BKN100 M20/M23 Q1019 NOSIG
      RMK QFE720/0960 26820550=
METAR UKKK 272100Z 21002MPS 190V260 7000 OVC011 03/02 Q1017 08290058
      NOSIG=
METAR ULLI 272100Z VRB01MPS 2800 BR BKN002 OVC038 M00/M00 Q1018 60//////
      10190055 TEMPO 0500 FZFG RMK QBB080 OBST OBSC=
METAR UMGG 272100Z VRB01MPS 0200 R28/0650 FG VV002 02/02 Q1016 R28/290050
      NOSIG RMK QBB070=
METAR UMMS 272100Z 00000MPS 2500 -SN BR OVC002 00/00 Q1015 R31/290060
      NOSIG RMK QBB060=
METAR UTDD 272100Z 28004MPS 9999 SCT025 BKN029 OVC051 03/01 Q1027 R09/D
      NOSIG RMK QFE701/0935=
METAR UUWW 272100Z 11005MPS 1500 BR OVC001 00/00 Q1019 06290050 TEMPO
      0900 +SHSN BKN015CB RMK QBB050=
METAR UWKD 272100Z 16004MPS 5000 -SN BR OVC005 M05/M05 Q1032 R11/7/0045
      TEMPO 2000 BR OVC005 RMK QFE763/1018=
METAR VTBD 272100Z 16005KT 9999 FEW020 SCT300 28/24 Q1009 NOSIG=
####018001077####
SAXN17 KAWN 272100 RRG
METAR MGSJ 272100Z 15008KT 8000 SKC 33/20 Q1009 A2980 FU=
METAR MKJP 272100Z 14022KT 9999 FEW024 30/23 Q1013=
METAR MKJS 272100Z 08017KT 9999 FEW022 29/22 Q1013=
METAR PHNG 272057Z 35010KT CLR 27/21 A2997 RMK AO2 SLP144 T02670211
      51007 $=
METAR RCKH 272100Z 01006KT 340V040 4800 BR FEW012 SCT025 20/18 Q1016
      NOSIG RMK A3002=
METAR RCTP 272100Z 03012KT 6000 -DZ SCT003 BKN006 BKN012 16/15 Q1019
      NOSIG RMK A3010=
METAR RJFK 272100Z 03003KT 350V060 9999 FEW020 BKN025 03/M01 Q1023
      RMK 1CU020 7CU025 A3021=
METAR RKSS 272100Z 02002KT 9999 FEW030 BKN150 M02/M10 Q1029 NOSIG=
METAR TAPA 272100Z 08013KT 9999 BKN018 26/21 Q1017 NOSIG=
METAR TNCB 272100Z 06019KT 9999 BKN018 29/23 Q1012 NOSIG=
METAR TNCC 272100Z 11015KT 9999 SCT018 28/23 Q1012 NOSIG=
METAR TNCE 272100Z AUTO 06014KT //// ////// ///// Q1017=
METAR TTCP 272100Z 04010KT 9999 FEW016 BKN038 28/21 Q1014 NOSIG=
METAR TTPP 272100Z 08010KT 9999 FEW016 SCT036 26/23 Q1013 NOSIG=
METAR ZGGG 272100Z 09002MPS 9999 OVC020 20/17 Q1015 NOSIG=
####018000125####
SPNA35 KAWN 272109
SPECI KCOF 272103Z AUTO 34016G21KT 10SM -RA VCTS OVC007 13/13 A3017
      RMK AO2 LTG DSNT E TSE03=
####018000341####
SPUS17 KAWN 272109
SPECI KCOF 272103Z AUTO 34016G21KT 10SM -RA VCTS OVC007 13/13 A3017
      RMK AO2 LTG DSNT E TSE03=
SPECI KEDW 272103Z 24018G26KT 80SM FEW040 SCT300 18/04 A2969 RMK AO2A
      CONTRAILS=
SPECI KIAB 272108Z AUTO 11004KT 2 1/2SM -SN BKN002 OVC035 M09/M13 A3050
      RMK AO2 VIS 2 1/2V3 CIG 002V036 BKN V SCT=
####018000860####
SAUS20 KNKA 272108
METAR KAIK 272115Z AUTO 35004KT 10SM CLR 13/00 A3035 RMK AO2=
METAR KCLS 272115Z AUTO 01003KT 10SM FEW028 OVC038 11/09 A2972 RMK 
 AO2=
SPECI KDAL 272107Z 04008KT 1 1/2SM -SN BR BKN016 OVC027 M02/M05 
 A3043 RMK AO2 P0000 T10221050=
METAR KDYA 272055Z AUTO 04007KT 020V080 10SM CLR 09/M04 A3039 RMK 
 AO2 T00891044=
METAR KEVB 272047Z 36014G28KT 10SM BKN012 OVC020 13/09 A3023 =
METAR KGGE 272115Z AUTO 13009KT 10SM CLR 07/03 A3037 RMK AO2=
METAR KGPH 272115Z AUTO 15004KT 10SM CLR M07/M17 A3058 RMK AO2=
METAR KLQK 272115Z AUTO 10SM CLR 12/M05 A3031 RMK AO2 T01151050=
METAR KM25 272135Z AUTO 01003KT 10SM CLR M03/M13 A3058 RMK AO2=
SPECI KRVS 272107Z 09007KT 1 3/4SM -SN BKN024 BKN030 OVC038 M07/M12 
 A3055 RMK AO2 TWR VIS 2 P0000 T10721117=
METAR KSPF 272055Z AUTO 00000KT 10SM CLR M07/M14 A2995 RMK AO2=
####018000228####
SAAO31 GOOY 272100
METAR FHAW 272050Z 13013KT 9999 FEW020 SCT040 26/24 Q1011 BLU=
METAR GGOV 272100Z NIL=
METAR DIAP 272100Z 20004KT 9000 FEW012 FEW020CB 27/26 Q1011 NOSIG=
METAR DIBK 272100Z NIL=
METAR DIYO 272100Z NIL=
####018000328####
SAAO34 GOOY 272100
METAR GBYD 272100Z 08008KT 4000 HZ SKC 29/M02 Q1009=
METAR GFLL 272100Z NIL=
METAR GLRB 272100Z 00000KT 9999 FEW013 25/24 Q1010  NOSIG=
METAR GVAC 272100Z NIL=
METAR GVBA 272100Z NIL=
METAR GVNP 272100Z 04020KT 6000 NSC 21/14 Q1014 NOSIG=
METAR GVSV 272100Z 06018KT 5000 HZ FEW018 21/14 Q1017 NOSIG=
####018000348####
SAAO30 GOOY 272100
METAR GOOY 272100Z 02006KT 2100 DU NSC 23/09 Q1012 NOSIG=
METAR GOGS 272100Z 34006KT 6000 NSC 24/16 Q1010=
METAR GOOK 272100Z 04006KT 2000 DR NSC 30/02 Q1011=
METAR GOSS 272100Z 08006KT 360V120 5000 DU NSC 29/M02 Q1013=
METAR GOTK 272100Z NIL=
METAR GOTT 272100Z NIL=
METAR GOGG 272100Z 36004KT 3000 DU NSC 30/11 Q1011=
####018000349####
SAAO33 GOOY 272100
METAR GQPP 272100Z 35014KT 6000 NSC 20/12 Q1019 NOSIG=
METAR GQNN 272100Z 07011KT 2500 BLDU NSC 27/M10 Q1015 NOSIG=
METAR GQPA 272100Z NIL=
METAR GQNI 272100Z NIL=
METAR GQPZ 272100Z NIL=
METAR GUCY 272100Z 26004KT 3000 BR NSC  27/24 Q1010 NOSIG=
METAR GUXN 272100Z NIL=
METAR GULB 272100Z NIL=
METAR GUNZ 272100Z NIL=
####018000105####
SAUS44 KEWX 272109 COR
MTRATT
SPECI KATT 272104Z AUTO 02008KT 8SM 01/M04 A3033 RMK AO2 T00111039 $
####018001512####
SAEW KAWN 272100 RRF
METAR LFAT 272100Z AUTO 12006KT 9999 NSC 03/00 Q1022=
METAR LFBA 272100Z AUTO 27005KT 9999 NSC 05/M00 Q1026=
METAR LFBE 272100Z AUTO 26006KT 9999 NSC 06/01 Q1026=
METAR LFGJ 272100Z AUTO VRB01KT 9999 NSC 02/00 Q1023=
METAR LFJL 272100Z AUTO 26005KT 9999 NSC 03/M01 Q1022=
METAR LFKB 272100Z 25007KT 210V300 9999 FEW033 09/02 Q1013 NOSIG=
METAR LFLN 272100Z AUTO 32001KT 9999 NSC 02/M02 Q1023=
METAR LFLW 272100Z AUTO VRB03KT 9999 NSC 01/M03 Q1022=
METAR LFLY 272100Z AUTO 35004KT 9999 NSC 04/M00 Q1023=
METAR LFMD 272100Z AUTO 36003KT 320V030 9999 NSC 06/04 Q1013=
METAR LFMH 272100Z AUTO 32005KT 9999 NSC 03/M02 Q1022=
METAR LFML 272100Z 32024KT CAVOK 07/M00 Q1016 NOSIG=
METAR LFMP 272100Z AUTO 31010KT 280V350 9999 NSC 09/M04 Q1023=
METAR LFOH 272100Z AUTO 17005KT 9999 NSC 05/01 Q1022=
METAR LFOT 272100Z 24001KT CAVOK 04/M00 Q1024 NOSIG=
METAR LFPM 272100Z AUTO 27002KT 9999 NSC 02/M02 Q1023=
METAR LFPN 272100Z AUTO 28002KT 9999 NSC 01/M03 Q1023=
METAR LFRC 272100Z AUTO 18008KT 9999 NSC 04/02 Q1021=
METAR LFRH 272100Z AUTO 20009KT 9999 -RA BKN031 OVC038 08/05 Q1022=
METAR LFRK 272100Z AUTO 18005KT 9999 NSC 02/00 Q1022=
METAR LFRQ 272100Z AUTO 18005KT 9999 FEW023 SCT041 BKN049 07/05 Q1021=
METAR LFRT 272100Z AUTO 21004KT 180V250 9999 NSC 06/03 Q1021=
METAR LFSD 272100Z AUTO 02002KT 9999 NSC 01/M02 Q1023=
METAR LFSX 272100Z AUTO 31002KT 4300 BR SCT047 OVC064 03/01 Q1022=
METAR LFTW 272100Z AUTO 34013KT 9999 NSC 06/M04 Q1019=
####018000285####
SAXX60 KAWN 272100 RRB
METAR PHNG 272057Z 35010KT CLR 27/21 A2997 RMK AO2 SLP144 T02670211
      51007 $=
METAR RJOO 272100Z 33006KT 9999 FEW030 SCT050 BKN070 04/M02 Q1026 RMK
      1CU030 3SC050 5AC070 A3032=
METAR RJTT 272100Z 33012KT CAVOK 04/M07 Q1021 NOSIG RMK A3016=
####018000604####
SASA31 XXSA 272109
METAR SCEL 272100Z 18011KT CAVOK 28/09 Q1012 NOSIG=
METAR SUMU 272100Z 15010KT 9999 SCT026 20/12 Q1016 NOSIG=
METAR SLLP 272100Z 28008KT 250V320 9999 SCT015 FEW017CB SCT070 BKN200
10/03 Q1035=
METAR SPIM 272100Z 17013KT CAVOK 27/19 Q1010 NOSIG RMK BKN230 PP000=
METAR SKBO 272100Z 19012KT 9999 SCT023 SCT080 20/06 A3024=
METAR SVMI 272100Z 05003KT 9999 FEW023 31/24 Q1012 NOSIG=
METAR SMJP 272100Z 01005KT 340V040 9999 FEW018CB 28/24 Q1011 NOSIG=
METAR SYCJ 272100Z 05010KT 9999 FEW022 SCT100 29/23 Q1011 NOSIG=
METAR SOCA 272100Z AUTO 03008KT 9999 FEW022/// OVC068/// 28/23
Q1010=
####018000152####
SAAK41 KNKA 272108
SPECI PABA 272107Z AUTO 29027G33KT 1 3/4SM -SN BR FEW037 M03/M03 
 A3012 RMK AO2 PK WND 29033/2104 VIS 1V5 SNB05 P0000 FZRANO=
####018000116####
SPCN44 CWAO 272109
SPECI CYBW 272109Z AUTO 01011KT 9SM -SN SCT035 BKN041 OVC055 M08/M12
 A3005 RMK SLP248=

