####018000080####
SATU35 LTAA 272050
METAR LCEN 272050Z 00000KT 6000 FEW025 10/09 Q1012 NOSIG=
####018000949####
SATU31 LTAA 272050
METAR LTAC 272050Z VRB04KT 9999 -SHRA SCT035 BKN090 09/03 Q1010
 NOSIG=
METAR LTAF 272050Z 02009KT 9999 FEW040 16/03 Q1013 NOSIG=
METAR LTAI 272050Z 16016KT 9999 TS SCT015CB BKN025 17/14 Q1009 BECMG
 -TSRA TEMPO 4000 TSRA BKN015CB=
METAR LTAJ 272050Z VRB01G16KT CAVOK 07/02 Q1018 NOSIG=
METAR LTAZ 272050Z 11011KT 9999 FEW040 SCT100 09/M00 Q1013=
METAR LTBA 272050Z 36018KT CAVOK 09/07 Q1007 NOSIG=
METAR LTBJ 272050Z 15013KT 9999 SCT030 BKN100 09/07 Q1008 NOSIG=
METAR LTBR 272050Z 08008KT 9999 SCT035 BKN100 12/07 Q1006 NOSIG=
METAR LTBS 272050Z VRB02KT 9999 SCT030 BKN100 14/11 Q1011 NOSIG=
METAR LTCG 272050Z 11007KT 060V170 8000 NSC 09/06 Q1010 NOSIG=
METAR LTCS 272050Z 10007KT CAVOK 06/03 Q1020=
METAR LTFC 272050Z 03007KT 9999 -TSRA FEW025CB BKN030 08/06 Q1010=
METAR LTFE 272050Z 16003KT 9999 FEW020CB BKN030 09/07 Q1010 NOSIG=
METAR LTFJ 272050Z 04013KT 9999 FEW035 SCT080 09/06 Q1007 BECMG
 VRB02KT=
####018000236####
SATU34 LTAA 272050
METAR LTBH 272050Z 24004KT 3500 -SHRA BR FEW015 SCT035 BKN100 10/08
 Q1008 CLRD//=
METAR LTFD 272050Z VRB01KT 7000 SHRA SCT030 BKN080 10/08 Q1008
 R23250172=
METAR LTFG 272050Z VRB03KT 9999 SCT035 14/05 Q1010=
####018000693####
SATU32 LTAA 272050
METAR LTAG 272050Z 08010KT CAVOK 15/04 Q1013 NOSIG=
METAR LTAN 272050Z 20010KT 9999 FEW040 SCT090 08/M00 Q1012 NOSIG=
METAR LTAP 272050Z VRB02KT CAVOK 09/01 Q1010 NOSIG=
METAR LTAT 272050Z 23006KT CAVOK M00/M01 Q1018 NOSIG=
METAR LTAU 272050Z 00000KT CAVOK 04/M02 Q1014 TEMPO TL2200 14018KT=
METAR LTBF 272050Z 09004KT 030V140 9999 -SHRA SCT035 BKN100 10/06
 Q1008 NOSIG=
METAR LTBQ 272050Z VRB03KT 9999 SCT040 BKN100 10/07 Q1007 RESHRA
 NOSIG=
METAR LTBU 272050Z 03016KT 9999 SCT035 BKN100 08/06 Q1007=
METAR LTCC 272050Z NIL=
METAR LTCE 272050Z 15003KT 090V220 4000 BR FEW030 M12/M13 Q1021 BECMG
 TL2150 7000=
METAR LTCJ 272050Z VRB02KT CAVOK 04/01 Q1019=
####018000586####
SATU33 LTAA 272050
METAR LTAR 272050Z 17019KT CAVOK 02/M05 Q1016=
METAR LTAY 272050Z VRB04KT 9999 -TSRA FEW020CB BKN030 BKN090 06/03
 Q1010=
METAR LTBY 272050Z 15004KT 9999 BKN040 08/05 Q1009=
METAR LTBZ 272050Z 18015G27KT 9999 -SHRA SCT035 BKN100 08/03 Q1009=
METAR LTCA 272050Z VRB03KT CAVOK 01/M02 Q1019 NOSIG=
METAR LTCD 272050Z 12008KT CAVOK 05/M05 Q1018 NOSIG=
METAR LTCF 272050Z 32003KT CAVOK M13/M15 Q1023=
METAR LTCI 272050Z 09001KT CAVOK M02/M03 Q1022 NOSIG=
METAR LTDA 272050Z 05009KT CAVOK 13/07 Q1016=
METAR LTFH 272050Z VRB01KT 8000 SCT036 06/05 Q1009 NOSIG=
####018001085####
SAPR76 SPIM 272100
METAR SPCL 272100Z 36005KT 9999 FEW015 SCT070 30/24 Q1008
RMK BIRD HAZARD RWY 02/20 PP000=
METAR SPGM 272100Z /////KT 6000 -RA SCT020 BKN070 22/22 Q1012 RMK
BIRD HAZARD RWY 19 PP340=
METAR SPHO 272100Z 03005KT 9999 FEW046TCU SCT140 26/12 Q1021 RMK
PP000=
METAR SPHY 272100Z NIL=
METAR SPJI 272100Z 00000KT 9999 SCT040 31/24 Q1016 RMK T.MAX 32.3
PP000=
METAR SPJL 272100Z 02008KT 9999 SCT030 16/04 Q1034 RMK PP000=
METAR SPJR 272100Z 19009KT 9999 FEW026 BKN050 20/11 Q1024 RMK BIRD
HAZARD RWY 16/34 PP000=
METAR SPLO 272100Z 14009KT 9999 SCT070 24/18 Q1009 RMK TMAX 26.4
PP000=
METAR SPME 272100Z 34006KT 9999 FEW017 30/23 Q1007
RMK BIRD HAZARD RWY 32/14 PP000=
METAR SPMS 272100Z 33003KT 9999 BKN017 30/25 Q1009
RMK BIRD HAZARD RWY 09/27 PP000=
METAR SPST 272100Z 30006KT 9999 SCT025 SCT080 32/23 Q1008 RMK BIRD 
HAZARD
RWY 17/35 PP000=
METAR SPTU 272100Z 21003KT 9999 FEW010 SCT040 BKN070 27/25 Q1005
RMK BIRD HAZARD RWY 01/19 QUAD.NE CB PP120=
METAR SPYL 272100Z /////KT CAVOK 28/20 Q1008 RMK TX 31.4 BIRD HAZARD
RWY 17/35 SCT100 PP000=
####018000521####
SACU31 MUHA 272100
METAR
MUHA 272055Z 02011KT 7000 VCSH FEW020TCU BKN036 26/20 Q1017=
MUVR 272054Z 03011KT 330V110 8000 -SHRA FEW018CB BKN020 23/21 Q1018=
MUSC 272051Z 28001KT 9000 BKN035 28/16 Q1018=
MUCC 272050Z 07012KT 9000 SCT020 28/22 Q1017=
MUCM 272050Z 05014KT 9000 BKN018 32/16 Q1016=
MUHG 272050Z 05014KT 9999 FEW025 32/12 Q1015=
MUCU 272051Z 20006KT 160V240 9000 FEW020 28/22 Q1016=
MUCL 272052Z VRB02KT 9000 FEW018 SCT050 26/19 Q1016=
MUCF 272050Z 24007KT 220V280 9999 SCT030 31/19 Q1017=
 
 
 
####018000090####
SAPF20 NTAA 272100
METAR NTAA 272100Z 05012KT 9999 FEW015TCU SCT023 30/24 Q1012 NOSIG=
####018000392####
SASD31 OEJD 272100
METAR OEDF 272100Z 00000KT CAVOK 12/07 Q1017 NOSIG=
METAR OEDR 272100Z NIL=
METAR OEJN 272100Z 30004KT CAVOK 25/14 Q1011 NOSIG=
METAR OEMA 272100Z 09002KT CAVOK 24/M04 Q1020 NOSIG=
METAR OERK 272100Z 22004KT CAVOK 12/M06 Q1021 NOSIG=
METAR OERY 272100Z NIL=
METAR OYAA 272100Z 10007KT 6000 FEW018 25/19 Q1014=
METAR OYSN 272100Z 23003KT CAVOK 13/M08 Q1028 NOSIG=
####018000085####
SABZ24 SBPP 272100
METAR SBPP 272100Z 00000KT 5000 -RA SCT017 BKN070 21/20 Q1012=
####018000669####
SAPR82 SPIM 272100
METAR SPHI 272100Z 20013KT CAVOK 29/20 Q1008 RMK PP000=
METAR SPIM 272100Z 17013KT CAVOK 27/19 Q1010 NOSIG RMK BKN230 PP000=
METAR SPQT 272100Z 35004KT 9999 FEW030 SCT100 32/24 Q1006 NOSIG RMK
BIRD HAZARD PP000=
METAR SPQU 272100Z 26011KT 9999 SCT005 BKN020 15/12 Q1025
TEMPO -DZ RMK PP000=
METAR SPRU 272100Z 13011KT 100V160 9999 FEW050 BKN150 24/19 Q1009 RMK
PP000=
METAR SPSO 272100Z 23014KT 190V250 CAVOK 27/19 Q1010 RMK SCT230 BIRD
HAZARD RWY 22/04 PP000=
METAR SPTN 272100Z 22008KT 190V260 9999 OVC090 27/16 Q1013 RMK PP000=
METAR SPZO 272100Z 04008KT 360V090 9999 VCSH FEW040TCU SCT050 BKN100
      16/05 Q1027 NOSIG RMK PP000=
####018000098####
SABZ18 SBCF 272100
METAR SBCF 272100Z 31008KT 9999 BKN040 FEW045TCU SCT100 20/18 Q1015 R
ETS=
####018000089####
SAIV21 DIAP 272100
METAR DIAP 272100Z 20004KT 9000 FEW012 FEW020CB 27/26 Q1011 NOSIG=
####018000080####
SAUS53 KWBC 272000 RRK
METAR
KAID 272049Z 31010KT 10SM CLR M08/M18 A2959=
####018000089####
SPAU69 AMMC 272100
SPECI YWLM 272100Z AUTO 00000KT 0700 // OVC001 18/18 Q1011=


####018000089####
SPAU32 AMMC 272100
SPECI YWLM 272100Z AUTO 00000KT 0700 // OVC001 18/18 Q1011=


####018000099####
SPUS81 KWBC 272100
SPECI
KDAL 272055Z 05010KT 2SM -SN BR SCT013 BKN018 OVC033 M02/M06 A3043=
####018000187####
SAUS46 KREV 272058 COR
MTRNFL
METAR KNFL 272056Z 26030G38KT 7SM -RA SCT035 BKN060 BKN120 08/00 
A2968 RMK AO2 PK WND 25038/2054 RAB53 PRESRR SLP032 P0000 60000 
T00830000 55022
####018000112####
SARS18 KAWN 272100 RRA
METAR EETU 272050Z AUTO 01004KT 0250 R26/0800N FG VV001 00/M00 Q1017
      RESHUP=
####018000250####
SPUS17 KAWN 272100 RRJ
SPECI KCOF 272055Z AUTO 34018G22KT 330V060 10SM -TSRA OVC007 13/13
      A3017 RMK AO2 LTG DSNT E RAE42DZB42E48RAB48E51RAB55 TSB48 $=
SPECI KDMA 272059Z AUTO 19012G21KT 10SM CLR 22/M04 A2972 RMK AO2 WSHFT
      55 $=
####018000430####
SAXX70 KAWN 272100 RRD
METAR KQTC 272055Z AUTO 34007KT 5SM CLR 28/M12 A2996 RMK AO2 SLP117
      T02841119 51014 $=
METAR KQTZ 272055Z VRB01KT 9999 SCT250 13/00 A3007 RMK SLP180 WND DATA
      ESTMD ALSTG/SLP ESTMD 50000=
METAR KQGX 272058Z AUTO 02007KT 9999 CLR 17/10 A3000 RMK AO2 SLP161
      60000 T01740102 58004 $=
METAR KQSA 272058Z 31001KT 8000 HZ FEW085 BKN160 02/M01 A3011 RMK AO2A
      SLP162 57004=
####018000163####
SPNA35 KAWN 272100 RRD
SPECI KCOF 272055Z AUTO 34018G22KT 330V060 10SM -TSRA OVC007 13/13
      A3017 RMK AO2 LTG DSNT E RAE42DZB42E48RAB48E51RAB55 TSB48 $=
####018000392####
SPZZ40 KAWN 272100 RRO
SPECI CWOB 272058Z AUTO 03011KT M23/ A2937=
SPECI CYAH 272058Z AUTO 25008KT 4SM HZ BKN024 OVC036 M22/M26 A2986
      RMK SLP153=
SPECI CYET 272058Z AUTO 33009KT 9SM SCT029 M08/M14 A3016 RMK SLP272=
SPECI CYKL 272058Z AUTO 28012G19KT 9SM OVC035 M26/M34 A2967 RMK SLP118=
SPECI KDMA 272059Z AUTO 19012G21KT 10SM CLR 22/M04 A2972 RMK AO2 WSHFT
      55 $=
####018000098####
SPUS81 KWBC 272100
SPECI
KSXT 272058Z AUTO VRB03KT 4SM BR SCT003 BKN007 OVC016 04/03 A2973=
####018000134####
SANO37 ENMI 272050 RRA
METAR ENOV 272050Z VRB08KT 9999 -SHRA FEW010 SCT016 BKN027 05/01
           Q1002 RMK WIND 2175FT 19026KT=
####018000140####
SAGC31 MWCR 272100
METAR MWCR 272100Z 09014KT 9999 FEW018 29/23 Q1015 NOSIG=
METAR MWCB 272100Z 09009KT 9999 FEW016 BKN030 29/24 Q1015=
####018000638####
SABO SLLP 272100
METAR SLLP 272100Z 28008KT 250V320 9999 SCT015 FEW017CB SCT070 BKN200
10/03 Q1035=
METAR SLVR 272100Z 35011KT 9999 FEW013 SCT017 BKN200 29/22 Q1008=
METAR SLCB 272100Z 00000KT 9999 FEW025 FEW027CB 23/10 Q1021=
METAR SLTJ 272100Z 17006KT 9999 SCT030 FEW033CB BKN200 22/17 Q1015=
METAR SLTR 272100Z 36007KT 8000 VCSH FEW017 FEW020CB BKN200 26/23
Q1008=
METAR SLCO 272100Z 27006KT 9999 SCT023 FEW025CB SCT200 33/25 Q1006=
METAR SLSU 272100Z 06007KT 9999 FEW023 FEW033CB SCT200 19/07 Q1025=
METAR SLET 272100Z 33014G25KT 9999 SCT020 BKN200 29/22 Q1007=
METAR SLPS 272100Z 00000KT 9999 FEW020 BKN200 33/24 Q1007=
####018000092####
SARM31 LUKK 272100
METAR LUKK 272100Z 36007KT 9999 BKN015 06/04 Q1016
R08/CLRD65 NOSIG=
####018000074####
SABZ19 SBMA 272100
METAR SBMA 272100Z 22002KT 9999 FEW020 27/25 Q1010=
####018000150####
SAUS46 KMFR 272100
MTRMHS
METAR KMHS 272056Z AUTO VRB06KT 10SM FEW065 FEW080 10/03 A2969 RMK 
AO2 RAB11E37 SLP069 P0001 60001 T01000028 58017
####018001573####
SAZZ40 KAWN 272100 RRK
METAR KDLF 272058Z AUTO 09005KT 5SM BR BKN007 OVC011 02/00 A3023 RMK
      AO2 CIG 007V010 SLP242 57026 $=
METAR KFSI 272058Z AUTO 06008KT 8SM -SN FEW017 BKN025 OVC033 M07/M11
      A3043 RMK AO2 SNE29UPB29E33SNB33E35UPB35E37SNB37 CIG 022V033
      SLP321 P0000 60000 T10741107 57018=
METAR KGSB 272058Z AUTO 04008KT 10SM CLR 09/00 A3036 RMK AO2 SLP285
      T00910002 55001 $=
METAR KHIF 272058Z 17005KT 10SM BKN035 BKN070 04/M05 A2973 RMK AO2A
      SLP067 60000 57022=
METAR KHRT 272058Z AUTO 04012KT 10SM CLR 14/M03 A3026 RMK AO2 SLP249
      T01401029 57020 $=
METAR KLHW 272058Z AUTO VRB03KT 10SM FEW200 11/02 A3031 RMK AO2 SLP267
      T01120015 55010=
METAR KLTS 272058Z AUTO 05009KT 3SM -SN BKN014 OVC020 M07/M09 A3043
      RMK AO2 SLP324 P0000 60001 T10701094 57022 $=
METAR KLUF 272058Z 20008G16KT 10SM CLR 23/M01 A2966 RMK AO2A SLP038
      T02281008 57031 $=
METAR KMGE 272058Z 31010KT 10SM FEW250 07/M07 A3036 RMK AO2A SLP290
      T00721069 55006 $=
METAR KNCA 272056Z 36009KT 10SM CLR 10/M01 A3037 RMK AO2 SLP286 T01001011=
METAR KSKF 272058Z 05010KT 3SM -RA BR BKN008 OVC013 01/M01 A3025 RMK
      AO2A RAE18DZB18E54RAB54 CIG 007V009 SLP249 P0001 60001
      T00071007 57019 $=
METAR KSLI 272058Z 20010KT 10SM SCT030 BKN038 OVC049 18/11 A2980 RMK
      AO2A SLP094 T01790111 58019=
METAR MHSC 272058Z 33013G17KT 9999 SCT080 32/13 A2988 RMK AO2A SLP070
      56028=
METAR MYNN 272100Z 18004KT 9999 FEW016TCU 30/22 A3007 TCU/W=
METAR SBCB 272100Z 09007KT CAVOK 27/24 Q1008=
####018001585####
SANA14 KAWN 272100 RRB
METAR KOZR 272058Z AUTO 03010KT 10SM CLR 15/M02 A3028 RMK AO2 SLP257
      T01451024 57016=
METAR KPAM 272058Z AUTO 05005KT 10SM CLR 13/02 A3027 RMK AO2 SLP254
      T01270019 56015 $=
METAR KPOB 272058Z AUTO 34004KT 10SM CLR 11/M02 A3036 RMK AO2 SLP285
      T01051025 55003=
METAR KPOE 272058Z AUTO VRB06KT 10SM OVC150 09/M02 A3032 RMK AO2 SLP271
      T00891019 57023=
METAR KRND 272058Z 02013G18KT 10SM OVC016 02/M04 A3027 RMK AO2A SLP256
      60000 T00151037 57021=
METAR KSGH 272056Z AUTO 33008KT 8SM BKN041 M08/M17 A3058 RMK AO2 55001
      T10771166 BKN V SCT SLP378=
METAR KSKF 272058Z 05010KT 3SM -RA BR BKN008 OVC013 01/M01 A3025 RMK
      AO2A RAE18DZB18E54RAB54 CIG 007V009 SLP249 P0001 60001
      T00071007 57019 $=
METAR KSLI 272058Z 20010KT 10SM SCT030 BKN038 OVC049 18/11 A2980 RMK
      AO2A SLP094 T01790111 58019=
METAR KSSC 272058Z AUTO 12004KT 10SM CLR 12/00 A3032 RMK AO2 SLP270
      60000 T01210002 55012 $=
METAR KTBN 272058Z AUTO VRB02KT 10SM BKN075 OVC095 M07/M18 A3051 RMK
      AO2 SLP357 T10691184 57019=
METAR KTIK 272058Z AUTO 06005KT 5SM -SN FEW013 OVC019 M08/M11 A3046
      RMK AO2 CIG 015V019 SLP343 P0001 60001 T10791114 55019=
METAR KTTS 272058Z AUTO 36012G18KT 6SM -RA BR OVC007 13/11 A3019 RMK
      AO2 DZE08RAB08 OVC V BKN SLP226 P0001 60001 T01280114 56009 $=
METAR KWRB 272058Z AUTO 04006KT 10SM CLR 14/M01 A3031 RMK AO2 SLP268
      T01441006 56018=
METAR SKRG 272100Z 15010KT 9999 FEW020 22/10 A3020=
METAR SKSP 272100Z 08010KT 9999 SCT018 28/24 A2985=
####018000279####
SAIN33 VECC 272050
METAR VECC 272050Z 20008KT 2600 HZ NSC 25/21 Q1010 NOSIG=
METAR VEPT 272050Z NIL=
METAR VGEG 272050Z NIL=
METAR VGHS 272050Z 22005KT 3500 HZ NSC 24/20 Q1010 NOSIG=
METAR VNKT 272050Z 07004KT 7000 FEW020 08/07 Q1019 NOSIG=
METAR VQPR 272050Z NIL=
####018000115####
SAOM32 OOMS 272100
METAR OOMS 272050Z 010013KT 6000 SCT025 SCT100 20/10 Q1014 NOSIG=
METAR OOSA 272100Z NIL=
####018000104####
SAAJ31 UBBB 272100
METAR UBBY 272100Z VRB03KT 9999 SCT060 07/02 Q1029
R33/////// NOSIG RMK MT OP=
####018000402####
SARH31 LDZM 272100
METAR LDSP 272100Z 32008KT 290V350 CAVOK 10/02 Q1011 NOSIG =
METAR LDPL 272100Z VRB03KT CAVOK 03/02 Q1012 NOSIG =
METAR LDDU 272100Z 01011KT 340V040 CAVOK 11/05 Q1009 NOSIG =
METAR LDZA 272100Z 00000KT 9999 BKN045 05/01 Q1014 NOSIG =
METAR LDZD 272100Z 31003KT CAVOK 04/00 Q1011 NOSIG =
METAR LDRI 272100Z NIL=
METAR LDOS 272100Z 01005KT 9999 -RA BKN010 OVC030 06/05 Q1014=
####018000071####
SARH32 LDZM 272100
METAR LDLO 272100Z NIL=
METAR LDSB 272100Z NIL=
####018000093####
SAFG20 SOCA 272100
METAR SOCA 272100Z AUTO 03008KT 9999 FEW022/// OVC068/// 28/23
Q1010=
####018000159####
SASM20 SMJP 272100
METAR SMJP 272100Z 01005KT 340V040 9999 FEW018CB 28/24 Q1011
NOSIG=
METAR SMZO 272100Z 06009KT 9999 FEW018CB SCT035 28/22 Q1011 NOSIG=
####018000110####
SAAA31 NZCM 272055
METAR NZCM 272055Z VRB05KT 9999 FEW020 FEW030 M05/M14 A2918
RMK SLP886 FATA MORGANA S=
####018001319####
SAKU31 NCRG 272100
METAR NCRG 272100Z
07008KT 9999 SCT018 29/25 Q1013=
METAR NCAI 272100Z AUTO
07008KT //// ///// 29/25 Q1013=
METAR NCMH 272100Z AUTO
NIL=
METAR NCPY 272100Z AUTO
06003KT //// ///// 26/25 Q1009=
cid:0082-0001@01d052d0.3101fe4b]       Michael Rau  Operational Obs
erver
Cook Islands Meteorological Service  Ministry of Transport
phone: +(682) 20603  fax: +(682) 28816  PO Box 61  Avarua, Raroton
ga, Co=
ok Islands
web: http://www.transport.gov.ck  mail: michael.rau@cookislands.gov.
ck<mai=
lto:michael.rau@cookislands.gov.ck 
________________________________
This email and any attachments to it may be confidential and are inte
nded s=
olely for the use of the individual to whom it is addressed. Any view
s or o=
pinions expressed are solely those of the author and do not necessari
ly rep=
resent those of the Cook Islands Government. If you are not the inten
ded re=
cipient of this email, you must neither take any action based upon it
s cont=
ents, nor copy or show it to anyone. Please contact the sender if you
 belie=
ve you have received this email in error.
cid:0082-0002@01d052d0.3101fe4b] Please consider the environment bef
ore pr=
inting this e-mail
--_000_8247FCDB6631084EBEA7426B1600471F3FDC9555CKMFEMEX1MFEMGO_
####018000105####
SAUS41 KLWX 272100 COR
MTRDMH
METAR KDMH 272054Z AUTO M02/M13 A3044 RMK AO1 SLP307 T10171128 58007
####018000117####
SASO31 AGGG 272100
METAR 272100

METAR AGGH 272100Z 25006KT 9999 HZ FEW018 FEW019CB BKN300 28/23 Q1007 =

 

 


####018000434####
SAAK27 PADN 272100
METAR PAHO 272053Z 00000KT 10SM CLR 02/M03 A3045 RMK SLP311
     T00221033 53004 VIA AUTODIAL=
SPECI PABT 272051Z 17005KT 6SM BR SCT007 OVC010 M02/M04 A3031 RMK
     PNO VIA AUTODIAL=
SPECI PABT 272100Z 17005KT 6SM BR SCT007 OVC010 M02/M04 A3031 RMK
     T10221044 PNO $ VIA AUTODIAL=
METAR PAWI 272053Z AUTO 25009KT 10SM CLR M16/M18 A3013 RMK SLP205
     60000 T11561183 53023 TSNO VIA AUTODIAL=
####018000081####
SAIN90 VOBL 272100
METAR VOBL 272100Z 14006KT 6000 FEW015 26/25 Q1014 NOSIG=
####018000967####
SAAK41 KNKA 272059
METAR PAGA 272058Z AUTO 13010KT 10SM OVC025 M01/M04 A3033 RMK AO2 
 SLP277 T10061039 58011 FZRANO=
METAR PAIW 272058Z AUTO 18025G34KT 6SM UP BR OVC005 00/M01 A2999 RMK 
 AO2 PK WND 18036/2043 RAB08E30UPB30SNE08 SLP157 P0000 60000 
 T00001006 56003 FZRANO=
METAR PANW 272056Z AUTO 06005KT 10SM CLR M02/M04 A3036 RMK AO2 TSNO 
 58010 T10221038 SLP262 $=
METAR PATE 272058Z AUTO 19031G36KT 2 1/2SM -SN BR BKN006 BKN013 
 OVC050 M01/M02 A3001 RMK AO2 PK WND 18048/2032 CIG 004V011 SLPNO 
 P0000 60000 T10111017 55004 FZRANO=
METAR PAWM 272058Z AUTO 17018G24KT 6SM BR OVC020 M02/M02 A3017 RMK 
 AO2 SNB44E57 SLP228 P0000 60000 T10171022 58013 FZRANO=
METAR PFEL 272058Z AUTO 18013KT 9SM -SN OVC020 M01/M03 A3023 RMK AO2 
 SNB25 SLP243 P0000 60000 T10111028 56011 FZRANO=
METAR PFKT 272058Z AUTO 17023G26KT 10SM BKN010 OVC020 00/M01 A3007 
 RMK AO2 PK WND 19032/2006 CIG 009V014 SLP183 60000 T00001006 
 55003 FZRANO=
####018000299####
SAEQ01 SEQU 272100
METAR SEQM 272100Z 36012KT 9999 FEW030 SCT090 20/12 Q1021 NOSIG RMK
    A3016=
METAR SEMT 272100Z 33007KT 9999 FEW020 SCT033 28/24 Q1009=
METAR SELT 272100Z 18013KT 9999 SCT030 SCT300 19/10 Q1026=
METAR SEGU 272100Z 02006KT 9999 FEW023 BKN100 29/22 Q1007 NOSIG RMK
A2976=
####018000071####
SAYE20 OYSC 272100
METAR OYTZ 272100Z 09003KT 6000 NSC 18/15 Q1021=
####018000091####
SABZ18 SBGR 272100
METAR SBGR 272100Z 31005KT 9999 SCT045 FEW050TCU BKN100 28/20 Q1011=
####018000074####
SABZ21 SBPL 272100
METAR SBPL 272100Z 01003KT 9999 FEW040 33/19 Q1009=
####018001655####
SASA KAWN 272100 RRC
METAR SAWG 272100Z 27025G38KT 9999 FEW035 28/07 Q0999=
METAR SAWH 272100Z 09004KT 9999 BKN045 BKN100 10/07 Q0993=
METAR SBCB 272100Z 09007KT CAVOK 27/24 Q1008=
METAR SBFI 272100Z 14003KT 9999 SCT030 FEW040TCU BKN100 26/23 Q1010
      R ETS=
METAR SBFZ 272100Z 07006KT 9999 FEW020 27/22 Q1010=
METAR SBGO 272100Z 35006KT 9999 SCT025 28/16 Q1013=
METAR SBPP 272100Z 00000KT 5000 -RA SCT017 BKN070 21/20 Q1012=
METAR SBRF 272100Z 09007KT 9999 FEW023 28/22 Q1010=
METAR SBSN 272100Z 30001KT 9999 FEW030TCU 30/25 Q1008=
METAR SBSP 272100Z 19006KT 9999 SCT045 26/13 Q1012=
METAR SKBG 272100Z 32005KT 8000 SCT017 26/19 A2990 RMK HZ=
METAR SKBO 272100Z 19012KT 9999 SCT023 SCT080 20/06 A3024=
METAR SKBQ 272100Z 02010KT CAVOK 30/25 A2976=
METAR SKCL 272100Z 33012K SCT017 SCT200 31/27 A2972=
METAR SKPE 272100Z 28005KT 9999 FEW025 29/16 A2990=
METAR SKRG 272100Z 15010KT 9999 FEW020 22/10 A3020=
METAR SKSP 272100Z 08010KT 9999 SCT018 28/24 A2985=
METAR SPHO 272100Z 03005KT 9999 FEW046TCU SCT140 26/12 Q1021 RMK PP000=
METAR SPJR 272100Z 19009KT 9999 FEW026 BKN050 20/11 Q1024 RMK BIRD
      HAZARD RWY 16/34 PP000=
METAR SPQT 272100Z 35004KT 9999 FEW030 SCT100 32/24 Q1006 NOSIG RMK
      BIRD HAZARD PP000=
METAR SPTU 272100Z 21003KT 9999 FEW010 SCT040 BKN070 27/25 Q1005 RMK
      BIRD HAZARD RWY 01/19 QUAD.NE CB PP120=
METAR SPYL 272100Z /////KT CAVOK 28/20 Q1008 RMK TX 31.4 BIRD HAZARD
      RWY 17/35 SCT100 PP000=
METAR SPZO 272100Z 04008KT 360V090 9999 VCSH FEW040TCU SCT050 BKN100
      16/05 Q1027 NOSIG RMK PP000=
METAR SVBM 272100Z 11013KT 9999 FEW016 31/17 Q1013=
####018001583####
SAZZ40 KAWN 272100 RRL
METAR K79J 272056Z AUTO 06007G15KT 010V100 10SM CLR 16/M02 A3030 RMK
      AO2 SLP260 T01561022 56018=
METAR KNFE 272056Z AUTO 36010KT 10SM CLR 04/M03 A3043 RMK AO2 SLP307
      T00391033 51015=
METAR KNFL 272056Z 26030G38KT 7SM -RA SCT035 BKN060 BKN120 08/00 A2968
      RMK AO2 PK WND 25038/2054 RAB53 PRESRR SLP032 P0000 60000
      T00830000 55022=
METAR KNGP 272056Z 05022G27KT 5SM -RA BR BKN010 OVC020 11/08 A3019
      RMK AO2 PK WND 06028/2034 RAB56 SLP223 P0000 60000 T01060083
      58023=
METAR KNMM 272056Z 06009KT 10SM CLR 08/M06 A3039 RMK AO2 SLP302 T00831056
      56024=
METAR KNRS 272056Z 18011G19KT 10SM FEW025 BKN035 18/11 A2984 RMK AO2
      SLP104 T01830111 58012 $=
METAR KNSI 272057Z AUTO 31022G36KT 10SM OVC013 A2983 RMK AO2 PK WND
      31036/2050 SLPNO 58009 $=
METAR KNTD 272056Z COR 26012KT 10SM FEW027 SCT250 19/12 A2981 RMK AO2
      SLP096 T01940117 58019 $=
METAR KNYL 272057Z 24004KT 10SM FEW100 24/06 A2968 RMK AO2 SLP047 T02390056
      58024=
METAR KVBG 272055Z COR 32021G28KT 10SM SCT015 BKN020 BKN250 16/12 A2986
      RMK AO2 PK WND 32030/2011 BKN020 V SCT SLP102 T01610117
      58012 COR 2057=
METAR MUHG 272050Z 05014KT 9999 FEW025 32/12 Q1015=
METAR NTAA 272100Z 05012KT 9999 FEW015TCU SCT023 30/24 Q1012 NOSIG=
METAR OEMA 272100Z 09002KT CAVOK 24/M04 Q1020 NOSIG=
METAR PHBK 272056Z AUTO 36020KT 10SM CLR 26/18 A3000 RMK AO2 SLP160
      T02560178 50007=
METAR SPYL 272100Z /////KT CAVOK 28/20 Q1008 RMK TX 31.4 BIRD HAZARD
      RWY 17/35 SCT100 PP000=
####018001582####
SANA35 KAWN 272100 RRB
METAR KBAD 272058Z AUTO 02009KT 10SM OVC080 01/M06 A3043 RMK AO2 SLP309
      T00061063 58020=
METAR KBIX 272058Z AUTO 04008KT 10SM CLR 14/M01 A3028 RMK AO2 SLP257
      T01351009 57026=
METAR KCOF 272058Z AUTO 35015G21KT 10SM -TSRA OVC007 13/13 A3017 RMK
      AO2 LTG DSNT E RAE42DZB42E48RAB48E51RAB55 TSB48 SLP221 P0001
      60006 T01340126 57007 $=
METAR KGSB 272058Z AUTO 04008KT 10SM CLR 09/00 A3036 RMK AO2 SLP285
      T00910002 55001 $=
METAR KHST 272058Z AUTO 07010KT 10SM CLR 26/21 A3007 RMK AO2 SLP186
      60000 T02560207 57011=
METAR KNCA 272056Z 36009KT 10SM CLR 10/M01 A3037 RMK AO2 SLP286 T01001011=
METAR KNGP 272056Z 05022G27KT 5SM -RA BR BKN010 OVC020 11/08 A3019
      RMK AO2 PK WND 06028/2034 RAB56 SLP223 P0000 60000 T01060083
      58023=
METAR KPAM 272058Z AUTO 05005KT 10SM CLR 13/02 A3027 RMK AO2 SLP254
      T01270019 56015 $=
METAR KPOB 272058Z AUTO 34004KT 10SM CLR 11/M02 A3036 RMK AO2 SLP285
      T01051025 55003=
METAR KSSC 272058Z AUTO 12004KT 10SM CLR 12/00 A3032 RMK AO2 SLP270
      60000 T01210002 55012 $=
METAR MYNN 272100Z 18004KT 9999 FEW016TCU 30/22 A3007 TCU/W=
METAR SKBQ 272100Z 02010KT CAVOK 30/25 A2976=
METAR SKSP 272100Z 08010KT 9999 SCT018 28/24 A2985=
METAR SPHI 272100Z 20013KT CAVOK 29/20 Q1008 RMK PP000=
METAR SPQU 272100Z 26011KT 9999 SCT005 BKN020 15/12 Q1025 TEMPO -DZ
      RMK PP000=
METAR SPRU 272100Z 13011KT 100V160 9999 FEW050 BKN150 24/19 Q1009 RMK
      PP000=
METAR TNCM 272100Z 09014KT 9999 SCT024 27/20 Q1017 A3004 NOSIG=
####018000111####
SAMO31 ZMUB 272100 RRA
METAR ZMUB 272100Z 00000MPS 9999 SCT100 M15/M18 Q1017 NOSIG RMK 
 QFE655.3 76 NT=
####018000083####
SPAU31 AMMC 272100
SPECI YSRI 272100Z AUTO 00000KT 0300 // OVC001 19/19 Q1011=
####018000124####
SAUS41 KAKQ 272100
MTRNGU
METAR KNGU 272059Z 02015KT 8SM SCT029 BKN036 01/M04 A3047 RMK AO2 
SLP316 T00111044 53018
####018000078####
SAUY SUMU 272100
METAR SUMU 272100Z 15010KT 9999 SCT026 20/12 Q1016 NOSIG=
####018000074####
SABZ23 SBRJ 272100
METAR SBRJ 272100Z 16010KT 9999 FEW025 28/24 Q1007=
####018000074####
SABZ21 SBJP 272100
METAR SBJP 272100Z 12008KT 9999 FEW023 27/21 Q1011=
####018000083####
SAPK31 OPKC 272100 RRA
METAR OPPS 272100Z 23006KT 4000 HZ FEW250 10/03 Q1016.7=
####018000102####
SATR31 UTAA 272100
METAR UTAA 272100Z 12003MPS 9999 FEW041CB OVC041 04/01 Q1031
R12/CLRD70 NOSIG=
####018000081####
SABZ23 SBVT 272100
METAR SBVT 272100Z 18003KT 9999 FEW030 BKN090 27/21 Q1007=
####018000095####
SAMR20 TFFF 272100
METAR TFFF 272100Z AUTO 05012KT 020V080 9999 BKN060 OVC074 25/21
Q1015=
####018000076####
SARM32 LUKK 272100
METAR LUBL 272100Z AUTO 05005KT 9999 NCD 04/03 Q1016=
####018000089####
SPAU68 AMMC 272100
SPECI YSRI 272100Z AUTO 00000KT 0300 // OVC001 19/19 Q1011=


####018000089####
SPAU32 AMMC 272100
SPECI YSRI 272100Z AUTO 00000KT 0300 // OVC001 19/19 Q1011=


####018000089####
SPAU65 AMMC 272100
SPECI YMER 272100Z AUTO 29003KT 9999 // BKN018 20/18 Q1009=


####018000082####
SPAU32 YBBN 272100
SPECI YWLM 272100Z AUTO 00000KT 0700 // OVC001 18/18 Q1011=
####018001593####
SAUS99 KWBC 272101
METAR
KBCT 272053Z 02009KT 10SM OVC008 20/18 A3011=
KCFE 272045Z AUTO 21005KT 10SM CLR M10/M18 A3051 RMK AO2=
KDMA 272058Z AUTO 21011G21KT 170V240 10SM CLR 22/M04 A2972 RMK AO2
     SLP040 T02241036 57031 $=
KHFF 272056Z AUTO 36007KT 10SM CLR 10/M02 A3039 RMK AO2 SLP296
     T01001022 55005=
KJQF 272052Z 36005KT 10SM CLR 08/M02 A3040=
KNBG 272055Z 06011KT 10SM FEW250 12/M01 A3030 RMK AO2 SLP259
     T01221011 56020 $=
KNSE 272056Z 03011KT 10SM SCT250 14/M02 A3028 RMK AO2 SLP243
     T01441017 56022 $=
KVAD 272058Z AUTO 03010KT 10SM SCT032 BKN180 BKN200 12/04 A3029
     RMK AO2 SLP260 T01150039 55012 $=
PAGA 272058Z AUTO 13010KT 10SM OVC025 M01/M04 A3033 RMK AO2 SLP277
     T10061039 58011 FZRANO=
PAIW 272058Z AUTO 18025G34KT 6SM UP BR OVC005 00/M01 A2999 RMK AO2
     PK WND 18036/2043 RAB08E30UPB30SNE08 SLP157 P0000 60000
     T00001006 56003 FZRANO=
PANW 272056Z AUTO 06005KT 10SM CLR M02/M04 A3036 RMK AO2 TSNO
     58010 T10221038 SLP262 $=
PATE 272058Z AUTO 19031G36KT 2 1/2SM -SN BR BKN006 BKN013 OVC050
     M01/M02 A3001 RMK AO2 PK WND 18048/2032 CIG 004V011 SLPNO
     P0000 60000 T10111017 55004 FZRANO=
PAWM 272058Z AUTO 17018G24KT 6SM BR OVC020 M02/M02 A3017 RMK AO2
     SNB44E57 SLP228 P0000 60000 T10171022 58013 FZRANO=
PFEL 272058Z AUTO 18013KT 9SM -SN OVC020 M01/M03 A3023 RMK AO2
     SNB25 SLP243 P0000 60000 T10111028 56011 FZRANO=
PFKT 272058Z AUTO 17023G26KT 10SM BKN010 OVC020 00/M01 A3007 RMK
     AO2 PK WND 19032/2006 CIG 009V014 SLP183 60000 T00001006
     55003 FZRANO=
####018000085####
SPAU31 KWBC 272101
SPECI
YSRI 272100Z AUTO 00000KT 0300 // OVC001 19/19 Q1011=
####018002999####
SAUS20 KNKA 272059
METAR KIKV 272055Z AUTO 00000KT 10SM CLR M11/M19 A3060 RMK AO2=
METAR KINF 272055Z AUTO 07008KT 10SM BKN038 18/03 A3020 RMK AO2=
METAR KINJ 272055Z AUTO 04009KT 10SM SCT014 OVC050 M01/M04 A3039 
 RMK AO2 T10131045=
METAR KIOB 272055Z AUTO 00000KT 10SM SCT033 M05/M13 A3058 RMK AO2=
SPECI KITR 272058Z AUTO 16021KT 2 1/2SM -SN BKN017 BKN026 OVC047 
 M10/M14 A3011 RMK AO2 VIS 1 1/4V5 SNB58 P0000 T11001139=
METAR KIYA 272055Z AUTO 01008G14KT 10SM CLR 11/02 A3031 RMK AO2 
 T01050016=
METAR KIZA 272055Z AUTO 32009G16KT 10SM SCT039 18/07 A2982 RMK AO2=
METAR KJGG 272055Z AUTO 04003KT 10SM SCT018 02/M01 A3047 RMK AO1=
METAR KL18 272055Z AUTO RMK TEMPORAIRILY INOPERATIVE=
METAR KLAM 272055Z AUTO 17012G18KT 2SM -SN BKN010 OVC014 M08/M10 
 A2986 RMK AO2 T10831101=
METAR KLCG 272055Z AUTO 17004KT 10SM CLR M07/M16 A3047 RMK AO2 
 T10691156=
METAR KLCQ 272055Z AUTO 02011G14KT 10SM CLR 11/02 A3027 RMK AO2=
METAR KLGC 272055Z AUTO 03006KT 10SM CLR 12/M02 A3035 RMK AO2 
 T01151022=
METAR KLKU 272055Z AUTO 03004KT 10SM BKN060 03/M08 A3041 RMK AO2=
METAR KLRF 272058Z AUTO VRB03KT 10SM FEW090 M02/M14 A3056 RMK AO2 SLP356
 T10171139 55004=
METAR KLRJ 272055Z AUTO VRB04KT 10SM CLR M10/M17 A3052 RMK AO2=
METAR KLRU 272055Z AUTO 13015G20KT 10SM CLR 08/M03 A2991 RMK AO2 
 T00791035=
METAR KLSB 272055Z AUTO 12017G20KT 10SM CLR 12/M03 A2983 RMK AO2=
METAR KLUF 272058Z 20008G16KT 10SM CLR 23/M01 A2966 RMK AO2A SLP038
 T02281008 57031 $=
METAR KLXN 272055Z AUTO 16012G15KT 10SM SCT120 M05/M19 A3031 RMK 
 AO2 T10461191=
METAR KLXY 272055Z AUTO 10SM OVC050 00/M06 A3037 RMK AO2 T00011057=
METAR KMAN 272055Z AUTO 13006KT 10SM SCT044 10/00 A2968 RMK AO1 =
METAR KMCF 272058Z AUTO 06009KT 10SM OVC022 17/12 A3017 RMK AO2 SLP220
 T01710124 56013=
METAR KMEI 272058Z 04007KT 10SM CLR 08/M05 A3037 RMK AO2 SLP286 
 T00831050 56024=
METAR KMLE 272055Z AUTO 00000KT 10SM CLR M07/M18 A3053 RMK AO2 
 T10741184=
METAR KMLJ 272055Z AUTO 31003KT 10SM CLR 13/01 A3032 RMK AO2=
METAR KMPZ 272055Z AUTO 00000KT 10SM CLR M11/M19 A3063 RMK AO2 
 T11101194=
METAR KMRH 272058Z AUTO 04008KT 10SM CLR 08/00 A3038 RMK AO2 SLP286 
 T00830000 53005 TSNO=
METAR KMUT 272055Z AUTO 36004KT 10SM CLR M12/M19 A3066 RMK AO2=
METAR KMXF 272058Z AUTO 34008KT 10SM CLR 10/M02 A3035 RMK AO2 SLP281
 T01031019 57016=
METAR KMXO 272055Z AUTO 27006KT 10SM CLR M13/M20 A3060 RMK AO2=
METAR KOEO 272055Z AUTO 25006KT 10SM CLR M08/M18 A3052 RMK AO2 
     T10801185=
METAR KOGA 272055Z AUTO 17015G19KT 10SM OVC034 M06/M13 A3018 RMK 
 AO2 T10571134=
METAR KOKM 272055Z AUTO 05008KT 3SM -SN BKN014 OVC028 M07/M10 
 A3053 RMK AO2 T10711102=
METAR KOLG 272055Z AUTO 21005KT 10SM CLR M08/M20 A3041 RMK AO1=
METAR KOLZ 272055Z AUTO 25005KT 10SM CLR M15/M21 A3058 RMK AO2=
METAR KOMH 272055Z AUTO 00000KT 10SM OVC065 01/M09 A3045 RMK AO2=
METAR KONL 272055Z AUTO 19008KT 10SM CLR M04/M20 A3034 RMK AO2 
 T10431204=
####018002958####
SAUS20 KNKA 272059
METAR K7L2 272055Z AUTO 16013KT 10SM CLR M08/M15 A3027 RMK AO2=
METAR KADF 272056Z AUTO 02008KT 340V050 10SM CLR 00/M09 A3055 RMK 
 AO2 58000 T00001094 SLP362 $=
METAR KAPG 272055Z 30010KT 7SM FEW200 M01/M11 A3049=
SPECI KAVX 272058Z AUTO 28007KT 10SM BKN008 BKN012 OVC019 12/11 
 A2983 RMK AO2 CIG 007V011 T01220111=
METAR KAXH 272055Z AUTO 02006KT 7SM OVC018 09/06 A3034 RMK AO2 
 T00910060=
METAR KBIE 272055Z AUTO 13005KT 10SM CLR M06/M19 A3049 RMK AO2 
 T10651187=
METAR KBIJ 272055Z AUTO 05003KT 10SM CLR 15/02 A3030 RMK AO2=
METAR KBIX 272058Z AUTO 04008KT 10SM CLR 14/M01 A3028 RMK AO2 SLP257
 T01351009 57026=
METAR KBKT 272055Z AUTO 33005KT 10SM SCT050 05/M07 A3039 RMK AO1 
 T00471072=
METAR KBNW 272055Z AUTO 00000KT 10SM CLR M12/M19 A3055 RMK AO2=
METAR KBPG 272055Z AUTO 05011KT 10SM OVC009 M06/M08 A3029 RMK AO2 
 T10621085=
METAR KBVN 272055Z AUTO 20010G14KT 10SM CLR M05/M20 A3040 RMK AO2 
 T10541205=
METAR KBWD 272055Z AUTO 04006KT 3SM BR BKN009 OVC012 M04/M06 A3035 
 RMK AO2=
METAR KC09 272055Z AUTO 30006KT 10SM CLR M11/M17 A3062 RMK AO2 
 T11151170=
METAR KC29 272055Z AUTO 22005KT 10SM CLR M07/M20 A3053 RMK AO1 
     T10751205=
METAR KC35 272055Z AUTO 25007KT 10SM CLR M09/M19 A3052 RMK AO2 
 T10921190=
METAR KCAV 272055Z AUTO 25004KT 10SM FEW013 M13/M18 A3056 RMK AO2=
METAR KCBF 272055Z AUTO VRB06KT 10SM CLR M09/M15 A3051 RMK AO2=
METAR KCCY 272055Z AUTO 21006KT 10SM CLR M15/M20 A3057 RMK AO2=
METAR KCFD 272055Z AUTO 03010G14KT 10SM BKN033 OVC090 05/M03 
 A3036 RMK AO2 T00451030=
METAR KCHK 272055Z AUTO 05006KT 7SM -SN CLR M06/M09 A3047 RMK AO2=
METAR KCIN 272055Z AUTO 00000KT 10SM CLR M12/M20 A3054 RMK AO2=
METAR KCMY 272055Z AUTO 26007KT 10SM CLR M09/M21 A3054 RMK AO2 
     T10911207=
METAR KCNC 272055Z AUTO 00000KT 10SM CLR M10/M18 A3058 RMK AO2=
METAR KCOM 272055Z AUTO 05009KT 7SM OVC009 M04/M05 A3032 RMK AO2 
     T10451053=
METAR KCPC 272055Z AUTO 05004KT 10SM CLR 11/M01 A3034 RMK AO2 
 T01081015=
METAR KCPT 272055Z AUTO 03008KT 2SM -SN BKN011 BKN030 BKN044 
 M03/M04 A3041 RMK AO2 P0001=
METAR KCQB 272055Z AUTO 08007KT 1SM -SN BKN009 OVC014 M05/M07 
 A3051 RMK AO2=
METAR KCQF 272055Z AUTO 02009KT 350V050 10SM CLR 12/00 A3027 RMK 
 AO2=
METAR KCSQ 272055Z AUTO 00000KT 10SM CLR M09/M17 A3053 RMK AO2=
METAR KCTJ 272055Z AUTO 36007KT 10SM CLR 06/M06 A3040 RMK AO2=
METAR KCTZ 272055Z AUTO 31004KT 10SM CLR 10/M01 A3037 RMK AO2 
 T01001010=
METAR KDBN 272055Z AUTO 04006KT 10SM CLR 13/02 A3033 RMK AO2=
METAR KDEH 272055Z AUTO VRB06KT 10SM CLR M13/M21 A3054 RMK AO2=
METAR KDUB 272055Z AUTO 15010KT 10SM BKN044 BKN055 BKN095 M10/M13 
 A2967 RMK AO2=
METAR KDWX 272055Z AUTO 24007KT 10SM CLR 00/M11 A2979 RMK AO2 
 T10021109=
METAR KE38 272055Z AUTO 03004KT 4SM OVC004 M02/M03 A3012 RMK AO2 
 T10241029=
METAR KEBS 272055Z AUTO 26004KT 10SM CLR M13/M19 A3055 RMK AO2=
####018002896####
SAUS20 KNKA 272059
METAR KOPL 272055Z AUTO 05010KT 7SM CLR 09/01 A3034 RMK AO2 
 T00920005=
METAR KORC 272055Z AUTO 00000KT 10SM CLR M11/M17 A3048 RMK AO2=
METAR KOSA 272055Z AUTO 04011G15KT 10SM OVC070 M01/M09 A3048 RMK 
 AO1 T10101086=
METAR KOUN 272055Z AUTO 05005KT 5SM -SN SCT008 SCT015 OVC055 
 M07/M09 A3049 RMK AO2=
METAR KOXV 272055Z AUTO 31004KT 10SM CLR M12/M19 A3059 RMK AO2=
METAR KOZA 272055Z AUTO 07009KT 3SM BR OVC006 M01/M02 A3023 RMK 
 AO2=
METAR KPEA 272055Z AUTO 25003KT 10SM CLR M09/M17 A3062 RMK AO2 
 T10901166=
METAR KPLU 272055Z AUTO 00000KT 10SM FEW009 SCT026 BKN045 10/09 
 A2974 RMK AO2=
METAR KPMV 272055Z AUTO 09004KT 10SM CLR M08/M17 A3052 RMK AO2 
 T10781174=
METAR KPNT 272055Z AUTO 27003KT 10SM CLR M11/M18 A3064 RMK AO2 
 T11101177=
METAR KPOY 272055Z AUTO 15004KT 10SM CLR M05/M13 A2981 RMK AO2=
METAR KPPA 272055Z AUTO 13009KT 4SM -SN BKN002 BKN017 M08/M12 
 A3026 RMK AO2 T10851125=
METAR KPRG 272055Z AUTO 30005KT 10SM CLR M10/M16 A3063 RMK AO2 
 T10981162=
METAR KPTB 272055Z AUTO 04008KT 10SM SCT035 SCT042 SCT055 03/M02 
 A3044 RMK AO2 T00261021=
METAR KPVB 272055Z AUTO 19008KT 10SM CLR M11/M20 A3055 RMK AO1 
     T11131197=
METAR KPVW 272055Z AUTO 10008KT 3SM -SN SCT015 OVC022 M09/M12 
 A3022 RMK AO2 T10931125=
METAR KPXE 272055Z AUTO 04006KT 10SM CLR 15/00 A3032 RMK AO2 
 T01531003=
METAR KRCM 272055Z AUTO 08004KT 10SM BKN080 M06/M17 A3058 RMK AO2=
METAR KRDK 272055Z AUTO 00000KT 10SM CLR M09/M16 A3055 RMK AO2=
METAR KRFI 272055Z AUTO 04008KT 10SM OVC080 00/M06 A3042 RMK AO2 
     T00031064=
METAR KRMN 272055Z AUTO 03005KT 10SM CLR 01/M12 A3051 RMK AO2 
 T00101124=
METAR KRRL 272055Z AUTO 23009KT 10SM CLR M10/M20 A3043 RMK AO2 
     T11021200=
METAR KRUQ 272055Z AUTO 00000KT 10SM CLR 06/M05 A3037 RMK AO2 
 60001 T00611052=
METAR KS25 272055Z AUTO 15011KT 10SM CLR M05/M15 A3007 RMK AO2 =
METAR KSAR 272055Z AUTO 33004KT 10SM CLR M07/M15 A3062 RMK AO2 
 T10691148=
METAR KSDA 272055Z AUTO 00000KT 10SM CLR M07/M17 A3056 RMK AO2=
METAR KSEZ 272055Z AUTO 00000KT 10SM SCT075 BKN080 11/M02 A2974 
 RMK AO2=
METAR KSGJ 272058Z 01016G21KT 5SM HZ OVC014 11/07 A3028 RMK AO2 
 SLP253 T01060067 56010=
METAR KSHL 272055Z AUTO 24005KT 10SM CLR M11/M18 A3048 RMK AO2=
METAR KSLB 272055Z AUTO 00000KT 10SM CLR M13/M19 A3051 RMK AO2=
METAR KSME 272055Z AUTO 04007KT 10SM CLR M05/M13 A3056 RMK AO2=
METAR KSNK 272055Z AUTO 06009KT 7SM BKN014 OVC020 M08/M11 A3030 
 RMK AO2 T10761106 TSNO=
METAR KSOA 272055Z AUTO 05005KT 6SM BR OVC012 M00/M03 A3026 RMK 
 AO2=
METAR KSSC 272058Z AUTO 12004KT 10SM CLR 12/00 A3032 RMK AO2 SLP270
 60000 T01210002 55012 $=
METAR KSVH 272055Z AUTO 00000KT 10SM BKN048 BKN055 07/M03 A3034 
 RMK AO2 T00731033=
METAR KWRB 272058Z AUTO 04006KT 10SM CLR 14/M01 A3031 RMK AO2
 SLP268 T01441006 56018=
####018002957####
SAUS20 KNKA 272059
METAR KEFK 272055Z AUTO 25008KT 10SM CLR M10/M24 A3033 RMK AO2 
     T11051236=
METAR KEMM 272055Z AUTO 23003KT 10SM SCT016 SCT041 OVC090 M03/M08 
 A2972 RMK AO2=
METAR KENL 272055Z AUTO 33004KT 10SM CLR M08/M17 A3063 RMK AO2 
 T10811167=
METAR KEOE 272055Z AUTO 33004KT 10SM CLR 11/M01 A3036 RMK AO2=
METAR KEOK 272055Z AUTO 23003KT 10SM CLR M10/M19 A3062 RMK AO2=
METAR KEXX 272055Z AUTO 00000KT 10SM SCT048 07/M05 A3037 RMK AO2 
 T00651047=
METAR KEZF 272055Z AUTO 33005KT 10SM OVC065 02/M10 A3047 RMK AO2 
 T00231099=
METAR KF70 272055Z AUTO 21011G15KT 10SM SCT035 OVC046 16/09 A2980 
     RMK AO1=
METAR KFBG 272058Z AUTO 28005KT 10SM FEW050 11/M03 A3035 RMK AO2 SLP282
 T01061029 55005 $=
METAR KFET 272055Z AUTO 11005KT 10SM CLR M07/M16 A3051 RMK AO2 
 T10701162=
METAR KFFL 272055Z AUTO 00000KT 10SM CLR M13/M21 A3063 RMK AO2=
METAR KFKN 272055Z AUTO 03011G14KT 10SM SCT060 02/M03 A3043 RMK 
 AO2 T00201033=
METAR KFOA 272055Z AUTO 01003KT 10SM CLR M08/M17 A3064 RMK AO2 
 T10851170=
METAR KFQD 272055Z AUTO 31006KT 290V010 10SM CLR 10/M11 A3033 RMK 
 AO2 T01041115=
METAR KFSW 272055Z AUTO 35006KT 10SM CLR M12/M18 A3063 RMK AO2=
METAR KGBG 272055Z AUTO 30004KT 10SM CLR M12/M19 A3063 RMK AO2 
 T11231186=
METAR KGCD 272055Z AUTO 29007KT 10SM -RA SCT006 BKN015 OVC022 
 04/03 A2966 RMK AO2 T00400031=
METAR KGHG 272055Z AUTO 36007KT 10SM CLR M02/M15 A3037 RMK AO2=
METAR KGLE 272055Z AUTO 02006KT 3/4SM -SN VV005 M06/M07 A3047 RMK 
 AO2 60001 T10571073=
METAR KGNT 272055Z AUTO 15012G18KT 3/4SM -SN BKN009 OVC013 
 M03/M04 A2984 RMK AO2 T10341044=
METAR KGUR 272055Z AUTO 15012G20KT 10SM SCT034 00/M07 A2993 RMK 
 AO2 T00011073=
METAR KGVT 272055Z AUTO 04012G15KT 5SM -SN BKN013 OVC043 M02/M05 
 A3043 RMK AO2=
METAR KGWW 272055Z AUTO 36005KT 10SM CLR 09/M02 A3038 RMK AO2 
     P0001 60001 T00861025=
METAR KH21 272055Z AUTO 00000KT 10SM M06/M18 A3055 RMK AO2=
METAR KHDE 272055Z AUTO 14007G14KT 10SM BKN075 OVC085 M05/M21 
 A3034 RMK AO2 T10551208=
METAR KHHW 272055Z AUTO 03007KT 1 1/2SM -SN OVC009 M03/M05 A3047 
 RMK AO2 T10301054=
METAR KHNR 272055Z AUTO 00000KT 10SM CLR M11/M18 A3057 RMK AO2=
METAR KHQU 272055Z AUTO 33005KT 10SM CLR 14/03 A3036 RMK AO1 
 T01400029=
METAR KHSP 272055Z AUTO 27009G18KT 10SM CLR M06/M16 A3022 RMK AO2 
 T10621159=
METAR KHUA 272058Z AUTO 35009KT 10SM CLR 02/M07 A3045 RMK AO2 SLP319
      T00181072 57017=
METAR KHZR 272055Z AUTO 34005KT 10SM CLR 10/00 A3033 RMK AO2 
 T01031004=
METAR KI75 272055Z AUTO 00000KT 10SM CLR M10/M18 A3057 RMK AO2 
 T11041185=
METAR KIDP 272055Z AUTO 11006KT 10SM SCT028 BKN040 OVC050 M06/M17 
     A3055 RMK AO2=
METAR KIIB 272055Z AUTO 24006KT 10SM CLR M12/M18 A3059 RMK AO2=
METAR KIJX 272055Z AUTO 00000KT 10SM CLR M10/M18 A3065 RMK AO2 
 T11021183=
METAR KIKK 272055Z AUTO 25007KT 10SM CLR M11/M17 A3063 RMK AO2 
 T11091171=
####018000078####
SACV20 GVNP 272100
METAR GVNP 272100Z 04020KT 6000 NSC 21/14 Q1014 NOSIG=
####018000638####
SAAU62 AMMC 272100
METAR YBTL 272100Z 33001KT 9999 FEW022 27/24 Q1007=
METAR YBUD 272100Z AUTO 17007KT 9999 // SCT028 BKN041 23/21 Q1009=
METAR YBWP 272100Z AUTO 06003KT 9999 // NCD 24/24 Q1006=
METAR YBWX 272100Z AUTO 23013KT //// // ////// 27/22 Q1006=
METAR YCAR 272100Z AUTO 17012KT 9999 // SCT088 24/19 Q1008=
METAR YCAS 272100Z AUTO 19005KT //// // ////// 22/20 Q1011=
METAR YCBA 272100Z AUTO 06007KT //// // ////// 25/11 Q1007=
METAR YCBB 272100Z AUTO 01004KT //// // ////// 20/16 Q1012=
METAR YCBP 272100Z AUTO 02009KT //// // NCD 27/M04 Q1006=
METAR YCCY 272100Z AUTO 35008KT //// // ////// 27/21 Q1006=

####018001672####
SASA KAWN 272100 RRD
METAR SBCF 272100Z 31008KT 9999 BKN040 FEW045TCU SCT100 20/18 Q1015
      R ETS=
METAR SBMA 272100Z 22002KT 9999 FEW020 27/25 Q1010=
METAR SLCB 272100Z 00000KT 9999 FEW025 FEW027CB 23/10 Q1021=
METAR SLCO 272100Z 27006KT 9999 SCT023 FEW025CB SCT200 33/25 Q1006=
METAR SLET 272100Z 33014G25KT 9999 SCT020 BKN200 29/22 Q1007=
METAR SLPS 272100Z 00000KT 9999 FEW020 BKN200 33/24 Q1007=
METAR SLTJ 272100Z 17006KT 9999 SCT030 FEW033CB BKN200 22/17 Q1015=
METAR SLVR 272100Z 35011KT 9999 FEW013 SCT017 BKN200 29/22 Q1008=
METAR SPCL 272100Z 36005KT 9999 FEW015 SCT070 30/24 Q1008 RMK BIRD
      HAZARD RWY 02/20 PP000=
METAR SPGM 272100Z /////KT 6000 -RA SCT020 BKN070 22/22 Q1012 RMK BIRD
      HAZARD RWY 19 PP340=
METAR SPHI 272100Z 20013KT CAVOK 29/20 Q1008 RMK PP000=
METAR SPJI 272100Z 00000KT 9999 SCT040 31/24 Q1016 RMK T.MAX 32.3 PP000=
METAR SPJL 272100Z 02008KT 9999 SCT030 16/04 Q1034 RMK PP000=
METAR SPLO 272100Z 14009KT 9999 SCT070 24/18 Q1009 RMK TMAX 26.4 PP000=
METAR SPME 272100Z 34006KT 9999 FEW017 30/23 Q1007 RMK BIRD HAZARD
      RWY 32/14 PP000=
METAR SPMS 272100Z 33003KT 9999 BKN017 30/25 Q1009 RMK BIRD HAZARD
      RWY 09/27 PP000=
METAR SPQU 272100Z 26011KT 9999 SCT005 BKN020 15/12 Q1025 TEMPO -DZ
      RMK PP000=
METAR SPRU 272100Z 13011KT 100V160 9999 FEW050 BKN150 24/19 Q1009 RMK
      PP000=
METAR SPSO 272100Z 23014KT 190V250 CAVOK 27/19 Q1010 RMK SCT230 BIRD
      HAZARD RWY 22/04 PP000=
METAR SPST 272100Z 30006KT 9999 SCT025 SCT080 32/23 Q1008 RMK BIRD
      HAZARD RWY 17/35 PP000=
METAR SPTN 272100Z 22008KT 190V260 9999 OVC090 27/16 Q1013 RMK PP000=
####018000083####
SANC01 NWWW 272100
METAR NWWW 272100Z AUTO 00000KT 5000 BR ///TCU 24/23 Q1006=
####018000101####
SASR31 WSSL 272100
METAR WSSL 272100Z 01007KT 9999 FEW020 SCT300 25/23 Q1008 RMK 1630Z
Q1011 =
####018000469####
SAUS20 KNKA 272059
METAR PFEL 272058Z AUTO 18013KT 9SM -SN OVC020 M01/M03 A3023 RMK AO2 
 SNB25 SLP243 P0000 60000 T10111028 56011 FZRANO=
METAR PFNO 272058Z AUTO 17011KT 10SM OVC055 01/M01 A3017 RMK AO2 
 SLP219 60000 T00061011 58008 FZRANO=
METAR PFSH 272058Z AUTO 18010KT 9SM -SN BKN016 OVC022 M01/M02 A3027 
 RMK AO2 SNE27B51 SLP266 P0000 60000 T10111022 57011 FZRANO=
METAR KSCR 272055Z AUTO 00000KT 10SM SCT044 06/M04 A3039 RMK AO2 
 T00551040=
####018001196####
SAUS20 KNKA 272100
METAR K20U 272055Z AUTO 18012G21KT 10SM CLR M04/M14 A3003 RMK AO2 =
METAR K28J 272055Z AUTO 06009KT 020V090 10SM BKN025 12/07 A3026 RMK
 AO2=
METAR K2C8 272055Z AUTO 23009G15KT 10SM CLR M09/M18 A3034 RMK AO2 =
METAR K5H4 272055Z AUTO 21013KT 10SM CLR M10/M17 A3026 RMK AO2=
METAR KCKM 272055Z AUTO 36012KT 10SM CLR 00/M05 A3050 RMK AO1=
SPECI KDMA 272059Z AUTO 19012G21KT 10SM CLR 22/M04 A2972 RMK AO2 WSHFT
 55 $=
METAR KLRO 272055Z AUTO 09003KT 10SM FEW120 09/02 A3036 RMK AO2=
METAR KOZR 272058Z AUTO 03010KT 10SM CLR 15/M02 A3028 RMK AO2 SLP257
 T01451024 57016=
METAR KPAM 272058Z AUTO 05005KT 10SM CLR 13/02 A3027 RMK AO2 SLP254
 T01270019 56015 $=
METAR KSQL 272053Z 27016G25KT 10SM BKN030 15/08 A2985=
METAR KSRR 272055Z AUTO 13007KT M1/4SM FZFG OVC001 M08/M09 A2994 
 RMK AO2=
METAR KTTS 272058Z AUTO 36012G18KT 6SM -RA BR OVC007 13/11 A3019 RMK
 AO2 DZE08RAB08 OVC V BKN SLP226 P0001 60001 T01280114 56009 $=
METAR KVER 272055Z AUTO 00000KT 10SM CLR M06/M17 A3059 RMK AO2 
 T10631174=
METAR KVNC 272055Z AUTO 05012KT 5SM -RA BKN043 14/13 A3017 RMK AO2 
=
METAR KY19 272055Z AUTO 17016KT 10SM CLR M07/M15 A3023 RMK AO2=
####018000067####
SAAG SARP 272100
METAR SARP 272100Z  14004KT CAVOK 26/21 Q1011=
####018000084####
SAAJ31 UBBB 272100
METAR UBBB 272100Z 17010KT CAVOK 06/05 Q1026 88CLRD70
NOSIG=
####018000080####
SAUY41 SUMU 272100
METAR SUMU 272100Z 15010KT 9999 SCT026 20/12 Q1016 NOSIG=
####018000093####
SAAJ31 UBBB 272100
METAR UBBG 272100Z 00000KT 9999 BKN066 06/04 Q1025
R12/CLRD70 NOSIG =
####018000076####
SAAG SARF 272100
METAR SARF 272100Z  23003KT 9999  SCT020  28/24
Q1009=
####018000087####
SABZ18 SBSP 272100 CCA
METAR COR SBSP 272100Z 19006KT 9999 VCSH SCT045 26/13 Q1012=
####018000188####
SASQ41 LZIB 272100
METAR LZPP 272100Z AUTO 00000KT 8000 OVC033/// 04/02 Q1016=
METAR LZSL 272100Z 01001KT 4200 BR NSC 02/01 Q1015=
METAR LZZI 272100Z VRB01KT 8000 BKN045 02/01 Q1015=
####018000203####
SABU31 LBSM 272100
METAR LBSF 272100Z VRB02KT 5000 BR FEW039 06/05 Q1010 NOSIG=
METAR LBWN 272100Z VRB03KT CAVOK 09/05 Q1010 NOSIG=
METAR LBBG 272100Z 03008KT 360V070 9999 FEW045 10/06 Q1009 NOSIG=
####018000180####
SASQ31 LZIB 272100
METAR LZIB 272100Z 00000KT 9999 BKN028 05/02 Q1016=
METAR LZKZ 272100Z 31003KT 9999 SCT031 05/03 Q1015=
METAR LZTT 272100Z 25005KT 9999 BKN005 01/00 Q1014=
####018000085####
SASR31 WSAP 272100
METAR WSAP 272100Z 03007KT 9999 
FEW016 BKN350 25/23 Q1008=
####018000080####
SAHU31 LHBM 272100
METAR LHBP 272100Z VRB02KT 9999 OVC024 06/04 Q1015 NOSIG=
####018000088####
SAGY31 SYCJ 272100
METAR SYCJ 272100Z 05010KT 9999  FEW022 SCT100 29/23 Q1011 NOSIG=
####018000086####
SABH31 MZBZ 272100
METAR MZBZ 272100Z 08009KT 9999 FEW023 30/24 A2990 Q1012 NOSIG=
####018000307####
SABO SLLP 272100
METAR SLLP 272100Z 28008KT 250V320 9999 SCT015 FEW017CB SCT070 BKN200
10/03 Q1035=
METAR SLVR 272100Z 35011KT 9999 FEW013 SCT017 BKN200 29/22 Q1008=
METAR SLCB 272100Z 00000KT 9999 FEW025 FEW027CB 23/10 Q1021=
METAR SLTJ 272100Z 17006KT 9999 SCT030 FEW033CB BKN200 22/17 Q1015=
####018000426####
SAAK41 KNKA 272100
SPECI PABT 272051Z 17005KT 6SM BR SCT007 OVC010 M02/M04 A3031 RMK
     PNO VIA AUTODIAL=
SPECI PABT 272100Z 17005KT 6SM BR SCT007 OVC010 M02/M04 A3031 RMK
     T10221044 PNO $ VIA AUTODIAL=
METAR PAHO 272053Z 00000KT 10SM CLR 02/M03 A3045 RMK SLP311
 T00221033 53004 VIA AUTODIAL=
METAR PAWI 272053Z AUTO 25009KT 10SM CLR M16/M18 A3013 RMK SLP205
 60000 T11561183 53023 TSNO VIA AUTODIAL=
####018000337####
SAVN26 SVMC 272100
METAR SVMC 272100Z /////KT 9999 FEW016 33/23 Q1010=
METAR SVJC 272100Z NIL=
METAR SVSA 272100Z /////KT 9999 SCT020 30/18 Q1010=
METAR SVSZ 272100Z NIL=
METAR SVVG 272100Z 07005KT 9999 FEW020 SCT100 32/23 Q1006=
METAR SVPM 272100Z NIL=
METAR SVLF 272100Z NIL=
METAR SVCR 272100Z NIL=
METAR SVMD 272100Z NIL=
####018000119####
SAMH31 PKMJ 272100
METAR PKMJ 272057Z 07014KT 5SM SHRA SCT014TCU BKN045 OVC110 26/25 
A2978
      RMK TCU ALQDS
####018000105####
SAMH31 PKWA 272100
METAR PKWA 272100Z AUTO 05017KT 10SM SCT021 SCT035 28/22 A2983 RMK AO2 T02810223=
####018000534####
SAIR31 OIII 272100
METAR OIAW 272100Z 00000KT CAVOK 17/04 Q1016=
METAR OIFM 272100Z 16004KT CAVOK M02/M09 Q1024 A3026=
METAR OIII 272100Z 13006KT CAVOK 06/M06 Q1023 A3022  NOSIG=
METAR OIKB 272100Z 32008KT CAVOK 12/05 Q1015 A2999=
METAR OIKK 272100Z 32006KT 9999 FEW035 M01/M06 Q1023 A3023=
METAR OIMM 272100Z 15006KT 9999 BKN025 M01/M04 Q1027 A3034=
METAR OISS 272100Z 33004KT CAVOK 05/M09 Q1022 A3020=
METAR OITT 272100Z 04006KT CAVOK 02/M04 Q1024 A3025=
METAR OIZH 272100Z 35004KT 8000 SKC M00/M07 Q1020 A3014=
####018000351####
SAIR32 OIII 272100
METAR OIAA 272100Z 00000KT CAVOK 14/08 Q1017=
METAR OIBK 272100Z 15004KT 5000 HZ SKC 16/10 Q1015=
METAR OICC 272100Z 15006KT CAVOK 03/M07 Q1023 A3021=
METAR OIGG 272100Z NIL=
METAR OIIE 272100Z 31006KT CAVOK 04/M06 Q1023=
METAR OITR 272100Z 25006KT CAVOK 01/M05 Q1022=
METAR OIYY 272100Z 24004KT CAVOK 03/M04 Q1026=
####018000077####
SAMY20 FMCZ 272100
METAR FMCZ 272100Z AUTO 26006KT 9999 NCD 27/24 Q1009=
####018000078####
SAMT20 GQPP 272100
METAR GQPP 272100Z 35014KT 6000 NSC 20/12 Q1019 NOSIG=
####018000073####
SAEA20 HKNC 271800 RRJ
METAR HKNO 271600Z 15009KT 9999 FEW024 27/04=
####018000085####
SADO31 TDPD 272100
METAR TDPD 272100Z 11009KT 9999 FEW017 SCT070 27/21 Q1016=
####018000444####
SAPH RPLL 272100
METAR RPLL 272100Z 07003KT 9999 FEW025 SCT100 24/21 Q1013 NOSIG RMK 
      A2991=
METAR RPVM 272100Z 35006KT 9999 FEW020 25/22 Q1012 RMK A2988=
METAR RPLB 272100Z 00000KT 9999 FEW020 21/19 Q1013 NOSIG RMK A2991=
METAR RPMD 272100Z 36003KT 9999 SCT016 SCT290 24/22 Q1011 RMK A2985=
METAR RPMZ 272100Z 00000KT 9999 FEW018 SCT300 24/22 Q1011 RMK A2985=
METAR RPLI 272100Z 00000KT 9999 FEW019 22/22 Q1013 NOSIG RMK A2991=
####018000074####
SABZ23 SBCP 272100
METAR SBCP 272100Z 10008KT 9999 FEW030 29/22 Q1007=
####018000578####
SAUR30 UKMS 272100
METAR UKBB 272100Z 22003MPS 8000 OVC018 03/03 Q1018
         88190060 NOSIG=
METAR UKHH 272100Z 15004MPS CAVOK 05/03 Q1019
         07290063 NOSIG=
METAR UKOO 272100Z 03003MPS CAVOK 08/07 Q1015
         16090060 NOSIG=
METAR UKDE 272100Z 07003MPS 030V110 CAVOK 06/03 Q1017
          02210466 NOSIG=
METAR UKDD 272100Z 12005MPS CAVOK 06/03 Q1017
         08090070 NOSIG=
METAR UKLL 272100Z 13003MPS 9999 OVC031 05/03 Q1015
         13CLRD80  NOSIG=
METAR UKDR 272100Z 01004MPS 3900 BR BKN100 05/04
         Q1016  1809//65 TEMPO 0300 FG VV002=
####018000445####
SAUS20 KNKA 272100
METAR KY23 272055Z AUTO 21006KT 10SM CLR M10/M20 A3048 RMK AO2 
 T11011200=
METAR KY49 272055Z AUTO 28005KT 10SM CLR M08/M22 A3035 RMK AO2 
 T10771216=
METAR KY51 272055Z AUTO 24008KT 10SM CLR M10/M20 A3050 RMK AO1 
     T11041199=
METAR K3AU 272055Z AUTO 11006KT 1 3/4SM -SN SCT017 OVC038 M09/M12 
     A3051 RMK AO2=
METAR KF17 272055Z AUTO 02008G16KT 10SM OVC100 02/M05 A3039 RMK 
     AO2 T00241048=
####018002988####
SAUS20 KNKA 272100
METAR KGVE 272055Z AUTO 04006KT 10SM OVC060 01/M09 A3042 RMK AO1 
 T00111095=
METAR KHDC 272055Z AUTO 02004KT 10SM CLR 11/M01 A3034 RMK AO2=
SPECI KHDO 272059Z AUTO 05009KT 2 1/2SM -RA BKN008 OVC013 01/ A3027 
 RMK AO2 CIG 006V010 P0000 T0011 $=
METAR KHFJ 272055Z AUTO 08005KT 10SM OVC070 M06/M16 A3051 RMK AO2=
METAR KHHG 272055Z AUTO 25005KT 10SM OVC035 M08/M18 A3058 RMK AO2 
 T10771178=
METAR KHRX 272055Z AUTO 16009KT 7SM -SN OVC016 M08/M12 A3021 RMK 
 AO2 T10841117=
METAR KHWY 272055Z AUTO 02008KT 10SM CLR 02/M08 A3046 RMK AO2 
     T00151076=
METAR KJES 272055Z AUTO 08008KT 10SM CLR 13/03 A3032 RMK AO2=
METAR KJOT 272055Z AUTO 29003KT 10SM CLR M11/M20 A3063 RMK AO2 
 T11141197=
METAR KJYO 272055Z AUTO 35006KT 10SM CLR 00/M11 A3048 RMK AO2=
METAR KJYR 272055Z AUTO 16004KT 10SM CLR M07/M19 A3044 RMK AO2=
METAR KL35 272055Z AUTO 26010KT 10SM CLR 08/M01 A2980 RMK AO2=
METAR KL38 272055Z AUTO 04004KT 10SM CLR 12/01 A3031 RMK AO2 
 T01170009=
METAR KLHZ 272055Z AUTO 00000KT 10SM CLR 05/M05 A3040 RMK AO2=
METAR KLNP 272055Z AUTO 04007KT 10SM SCT030 M03/M12 A3039 RMK AO2=
METAR KLOT 272055Z AUTO 26008KT 10SM CLR M11/M19 A3061 RMK AO2 
 T11101189=
METAR KLWB 272055Z AUTO 26007KT 10SM CLR M03/M14 A3039 RMK AO2 
 T10321136=
METAR KMDD 272055Z AUTO 07010KT 2 1/2SM UP OVC011 M05/M08 A3024 
 RMK AO2 T10541076=
METAR KMDZ 272055Z AUTO 23007KT 10SM CLR M12/M20 A3043 RMK AO2 
 T11231202=
METAR KMGC 272055Z AUTO 32005KT 10SM CLR M08/M21 A3060 RMK AO2=
SPECI KMGW 272059Z VRB04KT 10SM SCT050 M06/M18 A3050 RMK AO2 
 T10561178=
METAR KMKJ 272055Z AUTO 29009G15KT 270V330 10SM SCT032 SCT038 
 M02/M10 A3038 RMK AO2 T10231105=
METAR KMMH 272055Z AUTO 28022KT 10SM SCT060 SCT080 08/M08 A2971 
 RMK AO1=
METAR KMNE 272055Z AUTO 01007KT 10SM OVC085 01/M06 A3045 RMK AO2 
 T00111061=
METAR KMQI 272104Z AUTO 02010KT 10SM CLR 03/M02 A3042 RMK AO2=
METAR KMTV 272055Z AUTO 36006KT 10SM CLR 05/M09 A3041 RMK AO2 
 T00521093=
METAR KMWK 272055Z AUTO 35004KT 10SM CLR 05/M07 A3038 RMK AO2 
 T00521073=
METAR KMYZ 272055Z AUTO 00000KT 10SM BKN100 M07/M17 A3050 RMK AO2=
METAR KMZZ 272055Z AUTO 30003KT 10SM BKN025 M09/M15 A3059 RMK AO2 
 T10901151=
METAR KNY0 272055Z AUTO 26011G19KT 10SM CLR M10/M18 A3038 RMK AO2 
     T10961178=
METAR KOCQ 272055Z AUTO 25010G14KT 10SM CLR M07/M19 A3047 RMK AO1 
     T10751190=
METAR KOLY 272055Z AUTO 36005KT 10SM CLR M08/M16 A3064 RMK AO2=
METAR KOOA 272055Z AUTO 30003KT 10SM CLR M12/M18 A3062 RMK AO2 
 T11211181=
METAR KPNA 272055Z AUTO 36005KT 7SM BKN032 OVC041 M08/M12 A2975 
 RMK AO2=
METAR KPRS 272055Z AUTO 03017G21KT 10SM CLR 10/M01 A3000 RMK AO2 
 T00951009=
METAR KPSK 272055Z AUTO 29008KT 10SM CLR 00/M10 A3040 RMK AO2 
 T10051099=
METAR KPYX 272055Z AUTO 14010KT BKN018 OVC060 M09/M12 A3030 RMK 
 AO2 T10891124=
METAR KRAS 272055Z AUTO 05013G22KT 7SM OVC011 10/08 A3021 RMK AO2 
 T01030077=
####018002927####
SAUS20 KNKA 272100
METAR KRBO 272055Z AUTO 06017KT 10SM OVC019 13/07 A3020 RMK AO2 
 T01250067=
METAR KRCR 272055Z AUTO 20006KT 10SM CLR M06/M13 A3059 RMK AO2=
METAR KRNH 272055Z AUTO 22006KT 10SM CLR M09/M18 A3049 RMK AO2 
 T10881183=
METAR KRYV 272055Z AUTO 23004KT 10SM CLR M09/M19 A3054 RMK AO2 
 T10901188=
METAR KSBO 272055Z AUTO 07004KT 10SM CLR 14/M03 A3032 RMK AO2=
METAR KSEE 272055Z AUTO 24010G15KT 8SM SCT038 BKN043 19/09 A2984 
 RMK AO2=
METAR KSFQ 272055Z AUTO 02009KT 10SM CLR 01/M04 A3044 RMK AO2 
 P0001 60011 T00111038=
METAR KSTE 272055Z AUTO 25005KT 10SM CLR M10/M21 A3047 RMK AO2 
 T11051215=
METAR KSUW 272055Z AUTO 24008G15KT 10SM CLR M07/M20 A3043 RMK AO2 
 T10701201=
METAR KSWW 272055Z AUTO 02011G15KT 7SM OVC011 M07/M09 A3032 RMK 
 AO2 T10711094=
METAR KSYF 272055Z AUTO 17016G23KT 7SM SCT018 SCT024 OVC032 
 M07/M13 A3019 RMK AO2 T10751133=
METAR KT35 272055Z AUTO 05008KT 10SM SCT038 OVC047 03/M03 A3035 
 RMK AO2 T00261029=
METAR KT65 272055Z AUTO 02006KT 7SM BKN034 OVC041 17/10 A3014 RMK 
 AO2 T01650098=
METAR KT82 272055Z AUTO 06008KT 4SM BR BKN010 OVC013 M02/M03 
 A3025 RMK AO2 T10161027=
METAR KTAZ 272055Z AUTO 00000KT 10SM CLR M10/M17 A3064 RMK AO2=
METAR KTBR 272055Z AUTO 06003KT 10SM CLR 12/03 A3033 RMK AO2 
 T01150030=
METAR KTDF 272055Z AUTO 36005KT 10SM SCT050 05/M07 A3041 RMK AO2=
METAR KTFP 272055Z AUTO 08013G20KT 10SM SCT021 SCT055 OVC080 
 12/06 A3020 RMK AO2 T01230062=
METAR KTIF 272055Z AUTO 18011G18KT 10SM CLR M04/M17 A3022 RMK AO2 
 T10401166=
METAR KTMA 272055Z AUTO 06006KT 10SM CLR 11/03 A3029 RMK AO2 
 T01130032=
METAR KTNU 272055Z AUTO VRB03KT 10SM CLR M13/M19 A3059 RMK AO2=
METAR KTVI 272055Z AUTO 04005KT 10SM CLR 12/04 A3030 RMK AO2=
METAR KU68 272055Z AUTO 00000KT 10SM CLR M02/M16 A2988 RMK AO2=
METAR KUBE 272055Z AUTO 24006KT 10SM CLR M10/M20 A3045 RMK AO2=
METAR KUKF 272055Z AUTO 02009KT 10SM CLR 06/M08 A3039 RMK AO2=
METAR KUNI 272055Z AUTO 29005KT 10SM SCT048 M06/M17 A3057 RMK AO2 
     T10651171=
METAR KUNU 272055Z AUTO 21009G14KT 10SM CLR M10/M19 A3053 RMK AO2 
 T10961193=
METAR KUXL 272055Z AUTO 03007KT 10SM CLR 11/00 A3033 RMK AO2 
 T01110001=
METAR KVES 272055Z AUTO 34006KT 10SM SCT031 M08/M14 A3056 RMK AO2=
METAR KVUJ 272055Z AUTO 33007KT 10SM CLR 08/M02 A3042 RMK AO2 
 T00761025=
METAR KVVG 272055Z AUTO 03008KT 8SM 16/07 A3011 RMK A01=
METAR KVYS 272055Z AUTO 32008KT 10SM CLR M10/M18 A3063 RMK AO2 
 T11051183=
METAR KW13 272055Z AUTO 28007KT 10SM CLR 01/M13 A3035 RMK AO1 
 T00121131=
METAR KW22 272055Z AUTO 26004KT 10SM FEW033 SCT042 M08/M17 A3047 
 RMK AO2=
METAR KW78 272055Z AUTO 35007KT 10SM CLR 04/M09 A3041 RMK AO1 
 T00441093=
METAR KW99 272055Z AUTO 31011G15KT 10SM CLR M02/M14 A3048 RMK AO2 
     T10231142=
METAR KWWR 272055Z AUTO 11009KT 7SM -SN BKN018 BKN023 OVC027 
 M07/M12 A3041 RMK AO2=
####018002954####
SAUS20 KNKA 272100
METAR K0VG 272055Z AUTO 02005KT 10SM CLR 00/M12 A3047 RMK AO2=
METAR K1F0 272055Z AUTO 06006KT 1SM -SN BKN008 OVC014 M06/M08 
 A3046 RMK AO2 P0001=
METAR K3K3 272055Z AUTO 15016G21KT 5SM -SN BKN020 BKN027 BKN050 
 M08/M11 A3023 RMK AO2=
METAR K3N8 272055Z AUTO 23008KT 10SM CLR M09/M17 A3039 RMK AO2 
 T10931167=
METAR K3T5 272055Z AUTO 05007KT 10SM OVC019 06/02 A3029 RMK AO2 
 T00550015=
METAR K8A0 272055Z AUTO 01006KT 10SM CLR 02/M04 A3041 RMK AO2=
METAR K9V9 272055Z AUTO 19008KT 10SM CLR M04/M19 A3033 RMK AO2 
 T10421190=
METAR KA08 272055Z AUTO 06008KT 10SM CLR 09/M03 A3037 RMK AO2 
     T00851027=
METAR KAFO 272055Z AUTO 16005KT 10SM SCT025 SCT034 OVC040 M01/M08 
     A2972 RMK AO2=
METAR KARV 272055Z AUTO 26005KT 10SM CLR M08/M20 A3035 RMK AO2 
 T10851202=
METAR KASJ 272055Z AUTO 35005KT 10SM CLR 07/M06 A3040 RMK AO2 
 T00701057=
METAR KAZE 272055Z AUTO 02008KT 10SM CLR 13/05 A3030 RMK AO2 
 T01280046=
METAR KBKD 272055Z AUTO 05009KT 3SM UP BKN009 BKN017 OVC022 
 M04/M07 A3039 RMK AO2 T10431066=
METAR KBMC 272055Z AUTO 21008KT 10SM OVC080 05/M03 A2975 RMK AO1 
 T00521032=
METAR KBQK 272055Z AUTO 04013G16KT 10SM CLR 10/00 A3034 RMK AO1=
METAR KBQP 272055Z AUTO 35005KT 10SM SCT028 OVC090 02/M06 A3048 
 RMK AO2 60001 T00151058=
METAR KC75 272055Z AUTO 34005KT 10SM CLR M11/M20 A3063 RMK AO2 
 T11121202=
METAR KCBK 272055Z AUTO 16014G21KT 5SM -SN BKN022 OVC028 M07/M10 
 A3026 RMK AO2=
METAR KCDH 272055Z AUTO 10SM BKN090 00/M09 A3052 RMK AO2=
METAR KCKP 272055Z AUTO 00000KT 10SM CLR M12/M18 A3053 RMK AO2 
     T11161184=
METAR KCVB 272055Z AUTO 04011KT 3SM DZ OVC009 01/00 A3028 RMK AO2 
 T00110000=
METAR KCXE 272055Z AUTO 31008KT 280V010 10SM CLR 06/M07 A3040 RMK 
 AO1 T00551071=
METAR KD25 272055Z AUTO 26009KT 10SM CLR M09/M21 A3035 RMK AO2 
 T10951209=
METAR KDCY 272055Z AUTO 31004KT 10SM CLR M08/M17 A3062 RMK AO2 
 T10761170=
METAR KDNN 272055Z AUTO 35008KT 10SM CLR 03/M05 A3043 RMK AO2=
SPECI KDRO 272059Z AUTO 12003KT 3/4SM -SN BR FEW010 OVC016 M02/M04 
 A2979 RMK AO2 SNB54 P0000 T10171039=
METAR KDTA 272055Z AUTO 14005KT 10SM SCT055 08/M08 A2971 RMK AO1 
 T00751081=
METAR KE11 272055Z AUTO 7SM -SN OVC010 M06/M09 A3021 RMK AO2 
 T10651087=
METAR KEFT 272055Z AUTO 28009KT 10SM CLR M10/M19 A3054 RMK AO2=
METAR KELA 272055Z AUTO 07013G18KT 10SM BKN018 OVC033 07/02 A3029 
     RMK AO2 T00680018=
METAR KEMV 272055Z AUTO 33005KT 10SM CLR 05/M02 A3042 RMK AO2=
METAR KFFA 272055Z AUTO 01008G14KT 10SM CLR 03/M01 A3040 RMK AO2 
 T00301012=
METAR KFIN 272050Z 01013G25KT 7SM OVC014 11/08 A3025=
METAR KFWC 272055Z AUTO 01005KT 10SM CLR M08/M15 A3063 RMK AO1 
 T10761152=
METAR KFXY 272055Z AUTO 21005KT 10SM CLR M12/M18 A3053 RMK AO2=
METAR KGGP 272055Z AUTO 25008KT 10SM CLR M08/M17 A3061 RMK AO2=
METAR KGOP 272055Z AUTO 05006KT 3SM BR OVC012 M01/M03 A3038 RMK 
 AO2=
####018000926####
SAUS90 KWBC 272100 RRA
METAR TJSJ 272056Z 09009KT 10SM FEW022 SCT033 BKN055 25/22 A3004
     RMK AO2 PK WND 09032/2015 RAB15E33 SLP171 VCSH SW-NW P0000
     60000 T02500217 55003=
METAR KMHS 272056Z AUTO VRB06KT 10SM FEW065 FEW080 10/03 A2969 RMK
     AO2 RAB11E37 SLP069 P0001 60001 T01000028 58017=
METAR KNFE 272056Z AUTO 36010KT 10SM CLR 04/M03 A3043 RMK AO2
     SLP307 T00391033 51015=
METAR KNGP 272056Z 05022G27KT 5SM -RA BR BKN010 OVC020 11/08 A3019
     RMK AO2 PK WND 06028/2034 RAB56 SLP223 P0000 60000 T01060083
     58023=
METAR KNRS 272056Z 18011G19KT 10SM FEW025 BKN035 18/11 A2984 RMK
     AO2 SLP104 T01830111 58012 $=
METAR KNSI 272057Z AUTO 31022G36KT 10SM OVC013 A2983 RMK AO2 PK
     WND 31036/2050 SLPNO 58009 $=
METAR KVBG 272055Z COR 32021G28KT 10SM SCT015 BKN020 BKN250 16/12
     A2986 RMK AO2 PK WND 32030/2011 BKN020 V SCT SLP102 T01610117
     58012 COR 2057=
####018000104####
SAUS90 KWBC 272100 CCA
METAR KDMH 272054Z AUTO M02/M13 A3044 RMK AO1 SLP307 T10171128
     58007=
####018000305####
SAIR33 OIII 272100
METAR OIBB 272100Z 18004KT CAVOK 13/07 Q1016 A3000=
METAR OIBP 272100Z NIL=
METAR OICK 272100Z NIL=
METAR OICS 272100Z NIL=
METAR OIHH 272100Z NIL=
METAR OINZ 272100Z 11004KT CAVOK 04/03 Q1027=
METAR OISR 272100Z NIL=
METAR OITL 272100Z NIL=
METAR OIZC 272100Z NIL=
####018000413####
SAIR34 OIII 272100
METAR OIAG 272100Z NIL=
METAR OIAM 272100Z NIL=
METAR OICI 272100Z 11004KT CAVOK 05/M04 Q1021 A3015=
METAR OIKQ 272100Z 04008KT 7000 NSC 16/07 Q1015=
METAR OINN 272100Z 18004KT 9999 FEW025 SCT090 06/03 Q1026=
METAR OINR 272100Z 00000KT CAVOK 05/04 Q1026=
METAR OISL 272100Z 31010KT CAVOK 11/M05 Q1017=
METAR OISY 272100Z 11004KT CAVOK M00/M08 Q1022=
METAR OITZ 272100Z NIL=
####018000344####
SAIR35 OIII 272100
METAR OIAD 272100Z NIL=
METAR OIBJ 272100Z NIL=
METAR OIBS 272100Z NIL=
METAR OIHR 272100Z NIL=
METAR OIKM 272100Z NIL=
METAR OIKR 272100Z NIL=
METAR OING 272100Z 00000KT 3000 BR SCT010 01/00 Q1029=
METAR OIZB 272100Z 33023KT CAVOK 04/M04 Q1022=
METAR OIZI 272100Z 21004KT 6000 FEW020 OVC090 10/07 Q1016=
####018000358####
SAIR36 OIII 272100
METAR OIBA 272100Z NIL=
METAR OIBV 272100Z NIL=
METAR OIFS 272100Z 00000KT CAVOK M06/M08 Q1025=
METAR OIIP 272100Z NIL=
METAR OIMB 272100Z 02008KT CAVOK M02/M09 Q1021=
METAR OIMN 272100Z 00000KT 9999 FEW040 M01/M02 Q1026=
METAR OIMS 272100Z NIL=
METAR OIMT 272100Z NIL=
METAR OIZJ 272100Z 04004KT 6000 NSC 16/05 Q1014=
####018000325####
SAIR37 OIII 272100
METAR OIBL 272100Z 08010KT 8000 SKC 18/06 Q1017=
METAR OIBQ 272100Z NIL=
METAR OIIK 272100Z NIL=
METAR OIMC 272100Z NIL=
METAR OIMD 272100Z NIL=
METAR OIMQ 272100Z NIL=
METAR OINE 272100Z 00000KT CAVOK 03/02 Q1027=
METAR OITK 272100Z NIL=
METAR OITM 272100Z 09008KT CAVOK 03/M08 Q1023=
####018000088####
SAHK31 VHHH 272100
METAR VHHH 272100Z 09025KT 9999 FEW010 SCT020 19/16 Q1014 NOSIG=
####018000160####
SAUS46 KPQR 272101
MTRNFL
SPECI KNFL 272100Z 26025G38KT 3SM -RA SCT030 BKN050 OVC060 07/02 
A2968 RMK AO2 PK WND 26033/2057 PRESRR WR// P0000 T00670017
####018000229####
SAGG31 UGTB 272100
METAR UGTB 272100Z 18003KT 7000 OVC033 06/03 Q1027 R31L/CLRD80 NOSIG=
METAR UGSB 272100Z AUTO 32006KT CAVOK 09/07 Q1012 R13/CLRD70 NOSIG=
METAR UGKO 272100Z 07035G45KT CAVOK 12/M00 Q1012 R07/09//70 NOSIG=
####018001033####
SACH10 SCSC 272100
METAR SCFA 272100Z 18009KT 9999 FEW040 23/12 Q1012 NOSIG=
METAR SCAR 272100Z 20009KT CAVOK 26/15 Q1011=
METAR SCBA 272100Z 30021KT CAVOK 28/06 Q1010=
METAR SCCF 272100Z 25021KT 9999 SCT060TCU 22/07 Q1023=
METAR SCIE 272100Z 23009KT CAVOK 21/14 Q1014=
METAR SCAT 272100Z 26011KT 220V310 CAVOK 22/13 Q1015=
METAR SCDA 272100Z 18015KT CAVOK 27/15 Q1012=
METAR SCSE 272100Z 26008KT 9999 FEW020 21/12 Q1014=
METAR SCJO 272100Z VRB06KT CAVOK 32/12 Q1011=
METAR SCQP 272100Z 25012KT 230V290 CAVOK 21/14 Q1013=
METAR SCTE 272100Z 22010KT 8000 SKC 22/11 Q1013 NOSIG=
METAR SCVD 272100Z NIL=
METAR SCNT 272100Z NIL=
METAR SCCI 272100Z 29026KT 9999 FEW025 SCT160 BKN200 19/10 Q0997 
NOSIG=
METAR SCEL 272100Z 18011KT CAVOK 28/09 Q1012 NOSIG=
METAR SCIP 272100Z 08011KT 9999 SCT020 27/18 Q1020 NOSIG=
METAR SCPQ 272100Z NIL=
METAR SCTN 272100Z AUTO 20006KT 170V230 CAVOK 19/13 Q1013=
METAR SCCH 272100Z 29004KT 8000 SCT066 27/15 Q1012=
METAR SCRM 272100Z 03019KT 9999 SCT020 BKN100 M03/M06 Q0990 NOSIG=
####018000124####
SAKA31 PTKK 272100
METAR PTKK 272055Z VRB05KT 15SM FEW014 SCT120 OVC280 26/24 A2977 RMK
 SLP083 8/171 T02610243 52015=
####018000118####
SPAU32 YBBN 272100
SPECI YSRI 272100Z AUTO 00000KT 0300 // OVC001 19/19 Q1011
RMK AUTO OBSCURATION CODES REMOVED=
####018003742####
SAUS99 KWBC 272102 RRB
METAR
KSGJ 272058Z 01016G21KT 5SM HZ OVC014 11/07 A3028 RMK AO2 SLP253
     T01060067 56010=
KSHL 272055Z AUTO 24005KT 10SM CLR M11/M18 A3048 RMK AO2=
KSLB 272055Z AUTO 00000KT 10SM CLR M13/M19 A3051 RMK AO2=
KSME 272055Z AUTO 04007KT 10SM CLR M05/M13 A3056 RMK AO2=
KSNK 272055Z AUTO 06009KT 7SM BKN014 OVC020 M08/M11 A3030 RMK AO2
     T10761106 TSNO=
KSOA 272055Z AUTO 05005KT 6SM BR OVC012 M00/M03 A3026 RMK AO2=
KSSC 272058Z AUTO 12004KT 10SM CLR 12/00 A3032 RMK AO2 SLP270
     60000 T01210002 55012 $=
KSVH 272055Z AUTO 00000KT 10SM BKN048 BKN055 07/M03 A3034 RMK AO2
     T00731033=
KWRB 272058Z AUTO 04006KT 10SM CLR 14/M01 A3031 RMK AO2 SLP268
     T01441006 56018=
KEFK 272055Z AUTO 25008KT 10SM CLR M10/M24 A3033 RMK AO2
     T11051236=
KEMM 272055Z AUTO 23003KT 10SM SCT016 SCT041 OVC090 M03/M08 A2972
     RMK AO2=
KENL 272055Z AUTO 33004KT 10SM CLR M08/M17 A3063 RMK AO2
     T10811167=
KEOE 272055Z AUTO 33004KT 10SM CLR 11/M01 A3036 RMK AO2=
KEOK 272055Z AUTO 23003KT 10SM CLR M10/M19 A3062 RMK AO2=
KEXX 272055Z AUTO 00000KT 10SM SCT048 07/M05 A3037 RMK AO2
     T00651047=
KEZF 272055Z AUTO 33005KT 10SM OVC065 02/M10 A3047 RMK AO2
     T00231099=
KF70 272055Z AUTO 21011G15KT 10SM SCT035 OVC046 16/09 A2980 RMK
     AO1=
KFBG 272058Z AUTO 28005KT 10SM FEW050 11/M03 A3035 RMK AO2 SLP282
     T01061029 55005 $=
KFET 272055Z AUTO 11005KT 10SM CLR M07/M16 A3051 RMK AO2
     T10701162=
KFFL 272055Z AUTO 00000KT 10SM CLR M13/M21 A3063 RMK AO2=
KFKN 272055Z AUTO 03011G14KT 10SM SCT060 02/M03 A3043 RMK AO2
     T00201033=
KFOA 272055Z AUTO 01003KT 10SM CLR M08/M17 A3064 RMK AO2
     T10851170=
KFQD 272055Z AUTO 31006KT 290V010 10SM CLR 10/M11 A3033 RMK AO2
     T01041115=
KFSW 272055Z AUTO 35006KT 10SM CLR M12/M18 A3063 RMK AO2=
KGBG 272055Z AUTO 30004KT 10SM CLR M12/M19 A3063 RMK AO2
     T11231186=
KGCD 272055Z AUTO 29007KT 10SM -RA SCT006 BKN015 OVC022 04/03
     A2966 RMK AO2 T00400031=
KGHG 272055Z AUTO 36007KT 10SM CLR M02/M15 A3037 RMK AO2=
KGLE 272055Z AUTO 02006KT 3/4SM -SN VV005 M06/M07 A3047 RMK AO2
     60001 T10571073=
KGNT 272055Z AUTO 15012G18KT 3/4SM -SN BKN009 OVC013 M03/M04 A2984
     RMK AO2 T10341044=
KGUR 272055Z AUTO 15012G20KT 10SM SCT034 00/M07 A2993 RMK AO2
     T00011073=
KGVT 272055Z AUTO 04012G15KT 5SM -SN BKN013 OVC043 M02/M05 A3043
     RMK AO2=
KGWW 272055Z AUTO 36005KT 10SM CLR 09/M02 A3038 RMK AO2 P0001
     60001 T00861025=
KH21 272055Z AUTO 00000KT 10SM M06/M18 A3055 RMK AO2=
KHDE 272055Z AUTO 14007G14KT 10SM BKN075 OVC085 M05/M21 A3034 RMK
     AO2 T10551208=
KHHW 272055Z AUTO 03007KT 1 1/2SM -SN OVC009 M03/M05 A3047 RMK AO2
     T10301054=
KHNR 272055Z AUTO 00000KT 10SM CLR M11/M18 A3057 RMK AO2=
KHQU 272055Z AUTO 33005KT 10SM CLR 14/03 A3036 RMK AO1
     T01400029=
KHSP 272055Z AUTO 27009G18KT 10SM CLR M06/M16 A3022 RMK AO2
     T10621159=
KHUA 272058Z AUTO 35009KT 10SM CLR 02/M07 A3045 RMK AO2 SLP319
     T00181072 57017=
KHZR 272055Z AUTO 34005KT 10SM CLR 10/00 A3033 RMK AO2
     T01031004=
KI75 272055Z AUTO 00000KT 10SM CLR M10/M18 A3057 RMK AO2
     T11041185=
KIDP 272055Z AUTO 11006KT 10SM SCT028 BKN040 OVC050 M06/M17 A3055
     RMK AO2=
KIIB 272055Z AUTO 24006KT 10SM CLR M12/M18 A3059 RMK AO2=
KIJX 272055Z AUTO 00000KT 10SM CLR M10/M18 A3065 RMK AO2
     T11021183=
KIKK 272055Z AUTO 25007KT 10SM CLR M11/M17 A3063 RMK AO2
     T11091171=
PFEL 272058Z AUTO 18013KT 9SM -SN OVC020 M01/M03 A3023 RMK AO2
     SNB25 SLP243 P0000 60000 T10111028 56011 FZRANO=
PFNO 272058Z AUTO 17011KT 10SM OVC055 01/M01 A3017 RMK AO2 SLP219
     60000 T00061011 58008 FZRANO=
####018003732####
SAUS99 KWBC 272102
METAR
K7L2 272055Z AUTO 16013KT 10SM CLR M08/M15 A3027 RMK AO2=
KADF 272056Z AUTO 02008KT 340V050 10SM CLR 00/M09 A3055 RMK AO2
     58000 T00001094 SLP362 $=
KAPG 272055Z 30010KT 7SM FEW200 M01/M11 A3049=
KAXH 272055Z AUTO 02006KT 7SM OVC018 09/06 A3034 RMK AO2
     T00910060=
KBIE 272055Z AUTO 13005KT 10SM CLR M06/M19 A3049 RMK AO2
     T10651187=
KBIJ 272055Z AUTO 05003KT 10SM CLR 15/02 A3030 RMK AO2=
KBIX 272058Z AUTO 04008KT 10SM CLR 14/M01 A3028 RMK AO2 SLP257
     T01351009 57026=
KBKT 272055Z AUTO 33005KT 10SM SCT050 05/M07 A3039 RMK AO1
     T00471072=
KBNW 272055Z AUTO 00000KT 10SM CLR M12/M19 A3055 RMK AO2=
KBPG 272055Z AUTO 05011KT 10SM OVC009 M06/M08 A3029 RMK AO2
     T10621085=
KBVN 272055Z AUTO 20010G14KT 10SM CLR M05/M20 A3040 RMK AO2
     T10541205=
KBWD 272055Z AUTO 04006KT 3SM BR BKN009 OVC012 M04/M06 A3035 RMK
     AO2=
KC09 272055Z AUTO 30006KT 10SM CLR M11/M17 A3062 RMK AO2
     T11151170=
KC29 272055Z AUTO 22005KT 10SM CLR M07/M20 A3053 RMK AO1
     T10751205=
KC35 272055Z AUTO 25007KT 10SM CLR M09/M19 A3052 RMK AO2
     T10921190=
KCAV 272055Z AUTO 25004KT 10SM FEW013 M13/M18 A3056 RMK AO2=
KCBF 272055Z AUTO VRB06KT 10SM CLR M09/M15 A3051 RMK AO2=
KCCY 272055Z AUTO 21006KT 10SM CLR M15/M20 A3057 RMK AO2=
KCFD 272055Z AUTO 03010G14KT 10SM BKN033 OVC090 05/M03 A3036 RMK
     AO2 T00451030=
KCHK 272055Z AUTO 05006KT 7SM -SN CLR M06/M09 A3047 RMK AO2=
KCIN 272055Z AUTO 00000KT 10SM CLR M12/M20 A3054 RMK AO2=
KCMY 272055Z AUTO 26007KT 10SM CLR M09/M21 A3054 RMK AO2
     T10911207=
KCNC 272055Z AUTO 00000KT 10SM CLR M10/M18 A3058 RMK AO2=
KCOM 272055Z AUTO 05009KT 7SM OVC009 M04/M05 A3032 RMK AO2
     T10451053=
KCPC 272055Z AUTO 05004KT 10SM CLR 11/M01 A3034 RMK AO2
     T01081015=
KCPT 272055Z AUTO 03008KT 2SM -SN BKN011 BKN030 BKN044 M03/M04
     A3041 RMK AO2 P0001=
KCQB 272055Z AUTO 08007KT 1SM -SN BKN009 OVC014 M05/M07 A3051 RMK
     AO2=
KCQF 272055Z AUTO 02009KT 350V050 10SM CLR 12/00 A3027 RMK AO2=
KCSQ 272055Z AUTO 00000KT 10SM CLR M09/M17 A3053 RMK AO2=
KCTJ 272055Z AUTO 36007KT 10SM CLR 06/M06 A3040 RMK AO2=
KCTZ 272055Z AUTO 31004KT 10SM CLR 10/M01 A3037 RMK AO2
     T01001010=
KDBN 272055Z AUTO 04006KT 10SM CLR 13/02 A3033 RMK AO2=
KDEH 272055Z AUTO VRB06KT 10SM CLR M13/M21 A3054 RMK AO2=
KDUB 272055Z AUTO 15010KT 10SM BKN044 BKN055 BKN095 M10/M13 A2967
     RMK AO2=
KDWX 272055Z AUTO 24007KT 10SM CLR 00/M11 A2979 RMK AO2
     T10021109=
KE38 272055Z AUTO 03004KT 4SM OVC004 M02/M03 A3012 RMK AO2
     T10241029=
KEBS 272055Z AUTO 26004KT 10SM CLR M13/M19 A3055 RMK AO2=
KIKV 272055Z AUTO 00000KT 10SM CLR M11/M19 A3060 RMK AO2=
KINF 272055Z AUTO 07008KT 10SM BKN038 18/03 A3020 RMK AO2=
KINJ 272055Z AUTO 04009KT 10SM SCT014 OVC050 M01/M04 A3039 RMK AO2
     T10131045=
KIOB 272055Z AUTO 00000KT 10SM SCT033 M05/M13 A3058 RMK AO2=
KIYA 272055Z AUTO 01008G14KT 10SM CLR 11/02 A3031 RMK AO2
     T01050016=
KIZA 272055Z AUTO 32009G16KT 10SM SCT039 18/07 A2982 RMK AO2=
KJGG 272055Z AUTO 04003KT 10SM SCT018 02/M01 A3047 RMK AO1=
KL18 272055Z AUTO RMK TEMPORAIRILY INOPERATIVE=
KLAM 272055Z AUTO 17012G18KT 2SM -SN BKN010 OVC014 M08/M10 A2986
     RMK AO2 T10831101=
KLCG 272055Z AUTO 17004KT 10SM CLR M07/M16 A3047 RMK AO2
     T10691156=
KLCQ 272055Z AUTO 02011G14KT 10SM CLR 11/02 A3027 RMK AO2=
KLGC 272055Z AUTO 03006KT 10SM CLR 12/M02 A3035 RMK AO2
     T01151022=
KLKU 272055Z AUTO 03004KT 10SM BKN060 03/M08 A3041 RMK AO2=
KLRF 272058Z AUTO VRB03KT 10SM FEW090 M02/M14 A3056 RMK AO2 SLP356
     T10171139 55004=
KLRJ 272055Z AUTO VRB04KT 10SM CLR M10/M17 A3052 RMK AO2=
####018003684####
SAUS99 KWBC 272102 RRA
METAR
KLRU 272055Z AUTO 13015G20KT 10SM CLR 08/M03 A2991 RMK AO2
     T00791035=
KLSB 272055Z AUTO 12017G20KT 10SM CLR 12/M03 A2983 RMK AO2=
KLUF 272058Z 20008G16KT 10SM CLR 23/M01 A2966 RMK AO2A SLP038
     T02281008 57031 $=
KLXN 272055Z AUTO 16012G15KT 10SM SCT120 M05/M19 A3031 RMK AO2
     T10461191=
KLXY 272055Z AUTO 10SM OVC050 00/M06 A3037 RMK AO2 T00011057=
KMAN 272055Z AUTO 13006KT 10SM SCT044 10/00 A2968 RMK AO1=
KMCF 272058Z AUTO 06009KT 10SM OVC022 17/12 A3017 RMK AO2 SLP220
     T01710124 56013=
KMEI 272058Z 04007KT 10SM CLR 08/M05 A3037 RMK AO2 SLP286
     T00831050 56024=
KMLE 272055Z AUTO 00000KT 10SM CLR M07/M18 A3053 RMK AO2
     T10741184=
KMLJ 272055Z AUTO 31003KT 10SM CLR 13/01 A3032 RMK AO2=
KMPZ 272055Z AUTO 00000KT 10SM CLR M11/M19 A3063 RMK AO2
     T11101194=
KMRH 272058Z AUTO 04008KT 10SM CLR 08/00 A3038 RMK AO2 SLP286
     T00830000 53005 TSNO=
KMUT 272055Z AUTO 36004KT 10SM CLR M12/M19 A3066 RMK AO2=
KMXF 272058Z AUTO 34008KT 10SM CLR 10/M02 A3035 RMK AO2 SLP281
     T01031019 57016=
KMXO 272055Z AUTO 27006KT 10SM CLR M13/M20 A3060 RMK AO2=
KOEO 272055Z AUTO 25006KT 10SM CLR M08/M18 A3052 RMK AO2
     T10801185=
KOGA 272055Z AUTO 17015G19KT 10SM OVC034 M06/M13 A3018 RMK AO2
     T10571134=
KOKM 272055Z AUTO 05008KT 3SM -SN BKN014 OVC028 M07/M10 A3053 RMK
     AO2 T10711102=
KOLG 272055Z AUTO 21005KT 10SM CLR M08/M20 A3041 RMK AO1=
KOLZ 272055Z AUTO 25005KT 10SM CLR M15/M21 A3058 RMK AO2=
KOMH 272055Z AUTO 00000KT 10SM OVC065 01/M09 A3045 RMK AO2=
KONL 272055Z AUTO 19008KT 10SM CLR M04/M20 A3034 RMK AO2
     T10431204=
KOPL 272055Z AUTO 05010KT 7SM CLR 09/01 A3034 RMK AO2
     T00920005=
KORC 272055Z AUTO 00000KT 10SM CLR M11/M17 A3048 RMK AO2=
KOSA 272055Z AUTO 04011G15KT 10SM OVC070 M01/M09 A3048 RMK AO1
     T10101086=
KOUN 272055Z AUTO 05005KT 5SM -SN SCT008 SCT015 OVC055 M07/M09
     A3049 RMK AO2=
KOXV 272055Z AUTO 31004KT 10SM CLR M12/M19 A3059 RMK AO2=
KOZA 272055Z AUTO 07009KT 3SM BR OVC006 M01/M02 A3023 RMK AO2=
KPEA 272055Z AUTO 25003KT 10SM CLR M09/M17 A3062 RMK AO2
     T10901166=
KPLU 272055Z AUTO 00000KT 10SM FEW009 SCT026 BKN045 10/09 A2974
     RMK AO2=
KPMV 272055Z AUTO 09004KT 10SM CLR M08/M17 A3052 RMK AO2
     T10781174=
KPNT 272055Z AUTO 27003KT 10SM CLR M11/M18 A3064 RMK AO2
     T11101177=
KPOY 272055Z AUTO 15004KT 10SM CLR M05/M13 A2981 RMK AO2=
KPPA 272055Z AUTO 13009KT 4SM -SN BKN002 BKN017 M08/M12 A3026 RMK
     AO2 T10851125=
KPRG 272055Z AUTO 30005KT 10SM CLR M10/M16 A3063 RMK AO2
     T10981162=
KPTB 272055Z AUTO 04008KT 10SM SCT035 SCT042 SCT055 03/M02 A3044
     RMK AO2 T00261021=
KPVB 272055Z AUTO 19008KT 10SM CLR M11/M20 A3055 RMK AO1
     T11131197=
KPVW 272055Z AUTO 10008KT 3SM -SN SCT015 OVC022 M09/M12 A3022 RMK
     AO2 T10931125=
KPXE 272055Z AUTO 04006KT 10SM CLR 15/00 A3032 RMK AO2
     T01531003=
KRCM 272055Z AUTO 08004KT 10SM BKN080 M06/M17 A3058 RMK AO2=
KRDK 272055Z AUTO 00000KT 10SM CLR M09/M16 A3055 RMK AO2=
KRFI 272055Z AUTO 04008KT 10SM OVC080 00/M06 A3042 RMK AO2
     T00031064=
KRMN 272055Z AUTO 03005KT 10SM CLR 01/M12 A3051 RMK AO2
     T00101124=
KRRL 272055Z AUTO 23009KT 10SM CLR M10/M20 A3043 RMK AO2
     T11021200=
KRUQ 272055Z AUTO 00000KT 10SM CLR 06/M05 A3037 RMK AO2 60001
     T00611052=
KS25 272055Z AUTO 15011KT 10SM CLR M05/M15 A3007 RMK AO2=
KSAR 272055Z AUTO 33004KT 10SM CLR M07/M15 A3062 RMK AO2
     T10691148=
KSDA 272055Z AUTO 00000KT 10SM CLR M07/M17 A3056 RMK AO2=
KSEZ 272055Z AUTO 00000KT 10SM SCT075 BKN080 11/M02 A2974 RMK
     AO2=
####018002519####
SAUS99 KWBC 272102 RRE
METAR
KHFJ 272055Z AUTO 08005KT 10SM OVC070 M06/M16 A3051 RMK AO2=
KHHG 272055Z AUTO 25005KT 10SM OVC035 M08/M18 A3058 RMK AO2
     T10771178=
KHRX 272055Z AUTO 16009KT 7SM -SN OVC016 M08/M12 A3021 RMK AO2
     T10841117=
KHWY 272055Z AUTO 02008KT 10SM CLR 02/M08 A3046 RMK AO2
     T00151076=
KJES 272055Z AUTO 08008KT 10SM CLR 13/03 A3032 RMK AO2=
KJOT 272055Z AUTO 29003KT 10SM CLR M11/M20 A3063 RMK AO2
     T11141197=
KJYO 272055Z AUTO 35006KT 10SM CLR 00/M11 A3048 RMK AO2=
KJYR 272055Z AUTO 16004KT 10SM CLR M07/M19 A3044 RMK AO2=
KL35 272055Z AUTO 26010KT 10SM CLR 08/M01 A2980 RMK AO2=
KL38 272055Z AUTO 04004KT 10SM CLR 12/01 A3031 RMK AO2
     T01170009=
KLHZ 272055Z AUTO 00000KT 10SM CLR 05/M05 A3040 RMK AO2=
KLNP 272055Z AUTO 04007KT 10SM SCT030 M03/M12 A3039 RMK AO2=
KLOT 272055Z AUTO 26008KT 10SM CLR M11/M19 A3061 RMK AO2
     T11101189=
KLWB 272055Z AUTO 26007KT 10SM CLR M03/M14 A3039 RMK AO2
     T10321136=
KMDD 272055Z AUTO 07010KT 2 1/2SM UP OVC011 M05/M08 A3024 RMK AO2
     T10541076=
KMDZ 272055Z AUTO 23007KT 10SM CLR M12/M20 A3043 RMK AO2
     T11231202=
KMGC 272055Z AUTO 32005KT 10SM CLR M08/M21 A3060 RMK AO2=
KMKJ 272055Z AUTO 29009G15KT 270V330 10SM SCT032 SCT038 M02/M10
     A3038 RMK AO2 T10231105=
KMMH 272055Z AUTO 28022KT 10SM SCT060 SCT080 08/M08 A2971 RMK
     AO1=
KMNE 272055Z AUTO 01007KT 10SM OVC085 01/M06 A3045 RMK AO2
     T00111061=
KMQI 272104Z AUTO 02010KT 10SM CLR 03/M02 A3042 RMK AO2=
KMTV 272055Z AUTO 36006KT 10SM CLR 05/M09 A3041 RMK AO2
     T00521093=
KMWK 272055Z AUTO 35004KT 10SM CLR 05/M07 A3038 RMK AO2
     T00521073=
KMYZ 272055Z AUTO 00000KT 10SM BKN100 M07/M17 A3050 RMK AO2=
KMZZ 272055Z AUTO 30003KT 10SM BKN025 M09/M15 A3059 RMK AO2
     T10901151=
KNY0 272055Z AUTO 26011G19KT 10SM CLR M10/M18 A3038 RMK AO2
     T10961178=
KOCQ 272055Z AUTO 25010G14KT 10SM CLR M07/M19 A3047 RMK AO1
     T10751190=
KOLY 272055Z AUTO 36005KT 10SM CLR M08/M16 A3064 RMK AO2=
KOOA 272055Z AUTO 30003KT 10SM CLR M12/M18 A3062 RMK AO2
     T11211181=
KPNA 272055Z AUTO 36005KT 7SM BKN032 OVC041 M08/M12 A2975 RMK
     AO2=
KPRS 272055Z AUTO 03017G21KT 10SM CLR 10/M01 A3000 RMK AO2
     T00951009=
KPSK 272055Z AUTO 29008KT 10SM CLR 00/M10 A3040 RMK AO2
     T10051099=
KPYX 272055Z AUTO 14010KT BKN018 OVC060 M09/M12 A3030 RMK AO2
     T10891124=
KRAS 272055Z AUTO 05013G22KT 7SM OVC011 10/08 A3021 RMK AO2
     T01030077=
####018000812####
SPUS99 KWBC 272102
SPECI
KAVX 272058Z AUTO 28007KT 10SM BKN008 BKN012 OVC019 12/11 A2983
     RMK AO2 CIG 007V011 T01220111=
KITR 272058Z AUTO 16021KT 2 1/2SM -SN BKN017 BKN026 OVC047 M10/M14
     A3011 RMK AO2 VIS 1 1/4V5 SNB58 P0000 T11001139=
KDMA 272059Z AUTO 19012G21KT 10SM CLR 22/M04 A2972 RMK AO2 WSHFT
     55 $=
PABT 272051Z 17005KT 6SM BR SCT007 OVC010 M02/M04 A3031 RMK PNO
     VIA AUTODIAL=
PABT 272100Z 17005KT 6SM BR SCT007 OVC010 M02/M04 A3031 RMK
     T10221044 PNO $ VIA AUTODIAL=
KDRO 272059Z AUTO 12003KT 3/4SM -SN BR FEW010 OVC016 M02/M04 A2979
     RMK AO2 SNB54 P0000 T10171039=
KHDO 272059Z AUTO 05009KT 2 1/2SM -RA BKN008 OVC013 01/ A3027 RMK
     AO2 CIG 006V010 P0000 T0011 $=
KMGW 272059Z VRB04KT 10SM SCT050 M06/M18 A3050 RMK AO2
     T10561178=
####018000925####
SAAW41 KWBC 272050 RRB
METAR
LTAG 272050Z 08010KT CAVOK 15/04 Q1013 NOSIG=
LTAJ 272050Z VRB01G16KT CAVOK 07/02 Q1018 NOSIG=
LTAN 272050Z 20010KT 9999 FEW040 SCT090 08/M00 Q1012 NOSIG=
LTAP 272050Z VRB02KT CAVOK 09/01 Q1010 NOSIG=
LTAR 272050Z 17019KT CAVOK 02/M05 Q1016=
LTAT 272050Z 23006KT CAVOK M00/M01 Q1018 NOSIG=
LTAU 272050Z 00000KT CAVOK 04/M02 Q1014 TEMPO TL2200 14018KT=
LTBF 272050Z 09004KT 030V140 9999 -SHRA SCT035 BKN100 10/06 Q1008
     NOSIG=
LTBQ 272050Z VRB03KT 9999 SCT040 BKN100 10/07 Q1007 RESHRA
     NOSIG=
LTCA 272050Z VRB03KT CAVOK 01/M02 Q1019 NOSIG=
LTCC 272050Z NIL=
LTCE 272050Z 15003KT 090V220 4000 BR FEW030 M12/M13 Q1021 BECMG
     TL2150 7000=
LTCG 272050Z 11007KT 060V170 8000 NSC 09/06 Q1010 NOSIG=
LTCI 272050Z 09001KT CAVOK M02/M03 Q1022 NOSIG=
LTCJ 272050Z VRB02KT CAVOK 04/01 Q1019=
LTFE 272050Z 16003KT 9999 FEW020CB BKN030 09/07 Q1010 NOSIG=
####018003713####
SAUS99 KWBC 272102 RRD
METAR
KFFA 272055Z AUTO 01008G14KT 10SM CLR 03/M01 A3040 RMK AO2
     T00301012=
KFIN 272050Z 01013G25KT 7SM OVC014 11/08 A3025=
KFWC 272055Z AUTO 01005KT 10SM CLR M08/M15 A3063 RMK AO1
     T10761152=
KFXY 272055Z AUTO 21005KT 10SM CLR M12/M18 A3053 RMK AO2=
KGGP 272055Z AUTO 25008KT 10SM CLR M08/M17 A3061 RMK AO2=
KGOP 272055Z AUTO 05006KT 3SM BR OVC012 M01/M03 A3038 RMK AO2=
KRBO 272055Z AUTO 06017KT 10SM OVC019 13/07 A3020 RMK AO2
     T01250067=
KRCR 272055Z AUTO 20006KT 10SM CLR M06/M13 A3059 RMK AO2=
KRNH 272055Z AUTO 22006KT 10SM CLR M09/M18 A3049 RMK AO2
     T10881183=
KRYV 272055Z AUTO 23004KT 10SM CLR M09/M19 A3054 RMK AO2
     T10901188=
KSBO 272055Z AUTO 07004KT 10SM CLR 14/M03 A3032 RMK AO2=
KSEE 272055Z AUTO 24010G15KT 8SM SCT038 BKN043 19/09 A2984 RMK
     AO2=
KSFQ 272055Z AUTO 02009KT 10SM CLR 01/M04 A3044 RMK AO2 P0001
     60011 T00111038=
KSTE 272055Z AUTO 25005KT 10SM CLR M10/M21 A3047 RMK AO2
     T11051215=
KSUW 272055Z AUTO 24008G15KT 10SM CLR M07/M20 A3043 RMK AO2
     T10701201=
KSWW 272055Z AUTO 02011G15KT 7SM OVC011 M07/M09 A3032 RMK AO2
     T10711094=
KSYF 272055Z AUTO 17016G23KT 7SM SCT018 SCT024 OVC032 M07/M13
     A3019 RMK AO2 T10751133=
KT35 272055Z AUTO 05008KT 10SM SCT038 OVC047 03/M03 A3035 RMK AO2
     T00261029=
KT65 272055Z AUTO 02006KT 7SM BKN034 OVC041 17/10 A3014 RMK AO2
     T01650098=
KT82 272055Z AUTO 06008KT 4SM BR BKN010 OVC013 M02/M03 A3025 RMK
     AO2 T10161027=
KTAZ 272055Z AUTO 00000KT 10SM CLR M10/M17 A3064 RMK AO2=
KTBR 272055Z AUTO 06003KT 10SM CLR 12/03 A3033 RMK AO2
     T01150030=
KTDF 272055Z AUTO 36005KT 10SM SCT050 05/M07 A3041 RMK AO2=
KTFP 272055Z AUTO 08013G20KT 10SM SCT021 SCT055 OVC080 12/06 A3020
     RMK AO2 T01230062=
KTIF 272055Z AUTO 18011G18KT 10SM CLR M04/M17 A3022 RMK AO2
     T10401166=
KTMA 272055Z AUTO 06006KT 10SM CLR 11/03 A3029 RMK AO2
     T01130032=
KTNU 272055Z AUTO VRB03KT 10SM CLR M13/M19 A3059 RMK AO2=
KTVI 272055Z AUTO 04005KT 10SM CLR 12/04 A3030 RMK AO2=
KU68 272055Z AUTO 00000KT 10SM CLR M02/M16 A2988 RMK AO2=
KUBE 272055Z AUTO 24006KT 10SM CLR M10/M20 A3045 RMK AO2=
KUKF 272055Z AUTO 02009KT 10SM CLR 06/M08 A3039 RMK AO2=
KUNI 272055Z AUTO 29005KT 10SM SCT048 M06/M17 A3057 RMK AO2
     T10651171=
KUNU 272055Z AUTO 21009G14KT 10SM CLR M10/M19 A3053 RMK AO2
     T10961193=
KUXL 272055Z AUTO 03007KT 10SM CLR 11/00 A3033 RMK AO2
     T01110001=
KVES 272055Z AUTO 34006KT 10SM SCT031 M08/M14 A3056 RMK AO2=
KVUJ 272055Z AUTO 33007KT 10SM CLR 08/M02 A3042 RMK AO2
     T00761025=
KVVG 272055Z AUTO 03008KT 8SM 16/07 A3011 RMK A01=
KVYS 272055Z AUTO 32008KT 10SM CLR M10/M18 A3063 RMK AO2
     T11051183=
KW13 272055Z AUTO 28007KT 10SM CLR 01/M13 A3035 RMK AO1
     T00121131=
KW22 272055Z AUTO 26004KT 10SM FEW033 SCT042 M08/M17 A3047 RMK
     AO2=
KW78 272055Z AUTO 35007KT 10SM CLR 04/M09 A3041 RMK AO1
     T00441093=
KW99 272055Z AUTO 31011G15KT 10SM CLR M02/M14 A3048 RMK AO2
     T10231142=
KWWR 272055Z AUTO 11009KT 7SM -SN BKN018 BKN023 OVC027 M07/M12
     A3041 RMK AO2=
KY23 272055Z AUTO 21006KT 10SM CLR M10/M20 A3048 RMK AO2
     T11011200=
KY49 272055Z AUTO 28005KT 10SM CLR M08/M22 A3035 RMK AO2
     T10771216=
KY51 272055Z AUTO 24008KT 10SM CLR M10/M20 A3050 RMK AO1
     T11041199=
K3AU 272055Z AUTO 11006KT 1 3/4SM -SN SCT017 OVC038 M09/M12 A3051
     RMK AO2=
KF17 272055Z AUTO 02008G16KT 10SM OVC100 02/M05 A3039 RMK AO2
     T00241048=
KGVE 272055Z AUTO 04006KT 10SM OVC060 01/M09 A3042 RMK AO1
     T00111095=
KHDC 272055Z AUTO 02004KT 10SM CLR 11/M01 A3034 RMK AO2=
####018000095####
SAAW33 KWBC 272030 RRA
METAR
OOMS 272050Z 010013KT 6000 SCT025 SCT100 20/10 Q1014 NOSIG=
####018000215####
SPUS80 KWBC 272102
SPECI
PABT 272051Z 17005KT 6SM BR SCT007 OVC010 M02/M04 A3031 RMK PNO
     VIA AUTODIAL=
PABT 272100Z 17005KT 6SM BR SCT007 OVC010 M02/M04 A3031 RMK
     T10221044 PNO $ VIA AUTODIAL=
####018000318####
SPXX60 KWBC 272102
SPECI
KDMA 272059Z AUTO 19012G21KT 10SM CLR 22/M04 A2972 RMK AO2 WSHFT
     55 $=
KDMA 272059Z AUTO 19012G21KT 10SM CLR 22/M04 A2972 RMK AO2 WSHFT
     55 $=
KNFL 272100Z 26025G38KT 3SM -RA SCT030 BKN050 OVC060 07/02 A2968
     RMK AO2 PK WND 26033/2057 PRESRR WR// P0000 T00670017=
####018000225####
SAPQ50 KWBC 272100 RRA
METAR
PKMJ 272057Z 07014KT 5SM SHRA SCT014TCU BKN045 OVC110 26/25 A2978
     RMK TCU ALQDS=
PTKK 272055Z VRB05KT 15SM FEW014 SCT120 OVC280 26/24 A2977 RMK
     SLP083 8/171 T02610243 52015=
####018000435####
SAAW31 KWBC 272030 RRB
METAR
LTAC 272050Z VRB04KT 9999 -SHRA SCT035 BKN090 09/03 Q1010
     NOSIG=
LTAF 272050Z 02009KT 9999 FEW040 16/03 Q1013 NOSIG=
LTAI 272050Z 16016KT 9999 TS SCT015CB BKN025 17/14 Q1009 BECMG
     -TSRA TEMPO 4000 TSRA BKN015CB=
LTBA 272050Z 36018KT CAVOK 09/07 Q1007 NOSIG=
LTBJ 272050Z 15013KT 9999 SCT030 BKN100 09/07 Q1008 NOSIG=
LTBS 272050Z VRB02KT 9999 SCT030 BKN100 14/11 Q1011 NOSIG=
####018003697####
SAXX60 KWBC 272100 RRF
METAR
KMGE 272058Z 31010KT 10SM FEW250 07/M07 A3036 RMK AO2A SLP290
     T00721069 55006 $=
KNCA 272056Z 36009KT 10SM CLR 10/M01 A3037 RMK AO2 SLP286
     T01001011=
KSKF 272058Z 05010KT 3SM -RA BR BKN008 OVC013 01/M01 A3025 RMK
     AO2A RAE18DZB18E54RAB54 CIG 007V009 SLP249 P0001 60001
     T00071007 57019 $=
KSLI 272058Z 20010KT 10SM SCT030 BKN038 OVC049 18/11 A2980 RMK
     AO2A SLP094 T01790111 58019=
MHSC 272058Z 33013G17KT 9999 SCT080 32/13 A2988 RMK AO2A SLP070
     56028=
KOZR 272058Z AUTO 03010KT 10SM CLR 15/M02 A3028 RMK AO2 SLP257
     T01451024 57016=
KPAM 272058Z AUTO 05005KT 10SM CLR 13/02 A3027 RMK AO2 SLP254
     T01270019 56015 $=
KPOB 272058Z AUTO 34004KT 10SM CLR 11/M02 A3036 RMK AO2 SLP285
     T01051025 55003=
KPOE 272058Z AUTO VRB06KT 10SM OVC150 09/M02 A3032 RMK AO2 SLP271
     T00891019 57023=
KRND 272058Z 02013G18KT 10SM OVC016 02/M04 A3027 RMK AO2A SLP256
     60000 T00151037 57021=
KSKF 272058Z 05010KT 3SM -RA BR BKN008 OVC013 01/M01 A3025 RMK
     AO2A RAE18DZB18E54RAB54 CIG 007V009 SLP249 P0001 60001
     T00071007 57019 $=
KSLI 272058Z 20010KT 10SM SCT030 BKN038 OVC049 18/11 A2980 RMK
     AO2A SLP094 T01790111 58019=
KSSC 272058Z AUTO 12004KT 10SM CLR 12/00 A3032 RMK AO2 SLP270
     60000 T01210002 55012 $=
KTBN 272058Z AUTO VRB02KT 10SM BKN075 OVC095 M07/M18 A3051 RMK AO2
     SLP357 T10691184 57019=
KTIK 272058Z AUTO 06005KT 5SM -SN FEW013 OVC019 M08/M11 A3046 RMK
     AO2 CIG 015V019 SLP343 P0001 60001 T10791114 55019=
KWRB 272058Z AUTO 04006KT 10SM CLR 14/M01 A3031 RMK AO2 SLP268
     T01441006 56018=
K79J 272056Z AUTO 06007G15KT 010V100 10SM CLR 16/M02 A3030 RMK AO2
     SLP260 T01561022 56018=
KNFL 272056Z 26030G38KT 7SM -RA SCT035 BKN060 BKN120 08/00 A2968
     RMK AO2 PK WND 25038/2054 RAB53 PRESRR SLP032 P0000 60000
     T00830000 55022=
KNGP 272056Z 05022G27KT 5SM -RA BR BKN010 OVC020 11/08 A3019 RMK
     AO2 PK WND 06028/2034 RAB56 SLP223 P0000 60000 T01060083
     58023=
KNMM 272056Z 06009KT 10SM CLR 08/M06 A3039 RMK AO2 SLP302
     T00831056 56024=
KNRS 272056Z 18011G19KT 10SM FEW025 BKN035 18/11 A2984 RMK AO2
     SLP104 T01830111 58012 $=
KNSI 272057Z AUTO 31022G36KT 10SM OVC013 A2983 RMK AO2 PK WND
     31036/2050 SLPNO 58009 $=
KNTD 272056Z COR 26012KT 10SM FEW027 SCT250 19/12 A2981 RMK AO2
     SLP096 T01940117 58019 $=
KNYL 272057Z 24004KT 10SM FEW100 24/06 A2968 RMK AO2 SLP047
     T02390056 58024=
KVBG 272055Z COR 32021G28KT 10SM SCT015 BKN020 BKN250 16/12 A2986
     RMK AO2 PK WND 32030/2011 BKN020 V SCT SLP102 T01610117 58012
     COR 2057=
PHBK 272056Z AUTO 36020KT 10SM CLR 26/18 A3000 RMK AO2 SLP160
     T02560178 50007=
KBAD 272058Z AUTO 02009KT 10SM OVC080 01/M06 A3043 RMK AO2 SLP309
     T00061063 58020=
KBIX 272058Z AUTO 04008KT 10SM CLR 14/M01 A3028 RMK AO2 SLP257
     T01351009 57026=
KCOF 272058Z AUTO 35015G21KT 10SM -TSRA OVC007 13/13 A3017 RMK AO2
     LTG DSNT E RAE42DZB42E48RAB48E51RAB55 TSB48 SLP221 P0001
     60006 T01340126 57007 $=
KGSB 272058Z AUTO 04008KT 10SM CLR 09/00 A3036 RMK AO2 SLP285
     T00910002 55001 $=
KHST 272058Z AUTO 07010KT 10SM CLR 26/21 A3007 RMK AO2 SLP186
     60000 T02560207 57011=
KNCA 272056Z 36009KT 10SM CLR 10/M01 A3037 RMK AO2 SLP286
     T01001011=
KNGP 272056Z 05022G27KT 5SM -RA BR BKN010 OVC020 11/08 A3019 RMK
     AO2 PK WND 06028/2034 RAB56 SLP223 P0000 60000 T01060083
     58023=
KPAM 272058Z AUTO 05005KT 10SM CLR 13/02 A3027 RMK AO2 SLP254
     T01270019 56015 $=
KPOB 272058Z AUTO 34004KT 10SM CLR 11/M02 A3036 RMK AO2 SLP285
     T01051025 55003=
####018000099####
SAUS80 KWBC 272100 CCA
METAR
KDMH 272054Z AUTO M02/M13 A3044 RMK AO1 SLP307 T10171128 58007=
####018000087####
SAMM31 KWBC 272030 RRC
METAR
LCEN 272050Z 00000KT 6000 FEW025 10/09 Q1012 NOSIG=
####018000088####
SAUS70 KWBC 272102
METAR
KMQI 272104Z AUTO 02010KT 10SM CLR 03/M02 A3042 RMK AO2=
####018003734####
SAUS70 KWBC 272100 RRK
METAR
KDWX 272055Z AUTO 24007KT 10SM CLR 00/M11 A2979 RMK AO2
     T10021109=
KE38 272055Z AUTO 03004KT 4SM OVC004 M02/M03 A3012 RMK AO2
     T10241029=
KEBS 272055Z AUTO 26004KT 10SM CLR M13/M19 A3055 RMK AO2=
KIKV 272055Z AUTO 00000KT 10SM CLR M11/M19 A3060 RMK AO2=
KINF 272055Z AUTO 07008KT 10SM BKN038 18/03 A3020 RMK AO2=
KINJ 272055Z AUTO 04009KT 10SM SCT014 OVC050 M01/M04 A3039 RMK AO2
     T10131045=
KIOB 272055Z AUTO 00000KT 10SM SCT033 M05/M13 A3058 RMK AO2=
KIYA 272055Z AUTO 01008G14KT 10SM CLR 11/02 A3031 RMK AO2
     T01050016=
KJGG 272055Z AUTO 04003KT 10SM SCT018 02/M01 A3047 RMK AO1=
KL18 272055Z AUTO RMK TEMPORAIRILY INOPERATIVE=
KLAM 272055Z AUTO 17012G18KT 2SM -SN BKN010 OVC014 M08/M10 A2986
     RMK AO2 T10831101=
KLCG 272055Z AUTO 17004KT 10SM CLR M07/M16 A3047 RMK AO2
     T10691156=
KLCQ 272055Z AUTO 02011G14KT 10SM CLR 11/02 A3027 RMK AO2=
KLGC 272055Z AUTO 03006KT 10SM CLR 12/M02 A3035 RMK AO2
     T01151022=
KLKU 272055Z AUTO 03004KT 10SM BKN060 03/M08 A3041 RMK AO2=
KLRJ 272055Z AUTO VRB04KT 10SM CLR M10/M17 A3052 RMK AO2=
KLRU 272055Z AUTO 13015G20KT 10SM CLR 08/M03 A2991 RMK AO2
     T00791035=
KLSB 272055Z AUTO 12017G20KT 10SM CLR 12/M03 A2983 RMK AO2=
KLXN 272055Z AUTO 16012G15KT 10SM SCT120 M05/M19 A3031 RMK AO2
     T10461191=
KLXY 272055Z AUTO 10SM OVC050 00/M06 A3037 RMK AO2 T00011057=
KMAN 272055Z AUTO 13006KT 10SM SCT044 10/00 A2968 RMK AO1=
KMEI 272058Z 04007KT 10SM CLR 08/M05 A3037 RMK AO2 SLP286
     T00831050 56024=
KMLE 272055Z AUTO 00000KT 10SM CLR M07/M18 A3053 RMK AO2
     T10741184=
KMLJ 272055Z AUTO 31003KT 10SM CLR 13/01 A3032 RMK AO2=
KMPZ 272055Z AUTO 00000KT 10SM CLR M11/M19 A3063 RMK AO2
     T11101194=
KMRH 272058Z AUTO 04008KT 10SM CLR 08/00 A3038 RMK AO2 SLP286
     T00830000 53005 TSNO=
KMUT 272055Z AUTO 36004KT 10SM CLR M12/M19 A3066 RMK AO2=
KMXO 272055Z AUTO 27006KT 10SM CLR M13/M20 A3060 RMK AO2=
KOEO 272055Z AUTO 25006KT 10SM CLR M08/M18 A3052 RMK AO2
     T10801185=
KOGA 272055Z AUTO 17015G19KT 10SM OVC034 M06/M13 A3018 RMK AO2
     T10571134=
KOKM 272055Z AUTO 05008KT 3SM -SN BKN014 OVC028 M07/M10 A3053 RMK
     AO2 T10711102=
KOLG 272055Z AUTO 21005KT 10SM CLR M08/M20 A3041 RMK AO1=
KOLZ 272055Z AUTO 25005KT 10SM CLR M15/M21 A3058 RMK AO2=
KOMH 272055Z AUTO 00000KT 10SM OVC065 01/M09 A3045 RMK AO2=
KONL 272055Z AUTO 19008KT 10SM CLR M04/M20 A3034 RMK AO2
     T10431204=
KOPL 272055Z AUTO 05010KT 7SM CLR 09/01 A3034 RMK AO2
     T00920005=
KORC 272055Z AUTO 00000KT 10SM CLR M11/M17 A3048 RMK AO2=
KOSA 272055Z AUTO 04011G15KT 10SM OVC070 M01/M09 A3048 RMK AO1
     T10101086=
KOUN 272055Z AUTO 05005KT 5SM -SN SCT008 SCT015 OVC055 M07/M09
     A3049 RMK AO2=
KOXV 272055Z AUTO 31004KT 10SM CLR M12/M19 A3059 RMK AO2=
KOZA 272055Z AUTO 07009KT 3SM BR OVC006 M01/M02 A3023 RMK AO2=
KPEA 272055Z AUTO 25003KT 10SM CLR M09/M17 A3062 RMK AO2
     T10901166=
KPLU 272055Z AUTO 00000KT 10SM FEW009 SCT026 BKN045 10/09 A2974
     RMK AO2=
KPMV 272055Z AUTO 09004KT 10SM CLR M08/M17 A3052 RMK AO2
     T10781174=
KPNT 272055Z AUTO 27003KT 10SM CLR M11/M18 A3064 RMK AO2
     T11101177=
KPOY 272055Z AUTO 15004KT 10SM CLR M05/M13 A2981 RMK AO2=
KPPA 272055Z AUTO 13009KT 4SM -SN BKN002 BKN017 M08/M12 A3026 RMK
     AO2 T10851125=
KPRG 272055Z AUTO 30005KT 10SM CLR M10/M16 A3063 RMK AO2
     T10981162=
KPTB 272055Z AUTO 04008KT 10SM SCT035 SCT042 SCT055 03/M02 A3044
     RMK AO2 T00261021=
KPVB 272055Z AUTO 19008KT 10SM CLR M11/M20 A3055 RMK AO1
     T11131197=
KPVW 272055Z AUTO 10008KT 3SM -SN SCT015 OVC022 M09/M12 A3022 RMK
     AO2 T10931125=
####018000094####
SAEW31 KWBC 272030 RRB
METAR
LXGB 272050Z 27014KT 9999 FEW028 BKN220 15/10 Q1026 NOSIG=
####018000189####
SAXX60 KWBC 272100 CCB
METAR
KNFL 272056Z 26030G38KT 7SM -RA SCT035 BKN060 BKN120 08/00 A2968
     RMK AO2 PK WND 25038/2054 RAB53 PRESRR SLP032 P0000 60000
     T00830000 55022=
####018003710####
SAUS70 KWBC 272100 RRM
METAR
PFSH 272058Z AUTO 18010KT 9SM -SN BKN016 OVC022 M01/M02 A3027 RMK
     AO2 SNE27B51 SLP266 P0000 60000 T10111022 57011 FZRANO=
KSCR 272055Z AUTO 00000KT 10SM SCT044 06/M04 A3039 RMK AO2
     T00551040=
K20U 272055Z AUTO 18012G21KT 10SM CLR M04/M14 A3003 RMK AO2=
K28J 272055Z AUTO 06009KT 020V090 10SM BKN025 12/07 A3026 RMK
     AO2=
K2C8 272055Z AUTO 23009G15KT 10SM CLR M09/M18 A3034 RMK AO2=
K5H4 272055Z AUTO 21013KT 10SM CLR M10/M17 A3026 RMK AO2=
KCKM 272055Z AUTO 36012KT 10SM CLR 00/M05 A3050 RMK AO1=
KLRO 272055Z AUTO 09003KT 10SM FEW120 09/02 A3036 RMK AO2=
KSQL 272053Z 27016G25KT 10SM BKN030 15/08 A2985=
KSRR 272055Z AUTO 13007KT M1/4SM FZFG OVC001 M08/M09 A2994 RMK
     AO2=
KTTS 272058Z AUTO 36012G18KT 6SM -RA BR OVC007 13/11 A3019 RMK AO2
     DZE08RAB08 OVC V BKN SLP226 P0001 60001 T01280114 56009 $=
KVER 272055Z AUTO 00000KT 10SM CLR M06/M17 A3059 RMK AO2
     T10631174=
KVNC 272055Z AUTO 05012KT 5SM -RA BKN043 14/13 A3017 RMK AO2=
KY19 272055Z AUTO 17016KT 10SM CLR M07/M15 A3023 RMK AO2=
PAWI 272053Z AUTO 25009KT 10SM CLR M16/M18 A3013 RMK SLP205 60000
     T11561183 53023 TSNO VIA AUTODIAL=
KRBO 272055Z AUTO 06017KT 10SM OVC019 13/07 A3020 RMK AO2
     T01250067=
KRCR 272055Z AUTO 20006KT 10SM CLR M06/M13 A3059 RMK AO2=
KRNH 272055Z AUTO 22006KT 10SM CLR M09/M18 A3049 RMK AO2
     T10881183=
KRYV 272055Z AUTO 23004KT 10SM CLR M09/M19 A3054 RMK AO2
     T10901188=
KSBO 272055Z AUTO 07004KT 10SM CLR 14/M03 A3032 RMK AO2=
KSEE 272055Z AUTO 24010G15KT 8SM SCT038 BKN043 19/09 A2984 RMK
     AO2=
KSFQ 272055Z AUTO 02009KT 10SM CLR 01/M04 A3044 RMK AO2 P0001
     60011 T00111038=
KSTE 272055Z AUTO 25005KT 10SM CLR M10/M21 A3047 RMK AO2
     T11051215=
KSUW 272055Z AUTO 24008G15KT 10SM CLR M07/M20 A3043 RMK AO2
     T10701201=
KSWW 272055Z AUTO 02011G15KT 7SM OVC011 M07/M09 A3032 RMK AO2
     T10711094=
KSYF 272055Z AUTO 17016G23KT 7SM SCT018 SCT024 OVC032 M07/M13
     A3019 RMK AO2 T10751133=
KT35 272055Z AUTO 05008KT 10SM SCT038 OVC047 03/M03 A3035 RMK AO2
     T00261029=
KT65 272055Z AUTO 02006KT 7SM BKN034 OVC041 17/10 A3014 RMK AO2
     T01650098=
KT82 272055Z AUTO 06008KT 4SM BR BKN010 OVC013 M02/M03 A3025 RMK
     AO2 T10161027=
KTAZ 272055Z AUTO 00000KT 10SM CLR M10/M17 A3064 RMK AO2=
KTBR 272055Z AUTO 06003KT 10SM CLR 12/03 A3033 RMK AO2
     T01150030=
KTDF 272055Z AUTO 36005KT 10SM SCT050 05/M07 A3041 RMK AO2=
KTFP 272055Z AUTO 08013G20KT 10SM SCT021 SCT055 OVC080 12/06 A3020
     RMK AO2 T01230062=
KTIF 272055Z AUTO 18011G18KT 10SM CLR M04/M17 A3022 RMK AO2
     T10401166=
KTMA 272055Z AUTO 06006KT 10SM CLR 11/03 A3029 RMK AO2
     T01130032=
KTNU 272055Z AUTO VRB03KT 10SM CLR M13/M19 A3059 RMK AO2=
KTVI 272055Z AUTO 04005KT 10SM CLR 12/04 A3030 RMK AO2=
KU68 272055Z AUTO 00000KT 10SM CLR M02/M16 A2988 RMK AO2=
KUBE 272055Z AUTO 24006KT 10SM CLR M10/M20 A3045 RMK AO2=
KUKF 272055Z AUTO 02009KT 10SM CLR 06/M08 A3039 RMK AO2=
KUNI 272055Z AUTO 29005KT 10SM SCT048 M06/M17 A3057 RMK AO2
     T10651171=
KUNU 272055Z AUTO 21009G14KT 10SM CLR M10/M19 A3053 RMK AO2
     T10961193=
KUXL 272055Z AUTO 03007KT 10SM CLR 11/00 A3033 RMK AO2
     T01110001=
KVES 272055Z AUTO 34006KT 10SM SCT031 M08/M14 A3056 RMK AO2=
KVUJ 272055Z AUTO 33007KT 10SM CLR 08/M02 A3042 RMK AO2
     T00761025=
KVVG 272055Z AUTO 03008KT 8SM 16/07 A3011 RMK A01=
KVYS 272055Z AUTO 32008KT 10SM CLR M10/M18 A3063 RMK AO2
     T11051183=
KW13 272055Z AUTO 28007KT 10SM CLR 01/M13 A3035 RMK AO1
     T00121131=
KW22 272055Z AUTO 26004KT 10SM FEW033 SCT042 M08/M17 A3047 RMK
     AO2=
####018001221####
SAXX60 KWBC 272100 RRG
METAR
KSSC 272058Z AUTO 12004KT 10SM CLR 12/00 A3032 RMK AO2 SLP270
     60000 T01210002 55012 $=
KNGU 272059Z 02015KT 8SM SCT029 BKN036 01/M04 A3047 RMK AO2 SLP316
     T00111044 53018=
KBIX 272058Z AUTO 04008KT 10SM CLR 14/M01 A3028 RMK AO2 SLP257
     T01351009 57026=
KLRF 272058Z AUTO VRB03KT 10SM FEW090 M02/M14 A3056 RMK AO2 SLP356
     T10171139 55004=
KLUF 272058Z 20008G16KT 10SM CLR 23/M01 A2966 RMK AO2A SLP038
     T02281008 57031 $=
KMCF 272058Z AUTO 06009KT 10SM OVC022 17/12 A3017 RMK AO2 SLP220
     T01710124 56013=
KMXF 272058Z AUTO 34008KT 10SM CLR 10/M02 A3035 RMK AO2 SLP281
     T01031019 57016=
KSSC 272058Z AUTO 12004KT 10SM CLR 12/00 A3032 RMK AO2 SLP270
     60000 T01210002 55012 $=
KWRB 272058Z AUTO 04006KT 10SM CLR 14/M01 A3031 RMK AO2 SLP268
     T01441006 56018=
KFBG 272058Z AUTO 28005KT 10SM FEW050 11/M03 A3035 RMK AO2 SLP282
     T01061029 55005 $=
KHUA 272058Z AUTO 35009KT 10SM CLR 02/M07 A3045 RMK AO2 SLP319
     T00181072 57017=
KOZR 272058Z AUTO 03010KT 10SM CLR 15/M02 A3028 RMK AO2 SLP257
     T01451024 57016=
KPAM 272058Z AUTO 05005KT 10SM CLR 13/02 A3027 RMK AO2 SLP254
     T01270019 56015 $=
####018001225####
SAUS80 KWBC 272100 RRB
METAR
TJSJ 272056Z 09009KT 10SM FEW022 SCT033 BKN055 25/22 A3004 RMK AO2
     PK WND 09032/2015 RAB15E33 SLP171 VCSH SW-NW P0000 60000
     T02500217 55003=
KJQF 272052Z 36005KT 10SM CLR 08/M02 A3040=
KMHS 272056Z AUTO VRB06KT 10SM FEW065 FEW080 10/03 A2969 RMK AO2
     RAB11E37 SLP069 P0001 60001 T01000028 58017=
KDBN 272055Z AUTO 04006KT 10SM CLR 13/02 A3033 RMK AO2=
KIZA 272055Z AUTO 32009G16KT 10SM SCT039 18/07 A2982 RMK AO2=
KRFI 272055Z AUTO 04008KT 10SM OVC080 00/M06 A3042 RMK AO2
     T00031064=
KSOA 272055Z AUTO 05005KT 6SM BR OVC012 M00/M03 A3026 RMK AO2=
KGNT 272055Z AUTO 15012G18KT 3/4SM -SN BKN009 OVC013 M03/M04 A2984
     RMK AO2 T10341044=
PFNO 272058Z AUTO 17011KT 10SM OVC055 01/M01 A3017 RMK AO2 SLP219
     60000 T00061011 58008 FZRANO=
PAHO 272053Z 00000KT 10SM CLR 02/M03 A3045 RMK SLP311 T00221033
     53004 VIA AUTODIAL=
K9V9 272055Z AUTO 19008KT 10SM CLR M04/M19 A3033 RMK AO2
     T10421190=
KCKP 272055Z AUTO 00000KT 10SM CLR M12/M18 A3053 RMK AO2
     T11161184=
KY23 272055Z AUTO 21006KT 10SM CLR M10/M20 A3048 RMK AO2
     T11011200=
KNY0 272055Z AUTO 26011G19KT 10SM CLR M10/M18 A3038 RMK AO2
     T10961178=
####018003742####
SAUS99 KWBC 272102 RRC
METAR
PFSH 272058Z AUTO 18010KT 9SM -SN BKN016 OVC022 M01/M02 A3027 RMK
     AO2 SNE27B51 SLP266 P0000 60000 T10111022 57011 FZRANO=
KSCR 272055Z AUTO 00000KT 10SM SCT044 06/M04 A3039 RMK AO2
     T00551040=
K20U 272055Z AUTO 18012G21KT 10SM CLR M04/M14 A3003 RMK AO2=
K28J 272055Z AUTO 06009KT 020V090 10SM BKN025 12/07 A3026 RMK
     AO2=
K2C8 272055Z AUTO 23009G15KT 10SM CLR M09/M18 A3034 RMK AO2=
K5H4 272055Z AUTO 21013KT 10SM CLR M10/M17 A3026 RMK AO2=
KCKM 272055Z AUTO 36012KT 10SM CLR 00/M05 A3050 RMK AO1=
KLRO 272055Z AUTO 09003KT 10SM FEW120 09/02 A3036 RMK AO2=
KOZR 272058Z AUTO 03010KT 10SM CLR 15/M02 A3028 RMK AO2 SLP257
     T01451024 57016=
KPAM 272058Z AUTO 05005KT 10SM CLR 13/02 A3027 RMK AO2 SLP254
     T01270019 56015 $=
KSQL 272053Z 27016G25KT 10SM BKN030 15/08 A2985=
KSRR 272055Z AUTO 13007KT M1/4SM FZFG OVC001 M08/M09 A2994 RMK
     AO2=
KTTS 272058Z AUTO 36012G18KT 6SM -RA BR OVC007 13/11 A3019 RMK AO2
     DZE08RAB08 OVC V BKN SLP226 P0001 60001 T01280114 56009 $=
KVER 272055Z AUTO 00000KT 10SM CLR M06/M17 A3059 RMK AO2
     T10631174=
KVNC 272055Z AUTO 05012KT 5SM -RA BKN043 14/13 A3017 RMK AO2=
KY19 272055Z AUTO 17016KT 10SM CLR M07/M15 A3023 RMK AO2=
PAHO 272053Z 00000KT 10SM CLR 02/M03 A3045 RMK SLP311 T00221033
     53004 VIA AUTODIAL=
PAWI 272053Z AUTO 25009KT 10SM CLR M16/M18 A3013 RMK SLP205 60000
     T11561183 53023 TSNO VIA AUTODIAL=
K0VG 272055Z AUTO 02005KT 10SM CLR 00/M12 A3047 RMK AO2=
K1F0 272055Z AUTO 06006KT 1SM -SN BKN008 OVC014 M06/M08 A3046 RMK
     AO2 P0001=
K3K3 272055Z AUTO 15016G21KT 5SM -SN BKN020 BKN027 BKN050 M08/M11
     A3023 RMK AO2=
K3N8 272055Z AUTO 23008KT 10SM CLR M09/M17 A3039 RMK AO2
     T10931167=
K3T5 272055Z AUTO 05007KT 10SM OVC019 06/02 A3029 RMK AO2
     T00550015=
K8A0 272055Z AUTO 01006KT 10SM CLR 02/M04 A3041 RMK AO2=
K9V9 272055Z AUTO 19008KT 10SM CLR M04/M19 A3033 RMK AO2
     T10421190=
KA08 272055Z AUTO 06008KT 10SM CLR 09/M03 A3037 RMK AO2
     T00851027=
KAFO 272055Z AUTO 16005KT 10SM SCT025 SCT034 OVC040 M01/M08 A2972
     RMK AO2=
KARV 272055Z AUTO 26005KT 10SM CLR M08/M20 A3035 RMK AO2
     T10851202=
KASJ 272055Z AUTO 35005KT 10SM CLR 07/M06 A3040 RMK AO2
     T00701057=
KAZE 272055Z AUTO 02008KT 10SM CLR 13/05 A3030 RMK AO2
     T01280046=
KBKD 272055Z AUTO 05009KT 3SM UP BKN009 BKN017 OVC022 M04/M07
     A3039 RMK AO2 T10431066=
KBMC 272055Z AUTO 21008KT 10SM OVC080 05/M03 A2975 RMK AO1
     T00521032=
KBQK 272055Z AUTO 04013G16KT 10SM CLR 10/00 A3034 RMK AO1=
KBQP 272055Z AUTO 35005KT 10SM SCT028 OVC090 02/M06 A3048 RMK AO2
     60001 T00151058=
KC75 272055Z AUTO 34005KT 10SM CLR M11/M20 A3063 RMK AO2
     T11121202=
KCBK 272055Z AUTO 16014G21KT 5SM -SN BKN022 OVC028 M07/M10 A3026
     RMK AO2=
KCDH 272055Z AUTO 10SM BKN090 00/M09 A3052 RMK AO2=
KCKP 272055Z AUTO 00000KT 10SM CLR M12/M18 A3053 RMK AO2
     T11161184=
KCVB 272055Z AUTO 04011KT 3SM DZ OVC009 01/00 A3028 RMK AO2
     T00110000=
KCXE 272055Z AUTO 31008KT 280V010 10SM CLR 06/M07 A3040 RMK AO1
     T00551071=
KD25 272055Z AUTO 26009KT 10SM CLR M09/M21 A3035 RMK AO2
     T10951209=
KDCY 272055Z AUTO 31004KT 10SM CLR M08/M17 A3062 RMK AO2
     T10761170=
KDNN 272055Z AUTO 35008KT 10SM CLR 03/M05 A3043 RMK AO2=
KDTA 272055Z AUTO 14005KT 10SM SCT055 08/M08 A2971 RMK AO1
     T00751081=
KE11 272055Z AUTO 7SM -SN OVC010 M06/M09 A3021 RMK AO2
     T10651087=
KEFT 272055Z AUTO 28009KT 10SM CLR M10/M19 A3054 RMK AO2=
KELA 272055Z AUTO 07013G18KT 10SM BKN018 OVC033 07/02 A3029 RMK
     AO2 T00680018=
KEMV 272055Z AUTO 33005KT 10SM CLR 05/M02 A3042 RMK AO2=
####018003694####
SAUS70 KWBC 272100 RRL
METAR
KPXE 272055Z AUTO 04006KT 10SM CLR 15/00 A3032 RMK AO2
     T01531003=
KRCM 272055Z AUTO 08004KT 10SM BKN080 M06/M17 A3058 RMK AO2=
KRDK 272055Z AUTO 00000KT 10SM CLR M09/M16 A3055 RMK AO2=
KRMN 272055Z AUTO 03005KT 10SM CLR 01/M12 A3051 RMK AO2
     T00101124=
KRRL 272055Z AUTO 23009KT 10SM CLR M10/M20 A3043 RMK AO2
     T11021200=
KRUQ 272055Z AUTO 00000KT 10SM CLR 06/M05 A3037 RMK AO2 60001
     T00611052=
KS25 272055Z AUTO 15011KT 10SM CLR M05/M15 A3007 RMK AO2=
KSAR 272055Z AUTO 33004KT 10SM CLR M07/M15 A3062 RMK AO2
     T10691148=
KSDA 272055Z AUTO 00000KT 10SM CLR M07/M17 A3056 RMK AO2=
KSEZ 272055Z AUTO 00000KT 10SM SCT075 BKN080 11/M02 A2974 RMK
     AO2=
KSGJ 272058Z 01016G21KT 5SM HZ OVC014 11/07 A3028 RMK AO2 SLP253
     T01060067 56010=
KSHL 272055Z AUTO 24005KT 10SM CLR M11/M18 A3048 RMK AO2=
KSLB 272055Z AUTO 00000KT 10SM CLR M13/M19 A3051 RMK AO2=
KSME 272055Z AUTO 04007KT 10SM CLR M05/M13 A3056 RMK AO2=
KSNK 272055Z AUTO 06009KT 7SM BKN014 OVC020 M08/M11 A3030 RMK AO2
     T10761106 TSNO=
KSVH 272055Z AUTO 00000KT 10SM BKN048 BKN055 07/M03 A3034 RMK AO2
     T00731033=
KEFK 272055Z AUTO 25008KT 10SM CLR M10/M24 A3033 RMK AO2
     T11051236=
KEMM 272055Z AUTO 23003KT 10SM SCT016 SCT041 OVC090 M03/M08 A2972
     RMK AO2=
KENL 272055Z AUTO 33004KT 10SM CLR M08/M17 A3063 RMK AO2
     T10811167=
KEOE 272055Z AUTO 33004KT 10SM CLR 11/M01 A3036 RMK AO2=
KEOK 272055Z AUTO 23003KT 10SM CLR M10/M19 A3062 RMK AO2=
KEXX 272055Z AUTO 00000KT 10SM SCT048 07/M05 A3037 RMK AO2
     T00651047=
KEZF 272055Z AUTO 33005KT 10SM OVC065 02/M10 A3047 RMK AO2
     T00231099=
KF70 272055Z AUTO 21011G15KT 10SM SCT035 OVC046 16/09 A2980 RMK
     AO1=
KFET 272055Z AUTO 11005KT 10SM CLR M07/M16 A3051 RMK AO2
     T10701162=
KFFL 272055Z AUTO 00000KT 10SM CLR M13/M21 A3063 RMK AO2=
KFKN 272055Z AUTO 03011G14KT 10SM SCT060 02/M03 A3043 RMK AO2
     T00201033=
KFOA 272055Z AUTO 01003KT 10SM CLR M08/M17 A3064 RMK AO2
     T10851170=
KFQD 272055Z AUTO 31006KT 290V010 10SM CLR 10/M11 A3033 RMK AO2
     T01041115=
KFSW 272055Z AUTO 35006KT 10SM CLR M12/M18 A3063 RMK AO2=
KGBG 272055Z AUTO 30004KT 10SM CLR M12/M19 A3063 RMK AO2
     T11231186=
KGCD 272055Z AUTO 29007KT 10SM -RA SCT006 BKN015 OVC022 04/03
     A2966 RMK AO2 T00400031=
KGHG 272055Z AUTO 36007KT 10SM CLR M02/M15 A3037 RMK AO2=
KGLE 272055Z AUTO 02006KT 3/4SM -SN VV005 M06/M07 A3047 RMK AO2
     60001 T10571073=
KGUR 272055Z AUTO 15012G20KT 10SM SCT034 00/M07 A2993 RMK AO2
     T00011073=
KGVT 272055Z AUTO 04012G15KT 5SM -SN BKN013 OVC043 M02/M05 A3043
     RMK AO2=
KGWW 272055Z AUTO 36005KT 10SM CLR 09/M02 A3038 RMK AO2 P0001
     60001 T00861025=
KH21 272055Z AUTO 00000KT 10SM M06/M18 A3055 RMK AO2=
KHDE 272055Z AUTO 14007G14KT 10SM BKN075 OVC085 M05/M21 A3034 RMK
     AO2 T10551208=
KHHW 272055Z AUTO 03007KT 1 1/2SM -SN OVC009 M03/M05 A3047 RMK AO2
     T10301054=
KHNR 272055Z AUTO 00000KT 10SM CLR M11/M18 A3057 RMK AO2=
KHQU 272055Z AUTO 33005KT 10SM CLR 14/03 A3036 RMK AO1
     T01400029=
KHSP 272055Z AUTO 27009G18KT 10SM CLR M06/M16 A3022 RMK AO2
     T10621159=
KHZR 272055Z AUTO 34005KT 10SM CLR 10/00 A3033 RMK AO2
     T01031004=
KI75 272055Z AUTO 00000KT 10SM CLR M10/M18 A3057 RMK AO2
     T11041185=
KIDP 272055Z AUTO 11006KT 10SM SCT028 BKN040 OVC050 M06/M17 A3055
     RMK AO2=
KIIB 272055Z AUTO 24006KT 10SM CLR M12/M18 A3059 RMK AO2=
KIJX 272055Z AUTO 00000KT 10SM CLR M10/M18 A3065 RMK AO2
     T11021183=
KIKK 272055Z AUTO 25007KT 10SM CLR M11/M17 A3063 RMK AO2
     T11091171=
####018003711####
SAUS70 KWBC 272100 RRN
METAR
KW78 272055Z AUTO 35007KT 10SM CLR 04/M09 A3041 RMK AO1
     T00441093=
KW99 272055Z AUTO 31011G15KT 10SM CLR M02/M14 A3048 RMK AO2
     T10231142=
KWWR 272055Z AUTO 11009KT 7SM -SN BKN018 BKN023 OVC027 M07/M12
     A3041 RMK AO2=
K0VG 272055Z AUTO 02005KT 10SM CLR 00/M12 A3047 RMK AO2=
K1F0 272055Z AUTO 06006KT 1SM -SN BKN008 OVC014 M06/M08 A3046 RMK
     AO2 P0001=
K3N8 272055Z AUTO 23008KT 10SM CLR M09/M17 A3039 RMK AO2
     T10931167=
K3T5 272055Z AUTO 05007KT 10SM OVC019 06/02 A3029 RMK AO2
     T00550015=
K8A0 272055Z AUTO 01006KT 10SM CLR 02/M04 A3041 RMK AO2=
KAFO 272055Z AUTO 16005KT 10SM SCT025 SCT034 OVC040 M01/M08 A2972
     RMK AO2=
KARV 272055Z AUTO 26005KT 10SM CLR M08/M20 A3035 RMK AO2
     T10851202=
KASJ 272055Z AUTO 35005KT 10SM CLR 07/M06 A3040 RMK AO2
     T00701057=
KAZE 272055Z AUTO 02008KT 10SM CLR 13/05 A3030 RMK AO2
     T01280046=
KBKD 272055Z AUTO 05009KT 3SM UP BKN009 BKN017 OVC022 M04/M07
     A3039 RMK AO2 T10431066=
KBMC 272055Z AUTO 21008KT 10SM OVC080 05/M03 A2975 RMK AO1
     T00521032=
KBQK 272055Z AUTO 04013G16KT 10SM CLR 10/00 A3034 RMK AO1=
KBQP 272055Z AUTO 35005KT 10SM SCT028 OVC090 02/M06 A3048 RMK AO2
     60001 T00151058=
KC75 272055Z AUTO 34005KT 10SM CLR M11/M20 A3063 RMK AO2
     T11121202=
KCBK 272055Z AUTO 16014G21KT 5SM -SN BKN022 OVC028 M07/M10 A3026
     RMK AO2=
KCDH 272055Z AUTO 10SM BKN090 00/M09 A3052 RMK AO2=
KCVB 272055Z AUTO 04011KT 3SM DZ OVC009 01/00 A3028 RMK AO2
     T00110000=
KCXE 272055Z AUTO 31008KT 280V010 10SM CLR 06/M07 A3040 RMK AO1
     T00551071=
KD25 272055Z AUTO 26009KT 10SM CLR M09/M21 A3035 RMK AO2
     T10951209=
KDCY 272055Z AUTO 31004KT 10SM CLR M08/M17 A3062 RMK AO2
     T10761170=
KDNN 272055Z AUTO 35008KT 10SM CLR 03/M05 A3043 RMK AO2=
KDTA 272055Z AUTO 14005KT 10SM SCT055 08/M08 A2971 RMK AO1
     T00751081=
KE11 272055Z AUTO 7SM -SN OVC010 M06/M09 A3021 RMK AO2
     T10651087=
KEFT 272055Z AUTO 28009KT 10SM CLR M10/M19 A3054 RMK AO2=
KEMV 272055Z AUTO 33005KT 10SM CLR 05/M02 A3042 RMK AO2=
KFFA 272055Z AUTO 01008G14KT 10SM CLR 03/M01 A3040 RMK AO2
     T00301012=
KFIN 272050Z 01013G25KT 7SM OVC014 11/08 A3025=
KFWC 272055Z AUTO 01005KT 10SM CLR M08/M15 A3063 RMK AO1
     T10761152=
KFXY 272055Z AUTO 21005KT 10SM CLR M12/M18 A3053 RMK AO2=
KGGP 272055Z AUTO 25008KT 10SM CLR M08/M17 A3061 RMK AO2=
KGOP 272055Z AUTO 05006KT 3SM BR OVC012 M01/M03 A3038 RMK AO2=
KY49 272055Z AUTO 28005KT 10SM CLR M08/M22 A3035 RMK AO2
     T10771216=
KY51 272055Z AUTO 24008KT 10SM CLR M10/M20 A3050 RMK AO1
     T11041199=
KGVE 272055Z AUTO 04006KT 10SM OVC060 01/M09 A3042 RMK AO1
     T00111095=
KHDC 272055Z AUTO 02004KT 10SM CLR 11/M01 A3034 RMK AO2=
KHFJ 272055Z AUTO 08005KT 10SM OVC070 M06/M16 A3051 RMK AO2=
KHHG 272055Z AUTO 25005KT 10SM OVC035 M08/M18 A3058 RMK AO2
     T10771178=
KHRX 272055Z AUTO 16009KT 7SM -SN OVC016 M08/M12 A3021 RMK AO2
     T10841117=
KHWY 272055Z AUTO 02008KT 10SM CLR 02/M08 A3046 RMK AO2
     T00151076=
KJES 272055Z AUTO 08008KT 10SM CLR 13/03 A3032 RMK AO2=
KJOT 272055Z AUTO 29003KT 10SM CLR M11/M20 A3063 RMK AO2
     T11141197=
KJYO 272055Z AUTO 35006KT 10SM CLR 00/M11 A3048 RMK AO2=
KJYR 272055Z AUTO 16004KT 10SM CLR M07/M19 A3044 RMK AO2=
KL35 272055Z AUTO 26010KT 10SM CLR 08/M01 A2980 RMK AO2=
KL38 272055Z AUTO 04004KT 10SM CLR 12/01 A3031 RMK AO2
     T01170009=
KLHZ 272055Z AUTO 00000KT 10SM CLR 05/M05 A3040 RMK AO2=
KLNP 272055Z AUTO 04007KT 10SM SCT030 M03/M12 A3039 RMK AO2=
KLOT 272055Z AUTO 26008KT 10SM CLR M11/M19 A3061 RMK AO2
     T11101189=
####018000060####
SRHW70 PHFO 272101
RR7ITO
.A ITO 0227 DH2100/PPH 0.00
####018000546####
SPUS70 KWBC 272102
SPECI
KAVX 272058Z AUTO 28007KT 10SM BKN008 BKN012 OVC019 12/11 A2983
     RMK AO2 CIG 007V011 T01220111=
KITR 272058Z AUTO 16021KT 2 1/2SM -SN BKN017 BKN026 OVC047 M10/M14
     A3011 RMK AO2 VIS 1 1/4V5 SNB58 P0000 T11001139=
KDRO 272059Z AUTO 12003KT 3/4SM -SN BR FEW010 OVC016 M02/M04 A2979
     RMK AO2 SNB54 P0000 T10171039=
KHDO 272059Z AUTO 05009KT 2 1/2SM -RA BKN008 OVC013 01/ A3027 RMK
     AO2 CIG 006V010 P0000 T0011 $=
KMGW 272059Z VRB04KT 10SM SCT050 M06/M18 A3050 RMK AO2
     T10561178=
####018003672####
SAXX60 KWBC 272100 RRE
METAR
KBIX 272058Z AUTO 04008KT 10SM CLR 14/M01 A3028 RMK AO2 SLP257
     T01351009 57026=
KBKF 272058Z 35007KT 10SM FEW070 SCT110 M09/M15 A2988 RMK AO2A
     SLP182 T10861146 57022=
KBYH 272055Z 03010KT 10SM BKN028 M04/M09 A3058=
KCBM 272058Z AUTO 06009KT 10SM CLR 05/M08 A3043 RMK AO2 SLP309
     T00491080 57024 $=
KEND 272058Z AUTO 05007KT 8SM BKN007 OVC042 M09/M13 A3048 RMK AO2
     SNB45E49 CIG 005V007 SLP345 P0000 60000 57015 $=
KFSI 272058Z AUTO 06008KT 8SM -SN FEW017 BKN025 OVC033 M07/M11
     A3043 RMK AO2 SNE29UPB29E33SNB33E35UPB35E37SNB37 CIG 022V033
     SLP321 P0000 60000 T10741107 57018=
KGRF 272058Z 35006KT 4SM -RA FEW004 OVC034 09/09 A2973 RMK AO2A
     SLP072 P0007 60012 T00880086 50001 $=
KHIF 272058Z 17005KT 10SM BKN035 BKN070 04/M05 A2973 RMK AO2A
     SLP067 60000 57022=
KHST 272058Z AUTO 07010KT 10SM CLR 26/21 A3007 RMK AO2 SLP186
     60000 T02560207 57011=
KLSF 272058Z AUTO 35007KT 10SM CLR 14/M02 A3031 RMK AO2 SLP268
     T01371025 56018=
KLTS 272058Z AUTO 05009KT 3SM -SN BKN014 OVC020 M07/M09 A3043 RMK
     AO2 SLP324 P0000 60001 T10701094 57022 $=
KLUF 272058Z 20008G16KT 10SM CLR 23/M01 A2966 RMK AO2A SLP038
     T02281008 57031 $=
KMCC 272055Z AUTO 15009KT 10SM SCT039 18/08 A2976 RMK AO2=
KMXF 272058Z AUTO 34008KT 10SM CLR 10/M02 A3035 RMK AO2 SLP281
     T01031019 57016=
KNUQ 272056Z 30007KT 10SM SCT037 SCT044 17/08 A2984 RMK AO2 SLP106
     T01670078 58020=
KBIX 272058Z AUTO 04008KT 10SM CLR 14/M01 A3028 RMK AO2 SLP257
     T01351009 57026=
KBKF 272058Z 35007KT 10SM FEW070 SCT110 M09/M15 A2988 RMK AO2A
     SLP182 T10861146 57022=
KBYH 272055Z 03010KT 10SM BKN028 M04/M09 A3058=
KCBM 272058Z AUTO 06009KT 10SM CLR 05/M08 A3043 RMK AO2 SLP309
     T00491080 57024 $=
KEND 272058Z AUTO 05007KT 8SM BKN007 OVC042 M09/M13 A3048 RMK AO2
     SNB45E49 CIG 005V007 SLP345 P0000 60000 57015 $=
KGRF 272058Z 35006KT 4SM -RA FEW004 OVC034 09/09 A2973 RMK AO2A
     SLP072 P0007 60012 T00880086 50001 $=
KHST 272058Z AUTO 07010KT 10SM CLR 26/21 A3007 RMK AO2 SLP186
     60000 T02560207 57011=
KLSF 272058Z AUTO 35007KT 10SM CLR 14/M02 A3031 RMK AO2 SLP268
     T01371025 56018=
KPOB 272058Z AUTO 34004KT 10SM CLR 11/M02 A3036 RMK AO2 SLP285
     T01051025 55003=
KRND 272058Z 02013G18KT 10SM OVC016 02/M04 A3027 RMK AO2A SLP256
     60000 T00151037 57021=
KTBN 272058Z AUTO VRB02KT 10SM BKN075 OVC095 M07/M18 A3051 RMK AO2
     SLP357 T10691184 57019=
KDMA 272058Z AUTO 21011G21KT 170V240 10SM CLR 22/M04 A2972 RMK AO2
     SLP040 T02241036 57031 $=
KNBG 272055Z 06011KT 10SM FEW250 12/M01 A3030 RMK AO2 SLP259
     T01221011 56020 $=
KVAD 272058Z AUTO 03010KT 10SM SCT032 BKN180 BKN200 12/04 A3029
     RMK AO2 SLP260 T01150039 55012 $=
KDLF 272058Z AUTO 09005KT 5SM BR BKN007 OVC011 02/00 A3023 RMK AO2
     CIG 007V010 SLP242 57026 $=
KFSI 272058Z AUTO 06008KT 8SM -SN FEW017 BKN025 OVC033 M07/M11
     A3043 RMK AO2 SNE29UPB29E33SNB33E35UPB35E37SNB37 CIG 022V033
     SLP321 P0000 60000 T10741107 57018=
KGSB 272058Z AUTO 04008KT 10SM CLR 09/00 A3036 RMK AO2 SLP285
     T00910002 55001 $=
KHIF 272058Z 17005KT 10SM BKN035 BKN070 04/M05 A2973 RMK AO2A
     SLP067 60000 57022=
KHRT 272058Z AUTO 04012KT 10SM CLR 14/M03 A3026 RMK AO2 SLP249
     T01401029 57020 $=
KLHW 272058Z AUTO VRB03KT 10SM FEW200 11/02 A3031 RMK AO2 SLP267
     T01120015 55010=
KLTS 272058Z AUTO 05009KT 3SM -SN BKN014 OVC020 M07/M09 A3043 RMK
     AO2 SLP324 P0000 60001 T10701094 57022 $=
KLUF 272058Z 20008G16KT 10SM CLR 23/M01 A2966 RMK AO2A SLP038
     T02281008 57031 $=
####018003683####
SAUS70 KWBC 272100 RRJ
METAR
KSGH 272056Z AUTO 33008KT 8SM BKN041 M08/M17 A3058 RMK AO2 55001
     T10771166 BKN V SCT SLP378=
KWJF 272056Z 22018G27KT 10SM FEW040 16/06 A2974 RMK AO2 PK WND
     25029/2007 SLP066 T01560061 58022=
KBCT 272053Z 02009KT 10SM OVC008 20/18 A3011=
KCFE 272045Z AUTO 21005KT 10SM CLR M10/M18 A3051 RMK AO2=
KHFF 272056Z AUTO 36007KT 10SM CLR 10/M02 A3039 RMK AO2 SLP296
     T01001022 55005=
KNSE 272056Z 03011KT 10SM SCT250 14/M02 A3028 RMK AO2 SLP243
     T01441017 56022 $=
KSGH 272056Z AUTO 33008KT 8SM BKN041 M08/M17 A3058 RMK AO2 55001
     T10771166 BKN V SCT SLP378=
KTTS 272058Z AUTO 36012G18KT 6SM -RA BR OVC007 13/11 A3019 RMK AO2
     DZE08RAB08 OVC V BKN SLP226 P0001 60001 T01280114 56009 $=
PAGA 272058Z AUTO 13010KT 10SM OVC025 M01/M04 A3033 RMK AO2 SLP277
     T10061039 58011 FZRANO=
PAIW 272058Z AUTO 18025G34KT 6SM UP BR OVC005 00/M01 A2999 RMK AO2
     PK WND 18036/2043 RAB08E30UPB30SNE08 SLP157 P0000 60000
     T00001006 56003 FZRANO=
PANW 272056Z AUTO 06005KT 10SM CLR M02/M04 A3036 RMK AO2 TSNO
     58010 T10221038 SLP262 $=
PATE 272058Z AUTO 19031G36KT 2 1/2SM -SN BR BKN006 BKN013 OVC050
     M01/M02 A3001 RMK AO2 PK WND 18048/2032 CIG 004V011 SLPNO
     P0000 60000 T10111017 55004 FZRANO=
KNFE 272056Z AUTO 36010KT 10SM CLR 04/M03 A3043 RMK AO2 SLP307
     T00391033 51015=
K7L2 272055Z AUTO 16013KT 10SM CLR M08/M15 A3027 RMK AO2=
KADF 272056Z AUTO 02008KT 340V050 10SM CLR 00/M09 A3055 RMK AO2
     58000 T00001094 SLP362 $=
KAPG 272055Z 30010KT 7SM FEW200 M01/M11 A3049=
KAXH 272055Z AUTO 02006KT 7SM OVC018 09/06 A3034 RMK AO2
     T00910060=
KBIE 272055Z AUTO 13005KT 10SM CLR M06/M19 A3049 RMK AO2
     T10651187=
KBIJ 272055Z AUTO 05003KT 10SM CLR 15/02 A3030 RMK AO2=
KBKT 272055Z AUTO 33005KT 10SM SCT050 05/M07 A3039 RMK AO1
     T00471072=
KBNW 272055Z AUTO 00000KT 10SM CLR M12/M19 A3055 RMK AO2=
KBPG 272055Z AUTO 05011KT 10SM OVC009 M06/M08 A3029 RMK AO2
     T10621085=
KBVN 272055Z AUTO 20010G14KT 10SM CLR M05/M20 A3040 RMK AO2
     T10541205=
KBWD 272055Z AUTO 04006KT 3SM BR BKN009 OVC012 M04/M06 A3035 RMK
     AO2=
KC09 272055Z AUTO 30006KT 10SM CLR M11/M17 A3062 RMK AO2
     T11151170=
KC29 272055Z AUTO 22005KT 10SM CLR M07/M20 A3053 RMK AO1
     T10751205=
KC35 272055Z AUTO 25007KT 10SM CLR M09/M19 A3052 RMK AO2
     T10921190=
KCAV 272055Z AUTO 25004KT 10SM FEW013 M13/M18 A3056 RMK AO2=
KCBF 272055Z AUTO VRB06KT 10SM CLR M09/M15 A3051 RMK AO2=
KCCY 272055Z AUTO 21006KT 10SM CLR M15/M20 A3057 RMK AO2=
KCFD 272055Z AUTO 03010G14KT 10SM BKN033 OVC090 05/M03 A3036 RMK
     AO2 T00451030=
KCHK 272055Z AUTO 05006KT 7SM -SN CLR M06/M09 A3047 RMK AO2=
KCIN 272055Z AUTO 00000KT 10SM CLR M12/M20 A3054 RMK AO2=
KCMY 272055Z AUTO 26007KT 10SM CLR M09/M21 A3054 RMK AO2
     T10911207=
KCNC 272055Z AUTO 00000KT 10SM CLR M10/M18 A3058 RMK AO2=
KCOM 272055Z AUTO 05009KT 7SM OVC009 M04/M05 A3032 RMK AO2
     T10451053=
KCPC 272055Z AUTO 05004KT 10SM CLR 11/M01 A3034 RMK AO2
     T01081015=
KCPT 272055Z AUTO 03008KT 2SM -SN BKN011 BKN030 BKN044 M03/M04
     A3041 RMK AO2 P0001=
KCQB 272055Z AUTO 08007KT 1SM -SN BKN009 OVC014 M05/M07 A3051 RMK
     AO2=
KCQF 272055Z AUTO 02009KT 350V050 10SM CLR 12/00 A3027 RMK AO2=
KCSQ 272055Z AUTO 00000KT 10SM CLR M09/M17 A3053 RMK AO2=
KCTJ 272055Z AUTO 36007KT 10SM CLR 06/M06 A3040 RMK AO2=
KCTZ 272055Z AUTO 31004KT 10SM CLR 10/M01 A3037 RMK AO2
     T01001010=
KDEH 272055Z AUTO VRB06KT 10SM CLR M13/M21 A3054 RMK AO2=
KDUB 272055Z AUTO 15010KT 10SM BKN044 BKN055 BKN095 M10/M13 A2967
     RMK AO2=
####018001491####
SAUS70 KWBC 272100 RRO
METAR
KLWB 272055Z AUTO 26007KT 10SM CLR M03/M14 A3039 RMK AO2
     T10321136=
KMDD 272055Z AUTO 07010KT 2 1/2SM UP OVC011 M05/M08 A3024 RMK AO2
     T10541076=
KMDZ 272055Z AUTO 23007KT 10SM CLR M12/M20 A3043 RMK AO2
     T11231202=
KMGC 272055Z AUTO 32005KT 10SM CLR M08/M21 A3060 RMK AO2=
KMKJ 272055Z AUTO 29009G15KT 270V330 10SM SCT032 SCT038 M02/M10
     A3038 RMK AO2 T10231105=
KMMH 272055Z AUTO 28022KT 10SM SCT060 SCT080 08/M08 A2971 RMK
     AO1=
KMNE 272055Z AUTO 01007KT 10SM OVC085 01/M06 A3045 RMK AO2
     T00111061=
KMTV 272055Z AUTO 36006KT 10SM CLR 05/M09 A3041 RMK AO2
     T00521093=
KMWK 272055Z AUTO 35004KT 10SM CLR 05/M07 A3038 RMK AO2
     T00521073=
KMYZ 272055Z AUTO 00000KT 10SM BKN100 M07/M17 A3050 RMK AO2=
KMZZ 272055Z AUTO 30003KT 10SM BKN025 M09/M15 A3059 RMK AO2
     T10901151=
KOCQ 272055Z AUTO 25010G14KT 10SM CLR M07/M19 A3047 RMK AO1
     T10751190=
KOLY 272055Z AUTO 36005KT 10SM CLR M08/M16 A3064 RMK AO2=
KOOA 272055Z AUTO 30003KT 10SM CLR M12/M18 A3062 RMK AO2
     T11211181=
KPNA 272055Z AUTO 36005KT 7SM BKN032 OVC041 M08/M12 A2975 RMK
     AO2=
KPRS 272055Z AUTO 03017G21KT 10SM CLR 10/M01 A3000 RMK AO2
     T00951009=
KPSK 272055Z AUTO 29008KT 10SM CLR 00/M10 A3040 RMK AO2
     T10051099=
KPYX 272055Z AUTO 14010KT BKN018 OVC060 M09/M12 A3030 RMK AO2
     T10891124=
KRAS 272055Z AUTO 05013G22KT 7SM OVC011 10/08 A3021 RMK AO2
     T01030077=
####018000132####
SANO42 KWBC 272050 RRA
METAR
ENOV 272050Z VRB08KT 9999 -SHRA FEW010 SCT016 BKN027 05/01 Q1002
     RMK WIND 2175FT 19026KT=
####018000100####
SARA31 UHHH 272100
METAR 272100Z
METAR METAR UHHH 272100Z 00000MPS CAVOK M18/M20 Q1023 NOSIG=
####018000091####
SAIN90 VOCB 272100
METAR VOCB 272100Z 02004KT 5000 HZ FEW015 SCT080 26/19 Q1011 NOSIG=
####018000078####
SAIN90 VOCL 272100
METAR VOCL 272100Z 00000KT 6000 NSC 26/22 Q1009 NOSIG=
####018001733####
SAXN17 KAWN 272100 RRE
METAR AGGH 272100Z 25006KT 9999 HZ FEW018 FEW019CB BKN300 28/23 Q1007=
METAR MGGT 272100Z 36012KT 9999 FEW020 26/11 Q1021 A3015 FEW080=
METAR MMGM 272058Z RTD 15008KT 10SM SKC 23/14 A2976=
METAR MRLM 272100Z 07006KT 9999 SCT025 29/23 A2985=
METAR MUHA 272055Z 02011KT 7000 VCSH FEW020TCU BKN036 26/20 Q1017=
METAR MYNN 272100Z 18004KT 9999 FEW016TCU 30/22 A3007 TCU/W=
METAR MZBZ 272100Z 08009KT 9999 FEW023 30/24 A2990 Q1012 NOSIG=
METAR NCRG 272100Z 07008KT 9999 SCT018 29/25 Q1013=
METAR NTAA 272100Z 05012KT 9999 FEW015TCU SCT023 30/24 Q1012 NOSIG=
METAR NWWW 272100Z AUTO 00000KT 5000 BR ///TCU 24/23 Q1006=
METAR PAGA 272058Z AUTO 13010KT 10SM OVC025 M01/M04 A3033 RMK AO2 SLP277
      T10061039 58011 FZRANO=
METAR PKWA 272100Z AUTO 05017KT 10SM SCT021 SCT035 28/22 A2983 RMK
      AO2 T02810223=
METAR RJOI 272055Z 30005KT 9999 FEW230 03/M02 A3036 RMK SLP279 T00281017
      52010=
METAR RJTY 272058Z AUTO 31016G21KT 10SM CLR 03/M09 A3017 RMK AO2 SLP226
      T00331091 50012=
METAR RKSO 272058Z 09005KT 7SM FEW150 SCT200 M03/M04 A3040 RMK AO2A
      SLP298 T10341041 55002 $=
METAR RODN 272058Z AUTO 07013KT 7SM R05/5500FT BKN004 BKN027 OVC120
      17/16 A3007 RMK AO2 DZB33E49 SLP190 P0000 60000 T01710158
      57007 $=
METAR SKBO 272100Z 19012KT 9999 SCT023 SCT080 20/06 A3024=
METAR SKBQ 272100Z 02010KT CAVOK 30/25 A2976=
METAR SKCL 272100Z 33012K SCT017 SCT200 31/27 A2972=
METAR SOCA 272100Z AUTO 03008KT 9999 FEW022/// OVC068/// 28/23 Q1010=
METAR SVBM 272100Z 11013KT 9999 FEW016 31/17 Q1013=
METAR TFFF 272100Z AUTO 05012KT 020V080 9999 BKN060 OVC074 25/21 Q1015=
METAR TNCM 272100Z 09014KT 9999 SCT024 27/20 Q1017 A3004 NOSIG=
####018000109####
SAUS44 KLIX 272101
MTRBVE
SPECI KBVE 272101Z AUTO 04012KT 10SM FEW027 10/04 A3029 RMK AO2 
T01000039
####018001777####
SAZZ40 KAWN 272100 RRM
METAR KBIF 272058Z 13012KT 10SM FEW040 FEW180 06/M05 A2994 RMK AO2A
      SLP132 T00551051 57036 $=
METAR KCVS 272059Z 15011KT 6SM -SHSN BKN005 OVC011 M10/M13 A3013 RMK
      SLP250 P0000 60000 T11021131 57028 $=
METAR KEDW 272058Z 26013G18KT 80SM FEW040 SCT300 18/03 A2969 RMK AO2A
      PK WND 22030/54 SLP045 CONTRAILS T01810029 57026=
METAR KGFA 272056Z AUTO 32007KT 10SM -SN OVC017 M08/M11 A3003 RMK AO2
      PK WND 02070/11 SLP260 T10851115 50000 TSNO $=
METAR KGRK 272058Z 04011KT 1 1/2SM -FZRA BR BKN006 OVC012 M02/M04 A3032
      RMK A02A FZRAB55 SLP278 P0000 60000 57023=
METAR KMMT 272058Z 12004KT 10SM FEW050 SCT250 15/00 A3033 RMK AO2A
      SLP274 T01510003 55014=
METAR MRLM 272100Z 07006KT 9999 SCT025 29/23 A2985=
METAR MUCF 272050Z 24007KT 220V280 9999 SCT030 31/19 Q1017=
METAR MUCL 272052Z VRB02KT 9000 FEW018 SCT050 26/19 Q1016=
METAR MUCM 272050Z 05014KT 9000 BKN018 32/16 Q1016=
METAR MUCU 272051Z 20006KT 160V240 9000 FEW020 28/22 Q1016=
METAR MUHA 272055Z 02011KT 7000 VCSH FEW020TCU BKN036 26/20 Q1017=
METAR MUVR 272054Z 03011KT 330V110 8000 -SHRA FEW018CB BKN020 23/21
      Q1018=
METAR MWCR 272100Z 09014KT 9999 FEW018 29/23 Q1015 NOSIG=
METAR MZBZ 272100Z 08009KT 9999 FEW023 30/24 A2990 Q1012 NOSIG=
METAR OERK 272100Z 22004KT CAVOK 12/M06 Q1021 NOSIG=
METAR OIAW 272100Z 00000KT CAVOK 17/04 Q1016=
METAR OIFM 272100Z 16004KT CAVOK M02/M09 Q1024 A3026=
METAR PAGA 272058Z AUTO 13010KT 10SM OVC025 M01/M04 A3033 RMK AO2 SLP277
      T10061039 58011 FZRANO=
METAR SPLO 272100Z 14009KT 9999 SCT070 24/18 Q1009 RMK TMAX 26.4 PP000=
METAR TFFF 272100Z AUTO 05012KT 020V080 9999 BKN060 OVC074 25/21 Q1015=
METAR WSAP 272100Z 03007KT 9999 FEW016 BKN350 25/23 Q1008=
####018000104####
SABA31 MYGF 272100
MYGF 272100Z 02010KT 9999 VCSH SCT018TCU BKN250 26/24 A3006 RMK
TCU/VCSH SE
####018000252####
SACN59 CWAO 272000 RRJ
PEA SA 2000 AUTO8 M M M M/-14/-17/MMMM/M/     M 71MM=
PFO SA 2000 AUTO8 M M M M/-12/-15/MMMM/M/     M 58MM=
PTU SA 2000 AUTO8 M M M M/-11/-16/MMMM/M/     M 38MM=
PWB SA 2000 AUTO8 M M M M/-10/-13/MMMM/M/     M 82MM=

####018000081####
SAMA20 FIMP 272100
METAR FIMP 272100Z 16007KT 6000 -SHRA BKN016 26/25 Q1008=
####018000082####
SADO31 TDPD 272100
METAR TDPD 272100Z 11009KT 9999 FEW017 SCT070 27/21 Q1016=
####018000074####
SABZ21 SBNT 272100
METAR SBNT 272100Z 11010KT 9999 FEW023 28/22 Q1010=
####018000091####
SABZ24 SBCT 272100
METAR SBCT 272100Z 28008KT 9999 SCT045 FEW050TCU BKN100 23/16 Q1014=
####018000078####
SATU32 LTAA 272050 RRA
METAR LTCC 272050Z 24004KT CAVOK 03/00 Q1019 NOSIG=
####018000187####
SAIQ01 ORBI 272100
METAR ORMM 272100Z 00000KT CAVOK 13/05 Q1017 NOSIG=
METAR ORNI 272100Z 00000KT 9000 NSC 13/M01 Q1018 NOSIG=
METAR ORER 272100Z 35004KT CAVOK 08/01 Q1021 NOSIG=
####018000080####
SACS31 MROC 272100
METAR MRPV 272100Z 08017KT 9999 FEW045 26/14 A2994 NOSIG=
####018000238####
SABO SLLP 272100
METAR SLLP 272100Z 28008KT 250V320 9999 SCT015 FEW017CB SCT070 BKN200
 10/03 Q1035=
METAR SLVR 272100Z 35011KT 9999 FEW013 SCT017 BKN200 29/22 Q1008=
METAR SLCB 272100Z 00000KT 9999 FEW025 FEW027CB 23/10 Q1021=
####018000382####
SACN60 CWAO 272000 RRI
PCC SA 2000 AUTO8 M M M M/-09/-13/3408/M/     M 50MM=
PDA SA 2000 AUTO8 M M M M/-10/-14/3211/M/     M 47MM=
PGI SA 2000 AUTO8 M M M M/-08/-11/3513/M/     PK WND 3322 1919Z M 28MM=
PHR SA 2000 AUTO8 M M M M/-08/-13/3208/M/     M 57MM=
PSL SA 2000 AUTO8 M M M M/-12/-16/MMMM/M/     M 78MM=
PYT SA 2000 AUTO8 M M M M/-12/-15/3412/M/     M 88MM=

####018000102####
SACN91 CWAO 272000 RRE
WHI SA 2000 AUTO8 M M M M/-09/-13/3413/M/     PK WND 3518 1912Z M 58MM=

####018000084####
SACN98 CWAO 272000 RRG
XBW SA 2000 AUTO8 M M M M/-07/-10/3410/M/     M 35MM=

####018000079####
SABZ18 SBSP 272100
METAR SBSP 272100Z 19006KT 9999 VCSH SCT045 26/13 Q1012=
####018000385####
SAPL31 EPWA 272100
METAR EPGD 272100Z 00000KT 8000 BKN033 04/03 Q1015 =
METAR EPKK 272100Z VRB02KT 5000 BR SCT033 BKN066 05/04
    Q1015 =
METAR EPLL 272100Z 00000KT 4000 BR NSC 04/03 Q1015 =
METAR EPPO 272100Z 12002KT 8000 FEW023 BKN043 06/03
    Q1015 =
METAR EPRZ 272100Z VRB01KT 9999 OVC033 05/03 Q1015 =
METAR EPWA 272100Z VRB02KT 7000 BKN038 05/03 Q1015 BECMG 5000 BR=
####018000418####
SAHU41 LHBM 272100
METAR LHKE 272045Z 02004KT 5000 -RA BR BKN030 OVC047 06/05 Q1015
     NOSIG RMK WHT=
METAR LHPA 272045Z 10001MPS 9999 BKN020 05/01 Q1016 NOSIG RMK WHT=
METAR LHPP 272045Z 01005KT 9999 -RA OVC016 04/03 Q1015=
METAR LHPR 272045Z 24002KT 8000 BKN023 OVC083 05/03 Q1016=
METAR LHSN 272045Z 05006KT 8000 NSC 06/03 Q1015 TEMPO -RA RMK BLU=
METAR LHUD 272045Z 01008KT 6000 -RA BKN026 07/05 Q1014=
####018000084####
SABZ20 SBTT 272100
METAR SBTT 272100Z 31004KT 9999 FEW020 FEW025TCU 32/24 Q1007=
####018000098####
SABZ20 SBTF 272100
METAR SBTF 272100Z 09003KT 5000 -TSRA SCT010 FEW032CB BKN070 25/24 Q1
010=
####018000444####
SAPL32 EPWA 272100
METAR EPBY 272100Z 07001KT 5000 BR BKN033 OVC040 05/04
    Q1015 =
METAR EPKT 272100Z 10002KT 3500 BR FEW021 BKN023 04/03
    Q1015 =
METAR EPLB 272100Z 08004KT 6000 BKN023 OVC028 04/04
    Q1016 =
METAR EPMO 272100Z 09002KT 6000 OVC037 04/03 Q1015 =
METAR EPSC 272100Z 13004KT 3000 BR NSC 03/02 Q1015 =
METAR EPWR 272100Z 25003KT 9999 BKN046 07/02 Q1015 =
METAR EPZG 272100Z 21001KT 2500 BR OVC049 04/03 Q1015 =
####018000090####
SAMJ41 LWSK 272100
METAR LWSK 272100Z 35003KT 4600 BR SCT040 OVC070 08/07 Q1010 NOSIG=
####018000396####
SAMC31 GMMC 272100
METAR GMAD 272100Z 19003KT 150V250 8000 NSC 13/10 Q//// NOSIG=
METAR GMFF 272100Z 28003KT 9999 FEW013 BKN030 11/10 Q1028 NOSIG=
METAR GMME 272100Z 00000KT 6000 SCT023 09/07 Q1027 NOSIG=
METAR GMMN 272100Z 11003KT 040V160 9999 SCT016 10/08 Q1028 NOSIG=
METAR GMMX 272100Z 04005KT CAVOK 14/09 Q1027 NOSIG=
METAR GMTT 272100Z 25007KT 8000 SCT016 SCT200 13/10 Q1027 NOSIG=
####018000084####
SABZ18 SBKP 272100
METAR SBKP 272100Z 32007KT 9999 FEW040 FEW045TCU 27/18 Q1011=
####018000844####
SAMC32 GMMC 272100
METAR GMFF 272100Z 28003KT 9999 FEW013 BKN030 11/10 Q1028 NOSIG=
METAR GMFK 272100Z 30005KT 260V340 CAVOK 16/M06 Q1023 NOSIG=
METAR GMFM 272100Z 25002KT 5000 BKN016 10/08 Q1027 NOSIG=
METAR GMFO 272100Z 00000KT 9999 FEW023 SCT100 11/07 Q1023 NOSIG=
METAR GMMB 272100Z AUTO 10003KT 060V120 //// NCD 09/09 Q1028=
METAR GMMH 272100Z 36023KT 8000 NSC 16/13 Q1023 NOSIG=
METAR GMMI 272100Z AUTO 04009KT 9999NDV NCD 15/10 Q1025 NOSIG=
METAR GMML 272100Z 03016KT 8000 BKN023 16/10 Q1026 NOSIG=
METAR GMMW 272100Z 27009KT 9999 FEW020 BKN090 14/06 Q1022 NOSIG=
METAR GMMZ 272100Z 26009KT 230V290 CAVOK 16/M08 Q1023 NOSIG=
METAR GMTA 272100Z 26006KT 9999 FEW020 SCT200 15/11 Q1024 NOSIG=
METAR GMTN 272100Z 25018KT 9000 FEW026 14/08 Q1025 NOSIG=
METAR GMAG 272100Z NIL=
METAR GMAT 272100Z NIL=
METAR GMMC 272100Z NIL=
####018000104####
SPCN45 CWAO 272102
SPECI CYWE 272102Z AUTO 26014G19KT 5SM BR OVC032 M10/M12 A2982 RMK
 SLP137=

####018000112####
SPCN42 CWAO 272101
SPECI CYVL 272101Z AUTO 27013G18KT 5SM -SN BKN038 OVC048 M05/M06
 A2996 RMK SLP170=

####018000098####
SASR31 WSSS 272100
METAR WSSS 272100Z 03004KT 350V080 9999 FEW018 BKN350 26/24 Q1009
NOSIG=
####018000093####
SAMS33 WMKK 272000 RRB
METAR WMKN 272000Z 19002KT 9999 FEW024 SCT140 BKN280 24/23 Q1009=
####018000369####
SAES20 MSLP 272052
METAR 272100Z

MSAC 272050Z 21006KT 9999 FEW040 32/24 Q1009 A2982=
MSSA 272050Z 04010KT 9999 SCT037 33/16 Q1015 A2999=
MSSS 272050Z 18005KT 9999 FEW033 31/20 Q1012 A2990=
MSSM 272050Z 22010KT 9999 FEW040 35/21 Q1006 A2972=
MSLU 272050Z 15003KT CAVOK 33/16 Q1006 A2972=
MSLP 272050Z 20008KT 150V240 9999 FEW037 31/23 Q1008 A2978=

####018001368####
SAEW KAWN 272100 RRC
METAR EBBL 272055Z VRB02KT 9999 SKC 01/M01 Q1022 BLU=
METAR EBFN 272055Z 19006KT 9999 FEW030 02/00 Q1022 BLU=
METAR EBFS 272055Z AUTO VRB02KT 9999 NCD 00/M02 Q1022 BLU=
METAR EHAM 272055Z 22008KT 9999 FEW020 02/M00 Q1021 NOSIG=
METAR EHBK 272055Z AUTO 27003KT 240V300 9999 NCD 02/M01 Q1021 NOSIG=
METAR EHEH 272055Z AUTO 24004KT 9999 NCD 01/M00 Q1022 BLU 28005KT CAVOK=
METAR EHGG 272055Z AUTO 24004KT 9999 NSC 00/M00 Q1019 NOSIG=
METAR EHRD 272055Z AUTO 22004KT 9999 NCD 01/M00 Q1021 NOSIG=
METAR EKVG 272050Z AUTO 15023G35KT 8000NDV -RA OVC007/// 06/05 Q0980
      RMK BKN008/// WIND 850FT 15036G55KT 110V170=
METAR ETAD 272058Z AUTO 28004KT 9999 CLR 01/M01 A3014 RMK AO2 SLP214
      T00071011 52018=
METAR ETAR 272058Z AUTO 27002KT 9999 OVC100 02/00 A3014 RMK AO2 SLP220
      T00240001 52019 $=
METAR ETEB 272058Z AUTO 28005KT 8000 -RA BR OVC004 01/01 A3003 RMK
      AO2 UPE2019RAB2032DZB2019E2032 SLP205 P0000 60000 T00090009
      52020=
METAR ETIC 272058Z AUTO 00000KT 9999 CLR M02/M05 A2999 RMK AO2 SLP180
      52021=
METAR ETIH 272058Z AUTO 00000KT 9999 CLR M04/M06 A2985 RMK AO2 SLP144=
METAR ETIK 272058Z AUTO 25006KT 9999 UP OVC006 01/01 A3006 RMK AO2
      UPB2057 SLP196 52020=
METAR ETOU 272058Z AUTO 31007KT 9999 OVC065 05/01 A3012 RMK AO2 SLP207
      60000 T00480005 52021 $=
####018000109####
SAEW KAWN 272000 RRO
METAR EKCH 272002Z 02001KT 5000 -DZRA BKN025 03/02 Q1015 TEMPO 4000
      BKN014=
####018000131####
SANA35 KAWN 272000 RRI
METAR MMVR 272044Z 03012KT 6SM FEW015 SCT030 BKN045 22/15 A3005 RMK
      SLP154 57025 939 8/800 HZY=
####018000109####
SAEU KAWN 272000 RRX
METAR EKCH 272002Z 02001KT 5000 -DZRA BKN025 03/02 Q1015 TEMPO 4000
      BKN014=
####018000987####
SAXN17 KAWN 272000 RRO
METAR MMAA 272044Z 21005KT 8SM FEW010 SCT300 28/22 A2984 RMK SLP114
      57001 926 8/102 HZY=
METAR MMBT 272040Z 00000KT 7SM FEW040 29/24 A2987 RMK 8/100 HZY=
METAR MMCB 272044Z 00000KT 10SM FEW020 SCT200 29/02 A2997 RMK 8/102=
METAR MMIA 272040Z 24010KT 8SM BKN200 26/11 A2993 RMK SLP/// 5/// 9//
      6//// 8/001=
METAR MMLO 272044Z 18009KT 10SM BKN220 26/M01 A3011 RMK SLP074 57022
      909 8/008=
METAR MMMM 272042Z 15017KT 8SM FEW030 BKN230 26/06 A3006 RMK SLP042
      57020 900 8/102=
METAR MMPB 272044Z 19014KT 11SM BKN220 22/02 A3015 RMK 8/002 ISOL CU=
METAR MMPS 272041Z 23006KT 13SM SKC 26/22 A3000 RMK SLP134 57020 957
      CU N HZY=
METAR MMSP 272044Z 36007KT 15SM BKN210 16/05 A3007 RMK SLP096 57038
      923 8/008 SC=
METAR MMVR 272044Z 03012KT 6SM FEW015 SCT030 BKN045 22/15 A3005 RMK
      SLP154 57025 939 8/800 HZY=
METAR MMZH 272040Z 22005KT 7SM SCT250 31/22 A2986 RMK SLP/// 5////
      9// 8/002=
####018001403####
SAXX70 KAWN 272100 RRE
METAR KQBF 272055Z AUTO 03003KT 5SM HZ CLR 26/M11 A3016 RMK AO2 SLP199
      T02601108 52025=
METAR KQTH 272055Z AUTO 30003KT 9999 CLR 17/M03 A3008 RMK AO2 SLP171
      T01711028 52003 $=
METAR KQIR 272058Z 35008KT 8000 BR CLR 15/13 A3002 RMK AO2A SLP168
      T01450132 402240140 55002=
METAR KQEI 272100Z AUTO 32003KT 9999 CLR M06/M12 A3042 RMK A02 TSNO=
METAR KQEL 272100Z AUTO 10003KT 9999 CLR M05/M09 A3048 RMK A02 TSNO=
METAR KQEN 272100Z AUTO 9999 FEW170 M09/M16 / RMK A02 TSNO=
METAR KQEP 272100Z AUTO 07002KT 9999 CLR M04/M11 A3037 RMK A02 TSNO=
METAR KQEQ 272100Z AUTO 05007G11KT 9999 CLR M03/M10 A3027 RMK A02 TSNO=
METAR KQER 272100Z AUTO 8000 /CLR M06/M11 / RMK A02 TSNO=
METAR KQEV 272100Z AUTO 09001KT 9000 HZ CLR M05/M09 A3042 RMK A02 TSNO=
METAR KQEW 272100Z AUTO 27001KT 9999 CLR M05/M10 A3042 RMK A02 TSNO=
METAR KQEX 272100Z AUTO 02002KT 9999 CLR M04/M10 A3046 RMK A02 TSNO=
METAR KQEY 272100Z AUTO 06002KT 9999 SCT150 M06/M11 A3038 RMK A02 TSNO=
METAR KQFB 272100Z AUTO 28001KT 9999 CLR M05/M11 A3045 RMK A02 TSNO=
METAR KQFT 272100Z AUTO 01003KT 9999 BKN042 BKN048 M03/M10 A3041 RMK
      A02 TSNO=
METAR KQFU 272100Z AUTO 21001KT 6000 HZ CLR M04/M09 A3040 RMK A02 TSNO=
METAR KQFV 272100Z AUTO 07001KT 9999 CLR M06/M11 A3038 RMK A02 TSNO=
METAR KQFX 272100Z AUTO 16001KT 9999 BKN055 M06/M11 A3043 RMK A02 TSNO=
####018000094####
SATV31 NGFU 272100
METAR NGFU 272100Z 00000KT 9999 VCSH SCT018CB OVC100 27/25 Q1009=

---
####018000074####
SAAT31 TRPG 272100
METAR TRPG 272100Z 11014KT 9999 STC022 25/20 Q1017=
####018000098####
SABZ20 SBPV 272100
METAR SBPV 272100Z 00000KT 9999 VCSH SCT023 FEW025TCU SCT100 28/23 Q1
007=
####018000104####
SAAJ31 UBBB 272100
METAR UBBQ 272100Z 16003KT 9999 SCT026 05/03
Q1025 R16/CLRD70 NOSIG RMK MT OBSC=
####018000082####
SABZ19 SBMQ 272100 CCA
METAR COR SBMQ 272100Z 08005KT 9999 SCT020 31/25 Q1008=
####018000074####
SABZ21 SBTE 272100
METAR SBTE 272100Z 21003KT 9999 FEW030 30/23 Q1008=
####018000107####
SABZ18 SBRP 272100
METAR SBRP 272100Z 13003KT 100V180 9000 -TSRA BKN040 FEW045CB SCT090 
21/20
 Q1012=
####018000146####
SACY31 LCLK 272100
METAR LCLK 272100Z 31003KT CAVOK 12/11 Q1012 NOSIG=
METAR LCPH 272100Z 00000KT CAVOK 15/09 Q1013=
METAR LCNC 272100Z NIL=
####018000101####
SPCN44 CWAO 272102
SPECI CYSF 272102Z AUTO 27015G22KT 9SM FEW026 M14/M18 A3011 RMK
 SLP223=

####018001744####
SASA KAWN 272100 RRE
METAR SARF 272100Z 23003KT 9999 SCT020 28/24 Q1009=
METAR SARP 272100Z 14004KT CAVOK 26/21 Q1011=
METAR SBGR 272100Z 31005KT 9999 SCT045 FEW050TCU BKN100 28/20 Q1011=
METAR SBJP 272100Z 12008KT 9999 FEW023 27/21 Q1011=
METAR SBPL 272100Z 01003KT 9999 FEW040 33/19 Q1009=
METAR SBRJ 272100Z 16010KT 9999 FEW025 28/24 Q1007=
METAR COR SBSP 272100Z 19006KT 9999 VCSH SCT045 26/13 Q1012=
METAR SBVT 272100Z 18003KT 9999 FEW030 BKN090 27/21 Q1007=
METAR SCAR 272100Z 20009KT CAVOK 26/15 Q1011=
METAR SCCH 272100Z 29004KT 8000 SCT066 27/15 Q1012=
METAR SCCI 272100Z 29026KT 9999 FEW025 SCT160 BKN200 19/10 Q0997 NOSIG=
METAR SCDA 272100Z 18015KT CAVOK 27/15 Q1012=
METAR SCEL 272100Z 18011KT CAVOK 28/09 Q1012 NOSIG=
METAR SCFA 272100Z 18009KT 9999 FEW040 23/12 Q1012 NOSIG=
METAR SCIE 272100Z 23009KT CAVOK 21/14 Q1014=
METAR SCSE 272100Z 26008KT 9999 FEW020 21/12 Q1014=
METAR SEGU 272100Z 02006KT 9999 FEW023 BKN100 29/22 Q1007 NOSIG RMK
      A2976=
METAR SELT 272100Z 18013KT 9999 SCT030 SCT300 19/10 Q1026=
METAR SEMT 272100Z 33007KT 9999 FEW020 SCT033 28/24 Q1009=
METAR SLLP 272100Z 28008KT 250V320 9999 SCT015 FEW017CB SCT070 BKN200
      10/03 Q1035=
METAR SLSU 272100Z 06007KT 9999 FEW023 FEW033CB SCT200 19/07 Q1025=
METAR SLTR 272100Z 36007KT 8000 VCSH FEW017 FEW020CB BKN200 26/23 Q1008=
METAR SMJP 272100Z 01005KT 340V040 9999 FEW018CB 28/24 Q1011 NOSIG=
METAR SOCA 272100Z AUTO 03008KT 9999 FEW022/// OVC068/// 28/23 Q1010=
METAR SUMU 272100Z 15010KT 9999 SCT026 20/12 Q1016 NOSIG=
METAR SVMC 272100Z /////KT 9999 FEW016 33/23 Q1010=
METAR SVSA 272100Z /////KT 9999 SCT020 30/18 Q1010=
METAR SYCJ 272100Z 05010KT 9999 FEW022 SCT100 29/23 Q1011 NOSIG=
####018000084####
SABZ24 SBLO 272100
METAR SBLO 272100Z 23009KT 9999 FEW035 FEW040TCU 24/23 Q1012=
####018000103####
SABZ24 SBNF 272100
METAR SBNF 272100Z 17010KT 9999 -RA FEW020 FEW030TCU SCT050 28/25 Q10
08
 RETS=
####018002484####
SAUS20 KNKA 272101
METAR K06D 272055Z AUTO 22011KT 10SM CLR M13/M18 A3023 RMK AO2=
METAR K2J9 272055Z AUTO 04007KT 10SM CLR 13/03 A3030 RMK AO1 =
METAR KACJ 272055Z AUTO 05007KT 10SM CLR 13/00 A3032 RMK AO2=
METAR KACP 272055Z AUTO 04007KT 10SM CLR 10/00 A3034 RMK AO2 
 T00951005=
METAR KADS 272055Z 05012G18KT 2SM -SN BKN011 BKN016 OVC025 M03/M06
 A3043=
METAR KANK 272055Z AUTO 00000KT 10SM BKN060 BKN085 M06/M12 A2982 
 RMK AO1 T10591124=
METAR KARW 272115Z AUTO 00000KT 10SM CLR 09/03 A3035 RMK AO2=
METAR KBUU 272055Z AUTO 25009KT 10SM CLR M10/M21 A3057 RMK AO2 
     T11051207=
METAR KCCA 272055Z AUTO 30004KT 10SM CLR M02/M18 A3059 RMK AO2=
SPECI KCOT 272100Z AUTO 02010KT 6SM BR BKN013 OVC018 03/01 A3026 RMK 
 AO2 T00330011=
SPECI KCUT 272100Z AUTO 19008KT 140V220 1 3/4SM -SN OVC015 M12/M16 
 A2988 RMK AO2 P0000 T11171156=
METAR KDED 272055Z AUTO 02010G15KT 10SM BKN017 OVC028 12/08 A3025 
 RMK AO1=
METAR KDKR 272050Z AUTO 03006KT 10SM FEW080 04/M02 A3042 RMK AO2=
METAR KETB 272050Z AUTO 24008KT 10SM CLR M08/M20 A3052 RMK AO2=
SPECI KFSM 272100Z 10003KT 1/2SM R25/3500V4500FT SN VV013 M06/M09 
 A3055 RMK AO2 P0001 T10611089=
METAR KFZG 272055Z AUTO 04006KT 10SM CLR 13/02 A3033 RMK AO2 
 T01260019 PWINO=
METAR KGLW 272055Z AUTO 05006KT 10SM CLR M03/M15 A3055 RMK AO2 
 T10311148=
METAR KHBV 272055Z AUTO 36008KT 5SM HZ OVC017 A3020 RMK AO2=
SPECI KHWO 272100Z 35012KT 10SM BKN013 22/17 A3011 RMK AO2 T02170172=
SPECI KLAW 272100Z 05008KT 7SM SCT015 BKN028 OVC048 M07/M10 A3046 
 RMK AO2 T10671100=
METAR KLNL 272055Z AUTO 25007KT 220V280 10SM CLR M07/M21 A3034 
 RMK AO2 T10751211=
SPECI KLVS 272100Z AUTO 18017KT 1SM -SN BR OVC006 M12/M14 A2989 RMK 
 AO2 P0000 T11171139=
METAR KM40 272055Z AUTO 02010KT 9SM CLR 07/07 A3046 RMK AO2=
METAR KMRJ 272050Z AUTO 25007KT 10SM CLR M10/M20 A3053 RMK AO2=
METAR KPKV 272050Z AUTO 05019G24KT 10SM SCT024 SCT050 OVC090 
 11/05 A3025 RMK AO2 T01050051=
METAR KPPO 272100Z AUTO 20007KT 10SM CLR M08/M17 A3059 RMK AO2 
 T10771168=
SPECI KPUB 272100Z 08007KT 10SM FEW020 M08/M13 A2998 RMK AO2 
 T10831128=
SPECI KRBD 272100Z 05009KT 1 3/4SM -SN OVC013 M03/M06 A3040 RMK AO2 
 P0000 T10281056=
METAR KRUG 272055Z AUTO 19008KT 10SM CLR M11/M17 A3025 RMK AO2 =
SPECI KTKI 272100Z 04013KT 2SM -SN BKN013 BKN041 OVC049 M03/M06 
 A3043 RMK AO2 P0000 T10281056=
METAR KUOX 272055Z AUTO 06004KT 10SM CLR 03/M09 A3048 RMK AO2 PWINO
 PNO=
####018000234####
SAAK41 KNKA 272101
SPECI PASC 272100Z 27025G28KT 4SM -SN BLSN BKN031 BKN044 M08/M12 
 A3015 RMK AO2 PK WND 27028/2100 P0000 T10831117=
SPECI PATO 272100Z AUTO 00000KT 5SM BR OVC002 M05/M05 A3045 RMK AO2 
    T10501050 TSNO=
####018000113####
SAHW31 KMSC 272102
METAR PKWA 272100Z AUTO 05017KT 10SM SCT021 SCT035 28/22 A2983 RMK
      AO2 T02810223=
####018000084####
SACA01 KMSC 272102
METAR MYNN 272100Z 18004KT 9999 FEW016TCU 30/22 A3007 TCU/W=
####018000094####
SACN58 CWAO 272043
WZB SP 2043 AUTO5 M 0.5 S- M/-11/-12/2724G30/M/ PK WND 2832 M 74XM=

####018000122####
SACN58 CWAO 272049
WZB SP 2049 AUTO5 0 X M10 OVC 15 OVC 33 OVC 99 OVC 0.2 S- M/-11/-13/2730/M/ PK WND 2734 M 17XM=

####018000094####
SACN58 CWAO 272044
WZB SP 2044 AUTO5 M 0.4 S- M/-11/-12/2725G30/M/ PK WND 2832 M 61XM=

####018001533####
SACH05 SCSC 272100
METAR SCAR 272100Z 20009KT CAVOK 26/15 Q1011=
METAR SCDA 272100Z 18015KT CAVOK 27/15 Q1012=
METAR SCCF 272100Z 25021KT 9999 SCT060TCU 22/07 Q1023=
METAR SCFA 272100Z 18009KT 9999 FEW040 23/12 Q1012 NOSIG=
METAR SCAT 272100Z 26011KT 220V310 CAVOK 22/13 Q1015=
METAR SCIP 272100Z 08011KT 9999 SCT020 27/18 Q1020 NOSIG=
METAR SCSE 272100Z 26008KT 9999 FEW020 21/12 Q1014=
METAR SCVM 272100Z 29012KT CAVOK  20/12 Q1014=
METAR SCIR 272100Z 10011KT 8000 FEW015 BKN090 18/15 Q1011=
METAR SCRD 272100Z 33011KT CAVOK 20/11 Q1015=
METAR SCSN 272100Z 27007KT CAVOK 20/14 Q1014=
METAR SCEL 272100Z 18011KT CAVOK 28/09 Q1012 NOSIG=
METAR SCTB 272100Z 17005KT 8000 SKC 26/12 Q1014=
METAR SCRG 272100Z NIL=
METAR SCIC 272100Z VRB04KT 9999 FEW050 27/14 Q1012=
METAR SCCH 272100Z 29004KT 8000 SCT066 27/15 Q1012=
METAR SCGE 272100Z 19006KT CAVOK 29/14 Q1012=
METAR SCIE 272100Z 23009KT CAVOK 21/14 Q1014=
METAR SCQP 272100Z 25012KT 230V290 CAVOK 21/14 Q1013=
METAR SCVD 272100Z NIL=
METAR SCJO 272100Z VRB06KT CAVOK 32/12 Q1011=
METAR SCTE 272100Z 22010KT 8000 SKC 22/11 Q1013 NOSIG=
METAR SCPQ 272100Z NIL=
METAR SCTN 272100Z AUTO 20006KT 170V230 CAVOK 19/13 Q1013=
METAR SCON 272100Z AUTO 08003KT 040V120 CAVOK 21/11 Q1013=
METAR SCFT 272100Z AUTO 28007KT 240V300 CAVOK 32/03 Q1011=
METAR SCAP 272100Z AUTO 22011G21KT 200V270 //// // NSC 32/06 Q1016=
METAR SCMK 272100Z 06003KT CAVOK 19/13 Q1012=
METAR SCAS 272100Z NIL=
METAR SCCY 272100Z 28005KT CAVOK 31/05 Q1010=
####018001810####
SAEU KAWN 272100 RRJ
METAR EBBL 272055Z VRB02KT 9999 SKC 01/M01 Q1022 BLU=
METAR EBFN 272055Z 19006KT 9999 FEW030 02/00 Q1022 BLU=
METAR EBFS 272055Z AUTO VRB02KT 9999 NCD 00/M02 Q1022 BLU=
METAR EHEH 272055Z AUTO 24004KT 9999 NCD 01/M00 Q1022 BLU 28005KT CAVOK=
METAR ENOV 272050Z VRB08KT 9999 -SHRA FEW010 SCT016 BKN027 05/01 Q1002
      RMK WIND 2175FT 19026KT=
METAR EPGD 272100Z 00000KT 8000 BKN033 04/03 Q1015=
METAR EPKK 272100Z VRB02KT 5000 BR SCT033 BKN066 05/04 Q1015=
METAR EPPO 272100Z 12002KT 8000 FEW023 BKN043 06/03 Q1015=
METAR EPRZ 272100Z VRB01KT 9999 OVC033 05/03 Q1015=
METAR EPWA 272100Z VRB02KT 7000 BKN038 05/03 Q1015 BECMG 5000 BR=
METAR ETAD 272058Z AUTO 28004KT 9999 CLR 01/M01 A3014 RMK AO2 SLP214
      T00071011 52018=
METAR LBBG 272100Z 03008KT 360V070 9999 FEW045 10/06 Q1009 NOSIG=
METAR LBSF 272100Z VRB02KT 5000 BR FEW039 06/05 Q1010 NOSIG=
METAR LBWN 272100Z VRB03KT CAVOK 09/05 Q1010 NOSIG=
METAR LDDU 272100Z 01011KT 340V040 CAVOK 11/05 Q1009 NOSIG=
METAR LDPL 272100Z VRB03KT CAVOK 03/02 Q1012 NOSIG=
METAR LDSP 272100Z 32008KT 290V350 CAVOK 10/02 Q1011 NOSIG=
METAR LDZA 272100Z 00000KT 9999 BKN045 05/01 Q1014 NOSIG=
METAR LDZD 272100Z 31003KT CAVOK 04/00 Q1011 NOSIG=
METAR LGLR 272050Z 31006KT 8000 SCT008 BKN025 OVC070 10/10 Q1006 BLU=
METAR LHBP 272100Z VRB02KT 9999 OVC024 06/04 Q1015 NOSIG=
METAR LHPP 272045Z 01005KT 9999 -RA OVC016 04/03 Q1015=
METAR LHUD 272045Z 01008KT 6000 -RA BKN026 07/05 Q1014=
METAR LOXT 272050Z 06006KT 12KM BKN030SC 03/02 Q1016 RMK BKN=
METAR LWSK 272100Z 35003KT 4600 BR SCT040 OVC070 08/07 Q1010 NOSIG=
METAR LXGB 272050Z 27014KT 9999 FEW028 BKN220 15/10 Q1026 NOSIG=
METAR LZIB 272100Z 00000KT 9999 BKN028 05/02 Q1016=
METAR LZTT 272100Z 25005KT 9999 BKN005 01/00 Q1014=
####018001564####
SAUS99 KWBC 272103
METAR
K06D 272055Z AUTO 22011KT 10SM CLR M13/M18 A3023 RMK AO2=
K2J9 272055Z AUTO 04007KT 10SM CLR 13/03 A3030 RMK AO1=
KACJ 272055Z AUTO 05007KT 10SM CLR 13/00 A3032 RMK AO2=
KACP 272055Z AUTO 04007KT 10SM CLR 10/00 A3034 RMK AO2
     T00951005=
KADS 272055Z 05012G18KT 2SM -SN BKN011 BKN016 OVC025 M03/M06
     A3043=
KANK 272055Z AUTO 00000KT 10SM BKN060 BKN085 M06/M12 A2982 RMK AO1
     T10591124=
KARW 272115Z AUTO 00000KT 10SM CLR 09/03 A3035 RMK AO2=
KBUU 272055Z AUTO 25009KT 10SM CLR M10/M21 A3057 RMK AO2
     T11051207=
KCCA 272055Z AUTO 30004KT 10SM CLR M02/M18 A3059 RMK AO2=
KDED 272055Z AUTO 02010G15KT 10SM BKN017 OVC028 12/08 A3025 RMK
     AO1=
KDKR 272050Z AUTO 03006KT 10SM FEW080 04/M02 A3042 RMK AO2=
KETB 272050Z AUTO 24008KT 10SM CLR M08/M20 A3052 RMK AO2=
KFZG 272055Z AUTO 04006KT 10SM CLR 13/02 A3033 RMK AO2 T01260019
     PWINO=
KGLW 272055Z AUTO 05006KT 10SM CLR M03/M15 A3055 RMK AO2
     T10311148=
KHBV 272055Z AUTO 36008KT 5SM HZ OVC017 A3020 RMK AO2=
KLNL 272055Z AUTO 25007KT 220V280 10SM CLR M07/M21 A3034 RMK AO2
     T10751211=
KM40 272055Z AUTO 02010KT 9SM CLR 07/07 A3046 RMK AO2=
KMRJ 272050Z AUTO 25007KT 10SM CLR M10/M20 A3053 RMK AO2=
KPKV 272050Z AUTO 05019G24KT 10SM SCT024 SCT050 OVC090 11/05 A3025
     RMK AO2 T01050051=
KPPO 272100Z AUTO 20007KT 10SM CLR M08/M17 A3059 RMK AO2
     T10771168=
KRUG 272055Z AUTO 19008KT 10SM CLR M11/M17 A3025 RMK AO2=
KUOX 272055Z AUTO 06004KT 10SM CLR 03/M09 A3048 RMK AO2 PWINO
     PNO=
####018001028####
SPUS99 KWBC 272103
SPECI
PASC 272100Z 27025G28KT 4SM -SN BLSN BKN031 BKN044 M08/M12 A3015
     RMK AO2 PK WND 27028/2100 P0000 T10831117=
PATO 272100Z AUTO 00000KT 5SM BR OVC002 M05/M05 A3045 RMK AO2
     T10501050 TSNO=
KCOT 272100Z AUTO 02010KT 6SM BR BKN013 OVC018 03/01 A3026 RMK AO2
     T00330011=
KCUT 272100Z AUTO 19008KT 140V220 1 3/4SM -SN OVC015 M12/M16 A2988
     RMK AO2 P0000 T11171156=
KFSM 272100Z 10003KT 1/2SM R25/3500V4500FT SN VV013 M06/M09 A3055
     RMK AO2 P0001 T10611089=
KHWO 272100Z 35012KT 10SM BKN013 22/17 A3011 RMK AO2 T02170172=
KLAW 272100Z 05008KT 7SM SCT015 BKN028 OVC048 M07/M10 A3046 RMK
     AO2 T10671100=
KLVS 272100Z AUTO 18017KT 1SM -SN BR OVC006 M12/M14 A2989 RMK AO2
     P0000 T11171139=
KPUB 272100Z 08007KT 10SM FEW020 M08/M13 A2998 RMK AO2
     T10831128=
KRBD 272100Z 05009KT 1 3/4SM -SN OVC013 M03/M06 A3040 RMK AO2
     P0000 T10281056=
KTKI 272100Z 04013KT 2SM -SN BKN013 BKN041 OVC049 M03/M06 A3043
     RMK AO2 P0000 T10281056=
####018000682####
SAAU60 AMMC 272100
METAR YABA 272100Z AUTO 17006KT 9999 // SCT021 BKN046 OVC055 16/13 Q1017=
METAR YAMB 272100Z AUTO 00000KT 9999 // SCT035 OVC047 24/21 Q1010=
METAR YARG 272100Z AUTO 30004KT 9999 // NCD 28/23 Q1007=
METAR YAYE 272100Z AUTO 21005KT 9999 // NCD 27/15 Q1006=
METAR YBAS 272100Z 33002KT CAVOK 23/09 Q1008=
METAR YBBN 272100Z 00000KT 9999 VCSH FEW018 SCT065 25/21 Q1010
     INTER 2100/2400 3000 SHRA BKN012=
METAR YBCG 272100Z AUTO 23004KT 9999 // NCD 22/21 Q1010=
METAR YBCS 272100Z 00000KT 9999 FEW024 BKN300 25/23 Q1007=
METAR YBCV 272100Z AUTO 03008KT 9999 // NCD 26/18 Q1006=
METAR YBDV 272100Z AUTO 18004KT //// // ////// 24/00 Q1004=

####018000106####
SPAU64 AMMC 272103
SPECI YHID 272103Z AUTO 34011KT 9999 -SHRA BKN014 BKN019 OVC023 26/26 Q1007=


####018000648####
SAHO31 MHTG 272000
> METAR MHAM 272000Z 23004KT 9999 FEW022 34/23=
> METAR MHTR 272000Z 08007KT 9999 FEW025TCU 30/22 TCU SW HZ=
> METAR MHTE 272000Z 04006KT 9999 FEW026 30/24 Q1012 HZ=
> METAR MHYR 272000Z 36005KT 9999 SCT025TCU 31/17 TCU TD HZ=
> METAR MHPL 272000Z 07007KT 9999 SCT028TCU 30/24 Q1016 TCU TD HZ=
> METAR MHCA 272000Z 09009KT 9999 SCT030 32/16 Q1013 HZ=
> METAR MHSR 272000Z 02003KT 9999 BKN022TCU 26/13 TCU TD HZ=
> METAR MHNO 272000Z 32015KT 9999 SCT040TCU 30/18 Q1014 TCU NE SE S
HZ=
> METAR MHLE 272000Z 02008KT 9999 SCT026TCU 23/11 TCU TD=
> METAR MHCH 272000Z 02012KT 9999 SCT034 37/29 HZ=
>
>
>
####018000081####
SALC31 TLPL 272100
METAR TLPL 272100Z 08022KT 9999 FEW028 28/20 Q1015 NOSIG=
####018000078####
SADO31 TDPD 272100
METAR TDCF 272100Z 10005KT 9999 SCT021 28/17 Q1014=
####018000622####
SAHO31 MHTG 272100
METAR MHAM 272100Z 23006KT 9999 FEW022 32/25=
METAR MHTR 272100Z 09011KT 9999 FEW025TCU 30/23 TCU S SW HZ=
METAR MHTE 272100Z 01006KT 9999 SCT026TCU 30/23 Q1012 TCU ALL HZ=
METAR MHYR 272100Z 09006KT 9999 SCT025TCU 31/17 TCU ALL HZ=
METAR MHPL 272100Z 06005KT 9999 FEW028TCU 29/24 Q1015 TCU SE SW HZ=
METAR MHCA 272100Z 08010kt 9999 sct030 22/15 Q1015 HZ=
METAR MHSR 272100Z 36004KT 9999SCT015 TCU ALL HZ=
METAR MHNO 272100Z 32018KT 9999 SCT040RTCUY 31/17 Q1013 TCU N S W HZ=
METAR MHLE 272100Z 06010KT 9999 SCT026TCU 24/10 TCU ALL=
METAR MHCH 272100Z 02012KT 999 SCT034 38/19 HZ=
####018000082####
SPUS52 KWBC 272103
SPECI
KBVE 272101Z AUTO 04012KT 10SM FEW027 10/04 A3029=
####018000078####
SAAT31 TKPK 272100
METAR TKPK 272100Z 08020KT 9999 FU SCT019 28/22 Q1017=
####018000094####
SPUS52 KWBC 272103
SPECI
KHDO 272059Z AUTO 05009KT 2 1/2SM -RA BKN008 OVC013 01/ A3027=
####018000484####
SAER32 OMAE 272100
METAR OMAA 272100Z 36007KT CAVOK 18/10 Q1014 A2996 NOSIG=
METAR OMAD 272100Z 02007KT CAVOK 19/13 Q1015 A2998 NOSIG=
METAR OMAL 272100Z 36009KT CAVOK 14/05 Q1015 A2997 NOSIG=
METAR OMDB 272100Z 02007KT 350V070 CAVOK 20/07 Q1015 NOSIG=
METAR OMDW 272100Z VRB01KT CAVOK 15/05 Q1015 NOSIG=
METAR OMFJ 272100Z 34009KT 250V090 8000 NSC 19/08 Q1015 A2997=
METAR OMRK 272100Z 17003KT CAVOK 14/09 Q1015 A2998=
METAR OMSJ 272100Z 36005KT CAVOK 15/08 Q1015=
####018000259####
SACZ31 LKPW 272100
METAR LKKV 272100Z VRB02KT 9999 FEW046 01/M03 Q1014 R29/09//95=
METAR LKMT 272100Z 18004KT 7000 BKN048 05/03 Q1015 NOSIG=
METAR LKPR 272100Z 25004KT CAVOK M00/M02 Q1015 NOSIG=
METAR LKTB 272100Z 00000KT 9999 OVC037 05/01 Q1015 NOSIG=
####018000299####
SAIL31 BICC 272100
METAR BIAR 272100Z 33008KT 9999 -SN FEW010 BKN044 M00/M02 Q0982
    R01/190070=
METAR BIEG 272100Z 17004KT 9999 FEW031 SCT037 BKN046 M02/M05
Q0979=
METAR BIKF 272100Z 05017KT 9999 FEW020 SCT130 OVC150 M00/M03
Q0977=
METAR BIRK 272100Z 03009KT 350V080 CAVOK 00/M06 Q0976=
####018000885####
SAUS20 KNKA 272102
METAR KAIG 272055Z AUTO 24010KT 10SM CLR M11/M20 A3040 RMK AO2 
 T11151198=
SPECI KBKW 272101Z AUTO 34008KT 10SM FEW028 M07/M14 A3040 RMK AO2 
 T10671139=
METAR KBWP 272055Z AUTO 23007KT 10SM CLR M09/M18 A3045 RMK AO1=
METAR KDLL 272050Z AUTO 26008KT 240V300 10SM CLR M09/M20 A3051 
 RMK AO2 T10941200=
METAR KEGV 272050Z AUTO 27009KT 10SM CLR M09/M22 A3034 RMK AO2 
 T10881222=
METAR KHII 272055Z AUTO 25003KT 10SM CLR 21/M03 A2965 RMK AO2=
METAR KHOE 272055Z AUTO 02004KT 10SM CLR 12/05 A3031 RMK AO2=
SPECI KRBG 272101Z AUTO 00000KT 2 1/2SM RA FEW019 BKN032 OVC039 
 09/07 A2978 RMK AO2 VIS 1 1/2V4 P0001 T00940067=
METAR KRWV 272055Z AUTO 04010G14KT 10SM BKN029 OVC035 03/M02 
 A3036 RMK AO2=
METAR KRZN 272055Z AUTO 25009KT 10SM CLR M09/M20 A3047 RMK AO2 
     T10901204=
METAR KTZR 272058Z 31008KT 10SM CLR M09/M18 A3059=
####018000077####
SPCN51 CWAO 272101
SPECI CWCL 272101Z AUTO 34006KT 9SM M04/M09 A3000=

####018000109####
SACN58 CWAO 272041
WZB SP 2041 AUTO5 M 0.8 S- M/-11/-12/2727/M/ VSBY VRBL 0.2V9.+ PK WND 2832 M 647M=

####018000109####
SACN58 CWAO 272042
WZB SP 2042 AUTO5 M 0.6 S- M/-11/-12/2726/M/ VSBY VRBL 0.2V9.+ PK WND 2832 M 638M=

####018000082####
SPUS81 KWBC 272103
SPECI
KBVE 272101Z AUTO 04012KT 10SM FEW027 10/04 A3029=
####018000570####
SAYG31 LYBM 272100
METAR LYBE 272100Z 01002KT 4000 MIFG BR SCT034 06/06 Q1013 TEMPO
2000=
METAR LYBT 272100Z 02005KT 9999 SCT027 07/07 Q1013 NOSIG=
METAR LYKV 272100Z 29003KT 9999 BKN027 07/06 Q1012 NOSIG=
METAR LYNI 272100Z 32007KT 290V350 9999 -RA SCT040 09/05 Q1011=
METAR LYPG 272100Z 29003KT 9999 FEW040 09/08 Q1008 NOSIG=
METAR LYPR 272100Z NIL=
METAR LYTV 272100Z VRB01KT CAVOK 08/07 Q1008=
METAR LYUZ 272100Z AUTO 34003KT 310V020 //// // ////// 02/02 Q1010=
METAR LYVR 272100Z 33002KT 1000 R19/0600N R01/0500D MIFG BR NSC 04/04
Q1013 TEMPO 0600 FG=
####018000237####
SAQB31 LQBK 272100
METAR LQBK 272100Z 31004KT 7000 -RA SCT015 OVC030 05/04 Q1014 NOSIG=
METAR LQMO 272100Z VRB02KT 9999 FEW070 07/04 Q1009=
METAR LQSA 272100Z 30003KT 270V340 6000 SCT015 OVC025 05/03 Q1012=
METAR LQTZ 272100Z NIL=
####018000088####
SPUS81 KWBC 272103
SPECI
PABT 272051Z 17005KT 6SM BR SCT007 OVC010 M02/M04 A3031=
####018000088####
SPUS81 KWBC 272103
SPECI
PABT 272100Z 17005KT 6SM BR SCT007 OVC010 M02/M04 A3031=
####018000691####
SAXX60 KAWN 272100 RRA
METAR KHLR 272058Z AUTO 03009KT 360V060 8SM OVC013 M01/M04 A3033 RMK
      AO2 SLP279 T10151043 57023=
METAR PHBK 272056Z AUTO 36020KT 10SM CLR 26/18 A3000 RMK AO2 SLP160
      T02560178 50007=
METAR PHNY 272056Z AUTO 32008KT 10SM BKN015 27/19 A3005 RMK AO2 TSNO
      51010 T02660194 SLP156 $=
METAR PKMJ 272057Z 07014KT 5SM SHRA SCT014TCU BKN045 OVC110 26/25 A2978
      RMK TCU ALQDS=
METAR PTKK 272055Z VRB05KT 15SM FEW014 SCT120 OVC280 26/24 A2977 RMK
      SLP083 8/171 T02610243 52015=
METAR RODN 272058Z AUTO 07013KT 7SM R05/5500FT BKN004 BKN027 OVC120
      17/16 A3007 RMK AO2 DZB33E49 SLP190 P0000 60000 T01710158
      57007 $=
####018000128####
SAMX41 MMMX 272101
METAR COR MMTM 272055Z 36010KT 7SM  SCT030 BKN050 OVC070 20/14 A3008 
      RMK SLP184 52030 930 8/57/=
####018000319####
SAIE31 EIDB 272100
METAR EIDW 272100Z 20017KT 9999 FEW014 BKN042 BKN050 07/05 Q1008
     NOSIG=
METAR EINN 272100Z 18010KT 9999 FEW010 SCT014 BKN030 08/07 Q1008
     NOSIG=
METAR EICK 272100Z 24008KT 1400 R17/P2000 R35/1600U -DZ SCT001 BKN002
     09/09 Q1008 BECMG 3000 SCT001 BKN004=
METAR EIKN 272100Z NIL=
####018000088####
SAAG59 SACO 272100
METAR SACO 272100Z  23004KT 5000 -DZ SCT003
BKN008  19/17 Q1019=
####018000105####
SAAU60 AMMC 272100 CCA
METAR YBCS 272100Z 00000KT 9999 FEW024 BKN300 25/23 Q1007
     NOSIG=


####018000112####
SPCN46 CWAO 272104
SPECI CYPO 272104Z AUTO 26010G16KT 5SM -SN FEW025 OVC038 M12/M17
 A2990 RMK SLP130=

####018000236####
SAUS20 KNKA 272102
SPECI KFST 272101Z AUTO 06011KT 3SM BR OVC004 M03/M03 A3017 RMK AO2 
 I1000 T10281033=
SPECI PACM 272101Z AUTO 18019G25KT 2SM BR BKN007 BKN012 OVC110 
 M01/M01 A3016 RMK AO2 PWINO FZRANO TSNO CIG 003V010 $=
####018000639####
SAAK41 KNKA 272102
METAR PABA 272101Z AUTO 29025KT 6SM BR CLR M03/M03 A3012 RMK AO2 PK 
 WND 29028/2101 SNE2003 SLP198 P0000 60000 T10281033 51012 FZRANO=
SPECI PACM 272101Z AUTO 18019G25KT 2SM BR BKN007 BKN012 OVC110 
 M01/M01 A3016 RMK AO2 PWINO FZRANO TSNO CIG 003V010 $=
METAR PAIK 272101Z AUTO 20006KT 10SM SCT014 OVC035 01/M01 A3020 RMK 
 AO2 SLP268 60000 T00061011 58001 FZRANO=
METAR PAKF 272101Z AUTO 12011G17KT 9SM -RA BKN006 OVC011 05/04 A3012 
 RMK AO2 CIG 004V009 SLP296 P0000 60011 T00500039 58009 $=
SPECI PAVL 272101Z AUTO 15011KT 1 1/4SM -SN BR OVC007 M02/M02 A3003 
 RMK AO2 P0000 T10171022 TSNO $=
####018000099####
SAVN31 SVVA 272100
METAR SVVA 272100Z 29009KT 9999 SCT016 31/21 Q1012=
METAR SVPC 272100Z NIL=
####018000078####
SACR31 LEMM 272030 RRA
METAR GCRR 272030Z 01025KT 9999 SCT020 17/13 Q1027=
####018000257####
SAUS90 KWBC 272100 RRB
METAR KGFA 272056Z AUTO 32007KT 10SM -SN OVC017 M08/M11 A3003 RMK
     AO2 PK WND 02070/11 SLP260 T10851115 50000 TSNO $=
METAR PAGA 272058Z AUTO 13010KT 10SM OVC025 M01/M04 A3033 RMK AO2
     SLP277 T10061039 58011 FZRANO=
####018000105####
SPUS90 KWBC 272104
SPECI KBVE 272101Z AUTO 04012KT 10SM FEW027 10/04 A3029 RMK AO2
     T01000039=
####018000073####
SAIR34 OIII 272100 RRA
METAR OIAM 272100Z 00000KT CAVOK 15/12 Q1016=
####018000095####
SPAU31 AMMC 272103
SPECI YSNF 272100Z 09016KT 5000 -SHRA FEW010 SCT012 BKN018 22/20 Q1012=
####018000101####
SPAU68 AMMC 272103
SPECI YSNF 272100Z 09016KT 5000 -SHRA FEW010 SCT012 BKN018 22/20 Q1012=


####018000101####
SPAU32 AMMC 272103
SPECI YSNF 272100Z 09016KT 5000 -SHRA FEW010 SCT012 BKN018 22/20 Q1012=


####018001804####
SAZZ40 KAWN 272100 RRN
METAR BIKF 272100Z 05017KT 9999 FEW020 SCT130 OVC150 M00/M03 Q0977=
METAR KFCS 272058Z 11007KT 1/2SM -SN BR BKN008 OVC024 M11/M15 A2990
      RMK AO2A CIG 009V012 SLP233 P0000 60000 T11111147 57022=
METAR KNGU 272059Z 02015KT 8SM SCT029 BKN036 01/M04 A3047 RMK AO2 SLP316
      T00111044 53018=
METAR LRCT 272100Z VRB03KT 9999 SCT100 06/04 Q1013 BLU BLU=
METAR MHAM 272100Z 23006KT 9999 FEW022 32/25=
METAR MRPV 272100Z 08017KT 9999 FEW045 26/14 A2994 NOSIG=
METAR MSAC 272050Z 21006KT 9999 FEW040 32/24 Q1009 A2982=
METAR MSLP 272050Z 20008KT 150V240 9999 FEW037 31/23 Q1008 A2978=
METAR MSSA 272050Z 04010KT 9999 SCT037 33/16 Q1015 A2999=
METAR MSSM 272050Z 22010KT 9999 FEW040 35/21 Q1006 A2972=
METAR MSSS 272050Z 18005KT 9999 FEW033 31/20 Q1012 A2990=
METAR MYGF 272100Z 02010KT 9999 VCSH SCT018TCU BKN250 26/24 A3006 RMK
      TCU/VCSH SE=
METAR NGFU 272100Z 00000KT 9999 VCSH SCT018CB OVC100 27/25 Q1009=
METAR OIII 272100Z 13006KT CAVOK 06/M06 Q1023 A3022 NOSIG=
METAR OIKB 272100Z 32008KT CAVOK 12/05 Q1015 A2999=
METAR OIKK 272100Z 32006KT 9999 FEW035 M01/M06 Q1023 A3023=
METAR OIMM 272100Z 15006KT 9999 BKN025 M01/M04 Q1027 A3034=
METAR OISS 272100Z 33004KT CAVOK 05/M09 Q1022 A3020=
METAR OITT 272100Z 04006KT CAVOK 02/M04 Q1024 A3025=
METAR OIZH 272100Z 35004KT 8000 SKC M00/M07 Q1020 A3014=
METAR ORER 272100Z 35004KT CAVOK 08/01 Q1021 NOSIG=
METAR ORMM 272100Z 00000KT CAVOK 13/05 Q1017 NOSIG=
METAR ORNI 272100Z 00000KT 9000 NSC 13/M01 Q1018 NOSIG=
METAR RPMZ 272100Z 00000KT 9999 FEW018 SCT300 24/22 Q1011 RMK A2985=
METAR SCSE 272100Z 26008KT 9999 FEW020 21/12 Q1014=
METAR TDPD 272100Z 11009KT 9999 FEW017 SCT070 27/21 Q1016=
METAR WSSS 272100Z 03004KT 350V080 9999 FEW018 BKN350 26/24 Q1009 NOSIG=
####018000073####
SAJM31 MKJP 272100
METAR MKJP 272100Z 14022KT 999 FEW024 30/23 Q1013=
####018000114####
SACN58 CWAO 272047
XWT SP 2047 AUTO5 M 2.5 S- M/-06/-08/2818G26/029/ VSBY VRBL 1.0V9.+ PK WND 2726 M 62MM=

####018000095####
SPAU32 YBBN 272103
SPECI YSNF 272100Z 09016KT 5000 -SHRA FEW010 SCT012 BKN018 22/20
Q1012=
####018000102####
SACN91 KWBC 272104
METAR CWHI 272000Z AUTO 34013KT M09/M13 RMK AO1 PK WND 35018/1912
T10851128=
####018000658####
SPUS99 KWBC 272104
SPECI
KBKW 272101Z AUTO 34008KT 10SM FEW028 M07/M14 A3040 RMK AO2
     T10671139=
KRBG 272101Z AUTO 00000KT 2 1/2SM RA FEW019 BKN032 OVC039 09/07
     A2978 RMK AO2 VIS 1 1/2V4 P0001 T00940067=
PACM 272101Z AUTO 18019G25KT 2SM BR BKN007 BKN012 OVC110 M01/M01
     A3016 RMK AO2 PWINO FZRANO TSNO CIG 003V010 $=
PAVL 272101Z AUTO 15011KT 1 1/4SM -SN BR OVC007 M02/M02 A3003 RMK
     AO2 P0000 T10171022 TSNO $=
KFST 272101Z AUTO 06011KT 3SM BR OVC004 M03/M03 A3017 RMK AO2
     I1000 T10281033=
PACM 272101Z AUTO 18019G25KT 2SM BR BKN007 BKN012 OVC110 M01/M01
     A3016 RMK AO2 PWINO FZRANO TSNO CIG 003V010 $=
####018001034####
SAUS99 KWBC 272104
METAR
KAIG 272055Z AUTO 24010KT 10SM CLR M11/M20 A3040 RMK AO2
     T11151198=
KBWP 272055Z AUTO 23007KT 10SM CLR M09/M18 A3045 RMK AO1=
KDLL 272050Z AUTO 26008KT 240V300 10SM CLR M09/M20 A3051 RMK AO2
     T10941200=
KEGV 272050Z AUTO 27009KT 10SM CLR M09/M22 A3034 RMK AO2
     T10881222=
KHII 272055Z AUTO 25003KT 10SM CLR 21/M03 A2965 RMK AO2=
KHOE 272055Z AUTO 02004KT 10SM CLR 12/05 A3031 RMK AO2=
KRWV 272055Z AUTO 04010G14KT 10SM BKN029 OVC035 03/M02 A3036 RMK
     AO2=
KRZN 272055Z AUTO 25009KT 10SM CLR M09/M20 A3047 RMK AO2
     T10901204=
KTZR 272058Z 31008KT 10SM CLR M09/M18 A3059=
PABA 272101Z AUTO 29025KT 6SM BR CLR M03/M03 A3012 RMK AO2 PK WND
     29028/2101 SNE2003 SLP198 P0000 60000 T10281033 51012
     FZRANO=
PAIK 272101Z AUTO 20006KT 10SM SCT014 OVC035 01/M01 A3020 RMK AO2
     SLP268 60000 T00061011 58001 FZRANO=
PAKF 272101Z AUTO 12011G17KT 9SM -RA BKN006 OVC011 05/04 A3012 RMK
     AO2 CIG 004V009 SLP296 P0000 60011 T00500039 58009 $=
####018000225####
SAPQ50 KWBC 272100 RRB
METAR
PKMJ 272057Z 07014KT 5SM SHRA SCT014TCU BKN045 OVC110 26/25 A2978
     RMK TCU ALQDS=
PTKK 272055Z VRB05KT 15SM FEW014 SCT120 OVC280 26/24 A2977 RMK
     SLP083 8/171 T02610243 52015=
####018000288####
SPUS80 KWBC 272104
SPECI
KBVE 272101Z AUTO 04012KT 10SM FEW027 10/04 A3029 RMK AO2
     T01000039=
KCUT 272100Z AUTO 19008KT 140V220 1 3/4SM -SN OVC015 M12/M16 A2988
     RMK AO2 P0000 T11171156=
KBKW 272101Z AUTO 34008KT 10SM FEW028 M07/M14 A3040 RMK AO2
     T10671139=
####018000131####
SAUS80 KWBC 272100 RRC
METAR
PHNY 272056Z AUTO 32008KT 10SM BKN015 27/19 A3005 RMK AO2 TSNO
     51010 T02660194 SLP156 $=
####018000972####
SAXX60 KWBC 272100 RRH
METAR
KCVS 272059Z 15011KT 6SM -SHSN BKN005 OVC011 M10/M13 A3013 RMK
     SLP250 P0000 60000 T11021131 57028 $=
KEDW 272058Z 26013G18KT 80SM FEW040 SCT300 18/03 A2969 RMK AO2A PK
     WND 22030/54 SLP045 CONTRAILS T01810029 57026=
KGRK 272058Z 04011KT 1 1/2SM -FZRA BR BKN006 OVC012 M02/M04 A3032
     RMK A02A FZRAB55 SLP278 P0000 60000 57023=
KMMT 272058Z 12004KT 10SM FEW050 SCT250 15/00 A3033 RMK AO2A
     SLP274 T01510003 55014=
PKWA 272100Z AUTO 05017KT 10SM SCT021 SCT035 28/22 A2983 RMK AO2
     T02810223=
KHLR 272058Z AUTO 03009KT 360V060 8SM OVC013 M01/M04 A3033 RMK AO2
     SLP279 T10151043 57023=
PHBK 272056Z AUTO 36020KT 10SM CLR 26/18 A3000 RMK AO2 SLP160
     T02560178 50007=
KFCS 272058Z 11007KT 1/2SM -SN BR BKN008 OVC024 M11/M15 A2990 RMK
     AO2A CIG 009V012 SLP233 P0000 60000 T11111147 57022=
KNGU 272059Z 02015KT 8SM SCT029 BKN036 01/M04 A3047 RMK AO2 SLP316
     T00111044 53018=
####018002349####
SAUS70 KWBC 272100 RRP
METAR
KGFA 272056Z AUTO 32007KT 10SM -SN OVC017 M08/M11 A3003 RMK AO2 PK
     WND 02070/11 SLP260 T10851115 50000 TSNO $=
PAGA 272058Z AUTO 13010KT 10SM OVC025 M01/M04 A3033 RMK AO2 SLP277
     T10061039 58011 FZRANO=
K06D 272055Z AUTO 22011KT 10SM CLR M13/M18 A3023 RMK AO2=
K2J9 272055Z AUTO 04007KT 10SM CLR 13/03 A3030 RMK AO1=
KACJ 272055Z AUTO 05007KT 10SM CLR 13/00 A3032 RMK AO2=
KACP 272055Z AUTO 04007KT 10SM CLR 10/00 A3034 RMK AO2
     T00951005=
KADS 272055Z 05012G18KT 2SM -SN BKN011 BKN016 OVC025 M03/M06
     A3043=
KANK 272055Z AUTO 00000KT 10SM BKN060 BKN085 M06/M12 A2982 RMK AO1
     T10591124=
KBUU 272055Z AUTO 25009KT 10SM CLR M10/M21 A3057 RMK AO2
     T11051207=
KCCA 272055Z AUTO 30004KT 10SM CLR M02/M18 A3059 RMK AO2=
KDED 272055Z AUTO 02010G15KT 10SM BKN017 OVC028 12/08 A3025 RMK
     AO1=
KDKR 272050Z AUTO 03006KT 10SM FEW080 04/M02 A3042 RMK AO2=
KETB 272050Z AUTO 24008KT 10SM CLR M08/M20 A3052 RMK AO2=
KFZG 272055Z AUTO 04006KT 10SM CLR 13/02 A3033 RMK AO2 T01260019
     PWINO=
KGLW 272055Z AUTO 05006KT 10SM CLR M03/M15 A3055 RMK AO2
     T10311148=
KHBV 272055Z AUTO 36008KT 5SM HZ OVC017 A3020 RMK AO2=
KLNL 272055Z AUTO 25007KT 220V280 10SM CLR M07/M21 A3034 RMK AO2
     T10751211=
KM40 272055Z AUTO 02010KT 9SM CLR 07/07 A3046 RMK AO2=
KMRJ 272050Z AUTO 25007KT 10SM CLR M10/M20 A3053 RMK AO2=
KPKV 272050Z AUTO 05019G24KT 10SM SCT024 SCT050 OVC090 11/05 A3025
     RMK AO2 T01050051=
KPPO 272100Z AUTO 20007KT 10SM CLR M08/M17 A3059 RMK AO2
     T10771168=
KRUG 272055Z AUTO 19008KT 10SM CLR M11/M17 A3025 RMK AO2=
KUOX 272055Z AUTO 06004KT 10SM CLR 03/M09 A3048 RMK AO2 PWINO
     PNO=
KAIG 272055Z AUTO 24010KT 10SM CLR M11/M20 A3040 RMK AO2
     T11151198=
KBWP 272055Z AUTO 23007KT 10SM CLR M09/M18 A3045 RMK AO1=
KDLL 272050Z AUTO 26008KT 240V300 10SM CLR M09/M20 A3051 RMK AO2
     T10941200=
KEGV 272050Z AUTO 27009KT 10SM CLR M09/M22 A3034 RMK AO2
     T10881222=
KHII 272055Z AUTO 25003KT 10SM CLR 21/M03 A2965 RMK AO2=
KHOE 272055Z AUTO 02004KT 10SM CLR 12/05 A3031 RMK AO2=
KRWV 272055Z AUTO 04010G14KT 10SM BKN029 OVC035 03/M02 A3036 RMK
     AO2=
KRZN 272055Z AUTO 25009KT 10SM CLR M09/M20 A3047 RMK AO2
     T10901204=
KTZR 272058Z 31008KT 10SM CLR M09/M18 A3059=
####018001476####
SPUS70 KWBC 272104
SPECI
PASC 272100Z 27025G28KT 4SM -SN BLSN BKN031 BKN044 M08/M12 A3015
     RMK AO2 PK WND 27028/2100 P0000 T10831117=
PATO 272100Z AUTO 00000KT 5SM BR OVC002 M05/M05 A3045 RMK AO2
     T10501050 TSNO=
KCOT 272100Z AUTO 02010KT 6SM BR BKN013 OVC018 03/01 A3026 RMK AO2
     T00330011=
KFSM 272100Z 10003KT 1/2SM R25/3500V4500FT SN VV013 M06/M09 A3055
     RMK AO2 P0001 T10611089=
KHWO 272100Z 35012KT 10SM BKN013 22/17 A3011 RMK AO2 T02170172=
KLAW 272100Z 05008KT 7SM SCT015 BKN028 OVC048 M07/M10 A3046 RMK
     AO2 T10671100=
KLVS 272100Z AUTO 18017KT 1SM -SN BR OVC006 M12/M14 A2989 RMK AO2
     P0000 T11171139=
KPUB 272100Z 08007KT 10SM FEW020 M08/M13 A2998 RMK AO2
     T10831128=
KRBD 272100Z 05009KT 1 3/4SM -SN OVC013 M03/M06 A3040 RMK AO2
     P0000 T10281056=
KTKI 272100Z 04013KT 2SM -SN BKN013 BKN041 OVC049 M03/M06 A3043
     RMK AO2 P0000 T10281056=
KRBG 272101Z AUTO 00000KT 2 1/2SM RA FEW019 BKN032 OVC039 09/07
     A2978 RMK AO2 VIS 1 1/2V4 P0001 T00940067=
PACM 272101Z AUTO 18019G25KT 2SM BR BKN007 BKN012 OVC110 M01/M01
     A3016 RMK AO2 PWINO FZRANO TSNO CIG 003V010 $=
PAVL 272101Z AUTO 15011KT 1 1/4SM -SN BR OVC007 M02/M02 A3003 RMK
     AO2 P0000 T10171022 TSNO $=
KFST 272101Z AUTO 06011KT 3SM BR OVC004 M03/M03 A3017 RMK AO2
     I1000 T10281033=
PACM 272101Z AUTO 18019G25KT 2SM BR BKN007 BKN012 OVC110 M01/M01
     A3016 RMK AO2 PWINO FZRANO TSNO CIG 003V010 $=
####018000343####
SAUS70 KWBC 272104
METAR
KARW 272115Z AUTO 00000KT 10SM CLR 09/03 A3035 RMK AO2=
PABA 272101Z AUTO 29025KT 6SM BR CLR M03/M03 A3012 RMK AO2 PK WND
     29028/2101 SNE2003 SLP198 P0000 60000 T10281033 51012
     FZRANO=
PAIK 272101Z AUTO 20006KT 10SM SCT014 OVC035 01/M01 A3020 RMK AO2
     SLP268 60000 T00061011 58001 FZRANO=
####018000097####
SPAK31 KWBC 272104
SPECI
PASC 272100Z 27025G28KT 4SM -SN BLSN BKN031 BKN044 M08/M12 A3015=
####018000097####
SPAU31 KWBC 272104
SPECI
YSNF 272100Z 09016KT 5000 -SHRA FEW010 SCT012 BKN018 22/20 Q1012=
####018000081####
SAAO31 KWBC 272030 RRA
METAR
GCRR 272030Z 01025KT 9999 SCT020 17/13 Q1027=
####018000081####
SAAW41 KWBC 272050 RRC
METAR
LTCC 272050Z 24004KT CAVOK 03/00 Q1019 NOSIG=
####018000190####
SABX31 KWBC 272050 RRA
METAR
EBBL 272055Z VRB02KT 9999 SKC 01/M01 Q1022 BLU=
EBFN 272055Z 19006KT 9999 FEW030 02/00 Q1022 BLU=
EBFS 272055Z AUTO VRB02KT 9999 NCD 00/M02 Q1022 BLU=
####018000084####
SABZ24 SBPA 272100
METAR SBPA 272100Z 18012KT 9999 BKN035 FEW045TCU 25/22 Q1010=
####018000112####
SADN31 KWBC 271950 RRB
METAR
EKCH 272002Z 02001KT 5000 -DZRA BKN025 03/02 Q1015 TEMPO 4000
     BKN014=
####018000121####
SAMX41 KWBC 272045 RRE
METAR
MMMM 272042Z 15017KT 8SM FEW030 BKN230 26/06 A3006 RMK SLP042
     57020 900 8/102=
####018000118####
SAMX42 KWBC 272045 RRC
METAR
MMSP 272044Z 36007KT 15SM BKN210 16/05 A3007 RMK SLP096 57038 923
     8/008 SC=
####018000368####
SAXX99 KWBC 272000 RRX
METAR
LHPP 272045Z 01005KT 9999 -RA OVC016 04/03 Q1015=
LHUD 272045Z 01008KT 6000 -RA BKN026 07/05 Q1014=
MMIA 272040Z 24010KT 8SM BKN200 26/11 A2993 RMK SLP/// 5/// 9//
     6//// 8/001=
MMLO 272044Z 18009KT 10SM BKN220 26/M01 A3011 RMK SLP074 57022 909
     8/008=
WMKN 272000Z 19002KT 9999 FEW024 SCT140 BKN280 24/23 Q1009=
####018000079####
SPUS43 KWBC 272104
SPECI
KPUB 272100Z 08007KT 10SM FEW020 M08/M13 A2998=
####018000091####
SPUS52 KWBC 272104
SPECI
KCOT 272100Z AUTO 02010KT 6SM BR BKN013 OVC018 03/01 A3026=
####018000098####
SPUS52 KWBC 272104
SPECI
KFSM 272100Z 10003KT 1/2SM R25/3500V4500FT SN VV013 M06/M09 A3055=
####018000608####
ISID20 EEMH 272100
BUFR H               	  P  4$05OM"pf|GK wP rB#2 ? ? OI}n8EB`?{iv?2 d :_@ # ?d CVV@	 #/4{03Mt*	>CW+T d  T_# @2  @ O= 7777
####018000075####
SADO31 TDPD 272100
METAR TDCF 272100Z 10005KT 9999 SCT021 28/17 Q1014=
####018000076####
SALJ32 LJLJ 272100
METAR LJCE 272100Z AUTO /////KT 9999 NCD 03/00 Q1015=
####018000175####
SALJ31 LJLJ 272100
METAR LJLJ 272100Z 00000KT 9999 BKN028 04/01 Q1014 NOSIG=
METAR LJMB 272100Z 00000KT CAVOK 01/M00 Q1014=
METAR LJPZ 272100Z VRB02KT CAVOK 04/01 Q1013=
####018000304####
SAFR23 LFPW 272100
METAR LFOE 272100Z AUTO 19004KT 9999 NSC 01/M01 Q1023=
METAR LFOJ 272100Z AUTO 24003KT 9999 NSC 01/M01 Q1024=
METAR LFRJ 272100Z AUTO 19010KT 9999 FEW036 OVC100 06/05 Q1020=
METAR LFRL 272100Z AUTO 18009KT 150V210 9999 BKN016 BKN024 OVC032
07/06 Q1021=
METAR LFOC 272100Z NIL=
####018000491####
SAFR22 LFPW 272100
METAR LFBC 272100Z AUTO 00000KT 9999 NSC 06/04 Q1027=
METAR LFBG 272100Z AUTO 24003KT 9999 NSC 05/02 Q1026=
METAR LFBM 272100Z AUTO 30004KT 9999 NSC 04/01 Q1027=
METAR LFBY 272100Z AUTO 25001KT 9999 // NCD 07/04 Q1027=
METAR LFKS 272100Z AUTO 27006KT 250V310 9999 NSC 08/05 Q1013=
METAR LFMC 272100Z AUTO 20004KT 140V250 9999 ////// 07/01 Q1014=
METAR LFMO 272100Z AUTO 35021G33KT 9999 NSC 06/M02 Q1018=
METAR LFMY 272100Z AUTO 33024G35KT 9999 NSC 07/M01 Q1016=
####018000192####
SAFR21 LFPW 272100
METAR LFOA 272100Z AUTO 00000KT 9999 NSC 01/M03 Q1024=
METAR LFPC 272100Z AUTO VRB01KT 9999 ////// 00/M02 Q1023=
METAR LFPV 272100Z AUTO 29002KT 9999 NSC 03/M02 Q1023=
####018000147####
SAAK48 PANC 272104
MTRASY
METAR PASY 272056Z COR 33013KT 9SM -SN SCT030 OVC037 M03/M10 A3029 
RMK AO2 SNB17 SLP259 6//// T10281100 53024 $
####018000099####
SPUS81 KWBC 272104
SPECI
KCUT 272100Z AUTO 19008KT 140V220 1 3/4SM -SN OVC015 M12/M16 A2988=
####018000415####
SAFR31 LFPW 272100
METAR LFLL 272100Z 34009KT CAVOK 03/00 Q1022 NOSIG=
METAR LFMN 272100Z 32006KT CAVOK 08/05 Q1013 NOSIG=
METAR LFPG 272100Z VRB02KT CAVOK 04/M02 Q1023 NOSIG=
METAR LFPO 272100Z 29004KT CAVOK 02/M02 Q1024 NOSIG=
METAR LFQQ 272100Z VRB02KT CAVOK 02/M00 Q1022 NOSIG=
METAR LFRB 272100Z 19011KT 8000 -RADZ BKN013 OVC026 07/05 Q1020
NOSIG=
METAR LFRS 272100Z 21004KT CAVOK 06/03 Q1024 NOSIG=
####018000746####
SAFR32 LFPW 272100
METAR LFBD 272100Z AUTO 24003KT 9999 NSC 05/01 Q1026=
METAR LFBH 272100Z AUTO 23003KT 9999 NSC 07/03 Q1025=
METAR LFBI 272100Z AUTO 19001KT 9999 NSC 03/00 Q1025=
METAR LFBL 272100Z AUTO 28003KT 9999 BKN036 BKN045 OVC054 04/M01
Q1024=
METAR LFBO 272100Z AUTO 30006KT 270V330 9999 NSC 07/M01 Q1026=
METAR LFBP 272100Z AUTO 17002KT 9999 NSC 04/01 Q1027=
METAR LFBT 272100Z AUTO 26005KT 9999 NSC 04/M01 Q1027=
METAR LFBZ 272100Z AUTO 33003KT 9999 FEW046 BKN150 BKN170 08/03
Q1028=
METAR LFCK 272100Z AUTO 29009KT 9999 NSC 05/M01 Q1025=
METAR LFLB 272100Z AUTO 01013KT 9999 FEW034 SCT049 OVC056 05/00
Q1021=
METAR LFLX 272100Z AUTO 00000KT 9999 NSC 03/01 Q1024=
METAR LFML 272100Z 32024KT CAVOK 07/M00 Q1016 NOSIG=
####018000472####
SAFR33 LFPW 272100
METAR LFKB 272100Z 25007KT 210V300 9999 FEW033 09/02 Q1013 NOSIG=
METAR LFKF 272100Z AUTO 00000KT 3400 BR NCD 03/02 Q1013=
METAR LFKJ 272100Z AUTO 05003KT 9999 NSC 07/05 Q1013=
METAR LFLC 272100Z VRB03KT 9999 SCT053 BKN073 04/M02 Q1023 NOSIG=
METAR LFMP 272100Z AUTO 31010KT 280V350 9999 NSC 09/M04 Q1023=
METAR LFMV 272100Z AUTO 34025G36KT 9999 NSC 07/M02 Q1017=
METAR LFSL 272100Z AUTO 25002KT 9999 NSC 01/M02 Q1024=
METAR LFKC 272100Z NIL=
####018000843####
SAFR35 LFPW 272100
METAR LFMI 272100Z AUTO 34028KT 9999 NSC 07/M03 Q1016=
METAR LFMK 272100Z AUTO 30017KT 9999 NSC 06/M00 Q1024=
METAR LFOV 272100Z AUTO 18003KT 9999 NSC 04/01 Q1023=
METAR LFRD 272100Z AUTO 16005KT 9999 NSC 06/02 Q1022=
METAR LFRI 272100Z AUTO 22003KT 9999 NSC 05/02 Q1025=
METAR LFRM 272100Z AUTO 17002KT 9999 NSC 02/M00 Q1024=
METAR LFRN 272100Z AUTO 20005KT 9999 NSC 06/03 Q1023=
METAR LFRO 272100Z AUTO 17008KT 9999 NSC 06/03 Q1021=
METAR LFRV 272100Z AUTO 20003KT 9999 -RA FEW025 SCT052 BKN086
06/04 Q1023=
METAR LFRZ 272100Z AUTO 24006KT 9999 NSC 08/03 Q1024=
METAR LFSB 272100Z 27009KT 9999 -RA FEW012 SCT030 BKN050 03/02
Q1021 NOSIG=
METAR LFSG 272100Z AUTO 28005KT 9999 NSC 01/M00 Q1022=
METAR LFST 272100Z AUTO 28005KT 9999 OVC058 05/01 Q1021=
METAR LFTH 272100Z AUTO VRB01KT 9999 NSC 06/03 Q1013=
####018000741####
SAFR37 LFPW 272100
METAR LFAQ 272100Z AUTO 20004KT 9999 NSC 02/M01 Q1022=
METAR LFAT 272100Z AUTO 12006KT 9999 NSC 03/00 Q1022=
METAR LFBU 272100Z AUTO 26003KT 9999 NSC 05/01 Q1025=
METAR LFGA 272100Z AUTO 28004KT 9999 -RA FEW040 OVC076 05/01 Q1022=
METAR LFLN 272100Z AUTO 32001KT 9999 NSC 02/M02 Q1023=
METAR LFPM 272100Z AUTO 27002KT 9999 NSC 02/M02 Q1023=
METAR LFPT 272100Z AUTO 27001KT 9999 NSC 01/M01 Q1023=
METAR LFRH 272100Z AUTO 20009KT 9999 -RA BKN031 OVC038 08/05 Q1022=
METAR LFRQ 272100Z AUTO 18005KT 9999 FEW023 SCT041 BKN049 07/05
Q1021=
METAR LFRT 272100Z AUTO 21004KT 180V250 9999 NSC 06/03 Q1021=
METAR LFSD 272100Z AUTO 02002KT 9999 NSC 01/M02 Q1023=
METAR LFTW 272100Z AUTO 34013KT 9999 NSC 06/M04 Q1019=
####018000264####
SAFR24 LFPW 272100
METAR LFSI 272100Z AUTO 00000KT 9999 NSC M00/M02 Q1023=
METAR LFSO 272100Z AUTO 26004KT 9999 NSC 01/M01 Q1022=
METAR LFSX 272100Z AUTO 31002KT 4300 BR SCT047 OVC064 03/01 Q1022=
METAR LFYR 272100Z AUTO 00000KT 0800 FZFG NSC M01/M02 Q1025=
####018000927####
SAFR34 LFPW 272100
METAR LFCR 272100Z AUTO 30007KT 9999 NSC 01/M03 Q1023=
METAR LFJL 272100Z AUTO 26005KT 9999 NSC 03/M01 Q1022=
METAR LFLP 272100Z AUTO 33003KT 9999 FEW027 BKN043 OVC049 02/01
Q1020=
METAR LFLS 272100Z AUTO 35009KT 280V030 9999 FEW024 OVC054 03/M01
Q1021=
METAR LFLY 272100Z AUTO 35004KT 9999 NSC 04/M00 Q1023=
METAR LFMT 272100Z 33014KT CAVOK 08/M05 Q1020 NOSIG=
METAR LFMU 272100Z AUTO 31016KT 9999 NSC 08/M04 Q1022=
METAR LFOB 272100Z AUTO 26002KT 9999 NSC 01/M01 Q1023=
METAR LFOH 272100Z AUTO 17005KT 9999 NSC 05/01 Q1022=
METAR LFOK 272100Z AUTO 31004KT 9999 NSC 01/M02 Q1023=
METAR LFOP 272100Z AUTO 17004KT 9999 NSC 01/M02 Q1023=
METAR LFPB 272100Z AUTO VRB02KT 9999 NSC 03/M02 Q1024=
METAR LFQA 272100Z AUTO 00000KT 9999 NSC 00/M02 Q1023=
METAR LFQB 272100Z AUTO 29004KT 9999 NSC 01/M02 Q1023=
METAR LFSN 272100Z AUTO 29004KT 250V330 9999 NSC 04/M01 Q1022=
METAR LFLU 272100Z NIL=
####018000699####
SAFR36 LFPW 272100
METAR LFBA 272100Z AUTO 27005KT 9999 NSC 05/M00 Q1026=
METAR LFBE 272100Z AUTO 26006KT 9999 NSC 06/01 Q1026=
METAR LFGJ 272100Z AUTO VRB01KT 9999 NSC 02/00 Q1023=
METAR LFJR 272100Z AUTO 10001KT 9999 NSC 01/00 Q1024=
METAR LFMD 272100Z AUTO 36003KT 320V030 9999 NSC 06/04 Q1013=
METAR LFMH 272100Z AUTO 32005KT 9999 NSC 03/M02 Q1022=
METAR LFOT 272100Z 24001KT CAVOK 04/M00 Q1024 NOSIG=
METAR LFPN 272100Z AUTO 28002KT 9999 NSC 01/M03 Q1023=
METAR LFRC 272100Z AUTO 18008KT 9999 NSC 04/02 Q1021=
METAR LFRG 272100Z AUTO 19006KT 9999 NSC 02/00 Q1022=
METAR LFRK 272100Z AUTO 18005KT 9999 NSC 02/00 Q1022=
METAR LFRU 272100Z AUTO 18007KT 140V210 9999 NSC 06/04 Q1020=
####018000323####
SARO31 LROM 272100
METAR LRBS 272100Z 03008KT 360V060 6000 FEW005 07/07 Q1013 NOSIG=
METAR LRCK 272100Z 04012KT CAVOK 08/08 Q1012 NOSIG=
METAR LROP 272100Z 05009KT 7000 FEW030 07/06 Q1013 R88/09//95 TEMPO
5000 BR=
METAR LRSB 272100Z 00000KT 9999 BKN066 06/04 Q1013=
METAR LRTR 272100Z 36007KT 7000 NSC 07/07 Q1013=
####018000414####
SARO32 LROM 272100
METAR LRAR 272100Z AUTO 01007KT 5000NDV R09////// R27/P2000 BR NCD
07/06 Q1013=
METAR LRBM 272100Z AUTO 28003KT 6000NDV FEW012/// SCT210/// 06/05
Q1014=
METAR LRCL 272100Z 00000KT CAVOK 06/06 Q1013=
METAR LROD 272100Z AUTO 03010KT 9000NDV OVC080/// 07/04 Q1014=
METAR LRSM 272100Z AUTO 01001KT 6000NDV SCT085/// OVC110/// 05/04
Q1014=
METAR LRTM 272100Z 00000KT 8000 NSC 05/04 Q1013=
####018001575####
SAUS17 KAWN 272100 RRD
METAR K79J 272056Z AUTO 06007G15KT 010V100 10SM CLR 16/M02 A3030 RMK
      AO2 SLP260 T01561022 56018=
METAR KCVS 272059Z 15011KT 6SM -SHSN BKN005 OVC011 M10/M13 A3013 RMK
      SLP250 P0000 60000 T11021131 57028 $=
METAR KDLF 272058Z AUTO 09005KT 5SM BR BKN007 OVC011 02/00 A3023 RMK
      AO2 CIG 007V010 SLP242 57026 $=
METAR KEDW 272058Z 26013G18KT 80SM FEW040 SCT300 18/03 A2969 RMK AO2A
      PK WND 22030/54 SLP045 CONTRAILS T01810029 57026=
METAR KFCS 272058Z 11007KT 1/2SM -SN BR BKN008 OVC024 M11/M15 A2990
      RMK AO2A CIG 009V012 SLP233 P0000 60000 T11111147 57022=
METAR KGRK 272058Z 04011KT 1 1/2SM -FZRA BR BKN006 OVC012 M02/M04 A3032
      RMK A02A FZRAB55 SLP278 P0000 60000 57023=
METAR KGSB 272058Z AUTO 04008KT 10SM CLR 09/00 A3036 RMK AO2 SLP285
      T00910002 55001 $=
METAR KHRT 272058Z AUTO 04012KT 10SM CLR 14/M03 A3026 RMK AO2 SLP249
      T01401029 57020 $=
METAR KLHW 272058Z AUTO VRB03KT 10SM FEW200 11/02 A3031 RMK AO2 SLP267
      T01120015 55010=
METAR KMGE 272058Z 31010KT 10SM FEW250 07/M07 A3036 RMK AO2A SLP290
      T00721069 55006 $=
METAR KMMT 272058Z 12004KT 10SM FEW050 SCT250 15/00 A3033 RMK AO2A
      SLP274 T01510003 55014=
METAR KNCA 272056Z 36009KT 10SM CLR 10/M01 A3037 RMK AO2 SLP286 T01001011=
METAR KNRS 272056Z 18011G19KT 10SM FEW025 BKN035 18/11 A2984 RMK AO2
      SLP104 T01830111 58012 $=
METAR PABA 272101Z AUTO 29025KT 6SM BR CLR M03/M03 A3012 RMK AO2 PK
      WND 29028/2101 SNE2003 SLP198 P0000 60000 T10281033 51012
      FZRANO=
####018000410####
SAXX70 KAWN 272100 RRF
METAR KQRB 272050Z 16003KT 9999 CLR 25/24 A2984 RMK AO2A SLP103 T02520236
      52021=
METAR KQHN 272055Z 00000KT 9999 CLR 06/01 A3006 RMK SLP188 Q1018 DA2956=
METAR KQAZ 272100Z AUTO 12010KT 9999 CLR 21/M08 A3002 RMK CDP03565
      CLR=
METAR KQEJ 272100Z AUTO 02002KT 9999 CLR M06/M11 A3038 RMK A02 TSNO=
METAR KQES 272100Z AUTO 9999 FEW160 M01/M09 A3043 RMK A02 TSNO=
####018000108####
SAAF11 LFPW 272100
METAR FKKD 272100Z 00000KT 9999 SCT016 FEW020CB BKN120 26/25 Q1012
           NOSIG=
####018000408####
SARO33 LROM 272100
METAR LRBC 272100Z AUTO 35003KT 320V030 4300NDV FEW001/// BKN003///
07/07 Q1016=
METAR LRCV 272100Z 04006KT CAVOK 08/05 Q1012=
METAR LRIA 272100Z 23002KT 0550 R14/0600V1400 FG SCT002 SCT004
03/03 Q1016 R14/19//95=
METAR LRSV 272100Z AUTO 19003KT 100V260 4700NDV FEW004/// SCT006///
OVC012/// ///// Q1015=
METAR LRTC 272100Z AUTO 01010KT 9999NDV SCT060/// BKN210/// 07/06
Q1014=
####018000081####
SAAF13 LFPW 272100
METAR GLRB 272100Z 00000KT 9999 FEW013 25/24 Q1010  NOSIG=
####018000080####
SAAF18 LFPW 272100
METAR FIMP 272100Z 16007KT 6000 -SHRA BKN015 26/25 Q1008=
####018000564####
SASP31 LEMM 272100
METAR LEMD 272100Z 16003KT CAVOK 07/M02 Q1024 NOSIG=
METAR LEBL 272100Z 21013KT 9999 FEW025 12/06 Q1019 NOSIG=
METAR LEPA 272100Z 00000KT 9999 FEW022 05/04 Q1021 NOSIG=
METAR LEZL 272100Z 35001KT CAVOK 14/08 Q1025 NOSIG=
METAR LEMG 272100Z 29009KT 260V330 9999 FEW050 16/07 Q1023 NOSIG=
METAR LEVC 272100Z 34019KT 320V020 CAVOK 12/M03 Q1021 NOSIG=
METAR LEAL 272100Z 25006KT 210V270 CAVOK 11/06 Q1022 NOSIG=
METAR LEIB 272100Z 00000KT CAVOK 07/05 Q1021 NOSIG=
METAR LEVX 272100Z 27003KT 230V310 9999 SCT024 BKN027 09/06 Q1029
NOSIG=
####018000081####
SAAF27 LFPW 272100
METAR GUCY 272100Z 26004KT 3000 BR NSC  27/24 Q1010 NOSIG=
####018000719####
SASP32 LEMM 272100
METAR LEAS 272100Z VRB01KT 9000 -DZ FEW028 BKN040 08/06 Q1027
TEMPO RA=
METAR LEBB 272100Z 10003KT 9999 SCT035 07/06 Q1028 NOSIG=
METAR LECO 272100Z VRB02KT 9999 OVC022 09/06 Q1028 NOSIG=
METAR LEGE 272100Z VRB01KT 9999 FEW060 03/M02 Q1020=
METAR LEST 272100Z VRB02KT 5000 -DZ SCT007 BKN016 06/05 Q1029
TEMPO BKN014=
METAR LEZG 272100Z 31021KT 280V340 CAVOK 06/00 Q1024=
METAR LESO 272100Z NIL=
METAR LEVT 272100Z 32007KT 290V350 9999 FEW025 SCT045 04/02 Q1027=
METAR LERS 272100Z 26008KT 210V320 CAVOK 10/M05 Q1019=
METAR LEMH 272100Z 01023G35KT 9999 FEW028 09/02 Q1018=
METAR LEAM 272100Z 34010KT 310V010 9999 FEW020 19/02 Q1020=
METAR LEGR 272100Z VRB02KT 9999 FEW030 09/06 Q1024=
####018000100####
SACN58 CWAO 272044
WDH SP 2044 AUTO5 21 SCT 3.0 M M/-12/-18/2519G27/029/ PK WND 2429 M 653M=

####018000085####
SAGD31 TGPY 272100
METAR TGPY 272100Z 09012KT 9999 FEW018 SCT034 28/23 Q1013 NOSIG=####018000095####
SAGY31 SYGO 272100
METAR SYGO 272100Z
05006KT 9999 SCT023 SCT300
28/23 Q1012 NOSIG=
####018000027####
SASP33 LEMM 272100
NIL=
####018000231####
SASP34 LEMM 272100
METAR LEDA 272100Z NIL=
METAR LEJR 272100Z 22005KT CAVOK 12/11 Q1025=
METAR LELL 272100Z NIL=
METAR LEPP 272100Z 33005KT 9999 SCT028 03/01 Q1026=
METAR LEXJ 272100Z 22003KT 9999 FEW035 OVC044 09/05 Q1028=
####018000240####
SASP35 LEMM 272100
METAR LEAB 272100Z 31009KT CAVOK 08/M04 Q1022 NOSIG=
METAR LEBZ 272100Z NIL=
METAR LELC 272100Z 08006KT 030V120 CAVOK 14/07 Q1022 NOSIG=
METAR LELN 272100Z NIL=
METAR LETO 272100Z 05004KT CAVOK 07/M02 Q1024 NOSIG=
####018000027####
SACR32 LEMM 272100
NIL=
####018000159####
SASP39 LEMM 272100
METAR LEAG 272100Z AUTO 31008KT 280V350 9999 // FEW030 SCT038
15/10 Q1026=
METAR LETL 272100Z AUTO 34004KT 260V030 CAVOK 01/M03 Q1022=
####018000392####
SACR31 LEMM 272100
METAR GCLP 272100Z 36022G33KT 9999 FEW022 BKN030 17/11 Q1028
NOSIG=
METAR GCXO 272100Z 32010KT 280V020 9999 FEW005 BKN012 12/11 Q1030
NOSIG=
METAR GCTS 272100Z 06010KT 030V100 9999 FEW023 17/11 Q1028 NOSIG=
METAR GCRR 272100Z 02025KT 9999 SCT020 17/13 Q1027=
METAR GCFV 272100Z 03019KT 9999 BKN024 17/13 Q1027=
METAR GCLA 272100Z 01015KT 9999 BKN035 17/11 Q1031=
####018000134####
SAMX53 MMMZ 272100
METAR MMTJ 272102Z RTD 19010KT 8SM  BKN035 17/08 A2985 
      RMK SLP110 57010 975 8/500 HZY=





TX_OPMET
####018000409####
SAIV21 DIAP 272000
METAR DISP 272000Z 24006KT 9999 FEW013 BKN300 27/25 Q1010 NOSIG=
METAR DIYO 272000Z 36004KT 9999 SCT013 FEW023CB BKN266 29/23 Q1010
NOSIG=
METAR DIAP 272000Z 20006KT 9000 TS FEW012 FEW020CB 27/26 Q1011 TEMPO
3500 TSRA BKN011 SCT020CB=
METAR DIBK 272000Z 16004KT 8000 BKN015 BKN023CB/SNW 32/17 Q1013
NOSIG=
METAR DIKO 272000Z NIL=
METAR DIOD 272000Z NIL=
METAR DIMN 272000Z NIL=
####018000819####
SAUS20 KNKA 272103
SPECI KART 272103Z AUTO 25006KT 3/4SM -SN VV017 M10/M13 A3048 RMK 
 AO2 P0000 T11001133=
SPECI KAST 272102Z AUTO 34005KT 2 1/2SM RA BR SCT021 BKN026 OVC033 
 10/08 A2970 RMK AO2 VIS 1 1/2 RWY 08 CIG 021 RWY 08 P0001 
 T01000083=
SPECI KBVE 272101Z AUTO 04012KT 10SM FEW027 10/04 A3029 RMK AO2
 T01000039=
METAR KDCM 272115Z AUTO 11005KT 10SM CLR 12/M02 A3034 RMK AO2=
SPECI KMWL 272102Z AUTO 05008KT 1SM -SN FEW009 BKN031 OVC042 M05/M08 
 A3040 RMK AO2 P0000 T10501078=
METAR KO54 272055Z AUTO 22010G21KT 9SM BKN039 10/03 A2974 RMK AO1=
SPECI KOXB 272102Z AUTO 05003KT 5SM HZ BKN025 OVC033 M01/M04 A3047 
 RMK AO2 T10111044 TSNO=
METAR KSNC 272055Z AUTO 33008KT 10SM CLR M02/M18 A3036 RMK AO2=
METAR KWDG 272055Z 05010KT 1 1/2SM -SN BR SCT005 OVC016 M07/M11
 A3050=
####018001895####
SAEU KAWN 272100 RRK
METAR EICK 272100Z 24008KT 1400 R17/P2000 R35/1600U -DZ SCT001 BKN002
      09/09 Q1008 BECMG 3000 SCT001 BKN004=
METAR EIDW 272100Z 20017KT 9999 FEW014 BKN042 BKN050 07/05 Q1008 NOSIG=
METAR EINN 272100Z 18010KT 9999 FEW010 SCT014 BKN030 08/07 Q1008 NOSIG=
METAR EPKT 272100Z 10002KT 3500 BR FEW021 BKN023 04/03 Q1015=
METAR EPWR 272100Z 25003KT 9999 BKN046 07/02 Q1015=
METAR LBGO 272100Z 00000KT CAVOK 07/06 Q1011 NOSIG=
METAR LBPD 272100Z 24003KT 4700 BR NSC 06/05 Q1010 TEMPO 3000 BR=
METAR LFBG 272100Z AUTO 24003KT 9999 NSC 05/02 Q1026=
METAR LFMO 272100Z AUTO 35021G33KT 9999 NSC 06/M02 Q1018=
METAR LFOA 272100Z AUTO 00000KT 9999 NSC 01/M03 Q1024=
METAR LFOE 272100Z AUTO 19004KT 9999 NSC 01/M01 Q1023=
METAR LFOJ 272100Z AUTO 24003KT 9999 NSC 01/M01 Q1024=
METAR LFPC 272100Z AUTO VRB01KT 9999 ////// 00/M02 Q1023=
METAR LFPV 272100Z AUTO 29002KT 9999 NSC 03/M02 Q1023=
METAR LFRJ 272100Z AUTO 19010KT 9999 FEW036 OVC100 06/05 Q1020=
METAR LFYR 272100Z AUTO 00000KT 0800 FZFG NSC M01/M02 Q1025=
METAR LKCV 272100Z 00000KT 9999 BKN043 06/02 Q1015 NOSIG RMK BLU BLU=
METAR LKKV 272100Z VRB02KT 9999 FEW046 01/M03 Q1014 R29/09//95=
METAR LKMT 272100Z 18004KT 7000 BKN048 05/03 Q1015 NOSIG=
METAR COR LKNA 272100Z 14002KT 9999 OVC017 03/02 Q1014 RMK WHT=
METAR LKPD 272100Z VRB02KT 9999 OVC041 04/02 Q1015 RMK BLU BLU=
METAR LKPR 272100Z 25004KT CAVOK M00/M02 Q1015 NOSIG=
METAR LKTB 272100Z 00000KT 9999 OVC037 05/01 Q1015 NOSIG=
METAR LQBK 272100Z 31004KT 7000 -RA SCT015 OVC030 05/04 Q1014 NOSIG=
METAR LQSA 272100Z 30003KT 270V340 6000 SCT015 OVC025 05/03 Q1012=
METAR LYBE 272100Z 01002KT 4000 MIFG BR SCT034 06/06 Q1013 TEMPO 2000=
METAR LYNI 272100Z 32007KT 290V350 9999 -RA SCT040 09/05 Q1011=
METAR LYPG 272100Z 29003KT 9999 FEW040 09/08 Q1008 NOSIG=
METAR LYTV 272100Z VRB01KT CAVOK 08/07 Q1008=
####018001738####
SAZZ40 KAWN 272100 RRO
METAR BIAR 272100Z 33008KT 9999 -SN FEW010 BKN044 M00/M02 Q0982 R01/190070=
METAR BIEG 272100Z 17004KT 9999 FEW031 SCT037 BKN046 M02/M05 Q0979=
METAR BIRK 272100Z 03009KT 350V080 CAVOK 00/M06 Q0976=
METAR KDYS 272058Z 04008KT 6SM -FZRA OVC008 M07/M08 A3033 RMK AO2A
      SLP302 P0000 60000 T10661084 57019 $=
METAR KSZL 272058Z AUTO 12004KT 10SM CLR M07/M17 A3056 RMK AO2 SLP369
      T10681173 56023 $=
METAR LKKV 272100Z VRB02KT 9999 FEW046 01/M03 Q1014 R29/09//95=
METAR LQBK 272100Z 31004KT 7000 -RA SCT015 OVC030 05/04 Q1014 NOSIG=
METAR MHCA 272100Z 08010KT 9999 SCT030 22/15 Q1015 HZ=
METAR MHCH 272100Z 02012KT 999 SCT034 38/19 HZ=
METAR MHLE 272100Z 06010KT 9999 SCT026TCU 24/10 TCU ALL=
METAR MHNO 272100Z 32018KT 9999 SCT040RTCUY 31/17 Q1013 TCU N S W HZ=
METAR MHPL 272100Z 06005KT 9999 FEW028TCU 29/24 Q1015 TCU SE SW HZ=
METAR MHSR 272100Z 36004KT 9999SCT015 TCU ALL HZ=
METAR MHTE 272100Z 01006KT 9999 SCT026TCU 30/23 Q1012 TCU ALL HZ=
METAR MHYR 272100Z 09006KT 9999 SCT025TCU 31/17 TCU ALL HZ=
METAR MKJP 272100Z 14022KT 999 FEW024 30/23 Q1013=
METAR PABA 272101Z AUTO 29025KT 6SM BR CLR M03/M03 A3012 RMK AO2 PK
      WND 29028/2101 SNE2003 SLP198 P0000 60000 T10281033 51012
      FZRANO=
METAR RJAW 272100Z 35006KT 9999 FEW015 BKN120 20/18 Q1018 RMK 1CU015
      5AC120 A3008=
METAR TDCF 272100Z 10005KT 9999 SCT021 28/17 Q1014=
METAR TKPK 272100Z 08020KT 9999 FU SCT019 28/22 Q1017=
METAR TLPL 272100Z 08022KT 9999 FEW028 28/20 Q1015 NOSIG=
METAR UGKO 272100Z 07035G45KT CAVOK 12/M00 Q1012 R07/09//70 NOSIG=
METAR UGSB 272100Z AUTO 32006KT CAVOK 09/07 Q1012 R13/70D NOSIG=
METAR YBDV 272100Z AUTO 18004KT //// // ////// 24/00 Q1004=
####018000512####
SAKO31 RKSI 272100
METAR RKSI 272100Z 07004KT 9999 FEW030 BKN180 M02/M09 Q1029 NOSIG=
METAR RKSS 272100Z 02002KT 9999 FEW030 BKN150 M02/M10 Q1029 NOSIG =
METAR RKPC 272100Z 10011KT 9999 SCT025 06/M00 Q1025 NOSIG =
METAR RKPK 272100Z 28004KT 9999 BKN040 01/M05 Q1029 NOSIG =
METAR RKTU 272100Z 09001KT CAVOK M05/M08 Q1030 NOSIG =
METAR RKTN 272100Z 07001KT CAVOK M03/M08 Q1030 NOSIG =
METAR RKJB 272100Z 09003KT 9999 SCT030 M02/M06 Q1028 NOSIG =
METAR RKNY 272100Z AUTO 25002KT 3000 NCD M01/M12 Q1029 =
####018000540####
SPUS99 KWBC 272105
SPECI
KART 272103Z AUTO 25006KT 3/4SM -SN VV017 M10/M13 A3048 RMK AO2
     P0000 T11001133=
KAST 272102Z AUTO 34005KT 2 1/2SM RA BR SCT021 BKN026 OVC033 10/08
     A2970 RMK AO2 VIS 1 1/2 RWY 08 CIG 021 RWY 08 P0001
     T01000083=
KBVE 272101Z AUTO 04012KT 10SM FEW027 10/04 A3029 RMK AO2
     T01000039=
KMWL 272102Z AUTO 05008KT 1SM -SN FEW009 BKN031 OVC042 M05/M08
     A3040 RMK AO2 P0000 T10501078=
KOXB 272102Z AUTO 05003KT 5SM HZ BKN025 OVC033 M01/M04 A3047 RMK
     AO2 T10111044 TSNO=
####018000285####
SAUS99 KWBC 272105
METAR
KDCM 272115Z AUTO 11005KT 10SM CLR 12/M02 A3034 RMK AO2=
KO54 272055Z AUTO 22010G21KT 9SM BKN039 10/03 A2974 RMK AO1=
KSNC 272055Z AUTO 33008KT 10SM CLR M02/M18 A3036 RMK AO2=
KWDG 272055Z 05010KT 1 1/2SM -SN BR SCT005 OVC016 M07/M11
     A3050=
####018000795####
SAZA31 FAPR 272100
METAR FABL 272100Z AUTO 11008KT //// // ////// 18/10 Q1022=
METAR FACT 272100Z 18015KT 150V210 CAVOK 20/14 Q1015 NOSIG=
METAR FAGG 272100Z AUTO 09005KT 9999 OVC034/// 19/17 Q1019=
METAR FALA 272100Z AUTO 11013KT //// // 18/13 Q1021=
METAR FALE 272100Z 22007KT 9999 BKN035 FEW045CB 23/18 Q1017 RETS
     NOSIG=
METAR FALW 272100Z AUTO 23004KT //// // ////// 16/12 Q1014=
METAR FAMM 272100Z AUTO 05009KT //// // ////// 19/09 Q1018=
METAR FAOB 272100Z AUTO 10003KT //// // ////// 14/13 Q1019=
METAR FAOR 272100Z NIL=
METAR FAPE 272100Z 00000KT CAVOK 17/16 Q1019 NOSIG=
METAR FAPN 272100Z AUTO 00000KT //// // ////// 17/13 Q1018=
METAR FAPP 272100Z AUTO 13004KT //// // ////// 20/13 Q1019=
METAR FAUP 272100Z AUTO 31001KT //// // ////// 24/04 Q1014=
####018000118####
SAUZ31 UTTW 272030 RRA
METAR UTST 272030Z 14001KT 2200 BR SCT066CB BKN100 02/02 Q1029
R88/CLRD70 TEMPO 1000 BR=
####018000075####
SABC40 FBSK 272100
METAR FBSK 272100Z 13006KT CAVOK 22/15 Q1017 NOSIG=
####018001195####
SAAG01 SABM 272100
METAR SAAR 272100Z  11008KT 9999  FEW026  29/16
Q1014=
METAR SABE 272100Z  11013G23KT CAVOK 23/16 Q1016=
METAR SACO 272100Z  23004KT 5000 -DZ SCT003
BKN008  19/17 Q1019=
METAR SADF 272100Z  09013KT 9999  FEW040  24/17
Q1016=
METAR SAEZ 272100Z 11007KT 070V150 CAVOK 26/13 Q1016=
METAR SAME 272100Z 14006KT 9999 SCT040TCU SCT045 21/15 Q1017=
METAR SANT 272100Z  14009KT 3000 DZ BR BKN004 OVC030
20/19 Q1015=
METAR SAOC 272100Z NIL=
METAR SARC 272100Z  23007KT 8000  -TSRA SCT007
SCT020 OVC040 FEW050CB  24/22 Q1011=
METAR SARE 272100Z NIL=
METAR SARF 272100Z  23003KT 9999  SCT020  28/24
Q1009=
METAR SARI 272100Z  18006KT 9999  FEW020 SCT080
BKN200  25/24 Q1011=
METAR SARL 272100Z NIL=
METAR SARP 272100Z  14004KT CAVOK 26/21 Q1011=
METAR SASA 272100Z NIL=
METAR SASJ 272100Z NIL=
METAR SAVC 272100Z  05015KT CAVOK 22/08 Q1010=
METAR SAWE 272100Z NIL=
METAR SAWG 272100Z  27025G38KT 9999  FEW035  28/07
Q0999=
METAR SAWH 272100Z  09004KT 9999  BKN045 BKN100
10/07 Q0993=
METAR SAZM 272100Z  18006KT 9999  FEW025  17/07
Q1019=
METAR SAZN 272100Z  36009KT 9999  FEW045  29/11
Q1014=
METAR SAZS 272100Z NIL=
####018001645####
SAEU KAWN 272100 RRN
METAR LEAS 272100Z VRB01KT 9000 -DZ FEW028 BKN040 08/06 Q1027 TEMPO
      RA=
METAR LEBB 272100Z 10003KT 9999 SCT035 07/06 Q1028 NOSIG=
METAR LEBL 272100Z 21013KT 9999 FEW025 12/06 Q1019 NOSIG=
METAR LEPA 272100Z 00000KT 9999 FEW022 05/04 Q1021 NOSIG=
METAR LERS 272100Z 26008KT 210V320 CAVOK 10/M05 Q1019=
METAR LEVC 272100Z 34019KT 320V020 CAVOK 12/M03 Q1021 NOSIG=
METAR LEVX 272100Z 27003KT 230V310 9999 SCT024 BKN027 09/06 Q1029 NOSIG=
METAR LEZG 272100Z 31021KT 280V340 CAVOK 06/00 Q1024=
METAR LEZL 272100Z 35001KT CAVOK 14/08 Q1025 NOSIG=
METAR LFCR 272100Z AUTO 30007KT 9999 NSC 01/M03 Q1023=
METAR LFJL 272100Z AUTO 26005KT 9999 NSC 03/M01 Q1022=
METAR LFKB 272100Z 25007KT 210V300 9999 FEW033 09/02 Q1013 NOSIG=
METAR LFLY 272100Z AUTO 35004KT 9999 NSC 04/M00 Q1023=
METAR LFML 272100Z 32024KT CAVOK 07/M00 Q1016 NOSIG=
METAR LFMP 272100Z AUTO 31010KT 280V350 9999 NSC 09/M04 Q1023=
METAR LFOH 272100Z AUTO 17005KT 9999 NSC 05/01 Q1022=
METAR LFRO 272100Z AUTO 17008KT 9999 NSC 06/03 Q1021=
METAR LFSO 272100Z AUTO 26004KT 9999 NSC 01/M01 Q1022=
METAR LFSX 272100Z AUTO 31002KT 4300 BR SCT047 OVC064 03/01 Q1022=
METAR LFTH 272100Z AUTO VRB01KT 9999 NSC 06/03 Q1013=
METAR LRBC 272100Z AUTO 35003KT 320V030 4300NDV FEW001/// BKN003///
      07/07 Q1016=
METAR LRCL 272100Z 00000KT CAVOK 06/06 Q1013=
METAR LROP 272100Z 05009KT 7000 FEW030 07/06 Q1013 R88/09//95 TEMPO
      5000 BR=
METAR LRSV 272100Z AUTO 19003KT 100V260 4700NDV FEW004/// SCT006///
      OVC012/// ///// Q1015=
METAR LRTC 272100Z AUTO 01010KT 9999NDV SCT060/// BKN210/// 07/06 Q1014=
####018001753####
SAEU KAWN 272100 RRL
METAR LFBC 272100Z AUTO 00000KT 9999 NSC 06/04 Q1027=
METAR LFBD 272100Z AUTO 24003KT 9999 NSC 05/01 Q1026=
METAR LFBM 272100Z AUTO 30004KT 9999 NSC 04/01 Q1027=
METAR LFBT 272100Z AUTO 26005KT 9999 NSC 04/M01 Q1027=
METAR LFBY 272100Z AUTO 25001KT 9999 // NCD 07/04 Q1027=
METAR LFBZ 272100Z AUTO 33003KT 9999 FEW046 BKN150 BKN170 08/03 Q1028=
METAR LFKF 272100Z AUTO 00000KT 3400 BR NCD 03/02 Q1013=
METAR LFKJ 272100Z AUTO 05003KT 9999 NSC 07/05 Q1013=
METAR LFKS 272100Z AUTO 27006KT 250V310 9999 NSC 08/05 Q1013=
METAR LFLB 272100Z AUTO 01013KT 9999 FEW034 SCT049 OVC056 05/00 Q1021=
METAR LFLL 272100Z 34009KT CAVOK 03/00 Q1022 NOSIG=
METAR LFLX 272100Z AUTO 00000KT 9999 NSC 03/01 Q1024=
METAR LFMC 272100Z AUTO 20004KT 140V250 9999 ////// 07/01 Q1014=
METAR LFMK 272100Z AUTO 30017KT 9999 NSC 06/M00 Q1024=
METAR LFMY 272100Z AUTO 33024G35KT 9999 NSC 07/M01 Q1016=
METAR LFOB 272100Z AUTO 26002KT 9999 NSC 01/M01 Q1023=
METAR LFPO 272100Z 29004KT CAVOK 02/M02 Q1024 NOSIG=
METAR LFRL 272100Z AUTO 18009KT 150V210 9999 BKN016 BKN024 OVC032 07/06
      Q1021=
METAR LFRM 272100Z AUTO 17002KT 9999 NSC 02/M00 Q1024=
METAR LFSL 272100Z AUTO 25002KT 9999 NSC 01/M02 Q1024=
METAR LFST 272100Z AUTO 28005KT 9999 OVC058 05/01 Q1021=
METAR LJLJ 272100Z 00000KT 9999 BKN028 04/01 Q1014 NOSIG=
METAR LJMB 272100Z 00000KT CAVOK 01/M00 Q1014=
METAR LJPZ 272100Z VRB02KT CAVOK 04/01 Q1013=
METAR LRBM 272100Z AUTO 28003KT 6000NDV FEW012/// SCT210/// 06/05 Q1014=
METAR LRCK 272100Z 04012KT CAVOK 08/08 Q1012 NOSIG=
METAR LROD 272100Z AUTO 03010KT 9000NDV OVC080/// 07/04 Q1014=
METAR LRTM 272100Z 00000KT 8000 NSC 05/04 Q1013=
METAR LRTR 272100Z 36007KT 7000 NSC 07/07 Q1013=
####018001768####
SAEU KAWN 272100 RRM
METAR LFBI 272100Z AUTO 19001KT 9999 NSC 03/00 Q1025=
METAR LFBL 272100Z AUTO 28003KT 9999 BKN036 BKN045 OVC054 04/M01 Q1024=
METAR LFBO 272100Z AUTO 30006KT 270V330 9999 NSC 07/M01 Q1026=
METAR LFBP 272100Z AUTO 17002KT 9999 NSC 04/01 Q1027=
METAR LFLC 272100Z VRB03KT 9999 SCT053 BKN073 04/M02 Q1023 NOSIG=
METAR LFLS 272100Z AUTO 35009KT 280V030 9999 FEW024 OVC054 03/M01 Q1021=
METAR LFMI 272100Z AUTO 34028KT 9999 NSC 07/M03 Q1016=
METAR LFMN 272100Z 32006KT CAVOK 08/05 Q1013 NOSIG=
METAR LFMT 272100Z 33014KT CAVOK 08/M05 Q1020 NOSIG=
METAR LFMU 272100Z AUTO 31016KT 9999 NSC 08/M04 Q1022=
METAR LFOP 272100Z AUTO 17004KT 9999 NSC 01/M02 Q1023=
METAR LFPB 272100Z AUTO VRB02KT 9999 NSC 03/M02 Q1024=
METAR LFPG 272100Z VRB02KT CAVOK 04/M02 Q1023 NOSIG=
METAR LFQB 272100Z AUTO 29004KT 9999 NSC 01/M02 Q1023=
METAR LFQQ 272100Z VRB02KT CAVOK 02/M00 Q1022 NOSIG=
METAR LFRB 272100Z 19011KT 8000 -RADZ BKN013 OVC026 07/05 Q1020 NOSIG=
METAR LFRD 272100Z AUTO 16005KT 9999 NSC 06/02 Q1022=
METAR LFRI 272100Z AUTO 22003KT 9999 NSC 05/02 Q1025=
METAR LFRN 272100Z AUTO 20005KT 9999 NSC 06/03 Q1023=
METAR LFRS 272100Z 21004KT CAVOK 06/03 Q1024 NOSIG=
METAR LFRZ 272100Z AUTO 24006KT 9999 NSC 08/03 Q1024=
METAR LFSB 272100Z 27009KT 9999 -RA FEW012 SCT030 BKN050 03/02 Q1021
      NOSIG=
METAR LFSI 272100Z AUTO 00000KT 9999 NSC M00/M02 Q1023=
METAR LFSN 272100Z AUTO 29004KT 250V330 9999 NSC 04/M01 Q1022=
METAR LRAR 272100Z AUTO 01007KT 5000NDV R09////// R27/P2000 BR NCD
      07/06 Q1013=
METAR LRBS 272100Z 03008KT 360V060 6000 FEW005 07/07 Q1013 NOSIG=
METAR LRSB 272100Z 00000KT 9999 BKN066 06/04 Q1013=
METAR LRSM 272100Z AUTO 01001KT 6000NDV SCT085/// OVC110/// 05/04 Q1014=
####018001777####
SAEW KAWN 272100 RRD
METAR LFBC 272100Z AUTO 00000KT 9999 NSC 06/04 Q1027=
METAR LFBG 272100Z AUTO 24003KT 9999 NSC 05/02 Q1026=
METAR LFBM 272100Z AUTO 30004KT 9999 NSC 04/01 Q1027=
METAR LFBT 272100Z AUTO 26005KT 9999 NSC 04/M01 Q1027=
METAR LFBY 272100Z AUTO 25001KT 9999 // NCD 07/04 Q1027=
METAR LFBZ 272100Z AUTO 33003KT 9999 FEW046 BKN150 BKN170 08/03 Q1028=
METAR LFKF 272100Z AUTO 00000KT 3400 BR NCD 03/02 Q1013=
METAR LFKJ 272100Z AUTO 05003KT 9999 NSC 07/05 Q1013=
METAR LFKS 272100Z AUTO 27006KT 250V310 9999 NSC 08/05 Q1013=
METAR LFLB 272100Z AUTO 01013KT 9999 FEW034 SCT049 OVC056 05/00 Q1021=
METAR LFLL 272100Z 34009KT CAVOK 03/00 Q1022 NOSIG=
METAR LFLX 272100Z AUTO 00000KT 9999 NSC 03/01 Q1024=
METAR LFMC 272100Z AUTO 20004KT 140V250 9999 ////// 07/01 Q1014=
METAR LFMK 272100Z AUTO 30017KT 9999 NSC 06/M00 Q1024=
METAR LFMO 272100Z AUTO 35021G33KT 9999 NSC 06/M02 Q1018=
METAR LFMY 272100Z AUTO 33024G35KT 9999 NSC 07/M01 Q1016=
METAR LFOA 272100Z AUTO 00000KT 9999 NSC 01/M03 Q1024=
METAR LFOB 272100Z AUTO 26002KT 9999 NSC 01/M01 Q1023=
METAR LFOE 272100Z AUTO 19004KT 9999 NSC 01/M01 Q1023=
METAR LFOJ 272100Z AUTO 24003KT 9999 NSC 01/M01 Q1024=
METAR LFPC 272100Z AUTO VRB01KT 9999 ////// 00/M02 Q1023=
METAR LFPO 272100Z 29004KT CAVOK 02/M02 Q1024 NOSIG=
METAR LFPV 272100Z AUTO 29002KT 9999 NSC 03/M02 Q1023=
METAR LFRJ 272100Z AUTO 19010KT 9999 FEW036 OVC100 06/05 Q1020=
METAR LFRL 272100Z AUTO 18009KT 150V210 9999 BKN016 BKN024 OVC032 07/06
      Q1021=
METAR LFRM 272100Z AUTO 17002KT 9999 NSC 02/M00 Q1024=
METAR LFSL 272100Z AUTO 25002KT 9999 NSC 01/M02 Q1024=
METAR LFST 272100Z AUTO 28005KT 9999 OVC058 05/01 Q1021=
METAR LFYR 272100Z AUTO 00000KT 0800 FZFG NSC M01/M02 Q1025=
####018001763####
SAEW KAWN 272100 RRE
METAR LFBD 272100Z AUTO 24003KT 9999 NSC 05/01 Q1026=
METAR LFBI 272100Z AUTO 19001KT 9999 NSC 03/00 Q1025=
METAR LFBL 272100Z AUTO 28003KT 9999 BKN036 BKN045 OVC054 04/M01 Q1024=
METAR LFBO 272100Z AUTO 30006KT 270V330 9999 NSC 07/M01 Q1026=
METAR LFBP 272100Z AUTO 17002KT 9999 NSC 04/01 Q1027=
METAR LFCR 272100Z AUTO 30007KT 9999 NSC 01/M03 Q1023=
METAR LFLC 272100Z VRB03KT 9999 SCT053 BKN073 04/M02 Q1023 NOSIG=
METAR LFLS 272100Z AUTO 35009KT 280V030 9999 FEW024 OVC054 03/M01 Q1021=
METAR LFMI 272100Z AUTO 34028KT 9999 NSC 07/M03 Q1016=
METAR LFMN 272100Z 32006KT CAVOK 08/05 Q1013 NOSIG=
METAR LFMT 272100Z 33014KT CAVOK 08/M05 Q1020 NOSIG=
METAR LFMU 272100Z AUTO 31016KT 9999 NSC 08/M04 Q1022=
METAR LFOP 272100Z AUTO 17004KT 9999 NSC 01/M02 Q1023=
METAR LFPB 272100Z AUTO VRB02KT 9999 NSC 03/M02 Q1024=
METAR LFPG 272100Z VRB02KT CAVOK 04/M02 Q1023 NOSIG=
METAR LFQB 272100Z AUTO 29004KT 9999 NSC 01/M02 Q1023=
METAR LFQQ 272100Z VRB02KT CAVOK 02/M00 Q1022 NOSIG=
METAR LFRB 272100Z 19011KT 8000 -RADZ BKN013 OVC026 07/05 Q1020 NOSIG=
METAR LFRD 272100Z AUTO 16005KT 9999 NSC 06/02 Q1022=
METAR LFRI 272100Z AUTO 22003KT 9999 NSC 05/02 Q1025=
METAR LFRN 272100Z AUTO 20005KT 9999 NSC 06/03 Q1023=
METAR LFRO 272100Z AUTO 17008KT 9999 NSC 06/03 Q1021=
METAR LFRS 272100Z 21004KT CAVOK 06/03 Q1024 NOSIG=
METAR LFRZ 272100Z AUTO 24006KT 9999 NSC 08/03 Q1024=
METAR LFSB 272100Z 27009KT 9999 -RA FEW012 SCT030 BKN050 03/02 Q1021
      NOSIG=
METAR LFSI 272100Z AUTO 00000KT 9999 NSC M00/M02 Q1023=
METAR LFSN 272100Z AUTO 29004KT 250V330 9999 NSC 04/M01 Q1022=
METAR LFSO 272100Z AUTO 26004KT 9999 NSC 01/M01 Q1022=
METAR LFTH 272100Z AUTO VRB01KT 9999 NSC 06/03 Q1013=
####018000978####
SAJP51 RJTD 272100
METAR RJAA 272100Z 31013KT CAVOK 03/M07 Q1021 NOSIG=
METAR RJBB 272100Z 35010KT 9999 FEW025 BKN050 05/M02 Q1026 NOSIG=
METAR RJCC 272100Z 36011KT 9999 -SHSN FEW015 BKN045 M02/M07 Q1017=
METAR RJFS 272100Z 03011KT CAVOK 03/M04 Q1026=
METAR RJFF 272100Z 07005KT 030V100 9999 FEW045 SCT/// 04/M03 Q1027=
METAR RJFK 272100Z 03003KT 350V060 9999 FEW020 BKN025 03/M01 Q1023=
METAR RJFR 272100Z 08009KT 350V130 9999 FEW030 SCT/// 05/M00 Q1027=
METAR RJGG 272100Z 31020KT 9999 FEW025 05/M03 Q1025 NOSIG=
METAR RJOH 272100Z 04011KT 9999 -SHRASN FEW030 BKN040 05/M04 Q1028=
METAR RJOO 272100Z 33006KT 9999 FEW030 SCT050 BKN070 04/M02 Q1026=
METAR RJSS 272100Z 29009KT 9999 FEW020 02/M05 Q1019=
METAR RJTT 272100Z 33012KT CAVOK 04/M07 Q1021 NOSIG=
METAR ROAH 272100Z 10011KT 9999 FEW015 SCT050 BKN100 18/15 Q1018=
METAR ROIG 272100Z 18005KT 9999 -RA FEW010 BKN040 22/21 Q1016=
METAR RJAH 272100Z 16003KT 130V240 9999 FEW030 01/M06 Q1020=
####018000046####
SAAS01 EGGY 272100
METAR KQHN 272100Z NIL=
####018000027####
SASP36 LEMM 272100
NIL=
####018000074####
SAJM31 MKJP 272100
METAR MKJP 272100Z 14022KT 9999 FEW024 30/23 Q1013=
####018000303####
SACZ43 LKPW 272100
METAR LKCV 272100Z 00000KT 9999 BKN043 06/02 Q1015 NOSIG=
METAR LKKB 272100Z 24005KT 9999 BKN040 01/M01 Q1015 NOSIG=
METAR LKLN 272100Z AUTO 19001KT CAVOK 03/M02 Q1015=
METAR COR LKNA 272100Z 14002KT 9999 OVC017 03/02 Q1014=
METAR LKPD 272100Z VRB02KT 9999 OVC041 04/02 Q1015=
####018000084####
SPUS51 KWBC 272105
SPECI
KBKW 272101Z AUTO 34008KT 10SM FEW028 M07/M14 A3040=
####018000417####
SARO41 LROM 272100
METAR LRBC 272100Z AUTO 35003KT 320V030 4300NDV FEW001/// BKN003///
07/07 Q1016=
METAR LRCV 272100Z 04006KT CAVOK 08/05 Q1012=
METAR LRIA 272100Z 23002KT 0550 R14/0600V1400 FG SCT002 SCT004
03/03 Q1016 R14/19//95=
METAR LRSV 272100Z AUTO 19003KT 100V260 4700NDV FEW004/// SCT006///
OVC012/// ///// Q1015=
METAR LRTC 272100Z AUTO 01010KT 9999NDV SCT060/// BKN210/// 07/06
Q1014=
####018000423####
SARO41 LROM 272100
METAR LRAR 272100Z AUTO 01007KT 5000NDV R09////// R27/P2000 BR NCD
07/06 Q1013=
METAR LRBM 272100Z AUTO 28003KT 6000NDV FEW012/// SCT210/// 06/05
Q1014=
METAR LRCL 272100Z 00000KT CAVOK 06/06 Q1013=
METAR LROD 272100Z AUTO 03010KT 9000NDV OVC080/// 07/04 Q1014=
METAR LRSM 272100Z AUTO 01001KT 6000NDV SCT085/// OVC110/// 05/04
Q1014=
METAR LRTM 272100Z 00000KT 8000 NSC 05/04 Q1013=
####018000078####
SAAT31 TAPA 272102
METAR TAPA 272100Z 08013KT 9999 BKN018 26/21 Q1017 NOSIG=####018000832####
SACI31 ZBBB 272100
METAR ZBAA 272100Z 14002MPS 8000 -SN SCT010 M02/M04 Q1028 NOSIG=
METAR ZBSJ 272100Z 17002MPS 3000 -SN BR OVC046 M01/M02 Q1028 NOSIG=
METAR ZBTJ 272100Z 21003MPS 170V230 6000 -SN OVC026 M02/M03 Q1029
NOSIG=
METAR ZBYN 272100Z 16001MPS 2000 -SN BR NSC M03/M05 Q1024 NOSIG=
METAR ZGGG 272100Z 09002MPS 9999 OVC020 20/17 Q1015 NOSIG=
METAR ZSHC 272100Z 09002MPS 5000 SHRA BR SCT008 BKN020
06/03
Q1023 NOSIG=
METAR ZSPD 272100Z 05005MPS 9999 -RA BKN015 05/04 Q1024 BECMG TL2130
BKN012=
METAR ZSSS 272100Z 05003MPS 9999 -RA BKN009 OVC040 05/04 Q1024
 NOSIG=
METAR ZWSH 272100Z 31003MPS 6000 SCT040 03/M02 Q1026 NOSIG=
METAR ZWWW 272100Z VRB01MPS CAVOK M05/M09 Q1034 NOSIG=
METAR ZYTL 272100Z 30002MPS CAVOK M03/M07 Q1029 NOSIG=
METAR ZYTX 272100Z 12002MPS CAVOK M05/M11 Q1028 NOSIG=
####018000084####
SPUS81 KWBC 272105
SPECI
KBKW 272101Z AUTO 34008KT 10SM FEW028 M07/M14 A3040=
####018000200####
SAKY31 RUMS 272100
METAR UCFM 272100Z 29003MPS 8000 SCT066 M04/M05 Q1031 R26/CLRD70
NOSIG=
METAR UCFO 272100Z 18002MPS 1200 R12/P2000 BR FEW050 SCT098 M00/M01
Q1028 R12/CLRD70 TEMPO 1000 BR FU=
####018000169####
SAAY31 RUMS 272100
METAR UDYZ 272100Z VRB01MPS 6000 FEW100 M00/M04 Q1022 R09/0///70
NOSIG=
METAR UDSG 272100Z 08002MPS 2600 BR NSC M08/M09 Q1022 R02/CLRD70
NOSIG=
####018001238####
SAKZ31 RUMS 272100
METAR UAAA 272100Z 14002MPS 2600 BR FU SCT100 M04/M07 Q1031
R88/CLRD65 NOSIG=
METAR UAAH 272100Z NIL=
METAR UADD 272100Z 16001MPS 9999 NSC M02/M04 Q1031 NOSIG RMK
QFE715/0954=
METAR UACC 272100Z 23004MPS CAVOK M13/M14 Q1033 R22/0/0070 NOSIG RMK
QFE743/0991=
METAR UACK 272100Z 27006MPS CAVOK M06/M11 Q1030 R20/410360 NOSIG RMK
QFE748/0998=
METAR UACP 272100Z NIL=
METAR UAII 272100Z 09003MPS CAVOK 01/M03 Q1030 R28/0///70 NOSIG RMK
QFE735/0980=
METAR UAKK 272100Z 24005MPS 6000 OVC004 M09/M10 Q1033 R23/920555
NOSIG RMK QBB130 QFE727/0970=
METAR UAOO 272100Z 05003MPS CAVOK M03/M07 Q1034 NOSIG RMK
QFE764/1018=
METAR UASK 272100Z 14005MPS 9999 BKN080 M05/M10 Q1034 R12/820248
NOSIG RMK QFE750/1000=
METAR UASP 272100Z 25005MPS CAVOK M07/M11 Q1028 R21/0///60 NOSIG RMK
QFE759/1013=
METAR UASS 272100Z NIL=
METAR UARR 272100Z NIL=
METAR UATE 272100Z 11008MPS CAVOK M01/M04 Q1029 R12/0///70 NOSIG RMK
QFE770/1027=
METAR UATG 272100Z 10004MPS 5000 BR NSC M06/M06 Q1033 R14/CLRD70
NOSIG RMK QFE777/1036=
METAR UATT 272100Z 11001MPS 1100 R13/1900 BR NSC M16/M17 Q1037
R13/0///60 NOSIG RMK QFE757/1010=
METAR UAUU 272100Z 24002MPS 4000 BR FEW200 M14/M16 Q1033 R15/CLRD60
NOSIG RMK QFE758/1011=
####018000400####
SATA31 RUMS 272100
METAR UTDD 272100Z 28004MPS 9999 SCT025 BKN029 OVC051 03/01 Q1027
R09/CLRD// NOSIG RMK QFE701/0935=
METAR UTDK 272100Z 22002MPS 9999 SCT020 BKN030CB OVC040 03/01 Q1027
0109//70 RMK QFE712/0950=
METAR UTDT 272100Z 15002MPS 4500 BR SCT023CB OVC046 04/03 Q1028
35CLRD70 RMK QFE731/0975=
METAR UTDL 272100Z 25002MPS 5000 BR OVC045 04/02 Q1029 NOSIG RMK
QFE734/0978 88CLRD70=
####018000945####
SACI32 ZBBB 272100
METAR ZGKL 272100Z VRB01MPS 9999 -RA SCT020 OVC040 13/10 Q1015
NOSIG=
METAR ZGNN 272100Z 09001MPS 5000 BR NSC 21/20 Q1011 NOSIG=
METAR ZGOW 272100Z 11003MPS 9999 SCT013 BKN026 16/14 Q1018 NOSIG=
METAR ZGSZ 272100Z 11005MPS 9999 FEW014 BKN050 20/16 Q1014 NOSIG=
METAR ZLXY 272100Z VRB01MPS 1800 BR SCT030 OVC040 00/M02 Q1028
NOSIG=
METAR ZMUB 272100Z 00000MPS 9999 SCT100 M15/M18 Q1017 NOSIG
RMK
QFE655.3 76 NT=
METAR ZPPP 272100Z 20005MPS CAVOK 11/02 Q1019 NOSIG=
METAR ZSAM 272100Z 09003MPS 050V120 9999 BKN019 OVC040 14/12 Q1019
NOSIG=
METAR ZSFZ 272100Z 36001MPS 5000 BR SCT005 BKN009 OVC013 09/08 Q1021
NOSIG=
METAR ZSNB 272100Z VRB01MPS 4000 -RA BR SCT003 OVC016 05/05 Q1023
NOSIG=
METAR ZSQD 272100Z VRB01MPS CAVOK M00/M09 Q1029 NOSIG=
METAR ZUGY 272100Z 02003MPS 9999 FEW011 BKN018 OVC033 07/05 Q1016
NOSIG=
METAR ZUUU 272100Z 36002MPS 310V020 9999 SCT050 10/04 Q1018 NOSIG=
####018000579####
SARS18 KAWN 272100 RRB
METAR BIKF 272100Z 05017KT 9999 FEW020 SCT130 OVC150 M00/M03 Q0977=
METAR LUKK 272100Z 36007KT 9999 BKN015 06/04 Q1016 R08/65D NOSIG=
METAR UBBB 272100Z 17010KT CAVOK 06/05 Q1026 88CLRD70 NOSIG=
METAR UHHH 272100Z METAR 00000MPS CAVOK M18/M20 Q1023 NOSIG=
METAR UKBB 272100Z 22003MPS 8000 OVC018 03/03 Q1018 88190060 NOSIG=
METAR UKLL 272100Z 13003MPS 9999 OVC031 05/03 Q1015 13CLRD80 NOSIG=
METAR UKOO 272100Z 03003MPS CAVOK 08/07 Q1015 16090060 NOSIG=
METAR UTAA 272100Z 12003MPS 9999 FEW041CB OVC041 04/01 Q1031 R12/70D
      NOSIG=
####018001086####
SPZZ40 KAWN 272105
SPECI CWCL 272101Z AUTO 34006KT 9SM M04/M09 A3000=
SPECI CYAH 272059Z AUTO 26007KT 4SM HZ SCT021 BKN026 OVC036 M22/M27
      A2986 RMK SLP153=
SPECI CYLW 272059Z AUTO 34016KT 9SM OVC055 07/M04 A2991 RMK SLP141=
SPECI CYSF 272102Z AUTO 27015G22KT 9SM FEW026 M14/M18 A3011 RMK SLP223=
SPECI CYUS 272059Z AUTO 21022KT 1/8SM OVC015 M19/ A2927=
SPECI EHEH 272057Z AUTO 23003KT 9999 NCD 00/M01 Q1022 BLU 23005KT CAVOK=
SPECI KCOF 272103Z AUTO 34016G21KT 10SM -RA VCTS OVC007 13/13 A3017
      RMK AO2 LTG DSNT E TSE03=
SPECI KNFL 272100Z 26025G38KT 3SM -RA SCT030 BKN050 OVC060 07/02 A2968
      RMK AO2 PK WND 26033/2057 PRESRR WR// P0000 T00670017=
SPECI KTCM 272103Z AUTO 02006KT 10SM -RA BKN008 BKN027 OVC032 09/09
      A2974 RMK AO2 $=
SPECI PASC 272100Z 27025G28KT 4SM -SN BLSN BKN031 BKN044 M08/M12 A3015
      RMK AO2 PK WND 27028/2100 P0000 T10831117=
SPECI YSNF 272100Z 09016KT 5000 -SHRA FEW010 SCT012 BKN018 22/20 Q1012=
SPECI YSRI 272100Z AUTO 00000KT 0300 // OVC001 19/19 Q1011 RMK AUTO
      OBSCURATION CODES REMOVED=
####018001615####
SAXN17 KAWN 272100 RRF
METAR MKJP 272100Z 14022KT 999 FEW024 30/23 Q1013=
METAR MMTJ 272102Z RTD 19010KT 8SM BKN035 17/08 A2985 RMK SLP110 57010
      975 8/500 HZY=
METAR MRPV 272100Z 08017KT 9999 FEW045 26/14 A2994 NOSIG=
METAR MSSS 272050Z 18005KT 9999 FEW033 31/20 Q1012 A2990=
METAR MYGF 272100Z 02010KT 9999 VCSH SCT018TCU BKN250 26/24 A3006 RMK
      TCU/VCSH SE=
METAR PASY 272056Z COR 33013KT 9SM -SN SCT030 OVC037 M03/M10 A3029
      RMK AO2 SNB17 SLP259 6//// T10281100 53024 $=
METAR PKMJ 272057Z 07014KT 5SM SHRA SCT014TCU BKN045 OVC110 26/25 A2978
      RMK TCU ALQDS=
METAR PTKK 272055Z VRB05KT 15SM FEW014 SCT120 OVC280 26/24 A2977 RMK
      SLP083 8/171 T02610243 52015=
METAR RJAA 272100Z 31013KT CAVOK 03/M07 Q1021 NOSIG RMK A3016=
METAR RJCC 272100Z 36011KT 9999 -SHSN FEW015 BKN045 M02/M07 Q1017 RMK
      1ST015 5CU045 A3003=
METAR RJFF 272100Z 07005KT 030V100 9999 FEW045 SCT/// 04/M03 Q1027
      RMK 1SC045 A3034=
METAR RJOO 272100Z 33006KT 9999 FEW030 SCT050 BKN070 04/M02 Q1026 RMK
      1CU030 3SC050 5AC070 A3032=
METAR RJTT 272100Z 33012KT CAVOK 04/M07 Q1021 NOSIG RMK A3016=
METAR ROAH 272100Z 10011KT 9999 FEW015 SCT050 BKN100 18/15 Q1018 RMK
      1CU015 3SC050 5AC100 A3006=
METAR TGPY 272100Z 09012KT 9999 FEW018 SCT034 28/23 Q1013 NOSIG=
METAR TKPK 272100Z 08020KT 9999 FU SCT019 28/22 Q1017=
METAR TLPL 272100Z 08022KT 9999 FEW028 28/20 Q1015 NOSIG=
METAR VHHH 272100Z 09025KT 9999 FEW010 SCT020 19/16 Q1014 NOSIG=
METAR YBBN 272100Z 00000KT 9999 VCSH FEW018 SCT065 25/21 Q1010 INTER
      2100/2400 3000 SHRA BKN012=
####018001311####
SANA14 KAWN 272100 RRC
METAR KNFL 272056Z 26030G38KT 7SM -RA SCT035 BKN060 BKN120 08/00 A2968
      RMK AO2 PK WND 25038/2054 RAB53 PRESRR SLP032 P0000 60000
      T00830000 55022=
METAR KNGP 272056Z 05022G27KT 5SM -RA BR BKN010 OVC020 11/08 A3019
      RMK AO2 PK WND 06028/2034 RAB56 SLP223 P0000 60000 T01060083
      58023=
METAR KNGU 272059Z 02015KT 8SM SCT029 BKN036 01/M04 A3047 RMK AO2 SLP316
      T00111044 53018=
METAR KNMM 272056Z 06009KT 10SM CLR 08/M06 A3039 RMK AO2 SLP302 T00831056
      56024=
METAR KNSI 272057Z AUTO 31022G36KT 10SM OVC013 A2983 RMK AO2 PK WND
      31036/2050 SLPNO 58009 $=
METAR KNTD 272056Z COR 26012KT 10SM FEW027 SCT250 19/12 A2981 RMK AO2
      SLP096 T01940117 58019 $=
METAR KNYL 272057Z 24004KT 10SM FEW100 24/06 A2968 RMK AO2 SLP047 T02390056
      58024=
METAR KSZL 272058Z AUTO 12004KT 10SM CLR M07/M17 A3056 RMK AO2 SLP369
      T10681173 56023 $=
METAR KVBG 272055Z COR 32021G28KT 10SM SCT015 BKN020 BKN250 16/12 A2986
      RMK AO2 PK WND 32030/2011 BKN020 V SCT SLP102 T01610117
      58012 COR 2057=
METAR MSLP 272050Z 20008KT 150V240 9999 FEW037 31/23 Q1008 A2978=
METAR SEGU 272100Z 02006KT 9999 FEW023 BKN100 29/22 Q1007 NOSIG RMK
      A2976=
METAR TDPD 272100Z 11009KT 9999 FEW017 SCT070 27/21 Q1016=
####018000871####
SANA35 KAWN 272100 RRC
METAR KNGU 272059Z 02015KT 8SM SCT029 BKN036 01/M04 A3047 RMK AO2 SLP316
      T00111044 53018=
METAR MKJP 272100Z 14022KT 999 FEW024 30/23 Q1013=
METAR MWCR 272100Z 09014KT 9999 FEW018 29/23 Q1015 NOSIG=
METAR MYGF 272100Z 02010KT 9999 VCSH SCT018TCU BKN250 26/24 A3006 RMK
      TCU/VCSH SE=
METAR SCAR 272100Z 20009KT CAVOK 26/15 Q1011=
METAR SCBA 272100Z 30021KT CAVOK 28/06 Q1010=
METAR SCDA 272100Z 18015KT CAVOK 27/15 Q1012=
METAR SCEL 272100Z 18011KT CAVOK 28/09 Q1012 NOSIG=
METAR SCFA 272100Z 18009KT 9999 FEW040 23/12 Q1012 NOSIG=
METAR SCIE 272100Z 23009KT CAVOK 21/14 Q1014=
METAR SCTE 272100Z 22010KT 8000 SKC 22/11 Q1013 NOSIG=
METAR SPSO 272100Z 23014KT 190V250 CAVOK 27/19 Q1010 RMK SCT230 BIRD
      HAZARD RWY 22/04 PP000=
METAR TFFF 272100Z AUTO 05012KT 020V080 9999 BKN060 OVC074 25/21 Q1015=
####018001625####
SABZ11 SBBR 272105
METAR SBBE 272100Z 09002KT 9999 4000S -TSRA FEW015 BKN025 FEW030CB BK
N100
 23/22 Q1010=
METAR SBBR 272100Z 26003KT 9999 FEW040 FEW045TCU BKN100 25/17 Q1016=
METAR SBBV 272100Z 04009KT 9999 SCT035 FEW040TCU BKN100 30/18 Q1009=
METAR SBCF 272100Z 31008KT 9999 BKN040 FEW045TCU SCT100 20/18 Q1015 R
ETS=
METAR SBCG 272100Z 27006KT 9999 FEW030 FEW035TCU 27/21 Q1012=
METAR SBCR 272100Z 31002KT 9999 FEW020 33/23 Q1007=
METAR SBCT 272100Z 28008KT 9999 SCT045 FEW050TCU BKN100 23/16 Q1014=
METAR SBCY 272100Z 35003KT 9999 FEW020 32/20 Q1009=
METAR SBCZ 272100Z 24003KT 9999 FEW008 SCT030 BKN100 26/25 Q1009 RETS
=
METAR SBEG 272100Z 02004KT 9999 SCT020 SCT100 31/22 Q1008=
METAR SBFI 272100Z 14003KT 9999 SCT030 FEW040TCU BKN100 26/23 Q1010 R
ETS=
METAR SBFL 272100Z 14007KT 9999 SCT030 FEW035TCU SCT100 27/22 Q1008=
METAR SBFZ 272100Z 07006KT 9999 FEW020 27/22 Q1010=
METAR SBGL 272100Z 13009KT CAVOK 28/22 Q1007=
METAR SBGR 272100Z 31005KT 9999 SCT045 FEW050TCU BKN100 28/20 Q1011=
METAR SBKP 272100Z 32007KT 9999 FEW040 FEW045TCU 27/18 Q1011=
METAR SBMO 272100Z 10009KT 9999 SCT020 24/20 Q1011=
METAR COR SBMQ 272100Z 08005KT 9999 SCT020 31/25 Q1008=
METAR SBNT 272100Z 11010KT 9999 FEW023 28/22 Q1010=
METAR SBPA 272100Z 18012KT 9999 BKN035 FEW045TCU 25/22 Q1010=
METAR SBPP 272100Z 00000KT 5000 -RA SCT017 BKN070 21/20 Q1012=
METAR SBRF 272100Z 09007KT 9999 FEW023 28/22 Q1010=
METAR SBSL 272100Z 03009KT 9999 SCT020 28/22 Q1009=
METAR SBSN 272100Z 30001KT 9999 FEW030TCU 30/25 Q1008=
METAR SBSV 272100Z 06008KT 9999 SCT017 27/22 Q1009=
METAR SBTT 272100Z 31004KT 9999 FEW020 FEW025TCU 32/24 Q1007=
####018000148####
SATD31 TTPP 272100
METAR
TTPP 272100Z 08010KT 9999 FEW016 SCT036 26/23 Q1013 NOSIG=
TTCP 272100Z 04010KT 9999 FEW016 BKN038 28/21 Q1014 NOSIG=
####018001282####
SAAU32 AMMC 272100
METAR YAMB 272100Z AUTO 00000KT 9999 // SCT035 OVC047 24/21 Q1010=
METAR YBCG 272100Z AUTO 23004KT 9999 // NCD 22/21 Q1010=
METAR YBHM 272100Z AUTO 00000KT 9999 // NCD 27/22 Q1008=
METAR YBMA 272100Z AUTO 00000KT 9999 // NCD 24/24 Q1007=
METAR YBRK 272100Z 13003KT 9999 FEW016 25/22 Q1009=
METAR YBRM 272100Z AUTO 00000KT 9999 // SCT020 SCT024 BKN031 26/26 Q1006=
METAR YCIN 272100Z AUTO 25003KT //// // ////// 25/25 Q1006=
METAR YFRT 272100Z AUTO 21016KT //// // ////// 21/20 Q1009=
METAR YMAV 272100Z AUTO 03007KT 9999 -SHRA SCT071 SCT100 OVC125 18/15 Q1005=
METAR YMHB 272100Z 03005KT 9999 SCT030 BKN180 14/08 Q1005=
METAR YMLT 272100Z AUTO 18001KT 9999 // NCD 10/08 Q1006=
METAR YPEA 272100Z AUTO 16007KT //// // NCD 19/13 Q1014=
METAR YPGV 272100Z 28004KT 9999 FEW015 BKN260 25/24 Q1006=
METAR YPKG 272100Z AUTO 15009KT 9999 // OVC024 20/14 Q1014=
METAR YPPD 272100Z AUTO 25005KT 9999 // NCD 27/24 Q1007=
METAR YSCB 272100Z 36003KT 9999 FEW020 BKN180 17/16 Q1012=
METAR YSDU 272100Z AUTO 09010KT 9999 // NCD 20/18 Q1010=
METAR YSNF 272100Z 09016KT 5000 -SHRA FEW010 SCT012 BKN018 22/20 Q1012=
METAR YSRI 272100Z AUTO 00000KT 0300 // OVC001 19/19 Q1011=
METAR YWLM 272100Z AUTO 00000KT 0700 // OVC001 18/18 Q1011=

####018001733####
SAEU KAWN 272100 RRO
METAR LEAB 272100Z 31009KT CAVOK 08/M04 Q1022 NOSIG=
METAR LEAL 272100Z 25006KT 210V270 CAVOK 11/06 Q1022 NOSIG=
METAR LEAM 272100Z 34010KT 310V010 9999 FEW020 19/02 Q1020=
METAR LECO 272100Z VRB02KT 9999 OVC022 09/06 Q1028 NOSIG=
METAR LEGE 272100Z VRB01KT 9999 FEW060 03/M02 Q1020=
METAR LEGR 272100Z VRB02KT 9999 FEW030 09/06 Q1024=
METAR LEIB 272100Z 00000KT CAVOK 07/05 Q1021 NOSIG=
METAR LELC 272100Z 08006KT 030V120 CAVOK 14/07 Q1022 NOSIG=
METAR LEMD 272100Z 16003KT CAVOK 07/M02 Q1024 NOSIG=
METAR LEMG 272100Z 29009KT 260V330 9999 FEW050 16/07 Q1023 NOSIG=
METAR LEMH 272100Z 01023G35KT 9999 FEW028 09/02 Q1018=
METAR LEPP 272100Z 33005KT 9999 SCT028 03/01 Q1026=
METAR LEST 272100Z VRB02KT 5000 -DZ SCT007 BKN016 06/05 Q1029 TEMPO
      BKN014=
METAR LETO 272100Z 05004KT CAVOK 07/M02 Q1024 NOSIG=
METAR LEVT 272100Z 32007KT 290V350 9999 FEW025 SCT045 04/02 Q1027=
METAR LEXJ 272100Z 22003KT 9999 FEW035 OVC044 09/05 Q1028=
METAR LFBA 272100Z AUTO 27005KT 9999 NSC 05/M00 Q1026=
METAR LFMH 272100Z AUTO 32005KT 9999 NSC 03/M02 Q1022=
METAR LFOT 272100Z 24001KT CAVOK 04/M00 Q1024 NOSIG=
METAR LFPM 272100Z AUTO 27002KT 9999 NSC 02/M02 Q1023=
METAR LFPN 272100Z AUTO 28002KT 9999 NSC 01/M03 Q1023=
METAR LFRC 272100Z AUTO 18008KT 9999 NSC 04/02 Q1021=
METAR LFRH 272100Z AUTO 20009KT 9999 -RA BKN031 OVC038 08/05 Q1022=
METAR LFRQ 272100Z AUTO 18005KT 9999 FEW023 SCT041 BKN049 07/05 Q1021=
METAR LFSD 272100Z AUTO 02002KT 9999 NSC 01/M02 Q1023=
METAR LFTW 272100Z AUTO 34013KT 9999 NSC 06/M04 Q1019=
METAR LRCV 272100Z 04006KT CAVOK 08/05 Q1012=
METAR LRIA 272100Z 23002KT 0550 R14/0600V1400 FG SCT002 SCT004 03/03
      Q1016 R14/19//95=
####018000500####
SAAU69 AMMC 272100
METAR YSTW 272100Z AUTO 16007KT 9999 // SCT076 20/15 Q1012=
METAR YSWG 272100Z 08007KT CAVOK 21/11 Q1008=
METAR YTEF 272100Z AUTO 29011KT //// // ////// 29/20 Q1008=
METAR YTNK 272100Z AUTO 01011KT 9999 // NCD 27/23 Q1008=
METAR YTRE 272100Z AUTO 33003KT //// // ////// 19/19 Q1010=
METAR YWGT 272100Z AUTO 07001KT //// // ////// 19/11 Q1008=
METAR YWHA 272100Z AUTO 36005KT 9999 // NCD 21/14 Q1003=
METAR YWLM 272100Z AUTO 00000KT 0700 // OVC001 18/18 Q1011=

####018000145####
SAAK41 KNKA 272104
SPECI PACM 272103Z AUTO 17020G25KT 3SM BR BKN007 BKN012 OVC110 
 M01/M01 A3016 RMK AO2 PWINO FZRANO TSNO CIG 006V011 $=
####018001498####
SAUS20 KNKA 272104
METAR K4A6 272055Z AUTO 34007KT 10SM CLR 04/M09 A3044 RMK AO2=
METAR K96D 272055Z AUTO 24010G15KT 10SM M10/M17 A3033 RMK AO2=
METAR K9D7 272055Z AUTO 23011KT 10SM CLR M09/M16 A3027 RMK AO2=
METAR KANQ 272135Z AUTO 24006KT 10SM CLR M09/M17 A3055 RMK=
METAR KCBG 272101Z AUTO 20008KT 10SM CLR M08/M17 A3046 RMK AO2=
SPECI KCLM 272103Z AUTO 06007KT 030V100 7SM -RA BKN007 BKN012 OVC026 
 07/06 A2981 RMK AO2 CIG 006V010 P0000 T00720061=
SPECI KDTO 272103Z 03010KT 1/2SM -SN FZFG VV014 M04/M06 A3044 RMK 
 AO2 P0000 T10441061=
SPECI KEYW 272103Z 02011KT 10SM OVC010 22/20 A3006 RMK AO2 T02220200=
SPECI KGRR 272103Z 25007KT 4SM -SN BR FEW012 BKN018 BKN035 M08/M12 
 A3054 RMK AO2 P0000 T10831122=
SPECI KGUP 272103Z AUTO 26008KT 1 3/4SM -SN SCT013 BKN028 OVC040 
 02/M01 A2979 RMK AO2 P0000 T00171011=
METAR KHRT 272058Z AUTO 04012KT 10SM CLR 14/M03 A3026 RMK AO2 SLP249
 T01401029 57020 $=
METAR KIMM 272115Z AUTO 03012KT 8SM OVC015 A3014 RMK A01 P000 =
METAR KMMT 272058Z 12004KT 10SM FEW050 SCT250 15/00 A3033 RMK AO2A
 SLP274 T01510003 55014=
METAR KNCA 272056Z 36009KT 10SM CLR 10/M01 A3037 RMK AO2 SLP286 T01001011=
SPECI KOKC 272103Z 07007KT 3SM -SN BKN015 OVC055 M07/M12 A3047 RMK 
 AO2 P0000=
SPECI KXNA 272103Z 07007KT 1SM R17/4000VP6000FT -SN BKN020 OVC036 
 M08/M12 A3050 RMK AO2 P0000 T10781117=
SPECI PACM 272103Z AUTO 17020G25KT 3SM BR BKN007 BKN012 OVC110 
 M01/M01 A3016 RMK AO2 PWINO FZRANO TSNO CIG 006V011 $=
####018000115####
SAUK37 EGGY 272050 RRA
METAR EGPI 272050Z AUTO 18019KT 160V220 9999 FEW012/// BKN021///
     06/05 Q1003 RERA=
####018000094####
SAUK38 EGGY 272050 RRA
METAR EGPU 272050Z AUTO 20027KT 3700 BR OVC005/// 06/06 Q0999 RERA=
####018000027####
SASP38 LEMM 272100
NIL=
