####018000134####
SPUS90 KWBC 132110

SPECI KSMP 132105Z AUTO 27010G25KT 220V300 2 1/2SM -SN BR 00/M02

     A2932 RMK AO2 SNB2058 P0000 T00001017=

####018000112####
SAUS41 KAKQ 132109

MTRNGU

SPECI KNGU 132108Z 34006KT 9SM SCT012 BKN019 14/11 A3000 RMK AO2

T01440111 $

####018000146####
SAGY31 SYCJ 132100

METAR SYLT 132100Z 22008KT 9999 FEW022CB 30/24 Q//// NOSIG RMK CB
 E,S=
METAR SYMB 132100Z NIL=
METAR SYKM 132100Z NIL=
####018000575####
SPUS99 KWBC 132110

SPECI

PABA 132108Z AUTO 29017KT 2 1/2SM -SN BR BKN004 BKN012 OVC080

     M17/M18 A2964 RMK AO2 P0000 FZRANO=

PASM 132108Z AUTO 18005KT 3/4SM UP BR OVC007 M01/M01 A2937 RMK AO2

     CIG 002V009 P0000 FZRANO=

KEWB 132107Z 03003KT 10SM SCT006 OVC024 11/10 A2988 RMK AO2

     T01110100=

KM19 132108Z AUTO 04007KT 3/4SM HZ CLR 15/02 A3021 RMK AO2=

KMLF 132107Z AUTO 20026G37KT 10SM CLR 13/M09 A2992 RMK AO2 PK WND

     20037/2101 WSHFT 2053 T01331089=

KOPF 132107Z 07006KT 10SM SCT030 BKN037 OVC047 27/23 A2997 RMK AO2

     T02670228=

####018000357####
SAUS99 KWBC 132110

METAR

KEHO 132055Z AUTO 22003KT 10SM CLR 23/05 A3000 RMK AO2

     T02280047=

KGPH 132115Z AUTO 12007KT 10SM CLR 08/M07 A3017 RMK AO2=

KHAE 132115Z AUTO 00000KT 10SM CLR 07/M12 A3023 RMK AO2=

KI43 132115Z AUTO 30006KT 10SM CLR 13/00 A3013 RMK AO2=

KRPD 132115Z AUTO 16008KT 10SM CLR M01/M08 A3008 RMK AO2

     T10081081=

####018000108####
SPPQ50 KWBC 132110

SPECI

PTPN 132107Z 11003KT 15SM SCT018 BKN130 OVC300 28/25 A2987 RMK

     FIRST=

####018000458####
SAXX60 KWBC 132100 RRN

METAR

KHIF 132058Z 20018G25KT 10SM OVC090 09/M08 A2982 RMK AO2A PK WND

     19029/03 SLP095 MIDFLD WND 20017G23KT T00851081 56033=

KLFI 132056Z AUTO 01004KT 10SM BKN020 14/14 A3000 RMK AO2 CIG 017

     RWY26 SLP165 T01410139 52012 $=

PHNG 132057Z 07008G18KT 10SM SCT031 28/19 A3014 RMK AO2 SLP202

     6//// T02830189 50005 PNO $=

TTPP 132100Z 09006KT 9999 VCSH FEW010CB 28/24 Q1009 NOSIG RMK

     CB/VCSH-SW/W/NW=

####018000438####
SPUS80 KWBC 132110

SPECI

KAKQ 132106Z AUTO 00000KT 10SM SCT017 16/13 A2998 RMK AO2

     T01610128=

PANN 132106Z AUTO 09004KT 3SM -SN SCT018 BKN039 OVC110 M09/M12

     A2936 RMK AO2 SNB2059 P0000 T10891122 TSNO=

KSMP 132105Z AUTO 27010G25KT 220V300 2 1/2SM -SN BR 00/M02 A2932

     RMK AO2 SNB2058 P0000 T00001017=

KMLF 132107Z AUTO 20026G37KT 10SM CLR 13/M09 A2992 RMK AO2 PK WND

     20037/2101 WSHFT 2053 T01331089=

####018000401####
SAUS70 KWBC 132110

METAR

KCPF 132115Z AUTO 32005KT 10SM SCT060 16/02 A3012 RMK AO2=

KSTF 132115Z AUTO 00000KT 10SM CLR 21/07 A3015 RMK AO2=

KGPH 132115Z AUTO 12007KT 10SM CLR 08/M07 A3017 RMK AO2=

KHAE 132115Z AUTO 00000KT 10SM CLR 07/M12 A3023 RMK AO2=

KI43 132115Z AUTO 30006KT 10SM CLR 13/00 A3013 RMK AO2=

KRPD 132115Z AUTO 16008KT 10SM CLR M01/M08 A3008 RMK AO2

     T10081081=

####018000110####
SPXX60 KWBC 132110

SPECI

KNGU 132108Z 34006KT 9SM SCT012 BKN019 14/11 A3000 RMK AO2

     T01440111 $=

####018000657####
SPUS70 KWBC 132110

SPECI

PACM 132107Z AUTO 00000KT 4SM BR OVC004 01/01 A2938 RMK AO2 CIG

     003V007 FZRANO PNO $=

PACM 132107Z AUTO 00000KT 4SM BR OVC004 01/01 A2938 RMK AO2 CIG

     003V007 FZRANO PNO $=

PABA 132108Z AUTO 29017KT 2 1/2SM -SN BR BKN004 BKN012 OVC080

     M17/M18 A2964 RMK AO2 P0000 FZRANO=

PASM 132108Z AUTO 18005KT 3/4SM UP BR OVC007 M01/M01 A2937 RMK AO2

     CIG 002V009 P0000 FZRANO=

KEWB 132107Z 03003KT 10SM SCT006 OVC024 11/10 A2988 RMK AO2

     T01110100=

KM19 132108Z AUTO 04007KT 3/4SM HZ CLR 15/02 A3021 RMK AO2=

KOPF 132107Z 07006KT 10SM SCT030 BKN037 OVC047 27/23 A2997 RMK AO2

     T02670228=

####018000307####
SAUS70 KWBC 132100 RRX

METAR

KOJA 132050Z AUTO 16005KT 10SM BKN028 OVC035 12/00 A3011 RMK AO2

     T01251004=

KEBS 132055Z AUTO 16017KT 10SM CLR 04/M03 A3007 RMK AO2=

KSQL 132055Z 04003KT 10SM SCT025 OVC080 15/08 A3011=

KEHO 132055Z AUTO 22003KT 10SM CLR 23/05 A3000 RMK AO2

     T02280047=

####018000118####
SAXX60 KWBC 132100 CCF

METAR

KNKX 132055Z 27008KT 10SM CLR 19/10 A3008 RMK AO2 SLP183 T01940100

     58016 $=

####018000093####
SAUS80 KWBC 132110

METAR

KM25 132115Z AUTO 04004KT 10SM CLR 13/00 A3022 RMK AO2 PWINO=

####018000142####
SAAF31 KWBC 132100 RRA

METAR

DIAP 132100Z 20007KT 9999 TS SCT012 FEW020CB 28/26 Q1013 TEMPO

     BKN012 FEW020CB=

DIBK 132100Z NIL=

####018000053####
SAAF32 KWBC 132100 RRA

METAR

FHAW 132100Z NIL=

####018000089####
SAAF34 KWBC 132100 RRA

METAR

FYWB 132100Z AUTO 36005KT //// // ////// 15/12 Q1017=

####018000865####
SAAG31 KWBC 132100

METAR

SAAG NIL=

SAAP NIL=

SAAR 132100Z 05011KT CAVOK 32/11 Q1006=

SABE 132100Z 10014KT CAVOK 22/17 Q1010 NOSIG=

SACO 132100Z 05016KT 9999 FEW040 30/09 Q1005 NOSIG=

SADD NIL=

SAEZ 132100Z 09008KT CAVOK 26/8 Q1010 NOSIG=

SAME 132100Z 18002KT 9999 FEW040CB SCT045 28/14 Q1004=

SARC 132100Z NIL=

SARC 132100Z 27008KT CAVOK 33/13 Q1006=

SARE 132100Z 13004KT CAVOK 34/13 Q1006=

SARF 132100Z 14004KT 9999 FEW025 BKN200 33/18 Q1005=

SARI 132100Z 18004KT 9999 FEW030 33/15 Q1007=

SARP 132100Z 27009KT 9999 FEW040 33/15 Q1007=

SASA 132100Z 36009KT 9999 FEW025 FEW035CB 29/16 Q1008=

SASJ 132100Z 02008KT 9999 SCT035 FEW040CB 32/15 Q1006=

SAWE 132100Z NIL=

SAWG 132100Z 27013KT 9999 VCSH SCT025 BKN080 16/M04 Q0993=

SAZM 132100Z 06015KT CAVOK 20/16 Q1011=

SAZS 132100Z 30022KT 8000 SHRA SCT022 SCT040 09/04 Q1013=

####018000073####
SAAG31 KWBC 131700 RRB

METAR

SARF 131700Z NIL=

SASJ 131700Z NIL=

####018000133####
SAAG31 KWBC 131900 RRB

METAR

SAME 131900Z NIL=

SARF 131900Z NIL=

SARI 131900Z NIL=

SASJ 131900Z NIL=

SAWE 131900Z NIL=

####018000113####
SAAG31 KWBC 131600 RRB

METAR

SARC 131600Z NIL=

SARE 131600Z NIL=

SARF 131600Z NIL=

SAWE 131600Z NIL=

####018000053####
SAAG31 KWBC 131800 RRB

METAR

SAWE 131800Z NIL=

####018000053####
SAAG31 KWBC 132000 RRC

METAR

SARF 132000Z NIL=

####018000383####
SAAG41 KWBC 132100

METAR

SAAC NIL=

SAAV NIL=

SAGS NIL=

SANE NIL=

SANT 132100Z 05006KT 8000 FEW040 FEW050CB BKN100 33/19 Q1003=

SANU NIL=

SAOR NIL=

SARL 132100Z 09005KT CAVOK 31/12 Q1007 RMK ESTIMATED WIND=

SATM NIL=

SAVC 132100Z 29014KT 240V330 9999 SCT045TCU 25/05 Q1002=

SAVT NIL=

SAZB NIL=

SAZN 132100Z NIL=

SAZN 132100Z 00000KT CAVOK 26/09 Q1008=

####018000053####
SAAG41 KWBC 131700 RRA

METAR

SAVC 131700Z NIL=

####018000053####
SAAG41 KWBC 131900 RRA

METAR

SAVC 131900Z NIL=

####018000053####
SAAG41 KWBC 131600 RRA

METAR

SAVC 131600Z NIL=

####018000073####
SAAG41 KWBC 131800 RRA

METAR

SAVC 131800Z NIL=

SAZN 131800Z NIL=

####018000225####
SAAO32 KWBC 132100 RRA

METAR

GABS 132100Z 05007KT CAVOK 25/06 Q1017 NOSIG=

GAGO 132100Z NIL=

GAMB 132100Z 00000KT CAVOK 23/18 Q1016=

GANR 132100Z 08004KT CAVOK 26/03 Q1016=

GATB 132100Z NIL=

GQNI 132100Z NIL=

####018000340####
SAAO33 KWBC 132100 RRA

METAR

GFLL 132100Z 26009KT 9999 FEW013 30/23 Q1012=

GGOV 132100Z NIL=

GLRB 132100Z 00000KT 9999 SCT014 26/25 Q1012 NOSIG=

GOGG 132100Z NIL=

GOGS 132100Z NIL=

GOOY 132100Z NIL=

GOSS 132100Z NIL=

GOTT 132100Z 06006KT 8000 NSC 25/08 Q1013=

GUCY 132100Z NIL=

GULB 132100Z NIL=

GUNZ 132100Z NIL=

####018000587####
SAAS31 KWBC 132105

METAR

VAAH NIL=

VABB NIL=

VABG NIL=

VAGO NIL=

VANP NIL=

VANY NIL=

VCBI NIL=

VECC NIL=

VEPT NIL=

VGEG NIL=

VGZR NIL=

VIAR NIL=

VIBN NIL=

VIDP 132100Z 00000KT 1500 R28/P2000 R29/P2000 BR NSC 15/12 Q1016

     NOSIG=

VNKT NIL=

VOBG NIL=

VOCI 132100Z 00000KT 2000 BR SCT006 SCT012 BKN080 26/25 Q1008

     NOSIG=

VOHY NIL=

VOMM 132100Z 07005KT 4000 BR SCT018 FEW025TCU BKN100 28/27 Q1010

     NOSIG=

VONY NIL=

VOTR NIL=

VOTV NIL=

VQPR NIL=

VQTU NIL=

VRMM NIL=

VTBS 132100Z 06004KT 9000 FEW030 24/16 Q1010 NOSIG=

####018000087####
SAAS31 KWBC 132030 RRE

METAR

VNKT 132050Z VRB02KT 7000 FEW015 11/10 Q1021 NOSIG=

####018000343####
SAAS32 KWBC 132105

METAR

RKPC 132100Z 12007KT 9999 SCT020 14/11 Q1027 NOSIG=

RKPK 132100Z 35002KT CAVOK 09/05 Q1029=

RKSS 132100Z 34002KT 0050 R14R/0250N R14L/0250N FG VV001 05/05

     Q1030 NOSIG=

VHHH 132100Z 06006KT 9999 FEW040 23/13 Q1016 NOSIG=

VMMC NIL=

ZJSY 132100Z VRB01MPS 9999 BKN040 23/18 Q1010 NOSIG=

ZKPY NIL=

####018001208####
SAAS33 KWBC 132105

METAR

VBRR NIL=

VDPP 132100Z 34005KT 310V020 9999 FEW017 25/21 Q1008=

VDSR 132100Z 34001KT 9000 SCT015 SCT040 22/19 Q1009=

VLVT 132100Z NIL=

VTBA NIL=

VTBD 132100Z 00000KT 9999 FEW030 23/17 Q1011 NOSIG=

VTBU 132100Z 34005KT 7000 NSC 22/17 Q1010 NOSIG=

VTCC 132100Z VRB01KT 9999 BKN035 21/19 Q1013 NOSIG=

VTSP 132100Z VRB02KT 9999 FEW020 25/23 Q1008 NOSIG=

VTSS 132100Z 00000KT 9999 FEW020 BKN100 24/24 Q1008 NOSIG=

VVDN 132100Z 33008KT 8000 FEW015 BKN060 24/19 Q1011 NOSIG=

VVGL NIL=

VVNB 132100Z VRB01KT 9000 NSC 16/13 Q1017 NOSIG=

VVTS 132100Z 33004KT 9000 SCT015 SCT050 23/21 Q1008 NOSIG=

WBGG 132100Z NIL=

WBKK 132100Z NIL=

WBKK 132100Z 11004KT 9999 FEW014 25/24 Q1008 NOSIG=

WMAM NIL=

WMKJ 132100Z VRB01KT 9999 FEW024 25/24 Q1007=

WMKK 132100Z NIL=

WMKK 132100Z VRB03KT 7000 FEW006 FEW017CB 24/24 Q1007 NOSIG=

WMKP 132100Z NIL=

WMKP 132100Z 00000KT 7000 FEW025 25/24 Q1007 NOSIG=

WMSA 132100Z VRB01KT 5000 BR FEW006 25/24 Q1008=

WPDL NIL=

WPEC NIL=

WSAP 132100Z 03005KT 9999 FEW018 BKN300 28/25 Q1007=

WSSL 132100Z 36003KT 320V030 9999 FEW018 BKN300 27/24 Q1007=

WSSS 132100Z VRB02KT 9999 FEW018 BKN300 27/25 Q1008 NOSIG=

####018000082####
SPUS81 KWBC 132110

SPECI

KAKQ 132106Z AUTO 00000KT 10SM SCT017 16/13 A2998=

####018000722####
SABO41 KWBC 131900 RRA

METAR

SLCA 131900Z 18003KT 9999 SCT036 BKN200 33/18 Q1009=

SLCP 131900Z 30006KT 9999 BKN017 FEW030CB 30/22 Q1011=

SLJE 131900Z 32008KT 9999 SCT020 38/22 Q1009=

SLJO 131900Z NIL=

SLMG 131900Z 32006KT 8000 TS VCSH SCT017 FEW023CB BKN200 33/23

     Q1008=

SLPO 131900Z NIL=

SLRB 131900Z 00000KT 9999 SCT020 FEW025CB 34/22 Q1010=

SLRI 131900Z 03004KT 8000 VCSH SCT017 FEW020CB BKN200 34/24

     Q1007=

SLRQ 131900Z 11004KT 9999 BKN017 31/26 Q1007=

SLRY 131900Z 34006KT 9999 FEW017 SCT080 BKN200 32/25 Q1008=

SLSA 131900Z 26006KT 8000 TS VCSH BKN015 FEW023CB OVC070 24/22

     Q1009=

SLSI 131900Z 33006KT 9999 SCT017 35/22 Q1007=

SLVM 131900Z NIL=

SLYA 131900Z NIL=

####018000822####
SABO41 KWBC 132000 RRA

METAR

SLCA 132000Z 00000KT 9999 SCT036 BKN200 31/18 Q1009=

SLCO 132000Z 32007KT 9999 SCT025 36/25 Q1006=

SLCP 132000Z 00000KT 9999 BKN017 31/22 Q1010=

SLJE 132000Z 32006KT 9999 SCT020 38/22 Q1008=

SLJO 132000Z NIL=

SLMG 132000Z 18008KT 8000 TS VCSH SCT017 FEW023CB OVC200 30/23

     Q1007=

SLPO 132000Z NIL=

SLPS 132000Z 09005KT 9999 FEW017 SCT200 37/24 Q1006=

SLRB 132000Z 00000KT 9999 FEW020 FWE025CB 34/22 Q1010=

SLRI 132000Z 34006KT 7000 TS VCSH SCT017 FEW020CB BKN200 30/24

     Q1007=

SLRQ 132000Z 35006KT 8000 VCSH BKN017 FEW020CB 32/26 Q1005=

SLRY 132000Z 34006KT 9999 FEW017 BKN200 32/23 Q1006=

SLSA 132000Z 00000KT 8000 -RA BKN015 FEW023CB OVC070 24/23

     Q1008=

SLSI 132000Z 36005KT 9999 SCT017 35/23 Q1006=

SLVM 132000Z NIL=

SLYA 132000Z NIL=

####018000801####
SABO41 KWBC 132100 RRA

METAR

SLCA 132100Z 00000KT 9999 SCT036 BKN200 31/18 Q1009=

SLCO 132100Z 34008KT 9999 SCT025 34/23 Q1005=

SLCP 132100Z 00000KT 9999 BKN017 30/23 Q1010=

SLJE 132100Z 32005KT 9999 FEW020 37/22 Q1008=

SLJO 132100Z NIL=

SLMG 132100Z 18006KT 8000 TS VCSH SCT017 FEW023CB OVC200 28/23

     Q1008=

SLPO 132100Z NIL=

SLPS 132100Z 09006KT 9999 FEW017 SCT200 35/23 Q1005=

SLRB 132100Z 00000KT 9999 FEW020 34/22 Q1007=

SLRI 132100Z 36010KT 7000 VCSH SCT015 FEW020CB BKN200 28/22

     Q1008=

SLRQ 132100Z 36004KT 9999 BKN017 FEW020CB SCT200 31/26 Q1005=

SLRY 132100Z 34006KT 9999 FEW017 BKN200 32/23 Q1005=

SLSA 132100Z 36005KT 9999 SCT020 FEW023CB BKN200 24/23 Q1006=

SLSI 132100Z 33006KT 9999 SCT017 35/23 Q1005=

SLVM 132100Z NIL=

SLYA 132100Z NIL=

####018000756####
SABO41 KWBC 131600 RRB

METAR

SLCA 131600Z 18006KT 9999 FEW036 32/18 Q1014=

SLCP 131600Z 35005KT 9999 SCT017 OVC200 30/23 Q1016=

SLJO 131600Z 09004KT 9999 FEW017 BKN080 31/25 Q1011=

SLMG 131600Z 34004KT 9999 SCT017 FEW023CB 33/23 Q1011=

SLOR 131600Z 25008KT 9999 FEW017 18/03 Q1035=

SLPO 131600Z 07006KT 9999 FEW020 17/03 Q1035=

SLRB 131600Z 00000KT 9999 FEW020 31/24 Q1014=

SLRI 131600Z 01008KT 9999 SCT017 BKN080 32/24 Q1012=

SLRQ 131600Z 00000KT 9999 BKN013 BKN070 28/25 Q1011=

SLRY 131600Z 34006KT 9999 BKN015 BKN200 28/23 Q1011=

SLSA 131600Z 00000KT 7000 VCSH BKN017 FEW023CB BKN200 32/24

     Q1010=

SLSI 131600Z 33006KT 9999 SCT017 BKN200 34/22 Q1012=

SLVM 131600Z NIL=

SLYA 131600Z 06008KT 9999 FEW023 36/23 Q1010=

####018000796####
SABO41 KWBC 131800 RRA

METAR

SLCA 131800Z 18004KT 9999 FEW036 SCT200 33/18 Q1011=

SLCP 131800Z 32005KT 9999 BKN017 31/22 Q1013=

SLJE 131800Z 32008KT 9999 SCT020 37/22 Q1011=

SLJO 131800Z NIL=

SLMG 131800Z 00000KT 8000 TS VCSH BKN017 FEW023CB 33/22 Q1009=

SLOR 131800Z 21004KT 9999 FEW023 21/03 Q1033=

SLPO 131800Z NIL=

SLRB 131800Z 00000KT 9999 SCT020 FEW025CB 33/23 Q1010=

SLRI 131800Z 05006KT 8000 VCSH SCT017 FEW020CB BKN200 34/25

     Q1009=

SLRQ 131800Z 00000KT 9999 BKN015 BKN200 31/26 Q1008=

SLRY 131800Z 34008KT 9999 SCT015 BKN080 BKN200 32/25 Q1009=

SLSA 131800Z 34005KT 6000 TS VCSH FEW006 BKN015 FEW023CB OVC070

     24/23 Q1010=

SLSI 131800Z 36006KT 9999 SCT017 34/22 Q1009=

SLVM 131800Z NIL=

SLYA 131800Z 06008KT 9999 FEW023 SCT200 37/23 Q1008=

####018000209####
SACA33 KWBC 132100 RRB

METAR

TTCP 132100Z 12008KT 9999 VCSH FEW020 28/25 Q1009 NOSIG RMK VCSH

     TO N/ SW/ NW=

TTPP 132100Z 09006KT 9999 VCSH FEW010CB 28/24 Q1009 NOSIG RMK

     CB/VCSH-SW/W/NW=

####018000179####
SACA35 KWBC 132100 RRA

METAR

MGPB 132100Z 36006KT 7000 FEW020 SCT200 31/24 Q1012 A2988 HZ=

MGSJ 132100Z 18012KT 8000 FEW022TCU 30/25 Q1011 A2985 TCU

     NNE/NE/ENE HZ=

####018000075####
SACA45 KWBC 132100 RRA

METAR

MGHT 132100Z 00000KT 9999 FEW025 25/12=

####018000208####
SAIO31 KWBC 132100 RRB

METAR

WBGG 132100Z NIL=

WBKK 132100Z NIL=

WBKK 132100Z 11004KT 9999 FEW014 25/24 Q1008 NOSIG=

WBSB 132100Z NIL=

WBSB 132100Z 09001KT 9999 FEW014 BKN140 26/25 Q1008 NOSIG=

####018000140####
SAIQ32 KWBC 132100 RRA

METAR

KQAJ 132057Z 00000KT 9000 BR CLR 15/12 A3010 RMK SLP204 WND DATA

     ESTMD T01520119 402520151 56003=

####018001322####
SAEW KAWN 132100 RRG

METAR ETOU 132056Z AUTO 00000KT 9999 OVC060 09/09 A3011 RMK AO2 SLPNO

      60000 T00930093 53004 $=

METAR LFBA 132100Z AUTO 11007KT CAVOK 10/10 Q1020 NOSIG=

METAR LFKF 132100Z AUTO 06005KT CAVOK 14/12 Q1023 TEMPO BKN013=

METAR LFLW 132100Z AUTO 08008KT CAVOK 08/06 Q1022=

METAR LFLX 132100Z AUTO 14004KT CAVOK 10/09 Q1019 BECMG 3000 BR=

METAR LFMI 132100Z AUTO 11005KT CAVOK 15/13 Q1023 TEMPO 4000 BR=

METAR LFMP 132100Z AUTO VRB02KT 7000 VV/// 11/10 Q1022 TEMPO 0500 FG

      FEW015=

METAR LFOH 132100Z AUTO 19003KT CAVOK 11/10 Q1016=

METAR LFOP 132100Z AUTO 00000KT 9999 -RADZ BKN027 BKN037 OVC070 12/11

      Q1017 BECMG BKN009 BKN040=

METAR LFOT 132100Z AUTO 16005KT CAVOK 13/11 Q1018 TEMPO BKN008 BECMG

      3000 BR=

METAR LFQB 132100Z AUTO VRB03KT CAVOK 12/08 Q1019=

METAR LFRI 132100Z AUTO 17007KT 8000 OVC004 14/14 Q1017 TEMPO 0200

      FG VV///=

METAR LFRM 132100Z AUTO 18004KT 160V220 9999 SCT024 OVC033 14/12 Q1017=

METAR LFRO 132100Z AUTO 12007KT 5000 -RADZ BR BKN007 OVC013 11/11 Q1015=

METAR LFRT 132100Z AUTO 16005KT 140V200 8000 -DZ BKN006 OVC010 12/11

      Q1014=

METAR LFRZ 132100Z AUTO 19011KT 9999 BKN007 OVC014 15/14 Q1016 TEMPO

      3000 RA BECMG BKN020=

METAR LFSN 132100Z AUTO 14005KT 080V170 9999 -RA ///TCU 13/11 Q1020=

####018000511####
SASA KAWN 132100 RRF

METAR SANT 132100Z 05006KT 8000 FEW040 FEW050CB BKN100 33/19 Q1003=

METAR SBGL 132100Z 12007KT 9999 BKN014 OVC030 25/21 Q1010=

METAR SVBI 132102Z AUTO 09002KT NCD 28/24 Q1012=

METAR SVBM 132102Z AUTO 13007KT NCD 31/20 Q1011=

METAR SVBS 132102Z AUTO 23008KT NCD 30/23 Q1011=

METAR SVFM 132102Z AUTO 12006KT NCD 27/19 Q1011=

METAR SVMC 132102Z AUTO 16003KT NCD 29/23 Q1007=

METAR SVMG 132102Z AUTO 11012KT NCD 31/23 Q1008=

METAR SVMI 132102Z AUTO 06006KT NCD ///// Q1009=

####018001375####
SAXN17 KAWN 132100 RRD

METAR MGSJ 132100Z 18012KT 8000 FEW022TCU 30/25 Q1011 A2985 TCU NNE/NE/ENE

      HZ=

METAR MKJP 132100Z 14021KT 9999 VCSH SCT018 FEW022CB 29/24 Q1009=

METAR NCRG 132100Z AUTO 12007KT 070V190 9999 FEW030/// 26/20 Q1015=

METAR PAFB 132058Z COR 00000KT 1SM -SN OVC010 M10/M12 A2939 RMK A02A

      SLP967 WND DATA ESTMD ALSTG/SLP ESTMD P0000 T11021118 $ COR

      2106=

METAR PHNG 132057Z 07008G18KT 10SM SCT031 28/19 A3014 RMK AO2 SLP202

      6//// T02830189 50005 PNO $=

METAR RJCC 132100Z 30004KT 9999 FEW020 BKN060 04/02 Q1020 RMK 1CU020

      7CU060 A3013=

METAR RJFF 132100Z 15004KT 9999 FEW015 09/07 Q1026 NOSIG RMK 1CU015

      A3032=

METAR RJOO 132100Z VRB01KT 9999 FEW030 SCT040 09/08 Q1027 RMK 1CU030

      3CU040 A3033=

METAR RJTT 132100Z 35021KT 9999 FEW030 15/07 Q1023 NOSIG RMK 1CU030

      A3022=

METAR RKSS 132100Z 34002KT 0050 R14R/0250N R14L/0250N FG VV001 05/05

      Q1030 NOSIG=

METAR ROAH 132100Z 03010KT 9999 FEW030 BKN190 22/15 Q1018 RMK 1CU030

      7AC190 A3009=

METAR TGPY 132100Z 09011KT 9999 SCT017TCU 29/25 Q1009 NOSIG TCU-NE=

METAR TTCP 132100Z 12008KT 9999 VCSH FEW020 28/25 Q1009 NOSIG RMK VCSH

      TO N/ SW/ NW=

METAR TTPP 132100Z 09006KT 9999 VCSH FEW010CB 28/24 Q1009 NOSIG RMK

      CB/VCSH-SW/W/NW=

METAR ZGGG 132100Z 36006MPS 9999 BKN043 21/10 Q1017 NOSIG=

####018000560####
SAUS17 KAWN 132100 RRG

METAR KBYS 132058Z AUTO 18013KT 10SM CLR 19/M08 A3001 RMK AO2 SLP156

      T01911082 57028 $=

METAR KHIF 132058Z 20018G25KT 10SM OVC090 09/M08 A2982 RMK AO2A PK

      WND 19029/03 SLP095 MIDFLD WND 20017G23KT T00851081 56033=

METAR KHRT 132056Z 03006KT 10SM CLR 27/11 A3006 RMK AO2A SLP181 T02690114

      57010 $=

METAR KLFI 132056Z AUTO 01004KT 10SM BKN020 14/14 A3000 RMK AO2 CIG

      017 RWY26 SLP165 T01410139 52012 $=

METAR KMUO 132058Z AUTO 09012KT 10SM OVC045 03/ A2966 RMK AO2 SLP060

      60001 57026 $=

####018000395####
SAXX60 KAWN 132100 RRB

METAR PGUM 132052Z 11007KT 10SM FEW015 FEW020 SCT025 27/24 A2990 RMK

      AO2=

METAR PHNG 132057Z 07008G18KT 10SM SCT031 28/19 A3014 RMK AO2 SLP202

      6//// T02830189 50005 PNO $=

METAR RJOO 132100Z VRB01KT 9999 FEW030 SCT040 09/08 Q1027 RMK 1CU030

      3CU040 A3033=

METAR RJTT 132100Z 35021KT 9999 FEW030 15/07 Q1023 NOSIG RMK 1CU030

      A3022=

####018000227####
SANZ31 KWBC 132100

METAR

NZAA 132100Z AUTO 20003KT 9999 NCD 18/12 Q1021 NOSIG=

NZCH 132100Z AUTO 01003KT 9999 NCD 21/06 Q1010 NOSIG=

NZOH NIL=

NZWN 132100Z AUTO 36027KT 9999 FEW026/// 16/10 Q1015 NOSIG=

NZWP NIL=

####018000975####
SAHK31 VHHH 132100

METAR VHHH 132100Z 06006KT 9999 FEW040 23/13 Q1016 NOSIG=

METAR RCTP 132100Z 05013KT 9999 -RA FEW006 BKN012 BKN025 21/19

Q1019 NOSIG RMK A3009 RA AMT 0.2MM=

METAR RCKH 132100Z 05002KT 4000 BR FEW008 BKN220 23/21 Q1013 TEMPO

3000 BR RMK A2993=

METAR RCSS 132100Z 09013KT 7000 -RA FEW012 BKN030 BKN050 21/21

Q1019 NOSIG RMK A3010 RA AMT 0.4MM=

METAR RCMQ 132100Z 01008KT 9999 FEW010 BKN050 20/18 Q1013 NOSIG

RMK A2994=

METAR RCNN 132100Z NIL=

METAR RCFN 132100Z NIL=

METAR VMMC 132100Z 36013KT 9999 SCT045 23/16 Q1015 NOSIG=

METAR RPLL 132100Z 12002KT 9999 FEW025 26/24 Q1010 NOSIG RMK A2983=

METAR RPVM 132100Z 04011KT 9999 FEW020 27/25 Q1010 RMK A2983=

METAR RPMD 132100Z 02002KT 9999 FEW016 26/24 Q1009 RMK A2980=

METAR RPLB 132100Z 05005KT 020V090 9999 FEW020 26/23 Q1010 NOSIG RMK

A2983=

METAR RPLI 132100Z 27004KT 9999 FEW019 26/23 Q1009 RMK A2980=

METAR RPMZ 132100Z VRB01KT 9999 FEW017 24/23 Q1009 RMK A2980=

####018000112####
SAPA31 KWBC 132100 RRA

METAR

PTPN 132107Z 11003KT 15SM SCT018 BKN130 OVC300 28/25 A2987 RMK

     FIRST=

####018000975####
SAPR41 KWBC 132100

METAR

SPCL 132100Z 36004KT 9999 SCT020 33/21 Q1006 RMK BIRD HAZARD RWY

     02/20 PP000=

SPEC NIL=

SPEI NIL=

SPEO 132100Z NIL=

SPGM 132100Z NIL=

SPHI 132100Z 18021KT CAVOK 21/14 Q1012 RMK BIRD HAZARD RWY 19/01

     PP000=

SPHO 132100Z NIL=

SPHY 132100Z NIL=

SPJA NIL=

SPJI 132100Z NIL=

SPJL 132100Z NIL=

SPJN NIL=

SPJR 132100Z VRB03KT 9999 VCSH SCT023 BKN043 18/07 Q1025 RMK

     PP000=

SPME 132100Z /////KT 9999 SCT020 26/20 Q1011 RMK BIRD HAZARD RWY

     32/14 PP000=

SPMS 132100Z 02003KT 9999 FEW020 32/22 Q1006 RMK BIRD HAZARD RWY

     09/27 PP000=

SPNC 132100Z 06014KT 9999 FEW040 BKN100 26/14 Q1016 RMK PP000=

SPPY 132100Z NIL=

SPRU 132100Z 16012KT 9000 NSC 19/15 Q1013 RMK BR QUAD N PP000=

SPST 132100Z 29007KT 9999 VCSH SCT015TCU BKN070 31/23 Q1007 RMK

     BIRD HAZARD RWY 17/35 PP000=

SPTU 132100Z 30003KT 230V350 9999 FEW015 32/24 Q1005 RMK BIRD

     HAZARD RWY 01/19 PP000=

SPUR NIL=

####018000120####
SARA31 KWBC 132100 RRA

METAR

UTST 132100Z 23010KT 9999 -SHRA BKN029 OVC050CB 05/02 Q1025

     R88/290260 NOSIG=

####018000269####
SASA32 KWBC 132000 RRA

METAR

SLCB 132000Z 08014KT 020V170 9999 FEW036 29/01 Q1016=

SLLP 132000Z 29010G22KT 9999 FEW025 SCT200 19/M16 Q1033=

SLTJ 132000Z 13007KT 9999 SCT036 FEW040CB BKN200 25/13 Q1014=

SLVR 132000Z 34014KT 9999 SCT017 FEW030CB 32/22 Q1006=

####018000275####
SASA32 KWBC 132100 RRA

METAR

SLCB 132100Z 05008KT 340V090 9999 FEW036 27/01 Q1016=

SLLP 132100Z 30011KT 260V350 9999 FEW025 18/M19 Q1032=

SLTJ 132100Z 18010KT 9999 TS SCT036 SCT040CB BKN200 25/12

     Q1014=

SLVR 132100Z 35014KT 9999 FEW017 SCT070 31/22 Q1006=

####018000252####
SASD41 KWBC 132100 RRA

METAR

OEAH 132100Z 34014KT CAVOK 22/17 Q1016 NOSIG=

OEBA 132100Z 10006KT CAVOK 20/08 Q1022 NOSIG=

OEBH 132100Z 14004KT CAVOK 20/06 Q1018 NOSIG=

OEGN 132100Z 26003KT 9999 SCT030 FEW035CB 29/24 Q1013 RETS

     NOSIG=

####018000329####
SASD43 KWBC 132100 RRA

METAR

OEMK 132100Z NIL=

OENG 132100Z 00000KT CAVOK 18/03 Q1020 NOSIG=

OEPA 132100Z 36004KT CAVOK 17/10 Q1021 NOSIG=

OERF 132100Z 00000KT CAVOK 15/11 Q1022=

OERR 132100Z 17004KT CAVOK 15/12 Q1021 NOSIG=

OESH 132100Z 08007KT CAVOK 22/03 Q1016 NOSIG=

OESK 132100Z 12008KT CAVOK 16/08 Q1024=

####018000242####
SASD42 KWBC 132100 RRA

METAR

OEGS 132100Z 06006KT CAVOK 18/16 Q1021=

OEGT 132100Z 03004KT CAVOK 15/07 Q1021 NOSIG=

OEHL 132100Z 07004KT CAVOK 15/08 Q1023 NOSIG=

OEKK 132100Z NIL=

OEKM 132100Z 00000KT 8000 NSC 16/15 Q1025 NOSIG=

####018000321####
SASD44 KWBC 132100 RRA

METAR

OETB 132100Z 12006KT CAVOK 15/03 Q1020 NOSIG=

OETF 132100Z 32004KT CAVOK 20/10 Q1023 NOSIG=

OETR 132100Z 07010KT CAVOK 14/08 Q1023 NOSIG=

OEWD 132100Z 06006KT CAVOK 21/11 Q1016 NOSIG=

OEWJ 132100Z 35007KT CAVOK 26/17 Q1014 NOSIG=

OEYN 132100Z 00000KT CAVOK 23/16 Q1011 NOSIG=

####018000235####
SAXX61 KWBC 132100 RRB

METAR

ETAD 132056Z AUTO 00000KT 9999 SCT055 OVC080 11/11 A3008 RMK AO2

     SLP182 60000 T01070107 51001=

ETAR 132056Z AUTO 24004KT 9999 BKN060 13/13 A3011 RMK AO2 SLP202

     T01290129 50002 FZRANO=

####018000323####
SAIN31 EGGY 132100

METAR VOBL 132100Z 08007KT 5000 BR SCT008 SCT012 20/20 Q1015 NOSIG=
METAR VOCB 132100Z 00000KT 4000 BR FEW012 BKN080 23/22 Q1012 NOSIG=
METAR VOCI 132100Z 00000KT 2000 BR SCT006 SCT012 BKN080 26/25 Q1008
    NOSIG=
METAR VOCL 132100Z 06002KT 5000 BR SCT012 FEW025CB BKN080 24/22
    Q1008 NOSIG=
####018000053####
SAXX99 KWBC 131600 RRX

METAR

SADF 131600Z NIL=

####018000090####
SAXX99 KWBC 132000 RRX

METAR

SLET 132000Z 30014KT 9999 FEW017 FEW030CB 33/21 Q1006=

####018000053####
SAXX99 KWBC 131900 RRX

METAR

SAOC 131900Z NIL=

####018002238####
SAXX99 KWBC 132100 RRK

METAR

CMFM 132100Z AUTO 14005KT 01/M07 RMK AO1 SLP124 T00141072

     56033=

CMGB 132100Z AUTO 18002KT 05/ RMK AO1 6012 SLP114 T0051 50006=

CWBU 132100Z AUTO 19006KT M08/M12 RMK AO1 SOG 19 6030 SLP948

     T10841115=

CWIK 132100Z AUTO 17007KT M01/M04 RMK AO1 SOG 01 8034 SLP995

     T10081044 50010=

CWMT 132100Z AUTO 03005KT M12/M15 RMK AO1 SOG 06 1019 SLP971

     T11151154=

CZEV 132100Z AUTO 26003KT M18/M20 RMK AO1 SOG 11 3005 SLP044

     T11771198=

CZFS 132100Z AUTO 32014KT M12/M14 RMK AO1 SOG 12 2021 PK WND

     32018/2052 SLP979 T11161135=

CZHY 132100Z AUTO 32010KT M11/M13 RMK AO1 SOG 08 1020 SLP943

     T11141134=

CZSM 132100Z AUTO 35003KT M09/M10 RMK AO1 SOG 25 3012 SLP908

     T10871098=

ETOU 132100Z NIL=

ETOU 132056Z AUTO 00000KT 9999 OVC060 09/09 A3011 RMK AO2 SLPNO

     60000 T00930093 53004 $=

FYML 132100Z AUTO 19011KT //// // ////// 29/M02 Q1019=

FYOA 132100Z AUTO 10002KT //// // ////// 27/14 Q1016=

FYOW 132100Z AUTO 19001KT //// // ////// 22/12 Q1020=

FYWW 132100Z AUTO 17001KT //// // ////// 20/12 Q1023=

OEDM 132100Z 03018KT CAVOK 19/11 Q1020 NOSIG=

OEKJ 132100Z 03013KT 9000 NSC 22/17 Q1021=

SLET 132100Z 32013KT 9999 FEW017 SCT200 31/20 Q1005=

VIJP 132100Z 00000KT 2000 HZ NSC 18/11 Q1015 NOSIG=

VILK 132100Z 00000KT 2000 BR NSC 19/15 Q1015 NOSIG=

WBGB 132100Z 12003KT 080V160 9999 FEW016 25/25 Q1008=

WBGR 132100Z VRB02KT 9999 SCT016 26/25 Q1007=

WBGS 132100Z VRB02KT 9999 SCT018 25/24 Q1007=

WBGY 132100Z AUTO 00000KT //// // ////// 25/24 Q1008=

WBKL 132100Z VRB02KT 9999 FEW013 27/24 Q1008=

WBKS 132100Z VRB01KT 7000 FEW015 25/25 Q1008=

WBKT 132100Z VRB02KT 9999 FEW014 25/25 Q1008=

WBKW 132100Z NIL=

WMAU 132100Z AUTO 26004KT 230V310 //// // ////// 25/24 Q1008=

WMBA 132100Z VRB01KT 7000 FEW008 25/24 Q1007=

WMKA 132100Z VRB02KT 7000 FEW005 25/24 Q1007=

WMKB 132100Z 07004KT 040V100 7000 SCT023 25/24 Q1007 NOSIG=

WMKC 132100Z VRB02KT 9999 SCT020 24/24 Q1009=

WMKD 132100Z 00000KT 9999 FEW006 24/23 Q1008 NOSIG=

WMKI 132100Z 04005KT 010V100 7000 FEW008 25/23 Q1008=

WMKL 132100Z 00000KT 9999 FEW026 27/25 Q1007=

WMKM 132100Z 04003KT 310V110 9999 FEW028 25/24 Q1008=

WMKN 132100Z NIL=

####018000349####
SAID31 WIII 132100

METAR WIII 132100Z 18003KT 4000 HZ FEW020 27/24 Q1008 NOSIG=
METAR WIMM 132100Z 28003KT 5000 -TSRA FEW017CB SCT018 24/24 Q1007
 NOSIG=
METAR WAAA 132100Z VRB02KT 8000 FEW020 23/22 Q1008 NOSIG=
METAR WADD 132100Z 01004KT 9999 SCT017 27/24 Q1008 NOSIG=
METAR WIHH NIL=
METAR WABB NIL=
METAR WARR NIL=
METAR WIDD NIL=
####018000536####
SAZA31 KWBC 132100

METAR

FABB NIL=

FABE NIL=

FABL 132100Z AUTO VRB02KT 9999 ///////// 19/08 Q1021=

FABM NIL=

FACT 132100Z 35008KT 320V020 9999 FEW005 15/12 Q1014 NOSIG=

FADN NIL=

FAEL NIL=

FAGG 132100Z AUTO 28006KT 9999 FEW190/// 16/09 Q1013=

FAGM NIL=

FAJS NIL=

FAKT NIL=

FALW 132100Z AUTO 02002KT //// // ////// 16/13 Q1014=

FALZ NIL=

FAPB NIL=

FAPE 132100Z AUTO 22019KT CAVOK 19/15 Q1008 NOSIG=

FAPR NIL=

FASB NIL=

FAUP 132100Z AUTO 02014KT //// // ////// 30/06 Q1013=

FAWH NIL=

FAWK NIL=

####018000103####
SPUS81 KWBC 132110

SPECI

PANN 132106Z AUTO 09004KT 3SM -SN SCT018 BKN039 OVC110 M09/M12

A2936=

####018000754####
SAUS20 KNKA 132110

SPECI KBDL 132108Z 04004KT 2SM -RA BR BKN005 OVC030 06/05 A2992 RMK

    AO2 SFC VIS 4 PCPN VRY LGT P0000 T00610050=

SPECI KBYI 132109Z AUTO 20022G32KT 1 3/4SM -SN OVC015 02/M01 A2970

    RMK AO2 PK WND 21032/2104 P0002 T00171011=

SPECI KISM 132109Z 33007KT 10SM BKN020 BKN031 27/22 A3001 RMK AO2

    PNO $=

SPECI KRUT 132109Z AUTO 29003KT 7SM BKN008 OVC011 05/05 A2991 RMK

    AO2 $=

METAR KSWF 132045Z COR 20004KT 10SM SCT010 SCT017 08/08 A2991 =

SPECI KTVL 132108Z AUTO 19022G34KT 1 1/4SM -SN BKN019 BKN034 OVC060

    02/M01 A2993 RMK AO2 PK WND 19034/2104 PRESFR P0000 T00221006=

SPECI PANV 132109Z AUTO 04007KT 1 3/4SM -SN BR BKN005 OVC020 M04/M04

    A2936 RMK AO2 CIG 004V010 P0000 FZRANO TSNO=

####018000123####
SAUS44 KFWD 132110 COR

MTRNOG

METAR KNOG 132056Z AUTO 08010KT 10SM BKN043 BKN080 A2999 RMK AO2

SLPNO 56027 TSNO $

####018000144####
SAAK41 KNKA 132110

SPECI PANV 132109Z AUTO 04007KT 1 3/4SM -SN BR BKN005 OVC020 M04/M04

    A2936 RMK AO2 CIG 004V010 P0000 FZRANO TSNO=

####018000249####
SAAO21 DRRN 132100

METAR DNAA 132100Z NIL=
METAR DNCA 132100Z NIL=
METAR DNEN 132100Z NIL=
METAR DNMM 132100Z NIL=
METAR DNAK 132100Z NIL=
METAR DNKN 132100Z 29004KT CAVOK 22/11 Q1018 NOSIG=
METAR DNBE 132100Z NIL=
METAR DNGO 132100Z NIL=
####018000318####
SAIO31 FMMI 132100

METAR FMMI 132100Z 10006KT 070V130 9999 FEW017 BKN020 18/16 Q1018
NOSIG=
METAR FMMT 132100Z NIL=
METAR FMNM 132100Z 27006KT 240V310 9999 FEW020 27/22 Q1010=
METAR FMSD 132100Z 26008KT 9999 FEW016 SCT033 22/19  Q1016=
METAR FMNN 132100Z NIL=
METAR FMNA 132100Z NIL=
METAR FMMS 132100Z NIL=
####018000157####
SAID31 WIII 132100

METAR WIII NIL=
METAR WIHH NIL=
METAR WIMM NIL=
METAR WAAA NIL=
METAR WABB NIL=
METAR WARR NIL=
METAR WIDD NIL=
METAR WADD NIL=
####018000082####
SADO31 TDPD 132100

METAR TDCF 132100Z 25002KT 9999 FEW018 BKN038 29/23 Q1009=

####018000089####
SAAT31 TAPA 132100

METAR TAPA 132100Z 08009KT 050V110 9999 SCT018 27/22 Q1012 NOSIG=

####018000277####
SAAO23 DRRN 132100

METAR DNSU 132100Z NIL=
METAR DNPO 132100Z NIL=
METAR DNSO 132100Z NIL=
METAR DNYO 132100Z NIL=
METAR DNZA 132100Z NIL=
METAR DXXX 132100Z 22006KT 9999 FEW013 29/25 Q1013 NOSIG=
METAR DXNG 132100Z 02006KT CAVOK 24/14 Q1016=
METAR DXSK 132100Z NIL=
####018000330####
SAAO24 DRRN 132100

METAR DBBB 132100Z 21008KT 9999 FEW012 29/25 Q1012 NOSIG=
METAR FTTJ 132100Z NIL=
METAR FTTC 132100Z NIL=
METAR FTTY 132100Z NIL=
METAR FTTD 132100Z NIL=
METAR FTTA 132100Z 00000KT CAVOK 23/19 Q1012=
METAR DFOO 132100Z 06006KT 8000 NSC 26/13 Q1015=
METAR DFFD 132100Z 03006KT CAVOK 24/07 Q1015 NOSIG=
####018000345####
SAAO20 DRRN 132100

METAR DRRM 132100Z NIL=
METAR DRRN 132100Z 36003KT CAVOK 26/02 Q1015 NOSIG=
METAR DRRT 132100Z 08008KT CAVOK 27/05 Q1017=
METAR DRZA 132100Z NIL=
METAR DRZR 132100Z NIL=
METAR DGAA 132100Z 19006KT 9999 VCTS FEW018 FEW030CB 28/25 Q1013
NOSIG=
METAR DGTK 132100Z NIL=
METAR DGSI 132100Z NIL=
METAR DGLE 132100Z NIL=
####018001488####
SPZZ40 KAWN 132110 RRB

SPECI CWRX 132107Z AUTO 21024KT ////SM //// BKN015 BKN020 OVC100 M13/M15

      A2943=

SPECI CYDC 132107Z 17002KT 10SM -SHRA OVC028CB 03/M00 A2911 RMK CB8

      SLP873 DENSITY ALT 2400FT=

SPECI CYHE 132105Z AUTO 25010G19KT 200V310 3SM -UP BR SCT010 BKN016

      BKN026 OVC039 05/04 A2922 RMK PRESRR SLP897=

SPECI CYHE 132106Z AUTO 25010G19KT 210V310 3SM -UP BR SCT010 SCT016

      BKN026 OVC039 05/04 A2922 RMK SLP898=

SPECI CYXR 132108Z AUTO 29019KT 210V290 6SM -RA BR FEW009 BKN014 BKN021

      OVC032 02/00 A2981 RMK SLP109=

SPECI CYXS 132109Z AUTO 02002KT 9SM FEW005 M02/M03 A2911 RMK SLP890=

SPECI EHVK 132109Z AUTO 21006KT 9999 -DZ FEW014 FEW015CB SCT022 BKN027

      12/12 Q1015 WHT=

SPECI EHWO 132106Z AUTO 23005KT 9999 FEW008 BKN044 BKN052 12/12 Q1015

      BLU=

SPECI KAFF 132106Z AUTO 24015G30KT 10SM CLR 14/M15 A2984 RMK AO2 WSHFT

      05 SLP103=

SPECI KGRF 132105Z 22011G19KT 10SM -RA SCT032 10/09 A2948 RMK AO2A

      RAB05 SLP987 $=

SPECI KGRK 132108Z AUTO 14006KT 10SM FEW033 BKN046 OVC060 24/16 A3004

      RMK AO2 SLP165=

SPECI KNGU 132108Z 34006KT 9SM SCT012 BKN019 14/11 A3000 RMK AO2 T01440111

      $=

SPECI PABA 132108Z AUTO 29017KT 2 1/2SM -SN BR BKN004 BKN012 OVC080

      M17/M18 A2964 RMK AO2 P0000 FZRANO=

SPECI PACZ 132109Z AUTO 04012KT 3SM BR BKN002 BKN065 00/ A2931 RMK

      AO2 SLP931=

SPECI PASV 132107Z AUTO 00000KT 10SM -SN OVC014 M05/M05 A2935 RMK AO2

      SLP965 $=

####018000097####
SPAG SAOU 132110

SPECI SAOU 132110Z  09017G27KT 9999  SCT035

SCT045CB  19/18 Q1006 RETSRA=

####018000108####
SAAJ31 UBBB 132100

METAR UBBN 132100Z 02008KT 9999 NSC 01/M02 Q1026 R14R/CLRD//
NOSIG RMK MT OP QFE694=
####018000126####
SPCN47 CWAO 132110

SPECI CYXR 132110Z AUTO 29017G23KT 210V300 9SM -RA BKN009 BKN016 OVC026 01/00 A2982 RMK PRESRR SLP110=

####018000103####
SPCN47 CWAO 132110

SPECI CYMO 132110Z AUTO 32004KT 3SM -SN FEW015 OVC021 M01/M02 A2990 RMK SLP127=

####018000904####
SAUS20 KNKA 132110

METAR K2J9 132115Z AUTO 01005KT 10SM CLR 25/11 A3008 RMK AO2=

METAR KBRY 132115Z AUTO 29004KT 10SM CLR 14/00 A3015 RMK AO1=

METAR KCLK 132115Z AUTO 16005KT 10SM OVC030 12/00 A3011 RMK AO2=

METAR KDLL 132115Z AUTO 29006KT 10SM CLR 01/M09 A3015 RMK AO2

     T00061088=

METAR KEFT 132115Z AUTO 28007KT 10SM CLR 02/M08 A3016 RMK AO2

     T00181085=

METAR KHRT 132056Z 03006KT 10SM CLR 27/11 A3006 RMK AO2A SLP181 T02690114

      57010 $=

METAR KLFI 132056Z AUTO 01004KT 10SM BKN020 14/14 A3000 RMK AO2 CIG

      017 RWY26 SLP165 T01410139 52012 $=

METAR KPRO 132115Z AUTO 18014G19KT 10SM CLR 06/M06 A3009 RMK AO2

     T00601058=

METAR KSPA 132115Z AUTO 22006KT 10SM CLR 24/06 A2999 RMK AO2=

METAR KUNU 132115Z AUTO 26005KT 10SM CLR 00/M07 A3017 RMK AO2

     T00031072=

METAR KW96 132115Z AUTO 04004KT 10SM CLR 16/12 A2998 RMK AO1

     T01570119=

####018000125####
SPKZ31 UUUJ 132109

SPECI UARR 132109Z 28002MPS 2500 SHSN BKN008 OVC020CB M01/M02 Q1024
R04/510335 NOSIG RMK QFE765/1020=
####018000784####
SPUS99 KWBC 132111

SPECI

KBDL 132108Z 04004KT 2SM -RA BR BKN005 OVC030 06/05 A2992 RMK AO2

     SFC VIS 4 PCPN VRY LGT P0000 T00610050=

KBYI 132109Z AUTO 20022G32KT 1 3/4SM -SN OVC015 02/M01 A2970 RMK

     AO2 PK WND 21032/2104 P0002 T00171011=

KISM 132109Z 33007KT 10SM BKN020 BKN031 27/22 A3001 RMK AO2 PNO

     $=

KRUT 132109Z AUTO 29003KT 7SM BKN008 OVC011 05/05 A2991 RMK AO2

     $=

KTVL 132108Z AUTO 19022G34KT 1 1/4SM -SN BKN019 BKN034 OVC060

     02/M01 A2993 RMK AO2 PK WND 19034/2104 PRESFR P0000

     T00221006=

PANV 132109Z AUTO 04007KT 1 3/4SM -SN BR BKN005 OVC020 M04/M04

     A2936 RMK AO2 CIG 004V010 P0000 FZRANO TSNO=

PANV 132109Z AUTO 04007KT 1 3/4SM -SN BR BKN005 OVC020 M04/M04

     A2936 RMK AO2 CIG 004V010 P0000 FZRANO TSNO=

####018000898####
SAUS99 KWBC 132111

METAR

KSWF 132045Z COR 20004KT 10SM SCT010 SCT017 08/08 A2991=

K2J9 132115Z AUTO 01005KT 10SM CLR 25/11 A3008 RMK AO2=

KBRY 132115Z AUTO 29004KT 10SM CLR 14/00 A3015 RMK AO1=

KCLK 132115Z AUTO 16005KT 10SM OVC030 12/00 A3011 RMK AO2=

KDLL 132115Z AUTO 29006KT 10SM CLR 01/M09 A3015 RMK AO2

     T00061088=

KEFT 132115Z AUTO 28007KT 10SM CLR 02/M08 A3016 RMK AO2

     T00181085=

KHRT 132056Z 03006KT 10SM CLR 27/11 A3006 RMK AO2A SLP181

     T02690114 57010 $=

KLFI 132056Z AUTO 01004KT 10SM BKN020 14/14 A3000 RMK AO2 CIG 017

     RWY26 SLP165 T01410139 52012 $=

KPRO 132115Z AUTO 18014G19KT 10SM CLR 06/M06 A3009 RMK AO2

     T00601058=

KSPA 132115Z AUTO 22006KT 10SM CLR 24/06 A2999 RMK AO2=

KUNU 132115Z AUTO 26005KT 10SM CLR 00/M07 A3017 RMK AO2

     T00031072=

KW96 132115Z AUTO 04004KT 10SM CLR 16/12 A2998 RMK AO1

     T01570119=

####018000089####
SPAK32 KWBC 132111

SPECI

PACZ 132109Z AUTO 04012KT 3SM BR BKN002 BKN065 00/ A2931=

####018000110####
SPAK32 KWBC 132111

SPECI

PABA 132108Z AUTO 29017KT 2 1/2SM -SN BR BKN004 BKN012 OVC080

M17/M18 A2964=

####018000088####
SPAK32 KWBC 132111

SPECI

PASV 132107Z AUTO 00000KT 10SM -SN OVC014 M05/M05 A2935=

####018000129####
SPAW34 KWBC 132111

SPECI

UARR 132109Z 28002MPS 2500 SHSN BKN008 OVC020CB M01/M02 Q1024

R04/510335 NOSIG RMK QFE765/1020=

####018000091####
SPPQ31 KWBC 132111

SPECI

PTPN 132107Z 11003KT 15SM SCT018 BKN130 OVC300 28/25 A2987=

####018000115####
SPNL31 KWBC 132111

SPECI

EHVK 132109Z AUTO 21006KT 9999 -DZ FEW014 FEW015CB SCT022 BKN027

12/12 Q1015 WHT=

####018000102####
SPNL31 KWBC 132111

SPECI

EHWO 132106Z AUTO 23005KT 9999 FEW008 BKN044 BKN052 12/12 Q1015

BLU=

####018000103####
SPPA31 KWBC 132111

SPECI

PTPN 132107Z 11003KT 15SM SCT018 BKN130 OVC300 28/25 A2987 RMK

FIRST=

####018000129####
SPRA31 KWBC 132111

SPECI

UARR 132109Z 28002MPS 2500 SHSN BKN008 OVC020CB M01/M02 Q1024

R04/510335 NOSIG RMK QFE765/1020=

####018000083####
SPUS81 KWBC 132111

SPECI

KMLF 132107Z AUTO 20026G37KT 10SM CLR 13/M09 A2992=

####018000106####
SPCN51 CWAO 132110

SPECI CWRX 132110Z AUTO 20022G27KT ////SM //// FEW006 BKN016 OVC100 M13/M15 A2943=

####018000299####
SAAK41 KNKA 132110

SPECI PAFA 132109Z 01003KT 1 1/2SM -SN BR SCT018 BKN022 OVC035

    M09/M12 A2937 RMK AO2 TWR VIS 2 1/2 P0001 T10941117=

METAR PAFB 132058Z COR 00000KT 1SM -SN OVC010 M10/M12 A2939 RMK A02A

      SLP967 WND DATA ESTMD ALSTG/SLP ESTMD P0000 T11021118 $ COR

      2106=

####018000129####
SAUS20 KNKA 132111

METAR PHNG 132057Z 07008G18KT 10SM SCT031 28/19 A3014 RMK AO2 SLP202

      6//// T02830189 50005 PNO $=

####018001038####
SAEU KAWN 132100 RRT

METAR ETOU 132056Z AUTO 00000KT 9999 OVC060 09/09 A3011 RMK AO2 SLPNO

      60000 T00930093 53004 $=

METAR LIBA 132055Z 03002KT 7000 FEW030 13/11 Q1026 RMK FEW VIS MIN

      7000 WIND THR11 02002KT WIND THR29 /////KT WHT=

METAR LIBQ 132055Z VRB03KT CAVOK 07/06 Q1025 RMK SKC MON LIB VAL NIL

      VIS MIN 9999=

METAR LICF 132055Z 00000KT CAVOK 17/13 Q1024 RMK SKC QUK / QUL / VIS

      MAR 15 KM MON INVIS NC VIS MIN 9999=

METAR LICR 132050Z 06004KT CAVOK 14/10 Q1025 RMK VIS MIN 9999=

METAR LIEC 132055Z 05011KT CAVOK 18/15 Q1022 RMK SKC QUK / QUL / VIS

      MAR 14 KM VIS MIN 9999=

METAR LIMH 132055Z 08004KT CAVOK M05/M13 Q1026 RMK BKN BKN100 MON LIB

      VAL S FOSCHIA VIS MIN 9999=

METAR LIPB 132050Z 33001KT CAVOK 02/01 Q1026 RMK MON INVIS=

METAR LIRM 132055Z 09002KT 0800 FG SCT010 SCT070 12/11 Q1025 RMK BKN

      VIS MIN 0800 WIND THR06 05002KT AMB=

METAR LIVE 132055Z 00000KT CAVOK 02/M01 Q1024 RMK SKC VIS MIN 9999=

METAR LIVM 132055Z AUTO 05004KT //// 13/11 Q1025=

####018000442####
SARS18 KAWN 132100 RRD

METAR UAAA 132100Z VRB01MPS 2200 BR SCT100 BKN200 M03/M04 Q1022 R23R/CLRD65

      R23L/31//60 NOSIG=

METAR UACC 132100Z 20005MPS 9000 -SN OVC032 M08/M09 Q1019 R22/450350

      NOSIG RMK QFE733/0977=

METAR UKKK 132100Z 15003MPS 110V210 8000 OVC031 03/M00 Q1027 R08/70D

      NOSIG=

METAR UTDD 132100Z 28004MPS 4300 -RA BR BKN003 BKN006 OVC009 06/05

      Q1021 R09/29//50 NOSIG RMK QBB090 QFE697/0930=

####018001492####
SAEU19 KAWN 132100 RRJ

METAR EGDM 132050Z AUTO 17003KT 9999 OVC100/// 08/06 Q1013=

METAR EGDR 132050Z AUTO 19013KT 9999 // BKN043/// SCT140/// 11/08 Q1011=

METAR EGDY 132050Z AUTO 16006KT 9999 FEW047/// BKN120/// 09/06 Q1013=

METAR EGOM 132050Z AUTO 20008KT 9999 FEW020/// BKN034/// 05/04 Q1006

      RERA=

METAR EGOS 132050Z AUTO 18011KT 9999 FEW120/// 08/06 Q1010=

METAR EGOV 132050Z AUTO 21025KT 2000 FEW023/// BKN100/// 10/08 Q1008=

METAR EGPU 132050Z AUTO 20020KT 170V240 9999 -RA FEW016/// SCT035///

      09/06 Q0999=

METAR EGQK 132050Z AUTO 19010KT 9999 NCD 07/02 Q1000=

METAR EGUB 132050Z AUTO 17007KT //// // OVC100/// 09/06 Q1013=

METAR EGUW 132050Z AUTO 19006KT 9999 BKN140/// 08/06 Q1014=

METAR EGVO 132050Z AUTO 16006KT 9999 OVC120/// 08/06 Q1014=

METAR EGVP 132050Z AUTO 14001KT 9999 OVC110/// 09/06 Q1014=

METAR EGWU 132050Z AUTO 20005KT 9999 // OVC130/// 09/07 Q1014=

METAR EGXE 132050Z AUTO 14007KT 9999 BKN110/// 07/05 Q1009=

METAR EGXT 132050Z AUTO 20009KT 9999 OVC120/// 09/06 Q1012=

METAR EGXU 132050Z AUTO 15006KT 9999 OVC120/// 07/05 Q1009=

METAR EGXW 132050Z AUTO 20011KT 9999 OVC120/// 09/06 Q1012=

METAR EGYD 132050Z AUTO 21013KT 9999 // OVC110/// 09/07 Q1012=

METAR EGYM 132050Z AUTO 17007KT 9999 BKN130/// BKN170/// 08/06 Q1013=

METAR ETOU 132056Z AUTO 00000KT 9999 OVC060 09/09 A3011 RMK AO2 SLPNO

      60000 T00930093 53004 $=

METAR LTCA 132050Z 23006KT CAVOK 02/M00 Q1024 NOSIG RMK RWY07 25002KT

      SKC=

####018000633####
SPUS17 KAWN 132111 RRA

SPECI KAFF 132104Z AUTO 19019G30KT 10SM CLR 14/M14 A2985 RMK AO2 WSHFT

      00 PRESRR SLP107=

SPECI KAFF 132106Z AUTO 24015G30KT 10SM CLR 14/M15 A2984 RMK AO2 WSHFT

      05 SLP103=

SPECI KGRF 132105Z 22011G19KT 10SM -RA SCT032 10/09 A2948 RMK AO2A

      RAB05 SLP987 $=

SPECI KGRK 132108Z AUTO 14006KT 10SM FEW033 BKN046 OVC060 24/16 A3004

      RMK AO2 SLP165=

SPECI PABA 132104Z AUTO 28015KT 1 3/4SM -SN BR SCT004 BKN012 OVC085

      M17/M18 A2964 RMK AO2 P0000 FZRANO=

SPECI PABA 132108Z AUTO 29017KT 2 1/2SM -SN BR BKN004 BKN012 OVC080

      M17/M18 A2964 RMK AO2 P0000 FZRANO=

####018000095####
SPTU31 LTAA 132109

SPECI LTFJ 132109Z 03009KT 9999 SCT035 BKN080 13/10 Q1023 RESHRA
NOSIG=
####018000501####
SAMS38 WMKK 132100

METAR WBGB 132100Z 12003KT 080V160 9999 FEW016 25/25 Q1008=

METAR WBGR 132100Z VRB02KT 9999 SCT016 26/25 Q1007=

METAR WBGS 132100Z VRB02KT 9999 SCT018 25/24 Q1007=

METAR WBKL 132100Z VRB02KT 9999 FEW013 27/24 Q1008=

METAR WBKS 132100Z VRB01KT 7000 FEW015 25/25 Q1008=

METAR WBKW 132100Z NIL=

METAR WMKD 132100Z 00000KT 9999 FEW006 24/23 Q1008 NOSIG=

METAR WMKL 132100Z 00000KT 9999 FEW026 27/25 Q1007=

METAR WMKM 132100Z 04003KT 310V110 9999 FEW028 25/24 Q1008=

####018000027####
SAMS38 WMKK 132100

NIL

####018000070####
SACN88 CWAO 132110

AWR SA 2110 AUTO8 M M M M/01/M/0208/M/ M 4MMM=

####018000379####
SAGO40 FOOL 132100

METAR FOGK 132100Z NIL=
METAR FOGM 132100Z NIL=
METAR FOGO 132100Z NIL=
METAR FOGR 132100Z NIL=
METAR FOOB 132100Z NIL=
METAR  FOOG 132100Z 18009KT 9999 TS FEW008 FEW021CB 27/25 Q1013=
METAR FOOK 132100Z NIL=
METAR FOOL 132100Z 23007KT 190V260 9999 SCT013 27/25 Q1013 NOSIG=
METAR FOON 132100Z NIL=
METAR FOOR 132100Z NIL=
METAR FOOT 132100Z NIL=
####018000796####
SIIQ20 ORBI 132100

AAXX 13211

40690 42960 02603 10175 20126 40190 58004=

40650 42960 03003 10150 20077 40205 51001=

40621 42960 03401 10168 20064 40238 58004=

40674 42960 02804 10158 20050 40202 54000=

40660 42960 03104 10178 20101 40188 56009=

40689 42960 00000 10180 20130 40189 57003=

40676 42960 02602 10182 20065 40200 56004=

40665 42960 02703 10172 20113 40190 57005=

40655 42960 02802 10152 20038 40202 58002=

40680 42960 03004 10166 20110 40176 54000=

40638 42960 03302 10124 20083 40196 52002=

40608 42960 00000 10124 20083 40226 56002=

40656 42960 00000 10184 20088 40206 54000=

40670 42960 03102 10190 20060 40202 54000=

40657 42960 00000 10158 20092 40192 58003=

40672 42960 00000 10183 20091 40204 53003=

40691 42960 03002 10178 20121 40208 50000=####018000412####
SASG21 GOOY 132100

METAR GOSS 132100Z NIL=

METAR GOSP 132100Z NIL=

METAR GOOG 132100Z NIL=

METAR GOSM 132100Z NIL=

METAR GOOY 132100Z NIL=

METAR GOBD 132100Z 35009KT 9000 NSC 27/20 Q1013 NOSIG=

METAR GOOD 132100Z NIL=

METAR GOOK 132100Z NIL=

METAR GOTT 132100Z 06006KT 8000 NSC 25/08 Q1013=

METAR GOGG 132100Z NIL=

METAR GOGS 132100Z NIL=

METAR GOGK 132100Z NIL=

METAR GOTK 132100Z NIL=####018000270####
SAID33 WIII 132100

METAR WATT 132100Z 16001KT 8000 FEW019 23/21 Q1009 NOSIG=

METAR WAPP 132100Z VRB03KT 9999 FEW017CB SCT018 26/24 Q1007 NOSIGRMK

 CB TO SE=

METAR WABP NIL=

METAR WAJJ NIL=

METAR WAKK NIL=

METAR WAHS NIL=

METAR WAQQ NIL=

METAR WAHQ NIL=####018000216####
SAID32 WIII 132100

METAR WALL 132100Z 36003KT 9000 SCT020 27/25 Q1007=

METAR WAMM NIL=

METAR WIBB NIL=

METAR WIKN NIL=

METAR WIPT NIL=

METAR WIOO NIL=

METAR WIPP NIL=

METAR WAOO NIL=

METAR WADA NIL=####018000271####
SAID32 WIII 132100

METAR WAOO 132100Z AUTO 11003KT 090V150 6000 FEW140 25/25 Q1007=

METAR WADL 132100Z 00000KT 7000 SCT016 25/24 Q1009 NOSIG=

METAR WAMM NIL=

METAR WIBB NIL=

METAR WIDN NIL=

METAR WIEE NIL=

METAR WIOO NIL=

METAR WIPP NIL=

METAR WALL NIL=####018000102####
SPCN48 CWAO 132110

SPECI CYQI 132110Z 08009G17KT 1 1/2SM -RA BR VV005 06/06 A2990 RMK FG8 SLP126=

####018001308####
SAUS20 KNKA 132111

METAR K2C8 132115Z AUTO 15011KT 10SM CLR 01/M04 A2968 RMK AO2=

SPECI KAFF 132104Z AUTO 19019G30KT 10SM CLR 14/M14 A2985 RMK AO2 WSHFT

      00 PRESRR SLP107=

SPECI KAFF 132106Z AUTO 24015G30KT 10SM CLR 14/M15 A2984 RMK AO2 WSHFT

      05 SLP103=

METAR KBBP 132115Z AUTO 00000KT 10SM CLR 20/16 A3001 RMK AO2=

SPECI KBKE 132109Z AUTO 07006KT 10SM FEW008 SCT018 OVC070 03/00

    A2955 RMK AO2 SNE00 PRESRR P0000 T00330000=

METAR KBNL 132115Z AUTO 27003KT 10SM CLR 26/14 A3001 RMK AO2=

METAR KCCY 132115Z AUTO 18011KT 10SM CLR 03/M04 A3011 RMK AO2=

METAR KDCM 132115Z AUTO 00000KT 10SM CLR 21/13 A3001 RMK AO2=

METAR KEZS 132115Z AUTO 24007KT 10SM CLR 00/M05 A3013 RMK AO2

     T00001052=

METAR KGGI 132115Z AUTO 17012KT 10SM CLR 07/M05 A3017 RMK AO2

     T00651055=

SPECI KGVQ 132110Z AUTO 29014KT 10SM SCT030 OVC047 08/03 A2996 RMK

    AO2=

METAR KIFA 132115Z AUTO 16012KT 10SM CLR 04/M06 A3012 RMK AO2

     T00421056=

METAR KMCJ 132115Z AUTO 12009KT 9SM OVC050 23/20 A3004 RMK A01=

METAR KORS 132115Z AUTO 29004KT 10SM FEW047 FEW055 FEW065 09/06

     A2934 RMK AO2=

METAR KRRL 132115Z AUTO 21005KT 10SM CLR M01/M07 A3008 RMK AO2

     T10101075 TSNO=

METAR KY51 132115Z AUTO 24005KT 10SM CLR 01/M05 A3014 RMK AO1

     T00071053=

####018000112####
SPPM31 MPTO 132110

SPECI MPTO 132110Z 25004KT 6000 TSRA SCT008 SCT016CB BKN080 25/23
Q1010 RWY WET NOSIG =
####018000162####
SAID33 WIII 132100

METAR WABP NIL=

METAR WAJJ NIL=

METAR WAKK NIL=

METAR WAPP NIL=

METAR WARS NIL=

METAR WIAT NIL=

METAR WATT NIL=

METAR WALR NIL=####018000089####
SPAU32 AMMC 132111

SPECI YAMB 132111Z AUTO 05001KT 9999 // SCT001 20/19 Q1012=





####018000089####
SPAU60 AMMC 132111

SPECI YAMB 132111Z AUTO 05001KT 9999 // SCT001 20/19 Q1012=





####018000095####
SAGD31 TGPY 132130

METAR TGPY 132000Z 09014KT 9999 SCT017 30/26 Q1009 NOSIG RMK CB

TOP-SSW=####018000126####
SPCN47 CWAO 132111

SPECI CYXR 132111Z AUTO 29016G23KT 220V300 9SM -RA SCT009 BKN014 BKN019 OVC031 01/00 A2982 RMK SLP111=

####018000129####
SPCN42 CWAO 132111

SPECI CYHE 132111Z AUTO 26009G19KT 220V310 6SM -UP BR FEW010 SCT026 SCT031 OVC039 06/04 A2922 RMK SLP898=

####018000082####
SPAU36 YBBN 132111

SPECI YAMB 132111Z AUTO 05001KT 9999 // SCT001 20/19 Q1012=
####018000511####
SPUS99 KWBC 132112

SPECI

PAFA 132109Z 01003KT 1 1/2SM -SN BR SCT018 BKN022 OVC035 M09/M12

     A2937 RMK AO2 TWR VIS 2 1/2 P0001 T10941117=

KAFF 132104Z AUTO 19019G30KT 10SM CLR 14/M14 A2985 RMK AO2 WSHFT

     00 PRESRR SLP107=

KAFF 132106Z AUTO 24015G30KT 10SM CLR 14/M15 A2984 RMK AO2 WSHFT

     05 SLP103=

KBKE 132109Z AUTO 07006KT 10SM FEW008 SCT018 OVC070 03/00 A2955

     RMK AO2 SNE00 PRESRR P0000 T00330000=

KGVQ 132110Z AUTO 29014KT 10SM SCT030 OVC047 08/03 A2996 RMK

     AO2=

####018001095####
SAUS99 KWBC 132112

METAR

PAFB 132058Z COR 00000KT 1SM -SN OVC010 M10/M12 A2939 RMK A02A

     SLP967 WND DATA ESTMD ALSTG/SLP ESTMD P0000 T11021118 $ COR

     2106=

PHNG 132057Z 07008G18KT 10SM SCT031 28/19 A3014 RMK AO2 SLP202

     6//// T02830189 50005 PNO $=

K2C8 132115Z AUTO 15011KT 10SM CLR 01/M04 A2968 RMK AO2=

KBBP 132115Z AUTO 00000KT 10SM CLR 20/16 A3001 RMK AO2=

KBNL 132115Z AUTO 27003KT 10SM CLR 26/14 A3001 RMK AO2=

KCCY 132115Z AUTO 18011KT 10SM CLR 03/M04 A3011 RMK AO2=

KDCM 132115Z AUTO 00000KT 10SM CLR 21/13 A3001 RMK AO2=

KEZS 132115Z AUTO 24007KT 10SM CLR 00/M05 A3013 RMK AO2

     T00001052=

KGGI 132115Z AUTO 17012KT 10SM CLR 07/M05 A3017 RMK AO2

     T00651055=

KIFA 132115Z AUTO 16012KT 10SM CLR 04/M06 A3012 RMK AO2

     T00421056=

KMCJ 132115Z AUTO 12009KT 9SM OVC050 23/20 A3004 RMK A01=

KORS 132115Z AUTO 29004KT 10SM FEW047 FEW055 FEW065 09/06 A2934

     RMK AO2=

KRRL 132115Z AUTO 21005KT 10SM CLR M01/M07 A3008 RMK AO2 T10101075

     TSNO=

KY51 132115Z AUTO 24005KT 10SM CLR 01/M05 A3014 RMK AO1

     T00071053=

####018000110####
SAPQ50 KWBC 132100 RRB

METAR

PGUM 132052Z 11007KT 10SM FEW015 FEW020 SCT025 27/24 A2990 RMK

     AO2=

####018000121####
SAXX60 KWBC 132100 CCG

METAR

KNOG 132056Z AUTO 08010KT 10SM BKN043 BKN080 A2999 RMK AO2 SLPNO

     56027 TSNO $=

####018000339####
SPUS80 KWBC 132112

SPECI

KBDL 132108Z 04004KT 2SM -RA BR BKN005 OVC030 06/05 A2992 RMK AO2

     SFC VIS 4 PCPN VRY LGT P0000 T00610050=

KISM 132109Z 33007KT 10SM BKN020 BKN031 27/22 A3001 RMK AO2 PNO

     $=

PAFA 132109Z 01003KT 1 1/2SM -SN BR SCT018 BKN022 OVC035 M09/M12

     A2937 RMK AO2 TWR VIS 2 1/2 P0001 T10941117=

####018001466####
SAUS70 KWBC 132112

METAR

K2J9 132115Z AUTO 01005KT 10SM CLR 25/11 A3008 RMK AO2=

KBRY 132115Z AUTO 29004KT 10SM CLR 14/00 A3015 RMK AO1=

KCLK 132115Z AUTO 16005KT 10SM OVC030 12/00 A3011 RMK AO2=

KDLL 132115Z AUTO 29006KT 10SM CLR 01/M09 A3015 RMK AO2

     T00061088=

KEFT 132115Z AUTO 28007KT 10SM CLR 02/M08 A3016 RMK AO2

     T00181085=

KPRO 132115Z AUTO 18014G19KT 10SM CLR 06/M06 A3009 RMK AO2

     T00601058=

KSPA 132115Z AUTO 22006KT 10SM CLR 24/06 A2999 RMK AO2=

KUNU 132115Z AUTO 26005KT 10SM CLR 00/M07 A3017 RMK AO2

     T00031072=

KW96 132115Z AUTO 04004KT 10SM CLR 16/12 A2998 RMK AO1

     T01570119=

K2C8 132115Z AUTO 15011KT 10SM CLR 01/M04 A2968 RMK AO2=

KBBP 132115Z AUTO 00000KT 10SM CLR 20/16 A3001 RMK AO2=

KBNL 132115Z AUTO 27003KT 10SM CLR 26/14 A3001 RMK AO2=

KCCY 132115Z AUTO 18011KT 10SM CLR 03/M04 A3011 RMK AO2=

KDCM 132115Z AUTO 00000KT 10SM CLR 21/13 A3001 RMK AO2=

KEZS 132115Z AUTO 24007KT 10SM CLR 00/M05 A3013 RMK AO2

     T00001052=

KGGI 132115Z AUTO 17012KT 10SM CLR 07/M05 A3017 RMK AO2

     T00651055=

KIFA 132115Z AUTO 16012KT 10SM CLR 04/M06 A3012 RMK AO2

     T00421056=

KMCJ 132115Z AUTO 12009KT 9SM OVC050 23/20 A3004 RMK A01=

KORS 132115Z AUTO 29004KT 10SM FEW047 FEW055 FEW065 09/06 A2934

     RMK AO2=

KRRL 132115Z AUTO 21005KT 10SM CLR M01/M07 A3008 RMK AO2 T10101075

     TSNO=

KY51 132115Z AUTO 24005KT 10SM CLR 01/M05 A3014 RMK AO1

     T00071053=

####018000982####
SAXX60 KWBC 132100 RRO

METAR

PHNG 132057Z 07008G18KT 10SM SCT031 28/19 A3014 RMK AO2 SLP202

     6//// T02830189 50005 PNO $=

KHIF 132058Z 20018G25KT 10SM OVC090 09/M08 A2982 RMK AO2A PK WND

     19029/03 SLP095 MIDFLD WND 20017G23KT T00851081 56033=

KHRT 132056Z 03006KT 10SM CLR 27/11 A3006 RMK AO2A SLP181

     T02690114 57010 $=

KLFI 132056Z AUTO 01004KT 10SM BKN020 14/14 A3000 RMK AO2 CIG 017

     RWY26 SLP165 T01410139 52012 $=

KMUO 132058Z AUTO 09012KT 10SM OVC045 03/ A2966 RMK AO2 SLP060

     60001 57026 $=

KHRT 132056Z 03006KT 10SM CLR 27/11 A3006 RMK AO2A SLP181

     T02690114 57010 $=

KLFI 132056Z AUTO 01004KT 10SM BKN020 14/14 A3000 RMK AO2 CIG 017

     RWY26 SLP165 T01410139 52012 $=

PAFB 132058Z COR 00000KT 1SM -SN OVC010 M10/M12 A2939 RMK A02A

     SLP967 WND DATA ESTMD ALSTG/SLP ESTMD P0000 T11021118 $ COR

     2106=

PHNG 132057Z 07008G18KT 10SM SCT031 28/19 A3014 RMK AO2 SLP202

     6//// T02830189 50005 PNO $=

####018000183####
SAUS70 KWBC 132100 RRX

METAR

KBYS 132058Z AUTO 18013KT 10SM CLR 19/M08 A3001 RMK AO2 SLP156

     T01911082 57028 $=

KSWF 132045Z COR 20004KT 10SM SCT010 SCT017 08/08 A2991=

####018000494####
SAAF31 KWBC 132100 RRB

METAR

DBBB 132100Z 21008KT 9999 FEW012 29/25 Q1012 NOSIG=

DGAA 132100Z 19006KT 9999 VCTS FEW018 FEW030CB 28/25 Q1013

     NOSIG=

DGSI 132100Z NIL=

DNAA 132100Z NIL=

DNCA 132100Z NIL=

DNKN 132100Z 29004KT CAVOK 22/11 Q1018 NOSIG=

DNMM 132100Z NIL=

DNPO 132100Z NIL=

DNSO 132100Z NIL=

DRRN 132100Z 36003KT CAVOK 26/02 Q1015 NOSIG=

DRZA 132100Z NIL=

DXNG 132100Z 02006KT CAVOK 24/14 Q1016=

DXXX 132100Z 22006KT 9999 FEW013 29/25 Q1013 NOSIG=

####018000886####
SPUS70 KWBC 132112

SPECI

KBYI 132109Z AUTO 20022G32KT 1 3/4SM -SN OVC015 02/M01 A2970 RMK

     AO2 PK WND 21032/2104 P0002 T00171011=

KRUT 132109Z AUTO 29003KT 7SM BKN008 OVC011 05/05 A2991 RMK AO2

     $=

KTVL 132108Z AUTO 19022G34KT 1 1/4SM -SN BKN019 BKN034 OVC060

     02/M01 A2993 RMK AO2 PK WND 19034/2104 PRESFR P0000

     T00221006=

PANV 132109Z AUTO 04007KT 1 3/4SM -SN BR BKN005 OVC020 M04/M04

     A2936 RMK AO2 CIG 004V010 P0000 FZRANO TSNO=

PANV 132109Z AUTO 04007KT 1 3/4SM -SN BR BKN005 OVC020 M04/M04

     A2936 RMK AO2 CIG 004V010 P0000 FZRANO TSNO=

PABA 132108Z AUTO 29017KT 2 1/2SM -SN BR BKN004 BKN012 OVC080

     M17/M18 A2964 RMK AO2 P0000 FZRANO=

KBKE 132109Z AUTO 07006KT 10SM FEW008 SCT018 OVC070 03/00 A2955

     RMK AO2 SNE00 PRESRR P0000 T00330000=

KGVQ 132110Z AUTO 29014KT 10SM SCT030 OVC047 08/03 A2996 RMK

     AO2=

####018000712####
SPXX60 KWBC 132112

SPECI

KAFF 132106Z AUTO 24015G30KT 10SM CLR 14/M15 A2984 RMK AO2 WSHFT

     05 SLP103=

KGRF 132105Z 22011G19KT 10SM -RA SCT032 10/09 A2948 RMK AO2A RAB05

     SLP987 $=

KGRK 132108Z AUTO 14006KT 10SM FEW033 BKN046 OVC060 24/16 A3004

     RMK AO2 SLP165=

KNGU 132108Z 34006KT 9SM SCT012 BKN019 14/11 A3000 RMK AO2

     T01440111 $=

PACZ 132109Z AUTO 04012KT 3SM BR BKN002 BKN065 00/ A2931 RMK AO2

     SLP931=

PASV 132107Z AUTO 00000KT 10SM -SN OVC014 M05/M05 A2935 RMK AO2

     SLP965 $=

KAFF 132104Z AUTO 19019G30KT 10SM CLR 14/M14 A2985 RMK AO2 WSHFT

     00 PRESRR SLP107=

KAFF 132106Z AUTO 24015G30KT 10SM CLR 14/M15 A2984 RMK AO2 WSHFT

     05 SLP103=

####018000189####
SAAF32 KWBC 132100 RRB

METAR

FMNM 132100Z 27006KT 240V310 9999 FEW020 27/22 Q1010=

FOOG 132100Z 18009KT 9999 TS FEW008 FEW021CB 27/25 Q1013=

FOON 132100Z NIL=

FTTJ 132100Z NIL=

####018000087####
SAAS32 KWBC 132105 RRA

METAR

VMMC 132100Z 36013KT 9999 SCT045 23/16 Q1015 NOSIG=

####018000114####
SPCA35 KWBC 132112

SPECI

MPTO 132110Z 25004KT 6000 TSRA SCT008 SCT016CB BKN080 25/23 Q1010

RWY WET NOSIG=

####018000095####
SACA32 KWBC 132100 RRA

METAR

TAPA 132100Z 08009KT 050V110 9999 SCT018 27/22 Q1012 NOSIG=

####018000097####
SACA33 KWBC 132100 RRC

METAR

TGPY 132100Z 09011KT 9999 SCT017TCU 29/25 Q1009 NOSIG TCU-NE=

####018000326####
SACI31 KWBC 132100 RRA

METAR

RCKH 132100Z 05002KT 4000 BR FEW008 BKN220 23/21 Q1013 TEMPO 3000

     BR RMK A2993=

RCSS 132100Z 09013KT 7000 -RA FEW012 BKN030 BKN050 21/21 Q1019

     NOSIG RMK A3010 RA AMT 0.4MM=

RCTP 132100Z 05013KT 9999 -RA FEW006 BKN012 BKN025 21/19 Q1019

     NOSIG RMK A3009 RA AMT 0.2MM=

####018000151####
SACI41 KWBC 132100 RRA

METAR

RCFN 132100Z NIL=

RCMQ 132100Z 01008KT 9999 FEW010 BKN050 20/18 Q1013 NOSIG RMK

     A2994=

RCNN 132100Z NIL=

####018000163####
SAID31 KWBC 132100 RRB

METAR

WAAA 132100Z VRB02KT 8000 FEW020 23/22 Q1008 NOSIG=

WIMM 132100Z 28003KT 5000 -TSRA FEW017CB SCT018 24/24 Q1007

     NOSIG=

####018000090####
SPUS81 KWBC 132112

SPECI

KBDL 132108Z 04004KT 2SM -RA BR BKN005 OVC030 06/05 A2992=

####018000149####
SAIO31 KWBC 132100 RRC

METAR

FMMI 132100Z 10006KT 070V130 9999 FEW017 BKN020 18/16 Q1018

     NOSIG=

FMMT 132100Z NIL=

FMNN 132100Z NIL=

####018000092####
SAIY31 KWBC 132050 RRC

METAR

LICR 132050Z 06004KT CAVOK 14/10 Q1025 RMK VIS MIN 9999=

####018000346####
SAIY41 KWBC 132050 RRC

METAR

LIBA 132055Z 03002KT 7000 FEW030 13/11 Q1026 RMK FEW VIS MIN 7000

     WIND THR11 02002KT WIND THR29 /////KT WHT=

LIBQ 132055Z VRB03KT CAVOK 07/06 Q1025 RMK SKC MON LIB VAL NIL VIS

     MIN 9999=

LICF 132055Z 00000KT CAVOK 17/13 Q1024 RMK SKC QUK / QUL / VIS MAR

     15 KM MON INVIS NC VIS MIN 9999=

####018000143####
SAIY43 KWBC 132050 RRC

METAR

LIVE 132055Z 00000KT CAVOK 02/M01 Q1024 RMK SKC VIS MIN 9999=

LIVM 132055Z AUTO 05004KT //// 13/11 Q1025=

####018000283####
SAJP31 KWBC 132100 RRA

METAR

RJCC 132100Z 30004KT 9999 FEW020 BKN060 04/02 Q1020 RMK 1CU020

     7CU060 A3013=

RJOO 132100Z VRB01KT 9999 FEW030 SCT040 09/08 Q1027 RMK 1CU030

     3CU040 A3033=

RJTT 132100Z 35021KT 9999 FEW030 15/07 Q1023 NOSIG RMK 1CU030

     A3022=

####018000089####
SAIY32 KWBC 132050 RRB

METAR

LIPB 132050Z 33001KT CAVOK 02/01 Q1026 RMK MON INVIS=

####018000134####
SAIY42 KWBC 132050 RRB

METAR

LIMH 132055Z 08004KT CAVOK M05/M13 Q1026 RMK BKN BKN100 MON LIB

     VAL S FOSCHIA VIS MIN 9999=

####018000574####
SAXX99 KWBC 132100 RRL

METAR

DFFD 132100Z 03006KT CAVOK 24/07 Q1015 NOSIG=

DFOO 132100Z 06006KT 8000 NSC 26/13 Q1015=

DNEN 132100Z NIL=

DRZR 132100Z NIL=

FMMS 132100Z NIL=

FMNA 132100Z NIL=

FMSD 132100Z 26008KT 9999 FEW016 SCT033 22/19 Q1016=

FTTA 132100Z 00000KT CAVOK 23/19 Q1012=

FTTD 132100Z NIL=

LIRM 132055Z 09002KT 0800 FG SCT010 SCT070 12/11 Q1025 RMK BKN VIS

     MIN 0800 WIND THR06 05002KT AMB=

UBBN 132100Z 02008KT 9999 NSC 01/M02 Q1026 R14R/CLRD// NOSIG RMK

     MT OP QFE694=

WADD 132100Z 01004KT 9999 SCT017 27/24 Q1008 NOSIG=

####018000087####
SAUS41 KPHI 132111

MTRNEL

SPECI KNEL 132110Z 31004KT 10SM SCT014 A2992 RMK AO2 $

####018000084####
SPUS81 KWBC 132112

SPECI

KISM 132109Z 33007KT 10SM BKN020 BKN031 27/22 A3001=

####018000130####
SAEU15 KAWN 132100 RRB

METAR ETOU 132056Z AUTO 00000KT 9999 OVC060 09/09 A3011 RMK AO2 SLPNO

      60000 T00930093 53004 $=

####018000326####
SAUS14 KAWN 132100 RRX

METAR KHIF 132058Z 20018G25KT 10SM OVC090 09/M08 A2982 RMK AO2A PK

      WND 19029/03 SLP095 MIDFLD WND 20017G23KT T00851081 56033=

METAR KQAZ 132056Z AUTO 09008KT 9999 CLR 24/03 A3011 RMK AO2 SLP196

      WND DATA ESTMD T02390029=

METAR KSQL 132055Z 04003KT 10SM SCT025 OVC080 15/08 A3011=

####018000130####
SAEU10 KAWN 132100 RRB

METAR ETOU 132056Z AUTO 00000KT 9999 OVC060 09/09 A3011 RMK AO2 SLPNO

      60000 T00930093 53004 $=

####018000593####
SAUS11 KAWN 132100 RRX

METAR KAID 132059Z 29009KT 10SM CLR 07/02 A3018=

METAR KEBS 132055Z AUTO 16017KT 10SM CLR 04/M03 A3007 RMK AO2=

METAR KHFY 132115Z AUTO 30007KT 10SM CLR 08/M05 A3019 RMK AO2 T00751049=

METAR KI43 132115Z AUTO 30006KT 10SM CLR 13/00 A3013 RMK AO2=

METAR KMDS 132055Z AUTO 18018G26KT 10SM CLR 00/M01 A2981 RMK AO2=

METAR KQAZ 132056Z AUTO 09008KT 9999 CLR 24/03 A3011 RMK AO2 SLP196

      WND DATA ESTMD T02390029=

METAR KRPD 132115Z AUTO 16008KT 10SM CLR M01/M08 A3008 RMK AO2 T10081081=

METAR KVNW 132115Z AUTO 30009KT 10SM CLR 05/M01 A3016 RMK AO2=

####018000336####
SANA35 KAWN 132100 RRE

METAR CYAW 132100Z 07007KT 15SM -SHRA BKN025 OVC080 06/04 A3000 RMK

      SC5AC3 DA-873FT SLP160=

METAR KLFI 132056Z AUTO 01004KT 10SM BKN020 14/14 A3000 RMK AO2 CIG

      017 RWY26 SLP165 T01410139 52012 $=

METAR TTPP 132100Z 09006KT 9999 VCSH FEW010CB 28/24 Q1009 NOSIG RMK

      CB/VCSH-SW/W/NW=

####018000909####
SAXX70 KAWN 132100 RRD

METAR KQEI 132110Z AUTO 00000KT 6000 // CLR M00/M01 A3045 RMK A02 TSNO=

METAR KQEJ 132110Z AUTO 27001KT 4800 CLR M02/M02 A3044 RMK A02 TSNO=

METAR KQEP 132110Z AUTO 04001KT 2000 BR CLR 02/02 A3045 RMK A02 TSNO=

METAR KQEQ 132110Z AUTO 09001KT 3200 BR CLR 02/03 A3046 RMK A02 TSNO=

METAR KQER 132110Z AUTO 15001KT 9000 CLR 00/M01 A3040 RMK A02 TSNO=

METAR KQES 132110Z AUTO M0400 FG CLR 13/06 / RMK A02 TSNO=

METAR KQEV 132110Z AUTO 11001KT M0400 -SHRA FG CLR 04/04 A3038 RMK

      A02 TSNO=

METAR KQEW 132110Z AUTO 18001KT 2000 // CLR 02/01 A3043 RMK A02 TSNO=

METAR KQEX 132110Z AUTO 34002KT 1200 // CLR 04/04 A3036 RMK A02 TSNO=

METAR KQFB 132110Z AUTO 27002KT 4800 BR CLR 02/01 A3047 RMK A02 TSNO=

METAR KQFV 132110Z AUTO 11001KT 6000 // CLR M02/M03 A3047 RMK A02 TSNO=

METAR KQFX 132110Z AUTO 11002KT M0400 -SHRA FG CLR 02/02 A3043 RMK

      A02 TSNO=

####018000088####
SAPK31 OPKC 132055 RRA

METAR OPPS 132100Z 18006KT 4000 HZ SCT035 BKN100 16/11 Q1018=
####018000116####
SAUK39 EGGY 132100

METAR EGUN 132056Z AUTO 19004KT 9999 OVC130 09/08 A2992 RMK AO2
     SLP135 T00910077 52009=
####018000130####
SAXX69 KAWN 132000 RRJ

METAR KQGX 131956Z 12006KT 9999 CLR 24/13 A2998 RMK AO2A SLP150 WND

      DATA ESTMD ALSTG/SLP ESTMD $=####018000085####
SAEA20 HKNC 132000 RRC

METAR HKKI 132000Z 27005KT 9999 FEW018CB BKN080 20/19 Q1017=####018000085####
SAEA20 HKNC 131900 RRE

METAR HKKI 131900Z 04012KT 9999 FEW018CB BKN080 19/18 Q1018=####018000160####
SACN31 CWAO 132100 RRA

METAR CYYC 132100Z 12003KT 40SM FEW035 FEW090 SCT100 BKN130 BKN210 00/M08 A2904 RMK CU1AC2AC2AC1CI2 CU TR SLP875 DENSITY ALT 3700FT=

####018000093####
SACN43 CWAO 132100 RRA

METAR CWHN 132100Z AUTO 13002KT 9SM CLR M04/M09 A2912 RMK SLP903=

####018000096####
SACN45 CWAO 132100 RRA

METAR CYRA 132100Z 01009KT 15SM BKN014 M15/M18 A2942 RMK ST7 SLP989=

####018000081####
SACN60 CWAO 132100 RRA

PDA SA 2100 AUTO8 M M M M/-02/-07/1204/M/     M 33MM=

####018000121####
SACN46 CWAO 132100 RRA

METAR CYXU 132100Z 29007G15KT 15SM -DZ FEW010 BKN017 BKN053 06/02 A3002 RMK CF1SC4SC2 SLP175=

####018000084####
SACN50 CWAO 132100 RRA

VTS SA 2100 AUTO8 M M M 915/08/04/3602/M/     1056 05MM=

####018000104####
SACN49 CWAO 132100 RRA

METAR CYSJ 132100Z 07005KT 15SM BKN017 OVC096 06/03 A2996 RMK SC5AC3 SLP151=

####018000120####
SPBY31 UMMN 132111

SPECI UMMS 132111Z 13004MPS 4000 BR OVC004 01/00 Q1024 R13L/290055
R13R/////// NOSIG RMK QBB140=
####018000161####
SACN88 CWAO 132100 RRA

ADS SA 2100 AUTO8 M M M M/M/M/3507/M/     1015 MMMM=

WDO SA 2100 AUTO8 M M M 165/03/-03/2915+22/M/     PK WND 3023 2021Z 3022 41MM=

####018000161####
SACN66 CWAO 132100 RRA

PMK SA 2100 AUTO8 M M M 973/-06/-11/1701/M/     SOG 13 7045 03MM=

WDC SA 2100 AUTO8 M M M 903/-06/-07/MM01/M/     SOG 40 2003 00MM=

####018000085####
SACN82 CWAO 132100 RRA

WDM SA 2100 AUTO8 M M M 185/00/-04/3002/M/     2015 54MM=

####018000102####
SACN90 CWAO 132100 RRA

WEB SA 2100 AUTO8 M M M 972/07/05/3331+39/M/M PK WND 3239 2058Z 2042 36MM=

####018000087####
SACN78 CWAO 131700 RRD

TRA SA 1700 AUTO8 M M M 168/-07/-11/1907/M/M SOG 06 M 10MM=

####018000093####
SACN94 CWAO 132100 RRA

WSQ SA 2100 AUTO8 M M M 907/-22/-24/1913/M/     SOG 06 8020 85MM=

####018000111####
SACN89 CWAO 132100 RRA

WAY SA 2100 AUTO8 M M M 823/-18/-20/2221/M/     PK WND 2227 2010Z SOG 19 6014 99MM=

####018000111####
SACN96 CWAO 132100 RRA

WYF SA 2100 AUTO8 M M M 933/-24/-27/2116/M/0001 PK WND 2220 2049Z SOG 19 8015 06MM=

####018000093####
SACN95 CWAO 132100 RRA

WWO SA 2100 AUTO8 M M M 872/-01/-11/1903/M/     SOG 17 6020 26MM=

####018000115####
SAUS44 KMAF 132112

MTRGDP

SPECI KGDP 132110Z AUTO 07014KT 1 3/4SM HZ FEW120 13/04 A3011 RMK

AO2 T01280044

####018001647####
SAUS20 KNKA 132112

METAR K1P1 132115Z AUTO 00000KT 2 1/2SM -DZ BKN005 OVC019 02/02

     A2994 RMK AO2 T00230018=

METAR K27K 132115Z AUTO 28007KT 250V310 10SM CLR 13/00 A3015 RMK

     AO1=

METAR K2W6 132115Z AUTO 00000KT 10SM CLR 15/08 A2999 RMK AO1=

METAR KCIC 132055Z 11016KT 25SM SCT035 OVC050 09/07 A3001 RMK VIS

     NE-SE 6SM BR =

METAR KCKI 132115Z AUTO 00000KT 10SM SCT025 22/16 A3001 RMK AO2=

SPECI KCQX 132110Z AUTO 00000KT 2SM -RA BR BKN004 OVC015 11/10 A2989

    RMK AO2 P0001 T01110100=

SPECI KGPI 132111Z 16008KT 1 1/4SM -SN BR SCT007 BKN015 OVC035

    01/M01 A2929 RMK AO2 P0000 T00061006=

SPECI KHEF 132111Z 01007KT 10SM FEW002 16/05 A2999 RMK AO2=

METAR KL18 132115Z AUTO 19005KT 10SM CLR 19/07 A3008 RMK AO2=

SPECI KMPV 132111Z AUTO 17006KT 6SM BR BKN009 OVC022 03/02 A2993 RMK

    AO2 T00280017=

METAR KOMH 132115Z AUTO 00000KT 10SM CLR 15/08 A2998 RMK AO2=

METAR KPBH 132115Z AUTO 24005KT 10SM CLR M02/M10 A3005 RMK AO2

     T10231105=

METAR KPTS 132115Z AUTO 11005KT 10SM CLR 11/M01 A3015 RMK AO2

     T01111009=

METAR KRDK 132115Z AUTO 17015G22KT 10SM CLR 06/M07 A3008 RMK AO2=

METAR KSIF 132115Z AUTO 00000KT 10SM CLR 21/04 A3000 RMK AO2

     T02050036=

METAR KSPF 132115Z AUTO 00000KT 10SM CLR 12/M15 A2958 RMK AO2

     PWINO=

METAR KSUW 132115Z AUTO 21009KT 10SM CLR 01/M09 A3002 RMK AO2

     T00051094=

METAR KTVK 132055Z AUTO 10SM CLR 06/M08 A3019 RMK AO2 =

METAR KVER 132115Z AUTO 00000KT 10SM CLR 10/M05 A3022 RMK AO2

     T01001053=

SPECI PAZK 132111Z AUTO 02004KT 3SM -SN BR FEW009 BKN014 OVC029

    M04/M06 A2911 RMK AO2 P0000 FZRANO=

####018000085####
SAKN20 HKNC 132000 RRB

METAR HKKI 132000Z 27005KT 9999 FEW018CB BKN080 20/19 Q1017=####018000079####
SAMZ40 FQMA 132100

METAR FQNP 132100Z 19007KT 9999 FEW010 BKN020 21/19 Q1016=####018000130####
SAAK41 KNKA 132112

SPECI PAZK 132111Z AUTO 02004KT 3SM -SN BR FEW009 BKN014 OVC029

    M04/M06 A2911 RMK AO2 P0000 FZRANO=

####018001599####
SPZZ40 KAWN 132112 RRC

SPECI CWRX 132110Z AUTO 20022G27KT ////SM //// FEW006 BKN016 OVC100

      M13/M15 A2943=

SPECI CYHE 132111Z AUTO 26009G19KT 220V310 6SM -UP BR FEW010 SCT026

      SCT031 OVC039 06/04 A2922 RMK SLP898=

SPECI CYMO 132110Z AUTO 32004KT 3SM -SN FEW015 OVC021 M01/M02 A2990

      RMK SLP127=

SPECI CYQI 132110Z 08009G17KT 1 1/2SM -RA BR VV005 06/06 A2990 RMK

      FG8 SLP126=

SPECI CYXR 132110Z AUTO 29017G23KT 210V300 9SM -RA BKN009 BKN016 OVC026

      01/00 A2982 RMK PRESRR SLP110=

SPECI CYXR 132111Z AUTO 29016G23KT 220V300 9SM -RA SCT009 BKN014 BKN019

      OVC031 01/00 A2982 RMK SLP111=

SPECI EBBL 132110Z AUTO 21007KT 9999 OVC014/// 13/12 Q1016 GRN=

SPECI EHGR 132109Z AUTO 21004KT 6000 BR FEW008 SCT010 BKN045 12/12

      Q1015 GRN=

SPECI KFCS 132109Z AUTO 25021G25KT 10SM CLR 16/M12 A2981 RMK AO2 WSHFT

      2055 PRESFR SLP121 $=

SPECI MPTO 132110Z 25004KT 6000 TSRA SCT008 SCT016CB BKN080 25/23 Q1010

      RWY WET NOSIG=

SPECI PATL 132109Z AUTO 04003KT 1 1/2SM -SN SCT005 OVC020 M05/M05 A2933

      RMK AO2 SLP953=

SPECI RJFT 132110Z 06010KT 9999 FEW030 13/07 Q1024 RMK 1CU030 A3026=

SPECI RJNT 132110Z 24004KT 9999 FEW020 BKN030 10/07 Q1028 RMK 1CU020

      6CU030 A3038=

SPECI RJOC 132110Z 15004KT 9999 FEW030 SCT035 BKN050 09/08 Q1028 RMK

      1CU030 3CU035 6SC050 A3036=

SPECI RJOM 132110Z 07005KT 9999 FEW025 10/08 Q1026 RMK 1CU025 A3031=

SPECI RJSN 132110Z 30006KT 9999 FEW030 SCT040 11/04 Q1028 RMK 1CU030

      4CU040 A3036=

SPECI SAOU 132110Z 09017G27KT 9999 SCT035 SCT045CB 19/18 Q1006 RETSRA=

####018000090####
SPAU68 AMMC 132112

SPECI YPXM 132112Z AUTO 14007KT 5000 -RA OVC008 25/23 Q1011=





####018000090####
SPAU31 AMMC 132112

SPECI YPXM 132112Z AUTO 14007KT 5000 -RA OVC008 25/23 Q1011=





####018000315####
SAAO30 GOOY 132100 RRA

METAR GOSS 132100Z 06006KT 360V090 CAVOK 28/12 Q1013=
METAR GOOY 132100Z 00000KT CAVOK 26/22 Q1013=
METAR GOOK 132100Z 14006KT CAVOK 30/12 Q1013=
METAR GOGS 132100Z 04004KT CAVOK 27/22 Q1013=
METAR GOGG 132100Z 12004KT CAVOK 27/22 Q1013=
METAR GOTK 132100Z 00000KT CAVOK 27/12 Q1013=
####018000073####
SAIR36 OIII 132100 RRA

METAR OIZJ 132100Z 16004KT 6000 NSC 26/22 Q1013=####018000579####
SPUS99 KWBC 132113

SPECI

KCQX 132110Z AUTO 00000KT 2SM -RA BR BKN004 OVC015 11/10 A2989 RMK

     AO2 P0001 T01110100=

KGPI 132111Z 16008KT 1 1/4SM -SN BR SCT007 BKN015 OVC035 01/M01

     A2929 RMK AO2 P0000 T00061006=

KHEF 132111Z 01007KT 10SM FEW002 16/05 A2999 RMK AO2=

KMPV 132111Z AUTO 17006KT 6SM BR BKN009 OVC022 03/02 A2993 RMK AO2

     T00280017=

PAZK 132111Z AUTO 02004KT 3SM -SN BR FEW009 BKN014 OVC029 M04/M06

     A2911 RMK AO2 P0000 FZRANO=

PAZK 132111Z AUTO 02004KT 3SM -SN BR FEW009 BKN014 OVC029 M04/M06

     A2911 RMK AO2 P0000 FZRANO=

####018001063####
SAUS99 KWBC 132113

METAR

K1P1 132115Z AUTO 00000KT 2 1/2SM -DZ BKN005 OVC019 02/02 A2994

     RMK AO2 T00230018=

K27K 132115Z AUTO 28007KT 250V310 10SM CLR 13/00 A3015 RMK AO1=

K2W6 132115Z AUTO 00000KT 10SM CLR 15/08 A2999 RMK AO1=

KCIC 132055Z 11016KT 25SM SCT035 OVC050 09/07 A3001 RMK VIS NE-SE

     6SM BR=

KCKI 132115Z AUTO 00000KT 10SM SCT025 22/16 A3001 RMK AO2=

KL18 132115Z AUTO 19005KT 10SM CLR 19/07 A3008 RMK AO2=

KOMH 132115Z AUTO 00000KT 10SM CLR 15/08 A2998 RMK AO2=

KPBH 132115Z AUTO 24005KT 10SM CLR M02/M10 A3005 RMK AO2

     T10231105=

KPTS 132115Z AUTO 11005KT 10SM CLR 11/M01 A3015 RMK AO2

     T01111009=

KRDK 132115Z AUTO 17015G22KT 10SM CLR 06/M07 A3008 RMK AO2=

KSIF 132115Z AUTO 00000KT 10SM CLR 21/04 A3000 RMK AO2

     T02050036=

KSPF 132115Z AUTO 00000KT 10SM CLR 12/M15 A2958 RMK AO2 PWINO=

KSUW 132115Z AUTO 21009KT 10SM CLR 01/M09 A3002 RMK AO2

     T00051094=

KTVK 132055Z AUTO 10SM CLR 06/M08 A3019 RMK AO2=

KVER 132115Z AUTO 00000KT 10SM CLR 10/M05 A3022 RMK AO2

     T01001053=

####018000105####
SPAK31 KWBC 132113

SPECI

PAFA 132109Z 01003KT 1 1/2SM -SN BR SCT018 BKN022 OVC035 M09/M12

A2937=

####018000086####
SPAU31 KWBC 132113

SPECI

YPXM 132112Z AUTO 14007KT 5000 -RA OVC008 25/23 Q1011=

####018000097####
SPAU32 YBBN 132112

SPECI YPXM 132112Z AUTO 14007KT 5000 -RA OVC008 25/23 Q1011
RF00.4/000.4=
####018000089####
SPBX31 KWBC 132113

SPECI

EBBL 132110Z AUTO 21007KT 9999 OVC014/// 13/12 Q1016 GRN=

####018000098####
SPAK32 KWBC 132113

SPECI

PATL 132109Z AUTO 04003KT 1 1/2SM -SN SCT005 OVC020 M05/M05 A2933=

####018000124####
SPEE31 KWBC 132113

SPECI

UMMS 132111Z 13004MPS 4000 BR OVC004 01/00 Q1024 R13L/290055

R13R/////// NOSIG RMK QBB140=

####018000094####
SPJP31 KWBC 132113

SPECI

RJFT 132110Z 06010KT 9999 FEW030 13/07 Q1024 RMK 1CU030 A3026=

####018000110####
SPJP43 KWBC 132113

SPECI

RJNT 132110Z 24004KT 9999 FEW020 BKN030 10/07 Q1028 RMK 1CU020

6CU030 A3038=

####018000094####
SPJP43 KWBC 132113

SPECI

RJOM 132110Z 07005KT 9999 FEW025 10/08 Q1026 RMK 1CU025 A3031=

####018000110####
SPJP31 KWBC 132113

SPECI

RJSN 132110Z 30006KT 9999 FEW030 SCT040 11/04 Q1028 RMK 1CU030

4CU040 A3036=

####018000124####
SPJP43 KWBC 132113

SPECI

RJOC 132110Z 15004KT 9999 FEW030 SCT035 BKN050 09/08 Q1028 RMK

1CU030 3CU035 6SC050 A3036=

####018000124####
SPRA31 KWBC 132113

SPECI

UMMS 132111Z 13004MPS 4000 BR OVC004 01/00 Q1024 R13L/290055

R13R/////// NOSIG RMK QBB140=

####018000105####
SPNL31 KWBC 132113

SPECI

EHGR 132109Z AUTO 21004KT 6000 BR FEW008 SCT010 BKN045 12/12 Q1015

GRN=

####018000088####
SPUS81 KWBC 132113

SPECI

KGDP 132110Z AUTO 07014KT 1 3/4SM HZ FEW120 13/04 A3011=

####018000071####
SPUS81 KWBC 132113

SPECI

KNEL 132110Z 31004KT 10SM SCT014 A2992=

####018000105####
SPUS81 KWBC 132113

SPECI

PAFA 132109Z 01003KT 1 1/2SM -SN BR SCT018 BKN022 OVC035 M09/M12

A2937=

####018000027####
SAPO33 LPMG 132030

NIL=
####018000098####
SPCN51 CWAO 132112

SPECI CWUW 132112Z AUTO 17015KT ////SM SCT003 BKN007 OVC020 M17/M19 A2945=

####018000081####
SAAO31 GOOY 132100 RRA

METAR GGOV 132100Z 03004KT 7000 NSC 26/22 Q1013 NOSIG=
####018000086####
SAAG SAWE 132100

METAR SAWE 132100Z 34021KT 9999 BKN020 BKN080 10/06 Q0990 RESHRA=
####018000105####
SAMZ40 FQMA 132100

METAR FQPB 132100Z 21008KT 9999 FEW020 FEW025CB BKN100 26/23 Q1013

RMK CB TO SW/W=####018001339####
SAXX69 KAWN 132100 RRE

METAR KQAZ 132056Z AUTO 09008KT 9999 CLR 24/03 A3011 RMK AO2 SLP196

      WND DATA ESTMD T02390029=

METAR KQEI 132110Z AUTO 00000KT 6000 // CLR M00/M01 A3045 RMK A02 TSNO=

METAR KQEJ 132110Z AUTO 27001KT 4800 CLR M02/M02 A3044 RMK A02 TSNO=

METAR KQEP 132110Z AUTO 04001KT 2000 BR CLR 02/02 A3045 RMK A02 TSNO=

METAR KQEQ 132110Z AUTO 09001KT 3200 BR CLR 02/03 A3046 RMK A02 TSNO=

METAR KQER 132110Z AUTO 15001KT 9000 CLR 00/M01 A3040 RMK A02 TSNO=

METAR KQES 132110Z AUTO M0400 FG CLR 13/06 / RMK A02 TSNO=

METAR KQEV 132110Z AUTO 11001KT M0400 -SHRA FG CLR 04/04 A3038 RMK

      A02 TSNO=

METAR KQEW 132110Z AUTO 18001KT 2000 // CLR 02/01 A3043 RMK A02 TSNO=

METAR KQEX 132110Z AUTO 34002KT 1200 // CLR 04/04 A3036 RMK A02 TSNO=

METAR KQFB 132110Z AUTO 27002KT 4800 BR CLR 02/01 A3047 RMK A02 TSNO=

METAR KQFV 132110Z AUTO 11001KT 6000 // CLR M02/M03 A3047 RMK A02 TSNO=

METAR KQFX 132110Z AUTO 11002KT M0400 -SHRA FG CLR 02/02 A3043 RMK

      A02 TSNO=

METAR KQGX 132056Z 12004KT 9999 CLR 23/13 A2997 RMK AO2A SLP156 WND

      DATA ESTMD ALSTG/SLP ESTMD $=

METAR KQN3 132056Z AUTO 00000KT 8000 HZ CLR 26/04 A3000 RMK AO2 SLP150

      WND DATA ESTMD T02630039=

METAR KQTA 132056Z AUTO 00000KT 9999 CLR 14/06 A3017 RMK AO2 SLP205

      WND DATA ESTMD T01420064 402450108=####018002291####
SAUS20 KNKA 132113

METAR K20U 132115Z AUTO 18009KT 10SM CLR 07/M07 A2950 RMK AO2=

METAR K74V 132115Z AUTO 14004KT 10SM CLR 03/M07 A2998 RMK AO2=

SPECI KAFN 132112Z AUTO 00000KT 2 1/2SM -RA BR OVC004 04/03 A2991

    RMK AO2 RAB2053 P0001 T00390028=

METAR KANQ 132115Z AUTO 32010KT 10SM BKN024 02/M03 A3015 RMK AO2=

METAR KAVC 132115Z AUTO 00000KT 10SM CLR 18/11 A3005 RMK AO2

     T01770108=

METAR KBEA 132115Z AUTO 11008KT 10SM SCT032 OVC065 28/22 A2999 RMK

     AO2 T02760217=

METAR KBNW 132115Z AUTO 17017KT CLR 05/M04 A3008 RMK AO2=

METAR KCIN 132115Z AUTO 18015G21KT 10SM CLR 05/M03 A3004 RMK AO2=

METAR KCNC 132115Z AUTO 19011KT 10SM CLR 06/M07 A3015 RMK AO2=

METAR KD55 132115Z AUTO 17014KT 10SM CLR 03/M00 A2962 RMK AO2=

METAR KDYB 132115Z AUTO 00000KT 10SM CLR 24/18 A3000 RMK AO2=

METAR KEKX 132115Z AUTO 30005KT 10SM CLR 13/02 A3017 RMK AO2

     T01330021=

SPECI KFRG 132111Z 01006KT 10SM SCT007 SCT018 BKN027 10/08 A2991 RMK

    AO2 T01000083=

METAR KGWW 132115Z AUTO 00000KT 10SM SCT012 17/16 A3001 RMK AO2

     T01680155=

METAR KHBI 132115Z AUTO 32003KT 10SM CLR 20/10 A3003 RMK AO2

     T01980104=

METAR KHNZ 132115Z AUTO 00000KT 10SM CLR 17/10 A3000 RMK AO2

     T01710095=

SPECI KIWI 132111Z AUTO 00000KT 10SM -RA OVC010 04/03 A2996 RMK AO2

    P0000 T00390033=

METAR KJHN 132115Z AUTO 19016G22KT 10SM CLR 13/M04 A2994 RMK AO2

     T01301037=

METAR KJSO 132115Z AUTO 19005KT 10SM SCT050 26/13 A3008 RMK AO2

     T02660137=

METAR KLUM 132115Z AUTO 14007KT 10SM CLR M01/M08 A3009 RMK AO2

     T10071080=

METAR KLUX 132115Z AUTO 23008KT 200V260 10SM CLR 24/12 A3000 RMK

     AO2=

SPECI KM19 132112Z AUTO 03008KT 1 1/4SM HZ CLR 14/02 A3021 RMK AO2=

METAR KMAO 132115Z AUTO 30005KT 10SM BKN017 18/16 A3002 RMK AO2

     P0001=

METAR KMAW 132115Z AUTO 06006KT 10SM CLR 13/M05 A3023 RMK AO2=

SPECI KMBL 132112Z AUTO 28008KT 10SM OVC030 00/M05 A3014 RMK AO2

    FZRANO=

METAR KMDZ 132115Z AUTO 24007KT 10SM CLR M03/M10 A3008 RMK AO2

     T10301102=

METAR KOIN 132115Z AUTO 19021G26KT 10SM CLR 14/M08 A2990 RMK AO1

     T01441077=

METAR KOXV 132015Z AUTO 17009KT 10SM CLR 06/M07 A3015 RMK AO2=

METAR KRCZ 132115Z AUTO 00000KT 10SM CLR 20/15 A3001 RMK AO2

     T01990151=

####018000329####
SAAK41 KNKA 132113

SPECI PABA 132112Z AUTO 29017KT 4SM -SN BR BKN004 BKN012 OVC080

    M17/M18 A2964 RMK AO2 P0000 FZRANO=

SPECI PAMH 132112Z AUTO 00000KT 2 1/2SM -SN BR BKN023 M08/M09 A2934

    RMK AO2 VIS 1 1/2V5 P0000 FZRANO=

SPECI PAVA 132112Z AUTO 03006KT 9SM BKN009 OVC020 00/M01 A2935 RMK

    AO2 FZRANO=

####018000090####
SATV31 NGFU 132100



METAR NGFU 132100Z 09006KT 9999 FEW018TCU BKN110 31/26 Q1013=



####018000169####
SPUS90 KWBC 132114

SPECI KNEL 132110Z 31004KT 10SM SCT014 A2992 RMK AO2 $=

SPECI KGDP 132110Z AUTO 07014KT 1 3/4SM HZ FEW120 13/04 A3011 RMK

     AO2 T01280044=

####018000093####
SAAG01 SABM 132100 RRB

METAR SAWE 132100Z 34021KT 9999 BKN020 BKN080 10/06 Q0990 RESHRA=

####018000115####
SPCN41 CWAO 132113

SPECI CYYD 132113Z 31004KT 250V340 3SM -SN OVC005 M00/M00 A2918 RMK ST8 VIS VRB 2-4 SLP902=

####018000111####
SPCN52 CWAO 132113

SPECI CWSA 132113Z AUTO 08018KT 5SM -RA BR BKN016 BKN055 OVC068 07/05 A3002 RMK SLP167=

####018000027####
SAIY36 LIIB 132100

NIL=
####018000736####
SPUS99 KWBC 132114

SPECI

KAFN 132112Z AUTO 00000KT 2 1/2SM -RA BR OVC004 04/03 A2991 RMK

     AO2 RAB2053 P0001 T00390028=

KFRG 132111Z 01006KT 10SM SCT007 SCT018 BKN027 10/08 A2991 RMK AO2

     T01000083=

KIWI 132111Z AUTO 00000KT 10SM -RA OVC010 04/03 A2996 RMK AO2

     P0000 T00390033=

KM19 132112Z AUTO 03008KT 1 1/4SM HZ CLR 14/02 A3021 RMK AO2=

KMBL 132112Z AUTO 28008KT 10SM OVC030 00/M05 A3014 RMK AO2

     FZRANO=

PABA 132112Z AUTO 29017KT 4SM -SN BR BKN004 BKN012 OVC080 M17/M18

     A2964 RMK AO2 P0000 FZRANO=

PAMH 132112Z AUTO 00000KT 2 1/2SM -SN BR BKN023 M08/M09 A2934 RMK

     AO2 VIS 1 1/2V5 P0000 FZRANO=

PAVA 132112Z AUTO 03006KT 9SM BKN009 OVC020 00/M01 A2935 RMK AO2

     FZRANO=

####018001687####
SAUS99 KWBC 132114

METAR

K20U 132115Z AUTO 18009KT 10SM CLR 07/M07 A2950 RMK AO2=

K74V 132115Z AUTO 14004KT 10SM CLR 03/M07 A2998 RMK AO2=

KANQ 132115Z AUTO 32010KT 10SM BKN024 02/M03 A3015 RMK AO2=

KAVC 132115Z AUTO 00000KT 10SM CLR 18/11 A3005 RMK AO2

     T01770108=

KBEA 132115Z AUTO 11008KT 10SM SCT032 OVC065 28/22 A2999 RMK AO2

     T02760217=

KBNW 132115Z AUTO 17017KT CLR 05/M04 A3008 RMK AO2=

KCIN 132115Z AUTO 18015G21KT 10SM CLR 05/M03 A3004 RMK AO2=

KCNC 132115Z AUTO 19011KT 10SM CLR 06/M07 A3015 RMK AO2=

KD55 132115Z AUTO 17014KT 10SM CLR 03/M00 A2962 RMK AO2=

KDYB 132115Z AUTO 00000KT 10SM CLR 24/18 A3000 RMK AO2=

KEKX 132115Z AUTO 30005KT 10SM CLR 13/02 A3017 RMK AO2

     T01330021=

KGWW 132115Z AUTO 00000KT 10SM SCT012 17/16 A3001 RMK AO2

     T01680155=

KHBI 132115Z AUTO 32003KT 10SM CLR 20/10 A3003 RMK AO2

     T01980104=

KHNZ 132115Z AUTO 00000KT 10SM CLR 17/10 A3000 RMK AO2

     T01710095=

KJHN 132115Z AUTO 19016G22KT 10SM CLR 13/M04 A2994 RMK AO2

     T01301037=

KJSO 132115Z AUTO 19005KT 10SM SCT050 26/13 A3008 RMK AO2

     T02660137=

KLUM 132115Z AUTO 14007KT 10SM CLR M01/M08 A3009 RMK AO2

     T10071080=

KLUX 132115Z AUTO 23008KT 200V260 10SM CLR 24/12 A3000 RMK AO2=

KMAO 132115Z AUTO 30005KT 10SM BKN017 18/16 A3002 RMK AO2

     P0001=

KMAW 132115Z AUTO 06006KT 10SM CLR 13/M05 A3023 RMK AO2=

KMDZ 132115Z AUTO 24007KT 10SM CLR M03/M10 A3008 RMK AO2

     T10301102=

KOIN 132115Z AUTO 19021G26KT 10SM CLR 14/M08 A2990 RMK AO1

     T01441077=

KOXV 132015Z AUTO 17009KT 10SM CLR 06/M07 A3015 RMK AO2=

KRCZ 132115Z AUTO 00000KT 10SM CLR 20/15 A3001 RMK AO2

     T01990151=

####018000192####
SACN85 KWBC 132114

METAR CWDO 132100Z AUTO 29015G22KT 03/M03 RMK AO1 PK WND

30023/2021 SLP165 T00341031 53022=

METAR CWDM 132100Z AUTO 30002KT 01/M04 RMK AO1 SLP185 T00051044

52015=

####018000116####
SACN90 KWBC 132114

METAR CWEB 132100Z AUTO 33031G39KT 07/05 RMK AO1 PK WND 32039/2058

SLP972 T00730046 52042=

####018000243####
SACN87 KWBC 132114

METAR CWDC 132100Z AUTO M06/M07 RMK AO1 SOG 40 2003 SLP903

T10601070=

METAR CWDC 132100Z AUTO M06/M07 RMK AO1 SOG 40 2003 SLP903

T10601070=

METAR CWDC 132100Z AUTO M06/M07 RMK AO1 SOG 40 2003 SLP903

T10601070=

####018000098####
SACN78 KWBC 132114

METAR CTRA 131700Z AUTO 19007KT M07/M11 RMK AO1 SOG 06 SLP168

T10711110=

####018000180####
SAUS80 KWBC 132114

METAR

KPTS 132115Z AUTO 11005KT 10SM CLR 11/M01 A3015 RMK AO2

     T01111009=

KEKX 132115Z AUTO 30005KT 10SM CLR 13/02 A3017 RMK AO2

     T01330021=

####018002706####
SAUS70 KWBC 132114

METAR

KHFY 132115Z AUTO 30007KT 10SM CLR 08/M05 A3019 RMK AO2

     T00751049=

KI43 132115Z AUTO 30006KT 10SM CLR 13/00 A3013 RMK AO2=

KRPD 132115Z AUTO 16008KT 10SM CLR M01/M08 A3008 RMK AO2

     T10081081=

KVNW 132115Z AUTO 30009KT 10SM CLR 05/M01 A3016 RMK AO2=

K1P1 132115Z AUTO 00000KT 2 1/2SM -DZ BKN005 OVC019 02/02 A2994

     RMK AO2 T00230018=

K27K 132115Z AUTO 28007KT 250V310 10SM CLR 13/00 A3015 RMK AO1=

K2W6 132115Z AUTO 00000KT 10SM CLR 15/08 A2999 RMK AO1=

KCKI 132115Z AUTO 00000KT 10SM SCT025 22/16 A3001 RMK AO2=

KL18 132115Z AUTO 19005KT 10SM CLR 19/07 A3008 RMK AO2=

KOMH 132115Z AUTO 00000KT 10SM CLR 15/08 A2998 RMK AO2=

KPBH 132115Z AUTO 24005KT 10SM CLR M02/M10 A3005 RMK AO2

     T10231105=

KRDK 132115Z AUTO 17015G22KT 10SM CLR 06/M07 A3008 RMK AO2=

KSIF 132115Z AUTO 00000KT 10SM CLR 21/04 A3000 RMK AO2

     T02050036=

KSPF 132115Z AUTO 00000KT 10SM CLR 12/M15 A2958 RMK AO2 PWINO=

KSUW 132115Z AUTO 21009KT 10SM CLR 01/M09 A3002 RMK AO2

     T00051094=

KVER 132115Z AUTO 00000KT 10SM CLR 10/M05 A3022 RMK AO2

     T01001053=

K20U 132115Z AUTO 18009KT 10SM CLR 07/M07 A2950 RMK AO2=

K74V 132115Z AUTO 14004KT 10SM CLR 03/M07 A2998 RMK AO2=

KANQ 132115Z AUTO 32010KT 10SM BKN024 02/M03 A3015 RMK AO2=

KAVC 132115Z AUTO 00000KT 10SM CLR 18/11 A3005 RMK AO2

     T01770108=

KBEA 132115Z AUTO 11008KT 10SM SCT032 OVC065 28/22 A2999 RMK AO2

     T02760217=

KBNW 132115Z AUTO 17017KT CLR 05/M04 A3008 RMK AO2=

KCIN 132115Z AUTO 18015G21KT 10SM CLR 05/M03 A3004 RMK AO2=

KCNC 132115Z AUTO 19011KT 10SM CLR 06/M07 A3015 RMK AO2=

KD55 132115Z AUTO 17014KT 10SM CLR 03/M00 A2962 RMK AO2=

KDYB 132115Z AUTO 00000KT 10SM CLR 24/18 A3000 RMK AO2=

KGWW 132115Z AUTO 00000KT 10SM SCT012 17/16 A3001 RMK AO2

     T01680155=

KHBI 132115Z AUTO 32003KT 10SM CLR 20/10 A3003 RMK AO2

     T01980104=

KHNZ 132115Z AUTO 00000KT 10SM CLR 17/10 A3000 RMK AO2

     T01710095=

KJHN 132115Z AUTO 19016G22KT 10SM CLR 13/M04 A2994 RMK AO2

     T01301037=

KJSO 132115Z AUTO 19005KT 10SM SCT050 26/13 A3008 RMK AO2

     T02660137=

KLUM 132115Z AUTO 14007KT 10SM CLR M01/M08 A3009 RMK AO2

     T10071080=

KLUX 132115Z AUTO 23008KT 200V260 10SM CLR 24/12 A3000 RMK AO2=

KMAO 132115Z AUTO 30005KT 10SM BKN017 18/16 A3002 RMK AO2

     P0001=

KMAW 132115Z AUTO 06006KT 10SM CLR 13/M05 A3023 RMK AO2=

KMDZ 132115Z AUTO 24007KT 10SM CLR M03/M10 A3008 RMK AO2

     T10301102=

KOIN 132115Z AUTO 19021G26KT 10SM CLR 14/M08 A2990 RMK AO1

     T01441077=

KOXV 132015Z AUTO 17009KT 10SM CLR 06/M07 A3015 RMK AO2=

KRCZ 132115Z AUTO 00000KT 10SM CLR 20/15 A3001 RMK AO2

     T01990151=

####018000268####
SPXX60 KWBC 132114

SPECI

KNEL 132110Z 31004KT 10SM SCT014 A2992 RMK AO2 $=

KFCS 132109Z AUTO 25021G25KT 10SM CLR 16/M12 A2981 RMK AO2 WSHFT

     2055 PRESFR SLP121 $=

PATL 132109Z AUTO 04003KT 1 1/2SM -SN SCT005 OVC020 M05/M05 A2933

     RMK AO2 SLP953=

####018001100####
SPUS70 KWBC 132114

SPECI

KCQX 132110Z AUTO 00000KT 2SM -RA BR BKN004 OVC015 11/10 A2989 RMK

     AO2 P0001 T01110100=

KHEF 132111Z 01007KT 10SM FEW002 16/05 A2999 RMK AO2=

KMPV 132111Z AUTO 17006KT 6SM BR BKN009 OVC022 03/02 A2993 RMK AO2

     T00280017=

PAZK 132111Z AUTO 02004KT 3SM -SN BR FEW009 BKN014 OVC029 M04/M06

     A2911 RMK AO2 P0000 FZRANO=

PAZK 132111Z AUTO 02004KT 3SM -SN BR FEW009 BKN014 OVC029 M04/M06

     A2911 RMK AO2 P0000 FZRANO=

KAFN 132112Z AUTO 00000KT 2 1/2SM -RA BR OVC004 04/03 A2991 RMK

     AO2 RAB2053 P0001 T00390028=

KFRG 132111Z 01006KT 10SM SCT007 SCT018 BKN027 10/08 A2991 RMK AO2

     T01000083=

KIWI 132111Z AUTO 00000KT 10SM -RA OVC010 04/03 A2996 RMK AO2

     P0000 T00390033=

KM19 132112Z AUTO 03008KT 1 1/4SM HZ CLR 14/02 A3021 RMK AO2=

KMBL 132112Z AUTO 28008KT 10SM OVC030 00/M05 A3014 RMK AO2

     FZRANO=

PABA 132112Z AUTO 29017KT 4SM -SN BR BKN004 BKN012 OVC080 M17/M18

     A2964 RMK AO2 P0000 FZRANO=

PAMH 132112Z AUTO 00000KT 2 1/2SM -SN BR BKN023 M08/M09 A2934 RMK

     AO2 VIS 1 1/2V5 P0000 FZRANO=

####018000078####
SAUS80 KWBC 132100 RRG

METAR

KAID 132059Z 29009KT 10SM CLR 07/02 A3018=

####018000357####
SAXX60 KWBC 132100 RRP

METAR

KHIF 132058Z 20018G25KT 10SM OVC090 09/M08 A2982 RMK AO2A PK WND

     19029/03 SLP095 MIDFLD WND 20017G23KT T00851081 56033=

KLFI 132056Z AUTO 01004KT 10SM BKN020 14/14 A3000 RMK AO2 CIG 017

     RWY26 SLP165 T01410139 52012 $=

TTPP 132100Z 09006KT 9999 VCSH FEW010CB 28/24 Q1009 NOSIG RMK

     CB/VCSH-SW/W/NW=

####018000217####
SPUS80 KWBC 132114

SPECI

KGDP 132110Z AUTO 07014KT 1 3/4SM HZ FEW120 13/04 A3011 RMK AO2

     T01280044=

KGPI 132111Z 16008KT 1 1/4SM -SN BR SCT007 BKN015 OVC035 01/M01

     A2929 RMK AO2 P0000 T00061006=

####018000343####
SAUS70 KWBC 132100 RRX

METAR

KSQL 132055Z 04003KT 10SM SCT025 OVC080 15/08 A3011=

KEBS 132055Z AUTO 16017KT 10SM CLR 04/M03 A3007 RMK AO2=

KMDS 132055Z AUTO 18018G26KT 10SM CLR 00/M01 A2981 RMK AO2=

KCIC 132055Z 11016KT 25SM SCT035 OVC050 09/07 A3001 RMK VIS NE-SE

     6SM BR=

KTVK 132055Z AUTO 10SM CLR 06/M08 A3019 RMK AO2=

####018000095####
SAAG31 KWBC 132100 RRA

METAR

SAWE 132100Z 34021KT 9999 BKN020 BKN080 10/06 Q0990 RESHRA=

####018000260####
SAAO33 KWBC 132100 RRB

METAR

GGOV 132100Z 03004KT 7000 NSC 26/22 Q1013 NOSIG=

GOGG 132100Z 12004KT CAVOK 27/22 Q1013=

GOGS 132100Z 04004KT CAVOK 27/22 Q1013=

GOOY 132100Z 00000KT CAVOK 26/22 Q1013=

GOSS 132100Z 06006KT 360V090 CAVOK 28/12 Q1013=

####018000091####
SAAW34 KWBC 132045 RRF

METAR

OPPS 132100Z 18006KT 4000 HZ SCT035 BKN100 16/11 Q1018=

####018000353####
SACN31 KWBC 132100 RRB

METAR

CYSJ 132100Z 07005KT 15SM BKN017 OVC096 06/03 A2996 RMK SC5AC3

     SLP151=

CYXU 132100Z 29007G15KT 15SM -DZ FEW010 BKN017 BKN053 06/02 A3002

     RMK CF1SC4SC2 SLP175=

CYYC 132100Z 12003KT 40SM FEW035 FEW090 SCT100 BKN130 BKN210

     00/M08 A2904 RMK CU1AC2AC2AC1CI2 CU TR SLP875 DENSITY ALT

     3700FT=

####018000130####
SAIQ32 KWBC 132100 RRB

METAR

KQAZ 132056Z AUTO 09008KT 9999 CLR 24/03 A3011 RMK AO2 SLP196 WND

     DATA ESTMD T02390029=

####018000090####
SAKN41 KWBC 131900 RRC

METAR

HKKI 131900Z 04012KT 9999 FEW018CB BKN080 19/18 Q1018=

####018000090####
SAKN41 KWBC 132000 RRB

METAR

HKKI 132000Z 27005KT 9999 FEW018CB BKN080 20/19 Q1017=

####018000091####
SAPA32 KWBC 132100 RRB

METAR

NGFU 132100Z 09006KT 9999 FEW018TCU BKN110 31/26 Q1013=

####018000394####
SAXX70 KAWN 132100 RRE

METAR KQEN 132110Z AUTO 27003KT 1600 BR FEW006 07/08 / RMK A02 TSNO=

METAR KQEY 132110Z AUTO 17001KT M0400 FG CLR 02/02 A3012 RMK A02 TSNO=

METAR KQFT 132110Z AUTO 36002KT / // CLR 04/03 A3043 RMK A02 TSNO=

METAR KQFU 132110Z AUTO 22001KT M0400 FG CLR 02/01 A3046 RMK A02 TSNO=

METAR KQFW 132110Z AUTO 01002KT 1200 // OVC002 01/02 A3047 RMK A02

      TSNO=

####018001069####
SAUS12 KAWN 132100 RRX

METAR K27K 132115Z AUTO 28007KT 250V310 10SM CLR 13/00 A3015 RMK AO1=

METAR K2J9 132115Z AUTO 01005KT 10SM CLR 25/11 A3008 RMK AO2=

METAR KBBP 132115Z AUTO 00000KT 10SM CLR 20/16 A3001 RMK AO2=

METAR KBNL 132115Z AUTO 27003KT 10SM CLR 26/14 A3001 RMK AO2=

METAR KBRY 132115Z AUTO 29004KT 10SM CLR 14/00 A3015 RMK AO1=

METAR KCKI 132115Z AUTO 00000KT 10SM SCT025 22/16 A3001 RMK AO2=

METAR KCPF 132115Z AUTO 32005KT 10SM SCT060 16/02 A3012 RMK AO2=

METAR KDCM 132115Z AUTO 00000KT 10SM CLR 21/13 A3001 RMK AO2=

METAR KEHO 132055Z AUTO 22003KT 10SM CLR 23/05 A3000 RMK AO2 T02280047=

METAR KM25 132115Z AUTO 04004KT 10SM CLR 13/00 A3022 RMK AO2 PWINO=

METAR KNBT 132056Z AUTO 31009KT 10SM OVC011 18/17 A2998 RMK AO2 SLP156

      T01780172 53007=

METAR KOMH 132115Z AUTO 00000KT 10SM CLR 15/08 A2998 RMK AO2=

METAR KSIF 132115Z AUTO 00000KT 10SM CLR 21/04 A3000 RMK AO2 T02050036=

METAR KSPA 132115Z AUTO 22006KT 10SM CLR 24/06 A2999 RMK AO2=

METAR KW96 132115Z AUTO 04004KT 10SM CLR 16/12 A2998 RMK AO1 T01570119=

####018000239####
SAXX99 KWBC 132100 RRM

METAR

CYRA 132100Z 01009KT 15SM BKN014 M15/M18 A2942 RMK ST7 SLP989=

FQNP 132100Z 19007KT 9999 FEW010 BKN020 21/19 Q1016=

FQPB 132100Z 21008KT 9999 FEW020 FEW025CB BKN100 26/23 Q1013 RMK

     CB TO SW/W=

####018000104####
SPUS81 KWBC 132114

SPECI

KGPI 132111Z 16008KT 1 1/4SM -SN BR SCT007 BKN015 OVC035 01/M01

A2929=

####018001143####
SAZZ40 KAWN 132100 RRU

METAR DBBB 132100Z 21008KT 9999 FEW012 29/25 Q1012 NOSIG=

METAR DFFD 132100Z 03006KT CAVOK 24/07 Q1015 NOSIG=

METAR MGHT 132100Z 00000KT 9999 FEW025 25/12=

METAR MGPB 132100Z 36006KT 7000 FEW020 SCT200 31/24 Q1012 A2988 HZ=

METAR MGZA 132100Z 00000KT 9999 FEW035 33/18 QFE986/5=

METAR OEAH 132100Z 34014KT CAVOK 22/17 Q1016 NOSIG=

METAR OEGS 132100Z 06006KT CAVOK 18/16 Q1021=

METAR OEGT 132100Z 03004KT CAVOK 15/07 Q1021 NOSIG=

METAR OEHL 132100Z 07004KT CAVOK 15/08 Q1023 NOSIG=

METAR OEPA 132100Z 36004KT CAVOK 17/10 Q1021 NOSIG=

METAR OERF 132100Z 00000KT CAVOK 15/11 Q1022=

METAR OERR 132100Z 17004KT CAVOK 15/12 Q1021 NOSIG=

METAR OESK 132100Z 12008KT CAVOK 16/08 Q1024=

METAR OETB 132100Z 12006KT CAVOK 15/03 Q1020 NOSIG=

METAR OETR 132100Z 07010KT CAVOK 14/08 Q1023 NOSIG=

METAR OEWJ 132100Z 35007KT CAVOK 26/17 Q1014 NOSIG=

METAR OEYN 132100Z 00000KT CAVOK 23/16 Q1011 NOSIG=

METAR TAPA 132100Z 08009KT 050V110 9999 SCT018 27/22 Q1012 NOSIG=

METAR TDCF 132100Z 25002KT 9999 FEW018 BKN038 29/23 Q1009=

METAR TGPY 132100Z 09011KT 9999 SCT017TCU 29/25 Q1009 NOSIG TCU-NE=

####018001074####
SAPS31 NFFN 132100

METAR NCRG 132100Z AUTO 12007KT 070V190 9999 FEW030/// 26/20 Q1015=

METAR NFFN 132100Z 29008KT 9999 FEW030 SCT300 29/24 Q1014 NOSIG=

METAR NFNA 132100Z 33004KT 260V080 9999 SCT020 SCT050 30/24 Q1014=

METAR NFTF 132100Z 07010KT 9999 SCT017TCU 27/22 Q1017=

METAR NFTV 132100Z 09011KT 9999 SCT018 28/25 Q1016=

METAR NGFU 132100Z 09006KT 9999 FEW018TCU BKN110 31/26 Q1013=

METAR NGTA 132100Z 09006KT 9999 FEW020 29/21 Q1013=

METAR NIUE 132100Z 12012KT 080V150 9999 SCT018 28/21 Q1016=

METAR NLWW 132100Z 11005KT 080V140 9999 SCT022 SCT040 29/24 Q1013

TEMPO 4000 SHRA SCT020CB BKN025=

METAR NSFA 132100Z VRB03KT 9999 FEW028 29/25 Q1013=

METAR NSTU 132100Z 12007KT 12SM SCT020TCU SCT040 BKN100 29/24 A2992

RMK TCU NW-N AND OHD SLP134 T02870240=

METAR NTAA 132100Z 05013KT 9999 FEW023 30/23 Q1014 NOSIG=

METAR NVSS 132100Z 09006KT 9999 BKN020 28/25 Q1014=

METAR NVVV 132100Z 09006KT 9999 SCT020 28/23 Q1014=

METAR NWWW 132100Z AUTO VRB02KT CAVOK 26/20 Q1015 NOSIG=

METAR PLCH 132100Z 11008KT 9999 FEW018TCU SCT040 29/22 Q1013=####018000092####
SAAG05 SABM 132100 RRA

METAR SAWE 132100Z 34021KT 9999 BKN020 BKN080 10/06 Q0990 RESHRA=
####018000027####
SAET20 HAAB 132100

NIL=
####018000564####
SASG21 GOOY 132100 RRA

METAR GOSS 132100Z 06006KT 360V090 CAVOK 28/12 Q1013=

METAR GOOY 132100Z 00000KT CAVOK 26/22 Q1013=

METAR GOSP 132100Z 00000KT CAVOK 26/15 Q1014=

METAR GOSM 132100Z 00000KT CAVOK 28/14 Q1014=

METAR GOOG 132100Z 04004KT CAVOK 26/10 Q////=

METAR GOOD 132100Z 00000KT 8000 NSC 28/11 Q1013=

METAR GOOK 132100Z 14006KT CAVOK 30/12 Q1013=

METAR GOGS 132100Z 04004KT CAVOK 27/22 Q1013=

METAR GOGG 132100Z 12004KT CAVOK 27/22 Q1013=

METAR GOGK 132100Z 00000KT 8000 NSC 23/20 Q1012=

METAR GOTK 132100Z 00000KT CAVOK 27/12 Q1013=####018000115####
SAUS44 KCRP 132114 COR

MTRNGP

SPECI KNGP 132107Z 12013KT 10SM SCT014 SCT019 28/22 A3000 RMK AO2

T02780222

####018001233####
SAUS20 KNKA 132114

METAR KAQP 132113Z AUTO 16010G17KT 10SM CLR 02/M03 A2984 RMK AO2=

SPECI KBAF 132113Z 03004KT 10SM BKN009 OVC028 06/06 A2992 RMK AO2

    T00560056=

SPECI KCON 132112Z AUTO 32004KT 5SM BR OVC010 04/02 A2994 RMK AO2

    RAE02 CIG 006V012 P0000 T00390022=

METAR KDVP 132113Z AUTO 16022KT 5SM HZ CLR 00/M04 A2988 RMK AO2

     T00011042=

METAR KFOZ 132113Z AUTO 17007KT 10SM CLR M01/M08 A2993 RMK AO2=

SPECI KGDP 132110Z AUTO 07014KT 1 3/4SM HZ FEW120 13/04 A3011 RMK

     AO2 T01280044=

SPECI KHFD 132112Z 04004KT 3SM -RA BR BKN007 BKN015 OVC029 07/06

    A2993 RMK AO2 BINOVC P0001 T00670056=

SPECI KLKV 132113Z AUTO 20020G29KT 10SM -RA FEW016 SCT020 BKN070

    03/00 A2972 RMK AO2 PK WND 21034/2054 P0000 $=

METAR KORB 132113Z AUTO 15008KT 120V190 10SM CLR M01/M11 A2988 RMK

     AO2=

METAR KOWA 132113Z AUTO 16011G19KT 10SM CLR 02/M03 A3004 RMK AO2=

SPECI KRKD 132113Z AUTO 02003KT 4SM -RA BR BKN007 OVC015 05/04 A2994

    RMK AO2 P0001=

SPECI KUDG 132113Z AUTO 00000KT 10SM FEW022 21/17 A3001 RMK AO2=

METAR KXVG 132113Z AUTO 14008KT 10SM CLR 01/M07 A2987 RMK AO2=

SPECI PAHP 132113Z AUTO 36003KT 1 1/4SM BR OVC003 01/00 A2936 RMK

    AO2 CIG 002V007 FZRANO $=

####018000350####
SAAK41 KNKA 132114

SPECI PAFA 132112Z 02003KT 2SM -SN BR BKN022 BKN042 OVC100 M09/M12

    A2938 RMK AO2 TWR VIS 2 1/2 P0001 T10941117=

SPECI PAHP 132113Z AUTO 36003KT 1 1/4SM BR OVC003 01/00 A2936 RMK

    AO2 CIG 002V007 FZRANO $=

SPECI PASM 132113Z AUTO 19006KT 1/2SM UP FZFG BKN003 OVC007 M01/M01

    A2937 RMK AO2 P0000 FZRANO $=

####018000100####
SAPH31 RPLL 132100 CCA

METAR COR RPLI 132100Z 07003KT 040V100 8000 FEW018 24/23 Q1010 RMK A2983=
####018000103####
SAHK31 VHHH 132100 CCA

METAR COR RPLI 132100Z 07003KT 040V100 8000 FEW018 24/23 Q1010 RMK

A2983=

####018000027####
SAAM34 FCBB 132100

NIL=
####018000027####
SAAM31 FCBB 132100

NIL=
####018000027####
SAAM36 FCBB 132100

NIL=
####018000103####
SPCN47 CWAO 132114

SPECI CYMO 132114Z AUTO 32004KT 7SM -SN FEW014 OVC020 M01/M02 A2990 RMK SLP128=

####018000105####
SPCN42 CWAO 132113

SPECI CYXC 132113Z 18005KT 3SM -SN SCT004 OVC040 M01/M02 A2921 RMK SC3SC5 SLP919=

####018000134####
SAUS46 KSEW 132114

MTRSMP

SPECI KSMP 132111Z AUTO 25009G24KT 180V320 3SM -SN BR 00/M02 A2932

RMK AO2 SNB2058 P0000 T00001017

####018000085####
SAUS45 KTFX 132114

MTR38S

METAR K38S 132115Z AUTO 15013G21KT 10SM 02/M04 A2940

####018000084####
SAUS45 KTFX 132114

MTR3U3

METAR K3U3 132115Z AUTO 18010G15KT 8SM 02/M04 A2941

####018000084####
SAUS45 KTFX 132114

MTRS59

METAR KS59 132115Z AUTO 00000KT 3/4SM M01/M01 A2923

####018000085####
SAUS45 KTFX 132114

MTR79S

METAR K79S 132115Z AUTO 17016G24KT 10SM 07/M05 A2923

####018000081####
SAUS45 KTFX 132114

MTRPO1

METAR KPO1 132115Z AUTO 18005KT 9SM 04/M05 A2942

####018000107####
SPDN31 EKCH 132114

SPECI EKYT 132114Z AUTO 17012KT 6000 -RA SCT011/// BKN019///
BKN050/// 09/07 Q1010=
####018000135####
SAUS46 KSTO 132114

MTRBAN

SPECI KBAN 132113Z AUTO 25026G49KT 3SM -RA 08/M04 A2990 RMK AO2 PK

WND 26050/2103 P0000 T00831039 $

####018000088####
SAMG20 FMNM 131800

METAR FMNM 131800Z 28010KT 250V310 9999 FEW020 28/24 Q1010 NOSIG=
####018000376####
SAES20 MSLP 132100

METAR





MSAC 132050Z 28004KT 9999 FEW030 30/26 Q1009 A2981=


MSSA 132050Z 04003KT 9999 FEW033 30/21 Q1017 A3005=


MSSS 132050Z 09003KT 9999 FEW023 30/21 Q1014 A2996=


MSSM 132050Z 21004KT 9999 FEW033 33/26 Q1009 A2982=


MSLU 132050Z 18005KT CAVOK 34/23 Q1009 A2980=


MSLP 132050Z 24007KT 200V260 9000 FEW020 31/24 Q1010 A2984 NOSIG=


####018000112####
SAMG20 FMMT 131800

METAR FMMT 131800Z VRB01KT 6000 -RA FEW007 SCT017CB BKN033 25/24
Q1013 TEMPO 3500 TSRA=
####018000425####
SAUS99 KWBC 132115

METAR

KAQP 132113Z AUTO 16010G17KT 10SM CLR 02/M03 A2984 RMK AO2=

KDVP 132113Z AUTO 16022KT 5SM HZ CLR 00/M04 A2988 RMK AO2

     T00011042=

KFOZ 132113Z AUTO 17007KT 10SM CLR M01/M08 A2993 RMK AO2=

KORB 132113Z AUTO 15008KT 120V190 10SM CLR M01/M11 A2988 RMK

     AO2=

KOWA 132113Z AUTO 16011G19KT 10SM CLR 02/M03 A3004 RMK AO2=

KXVG 132113Z AUTO 14008KT 10SM CLR 01/M07 A2987 RMK AO2=

####018001072####
SPUS99 KWBC 132115

SPECI

KBAF 132113Z 03004KT 10SM BKN009 OVC028 06/06 A2992 RMK AO2

     T00560056=

KCON 132112Z AUTO 32004KT 5SM BR OVC010 04/02 A2994 RMK AO2 RAE02

     CIG 006V012 P0000 T00390022=

KGDP 132110Z AUTO 07014KT 1 3/4SM HZ FEW120 13/04 A3011 RMK AO2

     T01280044=

KHFD 132112Z 04004KT 3SM -RA BR BKN007 BKN015 OVC029 07/06 A2993

     RMK AO2 BINOVC P0001 T00670056=

KLKV 132113Z AUTO 20020G29KT 10SM -RA FEW016 SCT020 BKN070 03/00

     A2972 RMK AO2 PK WND 21034/2054 P0000 $=

KRKD 132113Z AUTO 02003KT 4SM -RA BR BKN007 OVC015 05/04 A2994 RMK

     AO2 P0001=

KUDG 132113Z AUTO 00000KT 10SM FEW022 21/17 A3001 RMK AO2=

PAHP 132113Z AUTO 36003KT 1 1/4SM BR OVC003 01/00 A2936 RMK AO2

     CIG 002V007 FZRANO $=

PAFA 132112Z 02003KT 2SM -SN BR BKN022 BKN042 OVC100 M09/M12 A2938

     RMK AO2 TWR VIS 2 1/2 P0001 T10941117=

PAHP 132113Z AUTO 36003KT 1 1/4SM BR OVC003 01/00 A2936 RMK AO2

     CIG 002V007 FZRANO $=

PASM 132113Z AUTO 19006KT 1/2SM UP FZFG BKN003 OVC007 M01/M01

     A2937 RMK AO2 P0000 FZRANO $=

####018000106####
SPAK32 KWBC 132115

SPECI

PABA 132112Z AUTO 29017KT 4SM -SN BR BKN004 BKN012 OVC080 M17/M18

A2964=

####018000111####
SPDN31 KWBC 132115

SPECI

EKYT 132114Z AUTO 17012KT 6000 -RA SCT011/// BKN019/// BKN050///

09/07 Q1010=

####018000100####
SANG31 AMMC 132100

METAR AYMO NIL=

METAR AYPY 132100Z VRB03KT 8KM FUHZ FEW050 24/23 Q1011=



####018001207####
SAAU32 AMMC 132100

METAR YAMB 132100Z AUTO 05002KT 9999 // BKN001 19/18 Q1011=

METAR YBCG 132100Z AUTO 35014KT 9999 // NCD 24/16 Q1010=

METAR YBHM 132100Z AUTO 33009KT 9999 // SCT039 26/22 Q1013=

METAR YBMA 132100Z AUTO 01005KT 9999 // NCD 25/20 Q1012=

METAR YBRK 132100Z AUTO 36006KT 9999 // OVC031 25/20 Q1013=

METAR YBRM 132100Z AUTO 25009KT 9999 // NCD 29/21 Q1006=

METAR YCIN 132100Z AUTO 34005KT 9999 // NCD 24/15 Q1006=

METAR YFRT 132100Z AUTO 04007KT 9999 // NCD 18/04 Q1002=

METAR YMAV 132100Z AUTO 29008KT 9999 // OVC052 14/13 Q1009=

METAR YMHB 132100Z 34009KT 9999 FEW015 14/07 Q1003=

METAR YMLT 132100Z AUTO 34012KT 9999 // NCD 11/08 Q1004=

METAR YPEA 132100Z AUTO 35009KT 9999 -SHRA BKN041 BKN056 OVC089 16/14 Q1005=

METAR YPGV 132100Z AUTO 00000KT 9999 // NCD 26/24 Q1010=

METAR YPKG 132100Z AUTO 23003KT 9999 // NCD 16/13 Q1006=

METAR YPPD 132100Z AUTO 27009KT 9999 // NCD 25/17 Q1007=

METAR YSCB 132100Z AUTO 30003KT 9999 // NCD 14/07 Q1010=

METAR YSDU NIL=

METAR YSNF 132100Z AUTO 05010KT 9999 // BKN010 BKN015 OVC031 21/19 Q1019=

METAR YSRI 132100Z AUTO 00000KT 9999 // NCD 17/16 Q1009=

METAR YWLM 132100Z AUTO 30007KT 9999 // NCD 19/16 Q1008=



####018000584####
SAAU61 AMMC 132100

METAR YBHI 132100Z AUTO 15008KT 9999 // NCD 16/05 Q1012=

METAR YBHM 132100Z AUTO 33009KT 9999 // SCT039 26/22 Q1013=

METAR YBMA 132100Z AUTO 01005KT 9999 // NCD 25/20 Q1012=

METAR YBMK 132100Z AUTO 36011KT 9999 // SCT021 SCT027 OVC033 26/21 Q1013=

METAR YBNA 132100Z AUTO 06003KT 9999 // NCD 23/18 Q1010=

METAR YBOK 132100Z AUTO 33012KT 9999 // OVC019 21/17 Q1013=

METAR YBPN 132100Z AUTO 00000KT 9999 // BKN033 25/21 Q1013=

METAR YBRK 132100Z AUTO 36006KT 9999 // OVC031 25/20 Q1013=

METAR YBRM 132100Z AUTO 25009KT 9999 // NCD 29/21 Q1006=



####018000602####
SAAU63 AMMC 132100

METAR YCDU 132100Z AUTO 04011KT 9999 // NCD 16/08 Q1006=

METAR YCIN 132100Z AUTO 34005KT 9999 // NCD 24/15 Q1006=

METAR YCNM 132100Z AUTO 16008KT //// // ////// 21/11 Q1010=

METAR YCOM 132100Z AUTO 24005KT 190V280 9999 // BKN032 12/07 Q1010=

METAR YDBY 132100Z AUTO 31004KT 9999 // NCD 27/17 Q1006=

METAR YEML 132100Z AUTO 01008KT 9999 // NCD 24/20 Q1013=

METAR YESP 132100Z AUTO 36007KT 9999 // BKN028 14/14 Q1004=

METAR YFRT 132100Z AUTO 04007KT 9999 // NCD 18/04 Q1002=

METAR YGEL 132100Z AUTO 32016G27KT 2800 -SHRA SCT012 SCT026 BKN040 19/17

     Q1006=



####018000564####
SAAU64 AMMC 132100

METAR YGFN 132100Z AUTO 01003KT 9999 // NCD 20/20 Q1009=

METAR YGLA 132100Z AUTO 32007KT 9999 // OVC035 24/19 Q1013=

METAR YGTE 132100Z AUTO 36006KT 9999 // SCT020 28/25 Q1009=

METAR YGTH 132100Z AUTO 26005KT 9999 // NCD 15/08 Q1010=

METAR YHID 132100Z AUTO 11009KT 9999 // NCD 28/23 Q1011=

METAR YHUG 132100Z AUTO 00000KT 9999 // NCD 24/17 Q1012=

METAR YKRY 132100Z AUTO 33011KT 9999 // OVC016 21/17 Q1014=

METAR YLEC 132100Z AUTO 19005KT 9999 // NCD 19/03 Q1011=

METAR YLIS 132100Z AUTO 03003KT 9999 // NCD 23/16 Q1010=



####018000501####
SAXN17 KAWN 132100 RRE

METAR NSTU 132100Z 12007KT 12SM SCT020TCU SCT040 BKN100 29/24 A2992

      RMK TCU NW-N AND OHD SLP134 T02870240=

METAR PTPN 132107Z 11003KT 15SM SCT018 BKN130 OVC300 28/25 A2987 RMK

      FIRST=

METAR RCKH 132100Z 05002KT 4000 BR FEW008 BKN220 23/21 Q1013 TEMPO

      3000 BR RMK A2993=

METAR RCTP 132100Z 05013KT 9999 -RA FEW006 BKN012 BKN025 21/19 Q1019

      NOSIG RMK A3009 RA AMT 0.2MM=

METAR TAPA 132100Z 08009KT 050V110 9999 SCT018 27/22 Q1012 NOSIG=

####018000580####
SAAU66 AMMC 132100

METAR YMTG 132100Z AUTO 35007KT 9999 // OVC036 11/11 Q1009=

METAR YNAR 132100Z AUTO 31004KT 9999 // NCD 16/07 Q1010=

METAR YNBR 132100Z AUTO 19004KT 160V220 9999 // NCD 21/13 Q1010=

METAR YNTN 132100Z AUTO 35007KT 9999 // NCD 29/24 Q1011=

METAR YNWN 132100Z AUTO 24006KT 9999 // NCD 21/M08 Q1009=

METAR YOLD 132100Z AUTO 06011KT 9999 // NCD 18/08 Q1009=

METAR YPAD 132100Z 05007KT 9999 FEW028 15/09 Q1010=

METAR YPBO 132100Z AUTO 00000KT 9999 // NCD 18/M06 Q1010=

METAR YPCC 132100Z AUTO 14015KT 9999 // SCT019 SCT026 BKN050 26/23 Q1010=



####018000331####
SPNA14 KAWN 132115

SPECI KNEL 132110Z 31004KT 10SM SCT014 A2992 RMK AO2 $=

SPECI KNGU 132108Z 34006KT 9SM SCT012 BKN019 14/11 A3000 RMK AO2 T01440111

      $=

SPECI KPSM 132111Z 36005KT 7SM -RA OVC006 04/03 A2991 RMK AO2A SLP132=

SPECI KRND 132111Z AUTO 12005KT 10SM BKN042 OVC080 28/17 A3000 RMK

      AO2 SLP152 $=

####018000797####
SASA KAWN 131600 RRL

METAR SLCA 131600Z 18006KT 9999 FEW036 32/18 Q1014=

METAR SLCP 131600Z 35005KT 9999 SCT017 OVC200 30/23 Q1016=

METAR SLJO 131600Z 09004KT 9999 FEW017 BKN080 31/25 Q1011=

METAR SLMG 131600Z 34004KT 9999 SCT017 FEW023CB 33/23 Q1011=

METAR SLOR 131600Z 25008KT 9999 FEW017 18/03 Q1035=

METAR SLPO 131600Z 07006KT 9999 FEW020 17/03 Q1035=

METAR SLRB 131600Z 00000KT 9999 FEW020 31/24 Q1014=

METAR SLRI 131600Z 01008KT 9999 SCT017 BKN080 32/24 Q1012=

METAR SLRQ 131600Z 00000KT 9999 BKN013 BKN070 28/25 Q1011=

METAR SLRY 131600Z 34006KT 9999 BKN015 BKN200 28/23 Q1011=

METAR SLSA 131600Z 00000KT 7000 VCSH BKN017 FEW023CB BKN200 32/24 Q1010=

METAR SLSI 131600Z 33006KT 9999 SCT017 BKN200 34/22 Q1012=

METAR SLYA 131600Z 06008KT 9999 FEW023 36/23 Q1010=

####018000583####
SAAU67 AMMC 132100

METAR YPDN 132100Z 35003KT 9999 FEW021 28/25 Q1009=

METAR YPEA 132100Z AUTO 35009KT 9999 -SHRA BKN041 BKN056 OVC089 16/14 Q1005=

METAR YPGV 132100Z AUTO 00000KT 9999 // NCD 26/24 Q1010=

METAR YPKG 132100Z AUTO 23003KT 9999 // NCD 16/13 Q1006=

METAR YPKU 132100Z AUTO 02005KT 9999 // NCD 28/26 Q1007=

METAR YPLM 132100Z AUTO 23008KT 9999 // NCD 18/14 Q1011=

METAR YPPD 132100Z AUTO 27009KT 9999 // NCD 25/17 Q1007=

METAR YPPH 132100Z 03005KT 9999 -RA FEW018 BKN099 BKN130 15/15 Q1004=

METAR YPTN 132100Z AUTO 33010KT 9999 // NCD 29/22 Q1008=



####018001122####
SASA KAWN 132000 RRL

METAR SLCA 132000Z 00000KT 9999 SCT036 BKN200 31/18 Q1009=

METAR SLCB 132000Z 08014KT 020V170 9999 FEW036 29/01 Q1016=

METAR SLCO 132000Z 32007KT 9999 SCT025 36/25 Q1006=

METAR SLCP 132000Z 00000KT 9999 BKN017 31/22 Q1010=

METAR SLET 132000Z 30014KT 9999 FEW017 FEW030CB 33/21 Q1006=

METAR SLJE 132000Z 32006KT 9999 SCT020 38/22 Q1008=

METAR SLLP 132000Z 29010G22KT 9999 FEW025 SCT200 19/M16 Q1033=

METAR SLMG 132000Z 18008KT 8000 TS VCSH SCT017 FEW023CB OVC200 30/23

      Q1007=

METAR SLPS 132000Z 09005KT 9999 FEW017 SCT200 37/24 Q1006=

METAR SLRB 132000Z 00000KT 9999 FEW020 FWE025CB 34/22 Q1010=

METAR SLRI 132000Z 34006KT 7000 TS VCSH SCT017 FEW020CB BKN200 30/24

      Q1007=

METAR SLRQ 132000Z 35006KT 8000 VCSH BKN017 FEW020CB 32/26 Q1005=

METAR SLRY 132000Z 34006KT 9999 FEW017 BKN200 32/23 Q1006=

METAR SLSA 132000Z 00000KT 8000 -RA BKN015 FEW023CB OVC070 24/23 Q1008=

METAR SLSI 132000Z 36005KT 9999 SCT017 35/23 Q1006=

METAR SLTJ 132000Z 13007KT 9999 SCT036 FEW040CB BKN200 25/13 Q1014=

METAR SLVR 132000Z 34014KT 9999 SCT017 FEW030CB 32/22 Q1006=

####018000585####
SAAU68 AMMC 132100

METAR YCFS 132100Z AUTO 01006KT 9999 // NCD 22/18 Q1008=

METAR YPWR 132100Z AUTO 09011KT 9999 // NCD 16/10 Q1009=

METAR YPXM 132100Z AUTO 13008KT 9999 // OVC008 OVC017 25/24 Q1011=

METAR YRMD 132100Z AUTO 04001KT 9999 // NCD 23/20 Q1012=

METAR YSCB 132100Z AUTO 30003KT 9999 // NCD 14/07 Q1010=

METAR YSNF 132100Z AUTO 05010KT 9999 // BKN010 BKN015 OVC031 21/19 Q1019=

METAR YSNW 132100Z AUTO 29005KT 260V320 9999 // NCD 19/15 Q1008=

METAR YSRI 132100Z AUTO 00000KT 9999 // NCD 17/16 Q1009=

METAR YSSY 132100Z 22005KT 9999 FEW040 20/16 Q1008=



####018001165####
SASA KAWN 132100 RRG

METAR SAWE 132100Z 34021KT 9999 BKN020 BKN080 10/06 Q0990 RESHRA=

METAR SLCA 132100Z 00000KT 9999 SCT036 BKN200 31/18 Q1009=

METAR SLCB 132100Z 05008KT 340V090 9999 FEW036 27/01 Q1016=

METAR SLCO 132100Z 34008KT 9999 SCT025 34/23 Q1005=

METAR SLCP 132100Z 00000KT 9999 BKN017 30/23 Q1010=

METAR SLET 132100Z 32013KT 9999 FEW017 SCT200 31/20 Q1005=

METAR SLJE 132100Z 32005KT 9999 FEW020 37/22 Q1008=

METAR SLLP 132100Z 30011KT 260V350 9999 FEW025 18/M19 Q1032=

METAR SLMG 132100Z 18006KT 8000 TS VCSH SCT017 FEW023CB OVC200 28/23

      Q1008=

METAR SLPS 132100Z 09006KT 9999 FEW017 SCT200 35/23 Q1005=

METAR SLRB 132100Z 00000KT 9999 FEW020 34/22 Q1007=

METAR SLRI 132100Z 36010KT 7000 VCSH SCT015 FEW020CB BKN200 28/22 Q1008=

METAR SLRQ 132100Z 36004KT 9999 BKN017 FEW020CB SCT200 31/26 Q1005=

METAR SLRY 132100Z 34006KT 9999 FEW017 BKN200 32/23 Q1005=

METAR SLSA 132100Z 36005KT 9999 SCT020 FEW023CB BKN200 24/23 Q1006=

METAR SLSI 132100Z 33006KT 9999 SCT017 35/23 Q1005=

METAR SLTJ 132100Z 18010KT 9999 TS SCT036 SCT040CB BKN200 25/12 Q1014=

METAR SLVR 132100Z 35014KT 9999 FEW017 SCT070 31/22 Q1006=

####018000792####
SASA KAWN 131800 RRL

METAR SLCA 131800Z 18004KT 9999 FEW036 SCT200 33/18 Q1011=

METAR SLCP 131800Z 32005KT 9999 BKN017 31/22 Q1013=

METAR SLJE 131800Z 32008KT 9999 SCT020 37/22 Q1011=

METAR SLMG 131800Z 00000KT 8000 TS VCSH BKN017 FEW023CB 33/22 Q1009=

METAR SLOR 131800Z 21004KT 9999 FEW023 21/03 Q1033=

METAR SLRB 131800Z 00000KT 9999 SCT020 FEW025CB 33/23 Q1010=

METAR SLRI 131800Z 05006KT 8000 VCSH SCT017 FEW020CB BKN200 34/25 Q1009=

METAR SLRQ 131800Z 00000KT 9999 BKN015 BKN200 31/26 Q1008=

METAR SLRY 131800Z 34008KT 9999 SCT015 BKN080 BKN200 32/25 Q1009=

METAR SLSA 131800Z 34005KT 6000 TS VCSH FEW006 BKN015 FEW023CB OVC070

      24/23 Q1010=

METAR SLSI 131800Z 36006KT 9999 SCT017 34/22 Q1009=

METAR SLYA 131800Z 06008KT 9999 FEW023 SCT200 37/23 Q1008=

####018000687####
SASA KAWN 131900 RRN

METAR SLCA 131900Z 18003KT 9999 SCT036 BKN200 33/18 Q1009=

METAR SLCP 131900Z 30006KT 9999 BKN017 FEW030CB 30/22 Q1011=

METAR SLJE 131900Z 32008KT 9999 SCT020 38/22 Q1009=

METAR SLMG 131900Z 32006KT 8000 TS VCSH SCT017 FEW023CB BKN200 33/23

      Q1008=

METAR SLRB 131900Z 00000KT 9999 SCT020 FEW025CB 34/22 Q1010=

METAR SLRI 131900Z 03004KT 8000 VCSH SCT017 FEW020CB BKN200 34/24 Q1007=

METAR SLRQ 131900Z 11004KT 9999 BKN017 31/26 Q1007=

METAR SLRY 131900Z 34006KT 9999 FEW017 SCT080 BKN200 32/25 Q1008=

METAR SLSA 131900Z 26006KT 8000 TS VCSH BKN015 FEW023CB OVC070 24/22

      Q1009=

METAR SLSI 131900Z 33006KT 9999 SCT017 35/22 Q1007=

####018000147####
SAAP33 FAPR 132100 RRA

METAR FAWB 132100Z AUTO 07003KT //// // ////// 17/10 Q1021=
METAR FAWK 132100Z AUTO 16001KT //// // ////// 17/07 Q1024=
####018000174####
SAAP36 FAPR 132100 RRA

METAR FQNP 132100Z 19007KT 9999 FEW010 BKN020 21/19 Q1016=
METAR FQPB 132100Z 21008KT 9999 FEW020 FEW025CB BKN100 26/23 Q1013
    RMK CB TO SW/W=
####018000107####
SPDN31 EKCH 132115

SPECI EKYT 132115Z AUTO 17012KT 5000 -RA SCT011/// BKN019///
BKN050/// 09/07 Q1010=
####018000204####
SAAP37 FAPR 132100

METAR FYKT 132100Z AUTO 21005KT //// // ////// 28/04 Q////=
METAR FYOA 132100Z AUTO 10002KT //// // ////// 27/14 Q1016=
METAR FYWB 132100Z AUTO 36005KT //// // ////// 15/12 Q1017=
####018001019####
SAAR20 OEJD 132100

METAR OBBI 132100Z 35011KT 9999 SCT025 FEW030TCU 27/21 Q1015 NOSIG=
METAR OKBK 132100Z 35007KT CAVOK 21/10 Q1019 NOSIG=
METAR OMAA 132100Z 11006KT CAVOK 25/18 Q1014 NOSIG=
METAR OMAD 132100Z 13003KT CAVOK 27/20 Q1014 NOSIG=
METAR OMAL 132100Z 08005KT 9000 NSC 25/15 Q1016 NOSIG=
METAR OMDB 132100Z 17005KT CAVOK 27/19 Q1014 NOSIG=
METAR OMFJ 132050Z 30004KT 7000 NSC 25/20 Q1014 RMK A2996=
METAR OMRK 132100Z 17004KT 8000 NSC 23/20 Q1014 A2995=
METAR OMSJ 132100Z 16003KT CAVOK 25/18 Q1014 NOSIG=
METAR OOMS 132050Z 25004KT CAVOK 24/19 Q1013 NOSIG=
METAR OOSA 132050Z 34002KT CAVOK 25/19 Q1014 NOSIG=
METAR OOSH 132100Z NIL=
METAR OODQ 132050Z AUTO 11004KT //// R22///// FEW021 SCT028 23/19
Q1014 NOSIG RMK RH82? 0=
METAR OTBD 132100Z AUTO 30006KT CAVOK 27/19 Q1014 NOSIG=
METAR OTBH 132056Z 29006KT 9999 CLR 25/19 A2996 RMK AO2A SLP146
T02490190
      403540199 58005 ?=
METAR OTHH 132100Z AUTO 30006KT CAVOK 26/18 Q1014 NOSIG=
METAR OYAA 132100Z NIL=
METAR OYSN 132100Z NIL=
####018000109####
SPNA35 KAWN 132115

SPECI KNGU 132108Z 34006KT 9SM SCT012 BKN019 14/11 A3000 RMK AO2 T01440111

      $=

####018000093####
SPUS81 KWBC 132115

SPECI

KSMP 132111Z AUTO 25009G24KT 180V320 3SM -SN BR 00/M02 A2932=

####018000501####
SAKO51 RJTD 132100

METAR RKPC 132100Z 12007KT 9999 SCT020 14/11 Q1027 NOSIG=

METAR RKPK 132100Z 35002KT CAVOK 09/05 Q1029=

METAR RKSI 132100Z 06004KT 0050 R15L/1500U R15R/1400U R16/0250N FG

           VV001 06/06 Q1030 NOSIG=

METAR RKSM 132100Z 30001KT 2000 BR FEW000 04/04 A3043=

METAR RKSS 132100Z 34002KT 0050 R14R/0250N R14L/0250N FG VV001 05/05

           Q1030 NOSIG=

METAR RKTN 132100Z 06001KT CAVOK 04/02 Q1030=

METAR RKTU 132100Z 11002KT 0100 R24/0150 FG SCT000 04/04 Q1030=####018001965####
SAUS11 KAWN 132100 RRX

METAR K1P1 132115Z AUTO 00000KT 2 1/2SM -DZ BKN005 OVC019 02/02 A2994

      RMK AO2 T00230018=

METAR K20U 132115Z AUTO 18009KT 10SM CLR 07/M07 A2950 RMK AO2=

METAR K2C8 132115Z AUTO 15011KT 10SM CLR 01/M04 A2968 RMK AO2=

METAR K2W6 132115Z AUTO 00000KT 10SM CLR 15/08 A2999 RMK AO1=

METAR KANQ 132115Z AUTO 32010KT 10SM BKN024 02/M03 A3015 RMK AO2=

METAR KBNW 132115Z AUTO 17017KT CLR 05/M04 A3008 RMK AO2=

METAR KCCY 132115Z AUTO 18011KT 10SM CLR 03/M04 A3011 RMK AO2=

METAR KCIN 132115Z AUTO 18015G21KT 10SM CLR 05/M03 A3004 RMK AO2=

METAR KCNC 132115Z AUTO 19011KT 10SM CLR 06/M07 A3015 RMK AO2=

METAR KD55 132115Z AUTO 17014KT 10SM CLR 03/M00 A2962 RMK AO2=

METAR KDLL 132115Z AUTO 29006KT 10SM CLR 01/M09 A3015 RMK AO2 T00061088=

METAR KEFT 132115Z AUTO 28007KT 10SM CLR 02/M08 A3016 RMK AO2 T00181085=

METAR KEZS 132115Z AUTO 24007KT 10SM CLR 00/M05 A3013 RMK AO2 T00001052=

METAR KGGI 132115Z AUTO 17012KT 10SM CLR 07/M05 A3017 RMK AO2 T00651055=

METAR KIFA 132115Z AUTO 16012KT 10SM CLR 04/M06 A3012 RMK AO2 T00421056=

METAR KLUM 132115Z AUTO 14007KT 10SM CLR M01/M08 A3009 RMK AO2 T10071080=

METAR KMDZ 132115Z AUTO 24007KT 10SM CLR M03/M10 A3008 RMK AO2 T10301102=

METAR KPBH 132115Z AUTO 24005KT 10SM CLR M02/M10 A3005 RMK AO2 T10231105=

METAR KPRO 132115Z AUTO 18014G19KT 10SM CLR 06/M06 A3009 RMK AO2 T00601058=

METAR KRDK 132115Z AUTO 17015G22KT 10SM CLR 06/M07 A3008 RMK AO2=

METAR KRRL 132115Z AUTO 21005KT 10SM CLR M01/M07 A3008 RMK AO2 T10101075

      TSNO=

METAR KSPF 132115Z AUTO 00000KT 10SM CLR 12/M15 A2958 RMK AO2 PWINO=

METAR KSUW 132115Z AUTO 21009KT 10SM CLR 01/M09 A3002 RMK AO2 T00051094=

METAR KSWF 132045Z COR 20004KT 10SM SCT010 SCT017 08/08 A2991=

METAR KTVK 132055Z AUTO 10SM CLR 06/M08 A3019 RMK AO2=

METAR KUNU 132115Z AUTO 26005KT 10SM CLR 00/M07 A3017 RMK AO2 T00031072=

METAR KY51 132115Z AUTO 24005KT 10SM CLR 01/M05 A3014 RMK AO1 T00071053=

####018002953####
SAUS20 KNKA 132115

METAR K06D 132115Z AUTO 19008KT 10SM CLR 03/M04 A2957 RMK AO2=

METAR K0S9 132115Z AUTO 26016G23KT 10SM FEW055 11/01 A2939 RMK AO2=

METAR K1A5 132115Z AUTO 34006KT 10SM CLR 19/03 A3011 RMK AO2

     T01880031=

METAR K1R7 132115Z AUTO 01005KT 10SM CLR 24/08 A3014 RMK AO2 PWINO=

METAR K1S5 132115Z AUTO 23016G28KT 10SM CLR 12/01 A2939 RMK AO2

     T01220012=

METAR K24A 132115Z AUTO 32006KT 10SM CLR 17/02 A3011 RMK AO2

     T01710017=

METAR K24J 132115Z AUTO 31003KT 10SM CLR 26/14 A3003 RMK A01=

METAR K2D5 132115Z AUTO 19014KT 10SM CLR 03/M04 A2972 RMK AO2=

METAR K3D2 132115Z AUTO 29007KT 10SM OVC025 M02/M07 A3011 RMK AO2

     T10211072=

METAR K3T5 132115Z AUTO 11007KT 10SM BKN034 BKN047 OVC060 27/20

     A3000 RMK AO2 T02700202=

METAR K42J 132115Z AUTO 31005KT 9SM FEW016 24/21 A3002 RMK A01

     TSNO=

METAR K46D 132115Z AUTO 17013KT 10SM CLR 06/M05 A2965 RMK AO2=

METAR K4A6 132115Z AUTO 32006KT 10SM CLR 21/06 A3012 RMK AO2=

METAR K4M9 132115Z AUTO 07006KT 10SM CLR 14/00 A3021 RMK AO2 PWINO=

METAR K4S2 132115Z AUTO 22007KT 10SM -DZ SCT039 SCT048 BKN090 08/05

      A2954 RMK AO2=

METAR K57C 132115Z AUTO 30008KT 10SM CLR 02/M07 A3017 RMK AO2

     T00191073=

METAR K5H4 132115Z AUTO 17011G19KT 10SM CLR 06/M08 A2960 RMK AO2=

METAR K6B9 132115Z AUTO 25005KT 10SM SCT032 BKN038 OVC048 08/03

     A2994 RMK AO2=

METAR K6L4 132115Z AUTO VRB04G10KT 10SM CLR 14/01 A3011 RMK AO2=

METAR K7L2 132115Z AUTO 18007G12KT 10SM CLR A2967 RMK AO2=

METAR K82C 132115Z AUTO 00000KT 10SM CLR 00/M07 A3015 RMK AO2

     T00031069=

METAR K8B0 132115Z AUTO 00000KT 10SM -SN FEW016 SCT020 OVC028

     M00/M02 A2990 RMK AO2=

METAR K9D7 132115Z AUTO 17013KT 10SM CLR 06/M04 A2961 RMK AO2=

METAR KADU 132115Z AUTO 18012G16KT 10SM CLR 05/M06 A3006 RMK AO2=

METAR KAFP 132115Z AUTO 00000KT 10SM CLR 21/14 A3001 RMK AO2

     T02060140=

METAR KAIK 132115Z AUTO 28009KT 10SM CLR 24/13 A3003 RMK AO2

     T02450134=

METAR KAIO 132115Z AUTO 17013G19KT 10SM CLR 05/M07 A3005 RMK AO2=

METAR KAQX 132115Z AUTO 00000KT 10SM CLR 26/15 A3000 RMK AO2=

METAR KARV 132115Z AUTO 23005KT 10SM CLR 00/M07 A3004 RMK AO2

     T10011069=

METAR KARW 132115Z AUTO 00000KT 10SM CLR 24/17 A3001 RMK AO2=

METAR KASJ 132115Z AUTO 00000KT 10SM CLR 15/14 A2999 RMK AO2

     T01520140=

METAR KATS 132115Z AUTO 00000KT 10SM CLR 13/M01 A3009 RMK AO2=

METAR KAWG 132115Z AUTO 18004KT 10SM CLR 04/M09 A3020 RMK AO2=

METAR KAXA 132115Z AUTO 18019KT 10SM CLR 03/M01 A3001 RMK A01=

METAR KBAC 132115Z AUTO 17015KT 10SM -UP CLR 04/M06 A2970 RMK AO2=

METAR KBDN 132115Z AUTO 32006G18KT 2SM +RA BKN011 BKN017 OVC042

     04/02 A2959 RMK AO2=

METAR KBKN 132115Z AUTO 07004KT 10SM 09/M02 A3013 RMK AO2=

METAR KBKS 132115Z AUTO 11008KT 10SM SCT070 29/19 A2995 RMK AO2

     T02850190=

METAR KBRG 132115Z AUTO 15005KT 10SM CLR 13/M09 A3010 RMK AO2

     T01251094=

####018002919####
SAUS20 KNKA 132115

METAR KBUU 132115Z AUTO 29006KT 10SM CLR 02/M07 A3018 RMK AO2

     T00231070 PWINO=

METAR KBVU 132115Z AUTO VRB04KT 10SM CLR 20/M08 A3001 RMK AO2=

METAR KBXK 132115Z AUTO VRB04G10KT 10SM CLR 23/M06 A3002 RMK A01=

METAR KC29 132115Z AUTO 29005KT 10SM CLR 03/M08 A3017 RMK AO1

     T00321081=

METAR KCAV 132115Z AUTO 16016G21KT CLR 03/M03 A3007 RMK A01=

METAR KCBF 132115Z AUTO 17017G22KT 10SM CLR 06/M08 A3003 RMK AO2=

METAR KCCA 132115Z AUTO 12006KT 10SM CLR 17/M00 A3017 RMK AO2=

METAR KCDH 132115Z AUTO 09005KT 9SM FEW060 FEW070 21/10 A3013 RMK

     AO2=

METAR KCDN 132115Z AUTO 00000KT 10SM CLR 24/15 A3001 RMK AO2=

METAR KCFJ 132115Z AUTO 27005KT 10SM CLR 05/M04 A3021 RMK AO2

     T00501042=

METAR KCKM 132115Z AUTO 02006KT 10SM 18/05 A3017 RMK A01=

METAR KCMR 132115Z AUTO 23010G19KT 10SM CLR 13/M10 A3013 RMK AO2=

METAR KCPC 132115Z AUTO 29003KT 10SM OVC011 18/16 A3003 RMK AO2

     T01770158=

METAR KCPT 132115Z AUTO 09005KT 10SM SCT042 SCT050 SCT060 24/14 RMK

      A01=

METAR KCQW 132115Z AUTO 00000KT 10SM CLR 21/15 A3000 RMK AO2=

METAR KCSQ 132115Z AUTO 18013KT 10SM CLR 05/M07 A3010 RMK AO2=

METAR KCTZ 132115Z AUTO 28003KT 10SM OVC013 17/16 A3002 RMK AO2

     T01730160=

METAR KD25 132115Z AUTO 21006KT 10SM CLR M03/M08 A3004 RMK AO2

     T10281081=

METAR KD60 132115Z AUTO 19011KT 10SM CLR 01/M06 A2950 RMK AO2=

METAR KDEH 132115Z AUTO 21004G11KT CLR 02/M05 A3012 RMK AO2=

METAR KDNA 132115Z AUTO 00000KT 10SM CLR 22/M06 A3005 RMK AO2=

METAR KDNS 132115Z AUTO 19017KT 10SM CLR 05/M05 A3003 RMK AO2=

METAR KEDE 132115Z AUTO 32005KT 10SM OVC013 16/15 A3000 RMK AO2

     T01630150=

METAR KEOK 132115Z AUTO 20005KT 10SM CLR 05/M08 A3022 RMK AO2=

METAR KEYF 132115Z AUTO 30004KT 10SM OVC011 17/15 A3003 RMK AO2

     T01720152=

METAR KF70 132115Z AUTO 00000KT 10SM CLR 20/02 A3007 RMK AO1=

METAR KFKN 132115Z AUTO 02003KT 10SM OVC015 15/13 A3000 RMK AO2

     T01450130=

METAR KFQD 132115Z AUTO 00000KT 10SM CLR 23/05 A3001 RMK AO2=

METAR KFSW 132115Z AUTO 00000KT 10SM CLR 04/M08 A3022 RMK AO2=

METAR KFWB 132115Z AUTO 11003KT 10SM CLR 11/M01 A3017 RMK AO2=

METAR KGEV 132115Z AUTO 28008G18KT 10SM CLR 13/M01 A3007 RMK AO2

     T01321009=

METAR KGGE 132115Z AUTO 29003KT 10SM CLR 22/17 A3002 RMK AO2=

METAR KGNT 132115Z AUTO 22005G16KT 10SM SCT085 15/M07 A3011 RMK AO2

      T01501073=

METAR KGWR 132115Z AUTO 21014KT 10SM CLR 04/M02 A2972 RMK A01=

METAR KHEG 132115Z AUTO 25004KT 9SM FEW017 24/20 A3003 RMK AO2=

METAR KHMT 132115Z AUTO 17008KT 140V200 10SM 20/01 A3007 RMK AO2

     T02030013=

METAR KHSP 132115Z AUTO 28017G25KT 10SM CLR 10/M01 A3004 RMK AO2

     T01021014=

METAR KHVS 132115Z AUTO 00000KT 10SM CLR 21/16 A3001 RMK AO2=

METAR KHZE 132115Z AUTO 20013KT 10SM CLR 10/M10 A2956 RMK AO2=

METAR KICL 132115Z AUTO 20013G18KT 10SM CLR 07/M09 A3011 RMK AO2=

####018002071####
SAUS20 KNKA 132115

METAR KRVL 132115Z AUTO 27011KT 240V310 10SM CLR 13/00 A2998 RMK

     AO2=

METAR KRZN 132115Z AUTO 17011KT 10SM CLR 00/M08 A3003 RMK AO2

     T00011083=

METAR KS33 132115Z AUTO 28013G23KT 10SM -RA SCT022 OVC030 03/02

     A2961 RMK AO2 P0001=

METAR KSDC 132115Z AUTO 00000KT 10SM SCT080 07/05 A2997 RMK AO2=

METAR KSEM 132115Z AUTO 33006KT 9SM CLR 24/07 A3011 RMK AO2=

METAR KSHL 132115Z AUTO 18014G19KT 10SM CLR 02/M02 A2992 RMK AO2=

METAR KSLB 132115Z AUTO 18016G22KT 10SM CLR 03/M02 A2996 RMK AO2=

METAR KSNC 132115Z AUTO 34008G13KT 1SM -RA OVC005 07/06 A2992 RMK

     AO2=

METAR KSOW 132115Z AUTO 21017KT 9SM CLR 14/M05 A3013 RMK AO2=

METAR KSRR 132115Z AUTO 22020G25KT 10SM CLR 16/M08 A3014 RMK AO2 =

METAR KSUZ 132115Z AUTO 11005KT 10SM CLR 18/03 A3016 RMK A01=

METAR KSXK 132115Z AUTO 17023G28KT 10SM CLR 02/00 A2990 RMK AO2=

METAR KT69 132115Z AUTO 16008KT 10SM FEW075 28/20 A2999 RMK A01=

METAR KTKV 132115Z AUTO 00000KT 10SM CLR M02/M11 A3007 RMK AO2

     T10171115 PWINO=

METAR KTKX 132115Z AUTO 03008KT 10SM FEW025 14/M01 A3021 RMK AO2

     TSNO=

METAR KTME 132115Z AUTO 13008G13KT 10SM FEW025 FEW034 OVC048 26/20

     A3005 RMK AO2=

METAR KTNU 132115Z AUTO 18012KT 10SM CLR 05/M06 A3014 RMK A01=

METAR KTVY 132115Z AUTO 17027G33KT 10SM OVC100 10/M03 A2981 RMK

     AO2=

SPECI KTWF 132113Z 21018G25KT 10SM -RA BKN034 BKN049 OVC060 04/01

    A2964 RMK AO2 PK WND 21029/2059 P0001 T00440011=

METAR KU42 132115Z AUTO 14020G31KT 10SM OVC090 10/M03 A2983 RMK AO1

      T00981030=

METAR KUOX 132115Z AUTO 02004KT 9SM CLR 19/03 A3016 RMK AO2 PWINO=

METAR KVDF 132115Z AUTO 00000KT 10SM CLR 28/21 A3000 RMK AO2=

METAR KVNC 132115Z AUTO 31011KT 9SM FEW038 26/23 A2999 RMK AO2=

METAR KW29 132115Z AUTO 00000KT 10SM CLR 14/09 A2998 RMK AO2=

METAR KX07 132115Z AUTO 07008KT 10SM SCT024 SCT042 28/22 A3001 RMK

     A01=

METAR KY19 132115Z AUTO 17011KT 10SM CLR 07/M08 A2960 RMK AO2=

METAR PAKX 132115Z AUTO 23003KT 10SM BKN050 OVC065 M01/M03 A2941

     RMK AO2=

####018002940####
SAUS20 KNKA 132115

METAR KIDI 132115Z AUTO 33007KT 10SM SCT050 SCT055 11/M00 A3006 RMK

      A01=

METAR KIKV 132115Z AUTO 16012G17KT 10SM CLR 06/M07 A3013 RMK AO2=

METAR KIOB 132115Z AUTO 30004KT 10SM CLR 13/02 A3017 RMK AO2=

METAR KIXA 132115Z AUTO 31005KT 10SM CLR 17/13 A2999 RMK AO2=

METAR KJAQ 132115Z AUTO 15006KT 10SM SCT044 OVC050 13/03 A3008 RMK

     AO1 T01300026=

METAR KJFX 132115Z AUTO 31005KT 10SM CLR 24/04 A3013 RMK AO2 PWINO=

METAR KJFZ 132115Z AUTO 33004KT 10SM CLR 13/01 A3010 RMK AO2

     T01250005=

METAR KJNX 132115Z AUTO 00000KT 10SM CLR 18/14 A3000 RMK AO2=

METAR KJVW 132115Z AUTO 00000KT 10SM CLR A3012 RMK AO2=

METAR KJZI 132115Z AUTO 25003KT 10SM CLR 25/19 A3002 RMK AO2=

METAR KKY8 132115Z AUTO VRB05KT 10SM CLR 12/M03 A3021 RMK A01=

METAR KLBO 132115Z AUTO 11003KT 10SM CLR 10/M07 A3019 RMK AO2=

METAR KLHZ 132115Z AUTO 28003KT 10SM CLR 18/12 A3003 RMK AO2=

METAR KLKR 132115Z AUTO 00000KT 7SM CLR 22/15 A3000 RMK AO2=

METAR KLNL 132115Z AUTO 21004KT 10SM CLR M02/M08 A3005 RMK AO2

     T10231081=

METAR KLQK 132115Z AUTO 25010G14KT 10SM CLR 24/08 A3000 RMK AO2

     T02370078=

METAR KLRJ 132115Z AUTO 17021KT 10SM CLR 03/M02 A2990 RMK AO2=

METAR KLRY 132115Z AUTO 13008KT 1 1/2SM VV007 10/M06 A3019 RMK AO2=

METAR KLUA 132115Z AUTO 31007KT 10SM CLR 17/00 A2999 RMK AO2=

METAR KLVL 132115Z AUTO 00000KT 10SM CLR 18/11 A2999 RMK AO1

     T01800114=

METAR KMAN 132115Z AUTO 11008G18KT 8SM OVC039 05/05 A2961 RMK A01=

METAR KMBY 132115Z AUTO 00000KT 10SM CLR 07/M08 A3022 RMK AO2=

METAR KMHL 132115Z AUTO 13005KT 10SM CLR 07/M05 A3021 RMK AO2=

METAR KMNI 132115Z AUTO 00000KT 10SM SCT029 23/16 A3000 RMK AO2=

METAR KMTV 132115Z AUTO 31012G15KT 10SM CLR 20/03 A3003 RMK AO2

     T01990026=

METAR KMUT 132115Z AUTO 21005KT 10SM CLR 04/M09 A3023 RMK AO2=

METAR KMYJ 132115Z AUTO 00000KT 10SM CLR 07/M05 A3022 RMK AO2=

METAR KOEO 132115Z AUTO 15007KT 10SM CLR 00/M06 A3007 RMK AO2

     T00041062=

METAR KOKV 132115Z AUTO 30010KT 10SM CLR 13/02 A2998 RMK AO2=

METAR KOLZ 132115Z AUTO 20005G10KT 10SM CLR 03/M06 A3015 RMK A01=

METAR KOOA 132115Z AUTO 17006KT 10SM CLR 06/M06 A3019 RMK AO2

     T00631056=

METAR KPCZ 132115Z AUTO 23007KT 10SM CLR 00/M07 A3015 RMK AO2

     T00031067=

METAR KPDC 132115Z AUTO 26004KT 10SM CLR 03/M09 A3017 RMK AO2

     T00301087=

METAR KPGV 132115Z AUTO 00000KT 7SM BKN013 16/13 A3002 RMK AO2=

METAR KRAW 132115Z AUTO 17006KT 10SM CLR 10/M07 A3019 RMK AO2

     T00951075=

METAR KRCE 132115Z AUTO 08006KT 10SM 13/M01 A3010 RMK AO2=

METAR KRCM 132115Z AUTO 11004KT 10SM CLR 08/M06 A3018 RMK AO2=

METAR KRCX 132115Z AUTO 20003KT 10SM 00/M08 A3009 RMK AO2

     T10031085=

METAR KRFI 132115Z AUTO 10005KT 10SM CLR 27/13 A3008 RMK AO2

     T02660130=

METAR KRID 132115Z AUTO CLR 07/00 A3016 RMK AO2 PWINO=

METAR KRUG 132115Z AUTO 22015KT 10SM CLR 05/M06 A2956 RMK AO2=

####018000079####
SACU31 MUHA 132115 RTD

METAR
MUCL 132105Z AUTO 03003KT 350V060 30/25 Q1012=
####018000126####
SADL43 EDZW 132100 RRA

METAR ETOU 132056Z AUTO 00000KT 9999 OVC060 09/09 A3011 RMK AO2 SLPNO
      60000 T00930093 53004=
####018000123####
SPCN42 CWAO 132115

SPECI CYHE 132115Z AUTO 26011G18KT 200V290 9SM -RA -UP FEW012 SCT029 OVC039 06/04 A2922 RMK SLP898=

####018000104####
SPCN48 CWAO 132115

SPECI CYNM 132115Z AUTO 28002KT 4SM -UP BR BKN009 OVC012 01/01 A2978 RMK SLP102=

####018000138####
SAHW31 KMSC 132115

METAR NSTU 132100Z 12007KT 12SM SCT020TCU SCT040 BKN100 29/24 A2992

      RMK TCU NW-N AND OHD SLP134 T02870240=

####018000107####
SAUS20 KNKA 132115

METAR PTPN 132107Z 11003KT 15SM SCT018 BKN130 OVC300 28/25 A2987 RMK

      FIRST=

####018000102####
SANK31 MNMG 132100

METAR MNMG 132100Z 18004KT 9999 FEW025 SCT300 32/23 Q1008 A2979
1AC090 NOSIG=
