####018000279####
SAUS90 KWBC 011900
METAR KCQT 011847Z AUTO VRB04KT 10SM CLR 12/M05 A3016 RMK AO2
     SLP213 T01171050=
METAR KJDN 011848Z AUTO 31009KT 02/M05 A3000 RMK AO1 SLP195
     T00171050=
METAR KSDB 011848Z AUTO 13007KT 10SM CLR 07/M23 A3008 RMK AO2
     SLP177 T00721228=
####018000114####
SAUS46 KLOX 011849
MTRSDB
METAR KSDB 011848Z AUTO 13007KT 10SM CLR 07/M23 A3008 RMK AO2 SLP177 
T00721228
####018000212####
SPUS99 KWBC 011850
SPECI
KFLG 011847Z 23006KT 10SM FEW014 SCT021 M07/M11 A2993 RMK AO2
     SNB26E31 P0000 T10721106=
KABI 011847Z 02003KT 1 3/4SM BR OVC004 M03/M04 A3020 RMK AO2
     UPB09E19 P0000=
####018000517####
SAUS99 KWBC 011850
METAR
KCGF 011845Z 23016G26KT 10SM SCT200 00/M11 A2995=
KGTU 011850Z 01006KT 2 BR BKN004 OVC010 03/02 A3021=
KSBD 011850Z 00000KT 10SM SKC 08/M07 A3015=
KSUA 011847Z 12006KT 7SM SCT020 BKN090 24/20 A3015=
KUES 011845Z 24012KT 10SM SCT100 M05/M11 A2989=
K24J 011855Z AUTO 00000KT 10SM BKN023 OVC029 17/11 A3025 RMK
     AO1=
KGEU 011847Z 33006KT 20SM SCT030 BKN050 06/M01 A3016=
KOMN 011850Z 01006KT 5SM BR OVC009 17/15 A3021=
PALP 011849Z 04014KT 10SM SCT026 M21/M24 A3047=
####018000219####
SPXX60 KWBC 011850
SPECI
KFCS 011848Z AUTO 30004KT 1SM -SN BR VV014 M07/M09 A2995 RMK AO2
     RVRNO=
KHLR 011847Z AUTO 01007KT 3/4SM -RA BR OVC005 02/01 A3022 RMK AO2
     VIS 3/4V1 3/4 RAE1817B1837 RVRNO=
####018000422####
SPUS70 KWBC 011850
SPECI
KBYI 011846Z AUTO 22004KT 6SM HZ OVC015 M11/M15 A3024 RMK AO2
     SNB1757E11 P0000 T11111150=
KGLR 011846Z AUTO 26020G27KT 1/2SM SN FZFG VV015 M06/M06 A2964 RMK
     AO2 PK WND 25028/1833 P0000 T10561061=
KMSS 011846Z AUTO 22015G22KT 1SM -SN OVC017 M04/M07 A2974 RMK AO2
     P0000 T10391067=
KTPA 011846Z 06005KT 10SM FEW014 BKN029 OVC040 22/16 A3018 RMK AO2
     T02170161=
####018000930####
SAUS70 KWBC 011900 RRG
METAR
KEMT 011845Z VRB05KT 10SM CLR 10/M04 A3019=
KGYR 011847Z VRB04KT 10SM SCT035 BKN055 07/M03 A3018=
KMYR 011845Z 16008KT 10SM CLR 12/00 A3030=
KSQL 011847Z 00000KT 10SM SKC 09/M03 A3018=
KCHD 011847Z 00000KT 30SM BKN050 BKN150 05/M02 A3014=
KHQZ 011850Z 05005KT 2 1/2SM BR OVC006 02/01 A3026=
KIWA 011848Z 00000KT 35SM SCT055 BKN200 06/M03 A3014=
KJVL 011845Z 25018KT 10SM OVC095 M02/M10 A2992=
KCGF 011845Z 23016G26KT 10SM SCT200 00/M11 A2995=
KGTU 011850Z 01006KT 2 BR BKN004 OVC010 03/02 A3021=
KSBD 011850Z 00000KT 10SM SKC 08/M07 A3015=
KSUA 011847Z 12006KT 7SM SCT020 BKN090 24/20 A3015=
KUES 011845Z 24012KT 10SM SCT100 M05/M11 A2989=
K24J 011855Z AUTO 00000KT 10SM BKN023 OVC029 17/11 A3025 RMK
     AO1=
KGEU 011847Z 33006KT 20SM SCT030 BKN050 06/M01 A3016=
KOMN 011850Z 01006KT 5SM BR OVC009 17/15 A3021=
PALP 011849Z 04014KT 10SM SCT026 M21/M24 A3047=
####018000075####
SAIQ01 ORBI 011900
METAR ORMM 011900Z 25005KT CAVOK 09/05 Q1021 NOSIG=
####018000212####
SPUS80 KWBC 011850
SPECI
KFLG 011847Z 23006KT 10SM FEW014 SCT021 M07/M11 A2993 RMK AO2
     SNB26E31 P0000 T10721106=
KABI 011847Z 02003KT 1 3/4SM BR OVC004 M03/M04 A3020 RMK AO2
     UPB09E19 P0000=
####018000273####
SAUS80 KWBC 011900 RRA
METAR
KCQT 011847Z AUTO VRB04KT 10SM CLR 12/M05 A3016 RMK AO2 SLP213
     T01171050=
KJDN 011848Z AUTO 31009KT 02/M05 A3000 RMK AO1 SLP195
     T00171050=
KSDB 011848Z AUTO 13007KT 10SM CLR 07/M23 A3008 RMK AO2 SLP177
     T00721228=
####018000028####
SAAW34 KWBC 011845
NIL=
####018000097####
SPCN31 KWBC 011850
SPECI
CYDQ 011849Z AUTO 14002KT 5SM -SN OVC055 00/M01 A3000 RMK SLP190=
####018000028####
SADL33 KWBC 011845
NIL=
####018000252####
SAMX31 KWBC 011845 RRB
METAR
MMAA NIL=
MMCZ 011845Z 10011KT 8SM SCT015 BKN250 26/21 A3006 RMK 8/508
     RTS=
MMGL NIL=
MMMD NIL=
MMMX NIL=
MMMY NIL=
MMMZ NIL=
MMPR NIL=
MMTM NIL=
MMTP NIL=
MMUN NIL=
MMVR NIL=
MNMG NIL=
####018000541####
SAMX41 KWBC 011845
METAR
MMAS NIL=
MMBT NIL=
MMCE NIL=
MMCL NIL=
MMCM 011843Z 04007KT 7SM SCT020TCU BKN100 29/23 A3001 RMK 8/230
     RTS=
MMCN NIL=
MMCS 011844Z 08010KT 10SM BKN020 OVC025 02/M09 A3000 RMK 8/8//=
MMCU NIL=
MMCV NIL=
MMDO 011845Z 14007KT 14SM SCT070 BKN200 19/01 A3018 RMK 8/038
     RTS=
MMDO 011843Z 14007KT 14SM SCT070 BKN200 19/01 A3018 RMK 8/037
     RTS=
MMGL NIL=
MMGM NIL=
MMHO NIL=
MMLP NIL=
MMMA NIL=
MMML NIL=
MMMM NIL=
MMMS NIL=
MMMT NIL=
MMNL NIL=
MMRX NIL=
####018000028####
SAMX42 KWBC 011845
NIL=
####018000091####
SPUS31 KWBC 011850
SPECI
KTPA 011846Z 06005KT 10SM FEW014 BKN029 OVC040 22/16 A3018=
####018000090####
SPUS41 KWBC 011850
SPECI
KMSS 011846Z AUTO 22015G22KT 1SM -SN OVC017 M04/M07 A2974=
####018000207####
SATO31 NFTF 011900
METAR NFTV 011900Z 10009KT 9999 FEW009 BKN017 25/24 Q1009=
METAR NFTL 011900Z 12011KT 9999 SCT017 27/24 Q1009=
METAR NFTF 011900Z 13008KT 9999 SCT008 SCT016TCU BKN120 24/23 Q1012=
####018000100####
SALV31 EVRA 011850
METAR EVRA 011850Z 22007KT 160V260 9999 OVC005 04/04 Q1013 R18/290195
NOSIG=
####018000097####
SAFA31 EKCH 011850
METAR EKVG 011850Z AUTO 29021G31KT 2500NDV -SHPL  BKN017///
01/M00 Q0988=
####018000087####
SPDL52 ETGT 011846
SPECI ETSA 011846Z 18003KT 0500 FZFG M08/M08 Q1034
      RED=
####018000727####
SAUS20 KNKA 011850
METAR KBAK 011849Z 23016KT 10SM SKC 02/M09 A3014=
SPECI KGOK 011848Z AUTO 21006KT 3SM BR OVC015 M01/M03 A3025 RMK AO2 
 UPB1754E45 P0001 I1000=
SPECI KHFF 011843Z AUTO VRB06G12KT 10SM CLR 10/02 A3027 RMK AO2=
SPECI KMCF 011843Z AUTO 06006KT 10SM BKN013 OVC019 21/18 A3018 RMK
 AO2=
METAR KMHR 011845Z 15006KT 10SM SKC 07/00 A3020=
SPECI KTKI 011848Z 11006KT 2 1/2SM -RA BR BKN004 OVC048 01/00 A3024 
 RMK AO2 RAB42FZRAE42 P0005 I1000=
SPECI KTRL 011848Z AUTO 05004KT 2 1/2SM -RA BR BKN006 OVC009 03/02 
 A3027 RMK AO2 LTG DSNT S PRESFR P0002=
METAR KTZR 011850Z 23016G24KT 10SM SKC 01/M09 A3007=
SPECI PFEL 011848Z AUTO 00000KT 8SM BKN003 OVC011 M02/M03 A3029 RMK 
 AO2 FZRANO=
####018000090####
SPUS81 KWBC 011850
SPECI
KHLR 011847Z AUTO 01007KT 3/4SM -RA BR OVC005 02/01 A3022=
####018000072####
SAUS81 KWBC 011848
&EHA SA 1848  AMOS 26/7/2202/M PK WND 04 000

####018000075####
SAEU KAWN 011900
METAR LATI 011850Z VRB02KT CAVOK M03/M11 Q1026 NOSIG=
####018000186####
SAXN17 KAWN 011900
METAR MMCZ 011845Z 10011KT 8SM SCT015 BKN250 26/21 A3006 RMK 8/508
      RTS=
METAR MMDO 011845Z 14007KT 14SM SCT070 BKN200 19/01 A3018 RMK 8/038
      RTS=
####018000103####
SAXX70 KAWN 011900
METAR KQAZ 011845Z AUTO 13011KT 9999 CLR 18/M09 A3005 RMK CDP03565
      CLR=
####018000270####
SPNA35 KAWN 011850 RRF
SPECI KBRO 011843Z 32012KT 2SM BR OVC004 07/06 A3014 RMK AO2 T00670061=
SPECI KCOF 011848Z AUTO 12008KT 10SM FEW010 SCT015 SCT022 23/21 A3016
      RMK AO2=
SPECI KMCF 011843Z AUTO 06006KT 10SM BKN013 OVC019 21/18 A3018 RMK
      AO2=
####018000101####
SALT32 EYVI 011850
METAR EYKA 011850Z 24011KT 210V270 3800 -DZ BR OVC003 03/02 Q1018
R08/290095=
####018000427####
SAUS20 KNKA 011850
METAR KDCM 011855Z AUTO 00000KT 10SM CLR 12/M01 A3024 RMK AO2=
METAR KFME 011848Z AUTO 24013G19KT 10SM CLR 06/M10 A3011 RMK AO1=
METAR KGLY 011855Z AUTO 23011KT 10SM SCT029 OVC037 01/M07 A3023 RMK
 AO2=
METAR KM40 011855Z AUTO 32003KT 9SM FEW070 10/06 A3032 RMK AO2=
METAR KMNI 011855Z AUTO 00000KT 10SM CLR 12/M07 A3028 RMK AO2=
METAR KW29 011849Z AUTO 22009G15KT 10SM 06/M09 A3010 RMK AO1=
####018000257####
SAAK41 KNKA 011850
METAR PADL 011848Z 00000KT 15SM FEW001 M06/M07 A3027=
SPECI PATO 011848Z AUTO 26011G20KT 10SM OVC010 00/00 A2992 RMK AO2 
    CIG 006V012 TSNO=
SPECI PFEL 011848Z AUTO 00000KT 8SM BKN003 OVC011 M02/M03 A3029 RMK 
 AO2 FZRANO=
####018000075####
SAAT31 TKPN 011900
METAR TKPN 011900Z 09012KT 9999 FEW022 29/22 Q1018=
####018000089####
SABZ20 SBBV 011900
METAR SBBV 011900Z 04012KT 9999 VCSH BKN040 FEW045TCU 31/17 Q1010=
####018000131####
SPCN48 CWAO 011850
SPECI CYNM 011850Z AUTO 23009KT 190V250 8SM -SN FEW029 BKN033 BKN042
 OVC065 M13/M16 A2943 RMK SLP991=

####018000593####
SAUS99 KWBC 011851
METAR
KBAK 011849Z 23016KT 10SM SKC 02/M09 A3014=
KMHR 011845Z 15006KT 10SM SKC 07/00 A3020=
KTZR 011850Z 23016G24KT 10SM SKC 01/M09 A3007=
KDCM 011855Z AUTO 00000KT 10SM CLR 12/M01 A3024 RMK AO2=
KFME 011848Z AUTO 24013G19KT 10SM CLR 06/M10 A3011 RMK AO1=
KGLY 011855Z AUTO 23011KT 10SM SCT029 OVC037 01/M07 A3023 RMK
     AO2=
KM40 011855Z AUTO 32003KT 9SM FEW070 10/06 A3032 RMK AO2=
KMNI 011855Z AUTO 00000KT 10SM CLR 12/M07 A3028 RMK AO2=
KW29 011849Z AUTO 22009G15KT 10SM 06/M09 A3010 RMK AO1=
PADL 011848Z 00000KT 15SM FEW001 M06/M07 A3027=
####018000728####
SPUS99 KWBC 011851
SPECI
KGOK 011848Z AUTO 21006KT 3SM BR OVC015 M01/M03 A3025 RMK AO2
     UPB1754E45 P0001 I1000=
KHFF 011843Z AUTO VRB06G12KT 10SM CLR 10/02 A3027 RMK AO2=
KMCF 011843Z AUTO 06006KT 10SM BKN013 OVC019 21/18 A3018 RMK
     AO2=
KTKI 011848Z 11006KT 2 1/2SM -RA BR BKN004 OVC048 01/00 A3024 RMK
     AO2 RAB42FZRAE42 P0005 I1000=
KTRL 011848Z AUTO 05004KT 2 1/2SM -RA BR BKN006 OVC009 03/02 A3027
     RMK AO2 LTG DSNT S PRESFR P0002=
PFEL 011848Z AUTO 00000KT 8SM BKN003 OVC011 M02/M03 A3029 RMK AO2
     FZRANO=
PATO 011848Z AUTO 26011G20KT 10SM OVC010 00/00 A2992 RMK AO2 CIG
     006V012 TSNO=
PFEL 011848Z AUTO 00000KT 8SM BKN003 OVC011 M02/M03 A3029 RMK AO2
     FZRANO=
####018000099####
SAEO31 EETN 011850
METAR EETN 011850Z 25016KT 4800 DZ BR OVC005 05/04 Q1004 R08/290195 
NOSIG=
####018000117####
SAMP31 LMMM 011900
METAR HLLT NIL=
METAR HLLB NIL=
METAR LMML 011845Z 04016KT 9999 SCT036 10/05 Q1022 NOSIG=
####018000121####
SPCN49 CWAO 011850
SPECI CYGW 011850Z AUTO 21011G17KT 2 1/4SM -SN OVC038 M18/M21 A2922
 RMK VIS VRB 1-3 SLP898=

####018000078####
SAUS51 KWBC 011800 RRE
METAR
KMYR 011845Z 16008KT 10SM CLR 12/00 A3030=
####018000086####
SPUS54 KWBC 011851
SPECI
KFLG 011847Z 23006KT 10SM FEW014 SCT021 M07/M11 A2993=
####018000126####
SAUS54 KWBC 011800 RRH
METAR
KJDN 011848Z AUTO 31009KT 02/M05 A3000=
KSDB 011848Z AUTO 13007KT 10SM CLR 07/M23 A3008=
####018000085####
SPUS81 KWBC 011851
SPECI
KABI 011847Z 02003KT 1 3/4SM BR OVC004 M03/M04 A3020=
####018000086####
SPUS81 KWBC 011851
SPECI
KFLG 011847Z 23006KT 10SM FEW014 SCT021 M07/M11 A2993=
####018000100####
SALT31 EYVI 011850
METAR EYVI 011850Z 27011KT 4000 BR OVC008 03/02 Q1018 R20/2/0195
     NOSIG=
####018000090####
SALT33 EYVI 011850
METAR EYPA 011850Z AUTO 26009KT 220V300 6000 OVC004/// 05/04 Q1017=
####018000101####
SAKA31 PTRO 011900
METAR PTRO 011850Z 00000KT 14SM BKN016CB BKN300 27/25 A2979 RMK CB 
VC ALQDS
####018000075####
SACN88 CWAO 011850
AWR SA 1850 AUTO8 M M M M/-05/M/2112/M/M M 2MMM=

####018001572####
SPZZ40 KAWN 011851 RRR
SPECI CYCQ 011845Z CCA 24010KT 15SM -SN BKN015 OVC025 M01/M05 A3001
      RMK SN1SC4SC3 --SN DIST FU W SLP196=
SPECI CYDQ 011849Z AUTO 14002KT 5SM -SN OVC055 00/M01 A3000 RMK SLP190=
SPECI CYNM 011850Z AUTO 23009KT 190V250 8SM -SN FEW029 BKN033 BKN042
      OVC065 M13/M16 A2943 RMK SLP991=
SPECI CYZE 011850Z AUTO 28017G22KT 9SM FEW012 OVC022 M04/M07 A2958
      RMK ICG SLP029=
SPECI ETSA 011846Z 18003KT 0500 FZFG M08/M08 Q1034 RED=
SPECI KAFF 011849Z AUTO VRB04KT 10SM -SN SCT009 M05/M10 A2993 RMK AO2
      SNB19=
SPECI KBAD 011849Z AUTO 05004KT 3SM RA BR OVC008 02/02 A3026 RMK AO2
      CIG 008V011 PRESFR=
SPECI KCOF 011848Z AUTO 12008KT 10SM FEW010 SCT015 SCT022 23/21 A3016
      RMK AO2=
SPECI KDYS 011848Z AUTO 00000KT 3SM BR OVC004 M03/M05 A3020 RMK AO2
      $=
SPECI KFBG 011849Z AUTO VRB02KT 10SM CLR 10/00 A3025 RMK AO2=
SPECI KFSI 011848Z AUTO 20005KT 7SM OVC007 M03/M03 A3024 RMK AO2=
SPECI KFSI 011849Z AUTO 20005KT 6SM BR OVC006 M03/M03 A3024 RMK AO2=
SPECI KIAB 011848Z AUTO 20006KT 10SM UP SCT020 BKN035 M03/M07 A3019
      RMK AO2 UPB1813 CIG 019 RWY19=
SPECI KLTS 011848Z AUTO 21004KT 4SM -FZDZ BR OVC005 M04/M04 A3024 RMK
      AO2 DZB1813 $=
SPECI KPOE 011850Z AUTO 05005KT 6SM -RA BR SCT006 OVC022 05/04 A3020
      RMK AO2 RAB1822 CIG 006V022=
SPECI KRDR 011849Z AUTO 03014KT 10SM BKN014 OVC027 M11/M15 A3004 RMK
      AO2 CIG 014V027 BKN V SCT=
SPECI RKJK 011850Z AUTO 11005KT 2 1/2SM -SN BR FEW005 OVC010 M05/M06
      A3028 RMK AO2 VIS 2 1/2V6 CIG 010V014=
####018000101####
SPCN41 CWAO 011851
SPECI CBBC 011851Z AUTO 11003KT 9SM -RA OVC023 03/M01 A3033 RMK
 SLP274=

####018000119####
SPCN43 CWAO 011851
SPECI CYZH 011851Z AUTO 33008G17KT 9SM -SN BKN012 OVC018 M01/M02
 A2992 RMK PRESRR SLP160=

####018000105####
SPCN46 CWAO 011851
SPECI CYQA 011851Z AUTO 21015G24KT 5SM -SN OVC026 M05/M08 A2962 RMK
 SLP048=

####018000274####
SAAK41 KNKA 011851
SPECI PAAQ 011849Z 28005KT 1 3/4SM BR OVC002 M01/M01 A2995 RMK AO2 
 VIS 1V5=
SPECI PAEG 011849Z AUTO 00000KT 10SM BKN015 OVC024 M08/M11 A3019 RMK 
 AO2 TSNO=
SPECI PAQT 011849Z AUTO 09020KT 1 1/2SM BLSN OVC011 M18/M21 A3046 
 RMK AO2 TSNO=
####018000682####
SAUS20 KNKA 011851
METAR KALN 011850Z 25013G20KT 10SM SCT150 01/M11 A3018=
SPECI KARA 011849Z 03006KT 10SM OVC014 10/06 A3021 RMK AO2=
METAR KCNW 011851Z 02005KT 2 1/2SM -RA OVC005 03/02 A3024=
SPECI KDAL 011849Z 08004KT 4SM -RA BR BKN007 OVC048 02/01 A3025 RMK 
 AO2 RAB06 BKN V SCT P0004=
METAR KFDK 011850Z 22010KT 10SM SKC 07/M14 A3010=
METAR KFWS 011850Z 00000KT 2SM DZ OVC004 01/01 A3027=
METAR KLAL 011850Z 03006KT 10SM BKN013 21/17 A3018=
SPECI KMAF 011849Z 30003KT 1 1/4SM -SN BR OVC003 M04/M05 A3013 RMK 
 AO2 SNB49 CIG 002V006 PRESFR P0000=
METAR KOCF 011850Z 06006KT 10SM OVC050 19/13 A3021=
METAR KVQQ 011850Z 03004KT 10SM OVC022 16/10 A3025=
####018000107####
SAUS90 KWBC 011900 RRA
METAR KEHA 011848Z AUTO 22002KT M03/M14 RMK AO1 PK WND 04 000
     T10331138=
####018000102####
SPCN44 CWAO 011851
SPECI CYCY 011851Z AUTO 31020KT 6SM -SN OVC055 M20/M22 A2936 RMK
 SLP947=

####018000098####
SAUS44 KLIX 011851
MTRNBG
SPECI KNBG 011850Z AUTO 08009KT 10SM OVC015 16/12 A3019 RMK AO2 $
####018000078####
SABZ19 SBSL 011900 RRA
METAR SBSL 011900Z 03016KT 9999 SCT020 29/21 Q1010=
####018000077####
SAQB31 LQMO 011900
METAR LQMO 011900Z 13006KT 100V180 CAVOK 01/M17 Q1028=
####018000105####
SPCN41 CWAO 011849
SPECI CYMA 011849Z 02003KT 3/4SM -SN BR VV012 M16/M19 A3013 RMK FG8
 SLP263=

####018000098####
SAUS98 KWBC 011852
METAR KEHA 011848Z AUTO 22002KT M03/M14 RMK AO1 PK WND 04 000
T10331138=
####018000376####
SAUS99 KWBC 011852
METAR
KALN 011850Z 25013G20KT 10SM SCT150 01/M11 A3018=
KCNW 011851Z 02005KT 2 1/2SM -RA OVC005 03/02 A3024=
KFDK 011850Z 22010KT 10SM SKC 07/M14 A3010=
KFWS 011850Z 00000KT 2SM DZ OVC004 01/01 A3027=
KLAL 011850Z 03006KT 10SM BKN013 21/17 A3018=
KOCF 011850Z 06006KT 10SM OVC050 19/13 A3021=
KVQQ 011850Z 03004KT 10SM OVC022 16/10 A3025=
####018000533####
SPUS99 KWBC 011852
SPECI
PAAQ 011849Z 28005KT 1 3/4SM BR OVC002 M01/M01 A2995 RMK AO2 VIS
     1V5=
PAEG 011849Z AUTO 00000KT 10SM BKN015 OVC024 M08/M11 A3019 RMK AO2
     TSNO=
PAQT 011849Z AUTO 09020KT 1 1/2SM BLSN OVC011 M18/M21 A3046 RMK
     AO2 TSNO=
KARA 011849Z 03006KT 10SM OVC014 10/06 A3021 RMK AO2=
KDAL 011849Z 08004KT 4SM -RA BR BKN007 OVC048 02/01 A3025 RMK AO2
     RAB06 BKN V SCT P0004=
KMAF 011849Z 30003KT 1 1/4SM -SN BR OVC003 M04/M05 A3013 RMK AO2
     SNB49 CIG 002V006 PRESFR P0000=
####018000210####
SPUS80 KWBC 011852
SPECI
PAQT 011849Z AUTO 09020KT 1 1/2SM BLSN OVC011 M18/M21 A3046 RMK
     AO2 TSNO=
KDAL 011849Z 08004KT 4SM -RA BR BKN007 OVC048 02/01 A3025 RMK AO2
     RAB06 BKN V SCT P0004=
####018000074####
SAXX60 KWBC 011900
METAR
KMHR 011845Z 15006KT 10SM SKC 07/00 A3020=
####018000899####
SAUS70 KWBC 011900 RRH
METAR
KBAK 011849Z 23016KT 10SM SKC 02/M09 A3014=
KTZR 011850Z 23016G24KT 10SM SKC 01/M09 A3007=
KDCM 011855Z AUTO 00000KT 10SM CLR 12/M01 A3024 RMK AO2=
KFME 011848Z AUTO 24013G19KT 10SM CLR 06/M10 A3011 RMK AO1=
KGLY 011855Z AUTO 23011KT 10SM SCT029 OVC037 01/M07 A3023 RMK
     AO2=
KM40 011855Z AUTO 32003KT 9SM FEW070 10/06 A3032 RMK AO2=
KMNI 011855Z AUTO 00000KT 10SM CLR 12/M07 A3028 RMK AO2=
KW29 011849Z AUTO 22009G15KT 10SM 06/M09 A3010 RMK AO1=
PADL 011848Z 00000KT 15SM FEW001 M06/M07 A3027=
KALN 011850Z 25013G20KT 10SM SCT150 01/M11 A3018=
KCNW 011851Z 02005KT 2 1/2SM -RA OVC005 03/02 A3024=
KFDK 011850Z 22010KT 10SM SKC 07/M14 A3010=
KFWS 011850Z 00000KT 2SM DZ OVC004 01/01 A3027=
KLAL 011850Z 03006KT 10SM BKN013 21/17 A3018=
KOCF 011850Z 06006KT 10SM OVC050 19/13 A3021=
KVQQ 011850Z 03004KT 10SM OVC022 16/10 A3025=
####018000109####
SAPQ50 KWBC 011900
METAR
PTRO 011850Z 00000KT 14SM BKN016CB BKN300 27/25 A2979 RMK CB VC
     ALQDS=
####018001070####
SPXX60 KWBC 011852
SPECI
KMCF 011843Z AUTO 06006KT 10SM BKN013 OVC019 21/18 A3018 RMK
     AO2=
KAFF 011849Z AUTO VRB04KT 10SM -SN SCT009 M05/M10 A2993 RMK AO2
     SNB19=
KBAD 011849Z AUTO 05004KT 3SM RA BR OVC008 02/02 A3026 RMK AO2 CIG
     008V011 PRESFR=
KCOF 011848Z AUTO 12008KT 10SM FEW010 SCT015 SCT022 23/21 A3016
     RMK AO2=
KDYS 011848Z AUTO 00000KT 3SM BR OVC004 M03/M05 A3020 RMK AO2
     $=
KFBG 011849Z AUTO VRB02KT 10SM CLR 10/00 A3025 RMK AO2=
KFSI 011848Z AUTO 20005KT 7SM OVC007 M03/M03 A3024 RMK AO2=
KFSI 011849Z AUTO 20005KT 6SM BR OVC006 M03/M03 A3024 RMK AO2=
KIAB 011848Z AUTO 20006KT 10SM UP SCT020 BKN035 M03/M07 A3019 RMK
     AO2 UPB1813 CIG 019 RWY19=
KLTS 011848Z AUTO 21004KT 4SM -FZDZ BR OVC005 M04/M04 A3024 RMK
     AO2 DZB1813 $=
KPOE 011850Z AUTO 05005KT 6SM -RA BR SCT006 OVC022 05/04 A3020 RMK
     AO2 RAB1822 CIG 006V022=
KRDR 011849Z AUTO 03014KT 10SM BKN014 OVC027 M11/M15 A3004 RMK AO2
     CIG 014V027 BKN V SCT=
KNBG 011850Z AUTO 08009KT 10SM OVC015 16/12 A3019 RMK AO2 $=
####018000109####
SAUS80 KWBC 011900 RRB
METAR
KEHA 011848Z AUTO 22002KT M03/M14 RMK AO1 PK WND 04 000
     T10331138=
####018000810####
SPUS70 KWBC 011852
SPECI
KGOK 011848Z AUTO 21006KT 3SM BR OVC015 M01/M03 A3025 RMK AO2
     UPB1754E45 P0001 I1000=
KHFF 011843Z AUTO VRB06G12KT 10SM CLR 10/02 A3027 RMK AO2=
KTKI 011848Z 11006KT 2 1/2SM -RA BR BKN004 OVC048 01/00 A3024 RMK
     AO2 RAB42FZRAE42 P0005 I1000=
KTRL 011848Z AUTO 05004KT 2 1/2SM -RA BR BKN006 OVC009 03/02 A3027
     RMK AO2 LTG DSNT S PRESFR P0002=
PATO 011848Z AUTO 26011G20KT 10SM OVC010 00/00 A2992 RMK AO2 CIG
     006V012 TSNO=
PAAQ 011849Z 28005KT 1 3/4SM BR OVC002 M01/M01 A2995 RMK AO2 VIS
     1V5=
PAEG 011849Z AUTO 00000KT 10SM BKN015 OVC024 M08/M11 A3019 RMK AO2
     TSNO=
KARA 011849Z 03006KT 10SM OVC014 10/06 A3021 RMK AO2=
KMAF 011849Z 30003KT 1 1/4SM -SN BR OVC003 M04/M05 A3013 RMK AO2
     SNB49 CIG 002V006 PRESFR P0000=
####018000108####
SAIQ32 KWBC 011830 RRA
METAR
KQAZ 011845Z AUTO 13011KT 9999 CLR 18/M09 A3005 RMK CDP03565
     CLR=
####018000087####
SAMM31 KWBC 011830 RRA
METAR
LMML 011845Z 04016KT 9999 SCT036 10/05 Q1022 NOSIG=
####018000135####
SPXX62 KWBC 011852
SPECI
RKJK 011850Z AUTO 11005KT 2 1/2SM -SN BR FEW005 OVC010 M05/M06
A3028 RMK AO2 VIS 2 1/2V6 CIG 010V014=
####018000097####
SACV20 GVAC 011900
METAR GVAC 011900Z 05014KT 9999 BKN015 SCT100 BKN200 21/15 Q1016
NOSIG=
####018000179####
SAXX99 KWBC 011800 RRX
METAR
CMGB 011845Z AUTO 21007G15KT M03/M09 RMK AO1 SOG 00 6026 SLP075
     T10311092=
KFME 011848Z AUTO 24013G19KT 10SM CLR 06/M10 A3011 RMK AO1=
####018000089####
SPAU67 AMMC 011852
SPECI YPPD 011852Z AUTO 02005KT 9999 // BKN013 28/26 Q1003=


####018000089####
SPAU32 AMMC 011852
SPECI YPPD 011852Z AUTO 02005KT 9999 // BKN013 28/26 Q1003=


####018000089####
SPAU31 AMMC 011852
SPECI YPPD 011852Z AUTO 02005KT 9999 // BKN013 28/26 Q1003=


####018000271####
SASW31 LSSW 011850
METAR LSZH 011850Z 27004KT 5000 BR FEW007 BKN008 M02/M04 Q1036
    NOSIG=
METAR LSGG 011850Z 15001KT 9000 NSC M02/M03 Q1036 NOSIG=
METAR LSZB 011850Z VRB03KT 5000 BR NSC M08/M08 Q1035 NOSIG=
METAR LSZA 011850Z VRB01KT CAVOK M01/M02 Q1035 NOSIG=
####018000090####
SABW31 VGHS 011850
METAR VGHS 011850Z 00000KT 3500 HZ SCT010 BKN100 21/11 Q1015 NOSIG=
####018000300####
SACN60 CWAO 011800 RRH
PET SA 1800 AUTO8 M M M M/01/-04/MMMM/M/     M 55MM=
PHE SA 1800 AUTO8 M M M M/00/00/MMMM/M/     M 40MM=
PML SA 1800 AUTO8 M M M M/01/-02/MMMM/M/     M 75MM=
PRD SA 1800 AUTO8 M M M M/-04/-08/0705/M/M M 29MM=
PSA SA 1800 AUTO8 M M M M/00/-01/MMMM/M/     M 16MM=

####018000548####
SACN59 CWAO 011800 RRH
NLB SA 1800 AUTO8 M M M M/-09/-10/1505/M/0005 M 29MM=
NLD SA 1800 AUTO8 M M M M/02/00/2910/M/     SOG 01 M 90MM=
NNR SA 1800 AUTO8 M M M M/00/-01/3007/M/     M 56MM=
NTK SA 1800 AUTO8 M M M M/03/00/2507/M/     M 5-4MM=
PCA SA 1800 AUTO8 M M M M/-01/-02/2308/M/     M 92MM=
PCM SA 1800 AUTO8 M M M M/01/01/MMMM/M/0005 PCPN 0.5MM PAST HR M 06MM=
PQL SA 1800 AUTO8 M M M M/-02/-08/MMMM/M/     M 95MM=
PQU SA 1800 AUTO8 M M M M/M/M/2301/M/     M MMMM=
PTR SA 1800 AUTO8 M M M M/00/-03/MMMM/M/     M -21MM=

####018000137####
SAES20 MSLP 011900
METAR MSLP 011850Z 08005KT 020V190 CAVOK 35/14 Q1009 A2981=

METAR MSSS 011850Z 35005KT CAVOK 32/19 Q1015 A2997=
####018000578####
SAUS20 KNKA 011852
SPECI KBOI 011850Z 00000KT 2 1/2SM SCT018 M08/M12 A3036 RMK AO2 SFC 
 VIS 7 SNE05 P0000=
METAR KDAG 011850Z AUTO 00000KT 10SM CLR 06/M17 A3016 RMK AO2 SLP217 
 T00561172=
METAR KEGE 011850Z 00000KT 10SM VCSH SCT080 BKN120 M12/M17 A2996=
METAR KISM 011850Z 01006KT 10SM BKN014 BKN050 22/19 A3018=
METAR KLBE 011850Z 25015G25KT 20SM SCT200 01/M10 A3003=
SPECI KMLU 011850Z 06003KT RA BKN006 BKN070 OVC090 03/02 A3029 RMK 
 AO2 P0006 $=
SPECI KMTJ 011850Z AUTO 31006KT 1SM -SN BR BKN024 BKN030 OVC038 
 M09/M12 A2998 RMK AO2 SNB17 P0000=
####018001073####
SAXX70 KAWN 011900 RRA
METAR KQEI 011850Z AUTO 20002KT 9999 CLR M11/M19 A3020 RMK A02 TSNO=
METAR KQEL 011850Z AUTO 07002KT 9999 SCT041 M11/M17 A3028 RMK A02 TSNO=
METAR KQEN 011850Z AUTO 9999 BKN095 M17/M22 A2987 RMK A02 TSNO=
METAR KQEQ 011850Z AUTO 29001KT 9999 CLR M10/M16 A3013 RMK A02 TSNO=
METAR KQER 011850Z AUTO 04001KT / /CLR M12/M19 A3016 RMK A02 TSNO=
METAR KQES 011850Z AUTO 9999 BKN021 BKN130 M02/M07 A3029 RMK A02 TSNO=
METAR KQEV 011850Z AUTO 16001KT 9999 CLR M06/M10 A3029 RMK A02 TSNO=
METAR KQEW 011850Z AUTO 25008G14KT 9999 BKN029 M06/M11 A3022 RMK A02
      TSNO=
METAR KQEX 011850Z AUTO 01003G13KT 9999 CLR M05/M12 A3026 RMK A02 TSNO=
METAR KQEY 011850Z AUTO 09003KT 9999 SCT020 M07/M11 A3024 RMK A02 TSNO=
METAR KQFT 011850Z AUTO 18002KT 9999 FEW035 SCT055 M11/M17 A3025 RMK
      A02 TSNO=
METAR KQFU 011850Z AUTO 20001KT 9999 CLR M10/M17 A3025 RMK A02 TSNO=
METAR KQFV 011850Z AUTO 34001KT 9999 CLR M11/M18 A3016 RMK A02 TSNO=
METAR KQFX 011850Z AUTO 13002KT 9999 FEW011 BKN014 M10/M16 A3027 RMK
      A02 TSNO=
####018000101####
SPCN48 CWAO 011852
SPECI CYPH 011852Z AUTO 07006KT 6SM HZ BKN024 M24/M27 A2921 RMK
 SLP893=

####018000084####
SAEU31 BKPR 011900
BKPR 011900Z 32004KT CAVOK M14/M19 Q1032 NOSIG RMK 17010095 =
####018000106####
SALT34 EYVI 011850
METAR EYSA 011850Z 26015KT 4500 -DZ BR OVC003 04/03 Q1016 R32R/2///95
R32L/2///95=
####018000091####
SAGU31 MGGT 011900
METAR 
MGGT 011900Z 36014KT 9999 SCT020 22/12 Q1025 A3027 FEW200 = 
####018000084####
SAMZ40 FQMA 011900
METAR
FQCH 011900Z /////KT 9999 SCT012 BKN015 21/20 Q1016=
####018000102####
SPCN43 CWAO 011852
SPECI CYMM 011852Z AUTO 02004KT 6SM -SN OVC060 M15/M17 A3002 RMK
 SLP201=

####018000099####
SAMG20 FMMI 011900
METAR FMMI 011900Z 02003KT 9999 FEW017CB SCT020 BKN080 18/18 Q1019
NOSIG=
####018000102####
SPCN44 CWAO 011852
SPECI CYCY 011852Z AUTO 31019KT 4SM -SN OVC055 M20/M22 A2936 RMK
 SLP947=

####018000106####
SAUS45 KPIH 011852
MTRSNT
METAR KSNT 011851Z AUTO 00000KT M18/M23 A3014 RMK AO1 SLP309 
T11831228
####018000127####
SAUS43 KMQT 011852
MTRP59
METAR KP59 011851Z AUTO 36019G27KT M07/M11 A2967 RMK AO1 PK WND 
01033/1753 SLP065 T10671111
####018000086####
SALV32 EVRA 011850
METAR EVVA 011850Z AUTO 25017KT 9999 FEW010 OVC038 06/05 Q1012=
####018000133####
SAUS45 KABQ 011852
MTRABQ
METAR KABQ 011852Z VRB04KT 10SM OVC014 M03/M06 A3001 RMK AO2 SLP201 
MTN TOPS OBSC NE-SE T10281061
####018000124####
SAUS44 KEWX 011852
MTRATT
METAR KATT 011851Z AUTO 35005KT 3SM BR OVC007 03/02 A3023 RMK AO2 
SLP243 P0001 T00280022
####018000123####
SAUS44 KLIX 011852
MTRBVE
METAR KBVE 011851Z AUTO 07012KT 10SM SCT023 BKN033 17/14 A3018 RMK 
AO2 SLP219 T01720144
####018000583####
SAUS20 KNKA 011852
METAR K4I7 011855Z AUTO 25009G17KT 10SM CLR 00/M11 A3011 RMK AO2=
METAR KAEG 011851Z VRB04KT 10SM OVC009 M04/M07 A3000=
METAR KBDN 011855Z AUTO 00000KT 10SM CLR M08/M15 A3028 RMK AO2=
METAR KLQK 011855Z AUTO 10SM CLR 12/02 A3022 RMK AO2 T01220018=
METAR KLRO 011855Z AUTO 00000KT 10SM -RA CLR 13/03 A3029 RMK AO2=
METAR KMWA 011852Z 22010KT 20SM BKN250 04/M05 A3023=
METAR KPAO 011847Z VRB04KT 10SM SKC 09/M05 A3017=
METAR KWDG 011850Z 190012KT 5SM BR SCT024 OVC050 M01/M04 A3023=
METAR TUPJ 011900Z 09010KT 9999 SCT021 28/24 Q1019 RMK A3010 =
####018000086####
SAAK41 KNKA 011852
SPECI PANT 011850Z 16012G17KT 10SM OVC004 08/08 A3007 RMK AO2=
####018000147####
SADN33 EKCH 011850
METAR EKKA 011850Z 22021G39KT 7000 -RA FEW005 BKN007 08/08 Q1012=
METAR EKSP 011850Z 22020KT 2000 -DZRA OVC004 05/05 Q1017=
####018000078####
SABZ20 SBCY 011900 RRA
METAR SBCY 011900Z 34012KT 9999 FEW020 33/21 Q1009=
####018000116####
SPCN41 CWAO 011852
SPECI CZMT 011852Z 15007KT 15SM BKN015 BKN020 OVC095 07/06 A3009 RMK
 SC5SC2AC1 SLP190=

####018000092####
SAGU31 MGGT 011900
METAR 
MGGT 011900Z 36014KT 9999 SCT020 22/12 Q1025 A3027 FEW200 = 
####018000082####
SPAU32 YBBN 011852
SPECI YPPD 011852Z AUTO 02005KT 9999 // BKN013 28/26 Q1003=
####018000363####
SPUS99 KWBC 011853
SPECI
KBOI 011850Z 00000KT 2 1/2SM SCT018 M08/M12 A3036 RMK AO2 SFC VIS
     7 SNE05 P0000=
KMLU 011850Z 06003KT RA BKN006 BKN070 OVC090 03/02 A3029 RMK AO2
     P0006 $=
KMTJ 011850Z AUTO 31006KT 1SM -SN BR BKN024 BKN030 OVC038 M09/M12
     A2998 RMK AO2 SNB17 P0000=
PANT 011850Z 16012G17KT 10SM OVC004 08/08 A3007 RMK AO2=
####018000788####
SAUS99 KWBC 011853
METAR
KDAG 011850Z AUTO 00000KT 10SM CLR 06/M17 A3016 RMK AO2 SLP217
     T00561172=
KEGE 011850Z 00000KT 10SM VCSH SCT080 BKN120 M12/M17 A2996=
KISM 011850Z 01006KT 10SM BKN014 BKN050 22/19 A3018=
KLBE 011850Z 25015G25KT 20SM SCT200 01/M10 A3003=
K4I7 011855Z AUTO 25009G17KT 10SM CLR 00/M11 A3011 RMK AO2=
KAEG 011851Z VRB04KT 10SM OVC009 M04/M07 A3000=
KBDN 011855Z AUTO 00000KT 10SM CLR M08/M15 A3028 RMK AO2=
KLQK 011855Z AUTO 10SM CLR 12/02 A3022 RMK AO2 T01220018=
KLRO 011855Z AUTO 00000KT 10SM -RA CLR 13/03 A3029 RMK AO2=
KMWA 011852Z 22010KT 20SM BKN250 04/M05 A3023=
KPAO 011847Z VRB04KT 10SM SKC 09/M05 A3017=
KWDG 011850Z 190012KT 5SM BR SCT024 OVC050 M01/M04 A3023=
TUPJ 011900Z 09010KT 9999 SCT021 28/24 Q1019 RMK A3010=
####018000085####
SPAU31 KWBC 011853
SPECI
YPPD 011852Z AUTO 02005KT 9999 // BKN013 28/26 Q1003=
####018000107####
SATH32 VTBB 011800 RRB
METAR VTSG 011800Z 03004KT 9999 SCT020 BKN300 24/20 Q1014
A2994 INFO X RWY32=
####018000081####
SAIQ01 ORBI 011900
METAR ORNI 011900Z 00000KT 8000 SCT045 11/05 Q1021 NOSIG=
####018000090####
SPUS42 KWBC 011853
SPECI
KDAL 011849Z 08004KT 4SM -RA BR BKN007 OVC048 02/01 A3025=
####018000089####
SPUS42 KWBC 011853
SPECI
KMAF 011849Z 30003KT 1 1/4SM -SN BR OVC003 M04/M05 A3013=
####018000114####
SAUS45 KTWC 011853
MTRSAD
METAR KSAD 011851Z AUTO 28005KT 10SM CLR 02/M01 A3003 RMK AO2 SLP174 
T00171011
####018000346####
SAGL31 BGSF 011850
METAR BGSF 011850Z AUTO 07003KT 9999NDV  BKN190/// M13/M17 Q0993=
METAR BGBW 011853Z NIL=
METAR BGGH 011850Z AUTO 17004KT 9999NDV  BKN037/// BKN190/// 
M09/M15 Q0995=
METAR BGJN 011850Z AUTO 10013KT 9999NDV  SCT050/// OVC065/// 
M07/M14 Q0992=
METAR BGKK 011850Z AUTO 07020KT //// FEW021/// SCT043/// M05/M09 
Q0991=
####018000119####
SAUS41 KOKX 011853
MTRNYC
METAR KNYC 011851Z AUTO VRB06G19KT 10SM CLR 03/M14 A3003 RMK AO2 
SLP162 T00281139 $
####018000109####
SAUS46 KLOX 011853
MTRSMX
METAR KSMX 011851Z 00000KT 10SM CLR 14/M02 A3014 RMK AO2 SLP211 
T01391017
####018000761####
SASN31 ESWI 011850
METAR ESGG 011850Z 21018KT 0350 R03/1100U R21/1300N FG OVC001 05/05
Q1010 R21/29//95=
METAR ESGJ 011850Z AUTO 22014KT 5000 BR OVC004/// 05/05 Q1010 REDZ=
METAR ESGP 011850Z 20017KT 1700 -RA OVC002 06/06 Q1010 REDZ
R19/29//95=
METAR ESGT 011850Z NIL=
METAR ESMK 011850Z AUTO 23009KT 4500 -RA FEW003/// OVC004/// 05/04
Q1017 REDZ=
METAR ESMQ 011850Z AUTO 21009KT 9999 OVC005/// 06/05 Q1015=
METAR ESMS 011850Z 24018KT 1100 R17/P1500N R35/P1500N -DZ BR OVC002
04/04 Q1019 R17/29//95=
METAR ESMT 011850Z 23020KT 3000 RA OVC002 05/04 Q1015=
METAR ESMX 011850Z 23010KT 2000 -DZ BR OVC001 06/06 Q1014=
METAR ESTA 011850Z AUTO 21013KT 3600 RA OVC004/// 06/05 Q1016=
METAR ESTL 011850Z AUTO 22012KT 5000NDV -RA OVC005/// ///// Q1017=
####018000090####
SPUS81 KWBC 011853
SPECI
KDAL 011849Z 08004KT 4SM -RA BR BKN007 OVC048 02/01 A3025=
####018000092####
SPUS81 KWBC 011853
SPECI
PAQT 011849Z AUTO 09020KT 1 1/2SM BLSN OVC011 M18/M21 A3046=
####018000257####
SASA KAWN 011900
METAR SBBV 011900Z 04012KT 9999 VCSH BKN040 FEW045TCU 31/17 Q1010=
METAR SBEG 011900Z 01007KT 9999 SCT025 SCT100 31/21 Q1009=
METAR SBSL 011900Z 03016KT 9999 SCT020 29/21 Q1010=
METAR SUMU 011900Z 22013KT CAVOK 20/11 Q1004 NOSIG=
####018000139####
SAUS17 KAWN 011900
METAR KEFD 011850Z 03009KT 5SM BR OVC012 07/06 A3019=
METAR KIWA 011848Z 00000KT 35SM SCT055 BKN200 06/M03 A3014=
####018000097####
SPXX70 KAWN 011800 RRB
SPECI KQBF 011846Z AUTO 03004KT 9999 CLR 26/M09 A3002 RMK AO2 SLP157=
####018000101####
SPCN44 CWAO 011852
SPECI CYOD 011852Z 10005KT 8SM -SN OVC019 RMK SC8 VIS LWR E CIG VRB 14-24=

####018000695####
SADL31 EDZO 011850
METAR EDDF 011850Z 19007KT 5000 BR FEW006 OVC015 03/02 Q1035 NOSIG=
METAR EDDH 011850Z 22015KT 9999 FEW015 BKN250 04/00 Q1023 NOSIG=
METAR EDDK 011850Z 13009KT CAVOK 01/M01 Q1032 R14L/190195 R14R///99//
     R06///99// NOSIG=
METAR EDDL 011850Z 17013KT CAVOK 03/00 Q1030 NOSIG=
METAR EDDM 011850Z VRB01KT 0350 R26R/0375V0600N R26L/0300N FZFG
BKN001 BKN003 M05/M05 Q1035 R88/290095 NOSIG=
METAR EDDN 011850Z 19004KT 160V240 4500 -DZ BR BKN003 01/01 Q1035
R28/290195 NOSIG=
METAR EDDS 011850Z 22002KT 5000 BR BKN005 M00/M01 Q1035 R07/0///95
     TEMPO 4000=
METAR EDDT 011850Z 21008KT CAVOK 03/01 Q1028 NOSIG=
METAR EDDV 011850Z 20006KT CAVOK 03/M01 Q1028 NOSIG=
####018000416####
SADL32 EDZO 011850
METAR EDDB 011850Z 22009KT CAVOK 02/01 Q1028 NOSIG=
METAR EDDC 011850Z 23007KT CAVOK 02/00 Q1031 NOSIG=
METAR EDDE 011850Z 23012KT CAVOK 01/00 Q1031 NOSIG=
METAR EDDG 011850Z 20012KT CAVOK 04/00 Q1028 NOSIG=
METAR EDDP 011850Z 20012KT CAVOK 02/01 Q1030 NOSIG=
METAR EDDR 011850Z 21008KT 0100 R27/0600N FZFG VV/// M01/M01 Q1035
NOSIG=
METAR EDDW 011850Z 21013KT CAVOK 04/M01 Q1025 NOSIG=
####018002945####
SAUS20 KNKA 011853
METAR KHDO 011851Z AUTO 03007KT 3SM -RA BR BKN005 BKN010 OVC034 
 04/03 A3020 RMK AO2 RAE1754B04E12B33SNB1754E06B12E33 SLP228 
 P0001 T00390033=
METAR KHSE 011851Z AUTO VRB06KT 10SM CLR 09/M02 A3026 RMK AO2 SLP247 
 T00891017 TSNO=
METAR KHTS 011851Z 22010KT 10SM OVC050 02/M10 A3017 RMK AO2 SLP224 
 T00221100=
METAR KIGM 011851Z AUTO 00000KT FEW037 M02/M06 A3010 RMK AO2 SLP187 
 T10221061 $=
METAR KILG 011851Z 23013G21KT 10SM CLR 06/M10 A3007 RMK AO2 SLP184 
 T00561100=
METAR KIMM 011855Z AUTO 00000KT 6SM FEW039 27/23 A3015 RMK A01 P000
      =
METAR KJCT 011851Z AUTO 09006KT 4SM BR OVC005 00/M01 A3015 RMK AO2 
    CIG 004V009 PRESFR SLP208 I1000 T00001006=
METAR KJFK 011851Z 24015KT 10SM SCT250 04/M12 A3004 RMK AO2 SLP172 
 T00391117=
METAR KLGA 011851Z 27012KT 10SM SCT250 03/M14 A3002 RMK AO2 SLP166 
 T00281139=
METAR KLGU 011851Z AUTO 30003KT 10SM CLR M12/M17 A3018 RMK AO2 
 SLP291 T11171167=
METAR KLKR 011855Z AUTO 19006KT 10SM CLR 12/00 A3025 RMK AO2=
METAR KMDH 011852Z AUTO 23013KT 10SM CLR 04/M06 A3022 RMK AO2 SLP239 
 T00391061=
METAR KMPV 011851Z AUTO 19013G18KT 10SM SCT041 BKN110 M05/M13 A2980 
 RMK AO2 SLP112 T10501133=
METAR KMTJ 011851Z AUTO 32005KT 1SM -SN BR BKN022 BKN030 OVC038 
 M09/M12 A2998 RMK AO2 SNB17 SLP216 P0000 T10941117=
METAR KMYL 011851Z AUTO 19005KT 10SM CLR M12/M17 A3014 RMK AO2 
 SLP288 T11171167=
METAR KORD 011851Z 24013G22KT 10SM FEW110 BKN250 M03/M12 A2997 RMK 
 AO2 SLP159 T10281117=
METAR KORF 011851Z AUTO 25013G25KT 10SM CLR 09/M08 A3017 RMK AO2 
 SLP216 T00941083 TSNO=
METAR KOXR 011851Z 06007KT 10SM CLR 13/M06 A3015 RMK AO2 SLP208 
 T01331056=
METAR KPHX 011851Z VRB04KT 10SM BKN028 BKN055 06/M02 A3013 RMK AO2 
 SLP205 T00561017=
METAR KPIT 011851Z 22016G27KT 10SM SCT250 01/M10 A3000 RMK AO2 PK 
 WND 24031/1810 SLP182 T00061100=
METAR KPVD 011851Z 24011KT 10SM FEW060 BKN250 00/M14 A2999 RMK AO2 
 SLP154 T00001144=
METAR KPWM 011851Z 22008G16KT 10SM FEW030 BKN250 M01/M14 A2990 RMK 
 AO2 SLP125 T10061144=
METAR KRDU 011851Z 23009KT 10SM FEW250 10/M02 A3024 RMK AO2 SLP242 
 T01001017=
METAR KROW 011851Z 00000KT 10SM OVC008 M05/M07 A3010 RMK AO2 SLP216 
 T10501072=
METAR KSAD 011851Z AUTO 28005KT 10SM CLR 02/M01 A3003 RMK AO2 SLP174 
 T00171011=
METAR KSAN 011851Z 15005KT 10SM FEW010 12/M01 A3018 RMK AO2 SLP218 
 T01221011=
METAR KSAT 011851Z 33009KT 1 1/2SM R12R/5500VP6000FT -RA BR OVC006 
 03/02 A3020 RMK AO2 SLP222 P0001 T00330022=
METAR KSJT 011851Z 34004KT 10SM OVC006 M01/M02 A3019 RMK AO2 
 UPB12E26FZRAE12 SLP242 P0000 I1000 T10111022=
METAR KSLK 011851Z AUTO 22019G28KT 8SM -SN M07/M11 A2967 RMK AO2 PK 
 WND 22029/1758 SNB1753SNEMMB39 SLP076 P0000 T10671106 $=
METAR KSMO 011851Z VRB04KT 10SM CLR 13/M03 A3016 RMK AO2 SLP213 
 T01281033=
METAR KSMX 011851Z 00000KT 10SM CLR 14/M02 A3014 RMK AO2 SLP211 
 T01391017=
####018000687####
SAUS20 KNKA 011853
METAR KSTL 011851Z 26014G21KT 10SM BKN250 03/M09 A3018 RMK AO2 
 SLP231 T00331089=
METAR KTEB 011851Z 24011G18KT 10SM CLR 02/M13 A3001 RMK AO2 SLP161 
 T00221133=
METAR KTIX 011850Z 04007KT 7SM BKN006 OVC120 21/21 A3017=
SPECI KTVC 011851Z 24009G16KT 1SM -SN BLSN OVC016 M04/M06 A2973 RMK 
 AO2 P0000=
METAR KVCT 011851Z 02011KT 7SM OVC006 07/05 A3017 RMK AO2 SLP214 
 T00670050=
METAR KVDF 011855Z AUTO 05004KT 10SM BKN026 BKN035 OVC044 22/17 
 A3019 RMK AO2=
METAR KVNY 011851Z 00000KT 10SM CLR 10/M04 A3013 RMK AO2 SLP204 
 T01001039=
METAR KYNG 011851Z 21013KT 10SM FEW250 00/M12 A2994 RMK AO2 PK WND 
 23031/1752 SLP154 T00001117=
####018000176####
SAAK41 KNKA 011853
METAR PAPR 011845Z 06004KT 7SM SCT009 OVC020 M08/ A3028=
SPECI PFKT 011851Z AUTO 06003KT 1 3/4SM -SN BR OVC012 M02/M02 A3022 
 RMK AO2 P0001 FZRANO=
####018002889####
SAUS20 KNKA 011853
METAR K2G4 011850Z AUTO 26015G25KT 10SM CLR M02/M13 A2995 RMK AO1=
METAR K2W6 011849Z AUTO 24010G17KT 10SM CLR 06/M09 A3013 RMK AO1=
METAR KABE 011851Z 23014KT 10SM CLR 03/M11 A3000 RMK AO2 SLP164 
 T00331111=
METAR KACT 011851Z 02008KT 1 1/2SM BR OVC005 03/02 A3024 RMK AO2 SFC 
 VIS 2 1/2 UPE1755 CIG 003V007 SLP243 P0000 T00280017=
METAR KAHN 011851Z VRB04KT 10SM CLR 14/M04 A3026 RMK AO2 SLP249 
 T01391044=
METAR KAIK 011855Z AUTO 00000KT 10SM CLR 13/02 A3029 RMK AO2 PNO=
METAR KALB 011851Z 18015KT 10SM FEW230 BKN260 M01/M14 A2989 RMK AO2 
 SLP127 T10061139=
SPECI KAPF 011851Z 00000KT 10SM SCT023 SCT031 26/20 A3012 RMK AO2=
METAR KAQW 011852Z AUTO 20007KT 10SM CLR M02/M15 A2988 RMK AO2 
 SLP129 T10171150=
METAR KASH 011851Z VRB06KT 10SM CLR 00/M14 A2993 RMK AO2 T00001144 
 SLP395=
METAR KAVX 011851Z AUTO VRB03KT 10SM CLR 11/M01 A3013 RMK AO2 SLP208 
 T01061011=
METAR KBAZ 011851Z 36011KT 2SM -RA OVC003 03/ A3019 RMK AO2 SLP226 
 P0000 T0033 $=
METAR KBDL 011851Z 22015G18KT 10SM BKN250 01/M14 A2994 RMK AO2 
 SLP142 T00111139=
METAR KBGD 011851Z AUTO 24008KT 10SM OVC012 M03/M07 A3010 RMK AO2 
 SLP218 T10281067=
METAR KBHK 011851Z AUTO 31010KT 10SM SCT035 BKN047 OVC060 M01/M07 
 A2997 RMK AO2 SLP184 T10111072=
METAR KBKW 011851Z AUTO 26010G20KT 10SM OVC044 00/M09 A3013 RMK AO2 
 SLP238 T00001094=
METAR KCAK 011851Z 24022G30KT 10SM FEW250 01/M12 A2997 RMK AO2 PK 
 WND 24030/1843 SLP163 T00111117 $=
METAR KCBE 011849Z AUTO 21013G20KT 10SM CLR 06/M09 A3008 RMK AO1=
METAR KCGE 011849Z AUTO 24007KT 10SM CLR 06/M07 A3011 RMK AO1=
METAR KCGS 011845Z AUTO 22007KT 10SM CLR 06/M10 A3009 RMK AO1=
METAR KCLE 011851Z 23022G27KT 10SM SCT250 00/M13 A2998 RMK AO2 PK 
 WND 24031/1823 SLP162 T00001128=
METAR KCLS 011855Z AUTO 00000KT 10SM CLR M00/M03 A3033 RMK AO2=
METAR KCMH 011851Z 24018G22KT 10SM FEW080 SCT200 02/M10 A3007 RMK 
 AO2 PK WND 24026/1819 SLP190 T00171100=
METAR KCON 011851Z AUTO 24010KT 10SM CLR M01/M14 A2990 RMK AO2 
 SLP129 T10111144=
METAR KCRP 011851Z 36010KT 7SM OVC007 07/05 A3014 RMK AO2 SLP206 
 T00670050=
METAR KCSG 011851Z 00000KT 10SM CLR 14/01 A3028 RMK AO2 SLP253 
 T01390006=
METAR KD57 011855Z AUTO 32008KT 10SM OVC015 M02/M05 A2995 RMK AO2 
     TSNO=
METAR KDAW 011851Z AUTO VRB06KT 10SM CLR M01/M14 A2989 RMK AO2 
 SLP124 T10111144=
METAR KEKN 011851Z AUTO 26010G17KT 10SM OVC049 02/M08 A3008 RMK AO2 
 SLP213 T00221083 TSNO=
METAR KELP 011851Z 03005KT 10SM OVC012 02/M02 A3002 RMK AO2 SLP164 
 CLDS TPG MTNS SW-NW T00221022=
METAR KERI 011851Z 22021G29KT 10SM BKN110 M01/M13 A2990 RMK AO2 PK 
 WND 22033/1829 SLP133 T10061133=
METAR KEWR 011851Z 25020G26KT 10SM SCT250 03/M13 A3002 RMK AO2 PK 
 WND 26026/1849 SLP166 T00331133=
METAR KFFZ 011850Z 31005KT 40SM SCT055 04/M03 A3012 RMK WIND 
 ESTIMATED=
####018000105####
SAMO31 ZMUB 011900
METAR ZMUB 011900Z VRB01MPS 6000NW NSC M25/M28 Q1019 NOSIG RMK
 QFE656.7 75 NT=
####018000082####
SAZA42 FAOR 011900
METAR FAVV 011900Z AUTO 00000KT //// // ////// 19/13 Q1019=
####018000103####
SABZ20 SBPV 011900
METAR SBPV 011900Z 13006KT 5000 -RA SCT020 FEW023TCU SCT100 26/25 Q10
08
 RERA=
####018000112####
SPCN46 CWAO 011853
SPECI CYQA 011853Z AUTO 21014G24KT 4SM -SN BKN024 OVC029 M05/M08
 A2963 RMK SLP049=

####018000082####
SABA31 MYNN 011900
METAR MYNN 011900Z 13008KT 9999 SCT016 BKN250 27/21 A3014=
####018000114####
SAUS46 KSTO 011853
MTRBLU
METAR KBLU 011852Z AUTO VRB05KT 10SM CLR 07/M17 A3008 RMK AO2 SLP182 
T00671172
####018000115####
SAUS46 KLOX 011853
MTRNZY
METAR KNZY 011852Z AUTO 13006KT 10SM CLR 12/01 A3016 RMK AO2 SLP213 
T01220011 $
####018000137####
SAUS44 KMAF 011853
MTRNFW
METAR KNFW 011852Z AUTO 00000KT 10SM OVC007 03/M01 A3030 RMK AO2 
RAE10UPB10E15 SLP243 P0001 T00281011
####018000089####
SAMZ40 FQMA 011900
METAR FQQL 011900Z 08003KT 9999 SCT010 BKN020 BKN090 26/24 Q1009=
####018000952####
SAUS90 KWBC 011900 RRB
METAR KSNT 011851Z AUTO 00000KT M18/M23 A3014 RMK AO1 SLP309
     T11831228=
METAR KP59 011851Z AUTO 36019G27KT M07/M11 A2967 RMK AO1 PK WND
     01033/1753 SLP065 T10671111=
METAR KABQ 011852Z VRB04KT 10SM OVC014 M03/M06 A3001 RMK AO2
     SLP201 MTN TOPS OBSC NE-SE T10281061=
METAR KATT 011851Z AUTO 35005KT 3SM BR OVC007 03/02 A3023 RMK AO2
     SLP243 P0001 T00280022=
METAR KBVE 011851Z AUTO 07012KT 10SM SCT023 BKN033 17/14 A3018 RMK
     AO2 SLP219 T01720144=
METAR KSAD 011851Z AUTO 28005KT 10SM CLR 02/M01 A3003 RMK AO2
     SLP174 T00171011=
METAR KNYC 011851Z AUTO VRB06G19KT 10SM CLR 03/M14 A3003 RMK AO2
     SLP162 T00281139 $=
METAR KSMX 011851Z 00000KT 10SM CLR 14/M02 A3014 RMK AO2 SLP211
     T01391017=
METAR KBLU 011852Z AUTO VRB05KT 10SM CLR 07/M17 A3008 RMK AO2
     SLP182 T00671172=
METAR KCDJ 011852Z AUTO 21009G16KT 01/M11 A3017 RMK AO1 SLP233
     T00061111=
####018000105####
SPCN46 CWAO 011853
SPECI CYPO 011853Z AUTO 30021G31KT 3SM -SN BKN026 M23/M28 A2952 RMK
 SLP002=

####018000116####
SAUS41 KLWX 011853
MTRNHK
METAR KNHK 011852Z AUTO 25013KT 10SM CLR 07/M09 A3012 RMK AO2 SLP198 
T00671089 $
####018000119####
SAUS46 KMTR 011853
MTRBAN
METAR KBAN 011852Z AUTO 00000KT CLR M04/M18 A3009 RMK AO2 SLP250 
T10391183 FZRANO $
####018000108####
SAUS43 KEAX 011853
MTRCDJ
METAR KCDJ 011852Z AUTO 21009G16KT 01/M11 A3017 RMK AO1 SLP233 
T00061111
####018000118####
SAUS42 KJAX 011853
MTRNRB
METAR KNRB 011852Z AUTO 03009KT 10SM OVC025 16/11 A3024 RMK AO2 
SLP239 T01610111 $
####018001689####
SPZZ40 KAWN 011853 RRS
SPECI CYCY 011851Z AUTO 31020KT 6SM -SN OVC055 M20/M22 A2936 RMK SLP947=
SPECI CYCY 011852Z AUTO 31019KT 4SM -SN OVC055 M20/M22 A2936 RMK SLP947=
SPECI CYGW 011850Z AUTO 21011G17KT 2 1/4SM -SN OVC038 M18/M21 A2922
      RMK VIS VRB 1-3 SLP898=
SPECI CYMA 011849Z 02003KT 3/4SM -SN BR VV012 M16/M19 A3013 RMK FG8
      SLP263=
SPECI CYMM 011852Z AUTO 02004KT 6SM -SN OVC060 M15/M17 A3002 RMK SLP201=
SPECI CYOD 011852Z 10005KT 8SM -SN OVC019 RMK SC8 VIS LWR E CIG VRB
      14-24=
SPECI CYPH 011852Z AUTO 07006KT 6SM HZ BKN024 M24/M27 A2921 RMK SLP893=
SPECI CYQA 011851Z AUTO 21015G24KT 5SM -SN OVC026 M05/M08 A2962 RMK
      SLP048=
SPECI CYZH 011851Z AUTO 33008G17KT 9SM -SN BKN012 OVC018 M01/M02 A2992
      RMK PRESRR SLP160=
SPECI EGUL 011850Z AUTO 21022G32KT 9999 OVC015 11/11 A3009 RMK AO2=
SPECI EGVA 011850Z AUTO 22018G29KT 9999 OVC010 12/11 A3012 RMK AO2=
SPECI ETAD 011850Z AUTO 23007KT 0800 R23/0350 -FZDZ FZFG VV001 M01/M01
      A3053 RMK AO2=
SPECI ETEB 011851Z AUTO 19006KT 0800 -FZDZ FZFG VV002 00/00 A3055 RMK
      AO2 DZB1822E1840B1845 RVRNO=
SPECI KHLR 011852Z AUTO 36007KT 1/2SM -RA FG OVC005 02/02 A3022 RMK
      AO2 VIS 1/2V1 RAE1817B1837 RVRNO=
SPECI KNBG 011850Z AUTO 08009KT 10SM OVC015 16/12 A3019 RMK AO2 $=
SPECI KTIK 011852Z AUTO 18007KT 10SM SCT008 OVC041 00/M03 A3023 RMK
      AO2=
SPECI RKJK 011852Z AUTO 12004KT 2 1/2SM -SN BR FEW005 BKN009 OVC027
      M05/M06 A3028 RMK AO2 VIS 2 1/2V6 VIS 1 RWY18
      UPB1758E1802SNB1802 CIG 009V014 $=
SPECI RKSO 011841Z AUTO 00000KT 7SM BKN029 M07/M12 A3027 RMK AO2=
SPECI YPPD 011852Z AUTO 02005KT 9999 // BKN013 28/26 Q1003=
####018000082####
SAAG SAWH 011900
METAR SAWH 011900Z  23011KT 9999  BKN040 SCT090
11/06 Q1014=
####018000534####
SADN31 EKCH 011850
METAR EKCH 011850Z 23018KT 3000 BR BKN005 05/04 Q1019  TEMPO
BKN004=
METAR EKBI 011850Z 21020G31KT 3000 -DZRA OVC003 06/06 Q1015=
METAR EKYT 011850Z 22021KT 5000 -RA FEW006 BKN010 BKN014 08/07
Q1010 R88/CLRD//=
METAR EKRK 011850Z AUTO 23019KT 1900NDV BR  SCT001/// OVC003///
04/04 Q1018=
METAR EKAH 011850Z AUTO 21010G22KT 130V290 9999NDV -DZ   OVC006///
07/05 Q1014=
METAR EKEB 011850Z AUTO 20016G29KT 2200NDV BR  OVC002/// 07/07
Q1016=
METAR EKRN 011850Z AUTO 24021KT 6000NDV OVC008/// 05/03 Q1021=
####018000618####
SAFI31 EFHK 011850
METAR EFHK 011850Z 25011KT 9999 -DZ BKN008 04/02 Q1002 NOSIG=
METAR EFJY 011850Z AUTO 23006KT 9999 -RA BKN005 
OVC050 01/01 Q0997=
METAR EFKU 011850Z AUTO 24008KT 9999 OVC006 02/02 
Q0996=
METAR EFOU 011850Z AUTO 20006KT 170V230 9999 BKN038/// OVC048/// 
02/01 Q0993 R12/39//94=
METAR EFRO 011850Z AUTO 20006KT 0050 R21/0600U FZFG
 VV001 M03/M03 Q0990=
METAR EFTP 011850Z AUTO 24010KT 9999 SCT005 OVC007 
02/02 Q1000=
METAR EFTU 011850Z AUTO 28011KT 9999 OVC015/// 04/03 Q1002 
R08/29//95=
METAR EFVA 011850Z AUTO 19006KT 9999 BKN004/// BKN029/// OVC045/// 
03/02 Q0996 R16/29//95=
####018000074####
SABZ19 SBMA 011900
METAR SBMA 011900Z 15005KT 9999 FEW020 34/22 Q1010=
####018000182####
SADN32 EKCH 011850
METAR EKVJ 011853Z NIL=
METAR EKSB 011853Z NIL=
METAR EKSN 011853Z NIL=
METAR EKVD 011850Z AUTO 22020KT //// ///////// 06/05 Q1016=
METAR EKOD 011853Z NIL=
####018003721####
SAUS99 KWBC 011854
METAR
PAPR 011845Z 06004KT 7SM SCT009 OVC020 M08/ A3028=
K2G4 011850Z AUTO 26015G25KT 10SM CLR M02/M13 A2995 RMK AO1=
K2W6 011849Z AUTO 24010G17KT 10SM CLR 06/M09 A3013 RMK AO1=
KABE 011851Z 23014KT 10SM CLR 03/M11 A3000 RMK AO2 SLP164
     T00331111=
KACT 011851Z 02008KT 1 1/2SM BR OVC005 03/02 A3024 RMK AO2 SFC VIS
     2 1/2 UPE1755 CIG 003V007 SLP243 P0000 T00280017=
KAHN 011851Z VRB04KT 10SM CLR 14/M04 A3026 RMK AO2 SLP249
     T01391044=
KAIK 011855Z AUTO 00000KT 10SM CLR 13/02 A3029 RMK AO2 PNO=
KALB 011851Z 18015KT 10SM FEW230 BKN260 M01/M14 A2989 RMK AO2
     SLP127 T10061139=
KAQW 011852Z AUTO 20007KT 10SM CLR M02/M15 A2988 RMK AO2 SLP129
     T10171150=
KASH 011851Z VRB06KT 10SM CLR 00/M14 A2993 RMK AO2 T00001144
     SLP395=
KAVX 011851Z AUTO VRB03KT 10SM CLR 11/M01 A3013 RMK AO2 SLP208
     T01061011=
KBAZ 011851Z 36011KT 2SM -RA OVC003 03/ A3019 RMK AO2 SLP226 P0000
     T0033 $=
KBDL 011851Z 22015G18KT 10SM BKN250 01/M14 A2994 RMK AO2 SLP142
     T00111139=
KBGD 011851Z AUTO 24008KT 10SM OVC012 M03/M07 A3010 RMK AO2 SLP218
     T10281067=
KBHK 011851Z AUTO 31010KT 10SM SCT035 BKN047 OVC060 M01/M07 A2997
     RMK AO2 SLP184 T10111072=
KBKW 011851Z AUTO 26010G20KT 10SM OVC044 00/M09 A3013 RMK AO2
     SLP238 T00001094=
KCAK 011851Z 24022G30KT 10SM FEW250 01/M12 A2997 RMK AO2 PK WND
     24030/1843 SLP163 T00111117 $=
KCBE 011849Z AUTO 21013G20KT 10SM CLR 06/M09 A3008 RMK AO1=
KCGE 011849Z AUTO 24007KT 10SM CLR 06/M07 A3011 RMK AO1=
KCGS 011845Z AUTO 22007KT 10SM CLR 06/M10 A3009 RMK AO1=
KCLE 011851Z 23022G27KT 10SM SCT250 00/M13 A2998 RMK AO2 PK WND
     24031/1823 SLP162 T00001128=
KCLS 011855Z AUTO 00000KT 10SM CLR M00/M03 A3033 RMK AO2=
KCMH 011851Z 24018G22KT 10SM FEW080 SCT200 02/M10 A3007 RMK AO2 PK
     WND 24026/1819 SLP190 T00171100=
KCON 011851Z AUTO 24010KT 10SM CLR M01/M14 A2990 RMK AO2 SLP129
     T10111144=
KCRP 011851Z 36010KT 7SM OVC007 07/05 A3014 RMK AO2 SLP206
     T00670050=
KCSG 011851Z 00000KT 10SM CLR 14/01 A3028 RMK AO2 SLP253
     T01390006=
KD57 011855Z AUTO 32008KT 10SM OVC015 M02/M05 A2995 RMK AO2
     TSNO=
KDAW 011851Z AUTO VRB06KT 10SM CLR M01/M14 A2989 RMK AO2 SLP124
     T10111144=
KEKN 011851Z AUTO 26010G17KT 10SM OVC049 02/M08 A3008 RMK AO2
     SLP213 T00221083 TSNO=
KELP 011851Z 03005KT 10SM OVC012 02/M02 A3002 RMK AO2 SLP164 CLDS
     TPG MTNS SW-NW T00221022=
KERI 011851Z 22021G29KT 10SM BKN110 M01/M13 A2990 RMK AO2 PK WND
     22033/1829 SLP133 T10061133=
KEWR 011851Z 25020G26KT 10SM SCT250 03/M13 A3002 RMK AO2 PK WND
     26026/1849 SLP166 T00331133=
KFFZ 011850Z 31005KT 40SM SCT055 04/M03 A3012 RMK WIND
     ESTIMATED=
KSTL 011851Z 26014G21KT 10SM BKN250 03/M09 A3018 RMK AO2 SLP231
     T00331089=
KTEB 011851Z 24011G18KT 10SM CLR 02/M13 A3001 RMK AO2 SLP161
     T00221133=
KTIX 011850Z 04007KT 7SM BKN006 OVC120 21/21 A3017=
KVCT 011851Z 02011KT 7SM OVC006 07/05 A3017 RMK AO2 SLP214
     T00670050=
KVDF 011855Z AUTO 05004KT 10SM BKN026 BKN035 OVC044 22/17 A3019
     RMK AO2=
KVNY 011851Z 00000KT 10SM CLR 10/M04 A3013 RMK AO2 SLP204
     T01001039=
KYNG 011851Z 21013KT 10SM FEW250 00/M12 A2994 RMK AO2 PK WND
     23031/1752 SLP154 T00001117=
KHDO 011851Z AUTO 03007KT 3SM -RA BR BKN005 BKN010 OVC034 04/03
     A3020 RMK AO2 RAE1754B04E12B33SNB1754E06B12E33 SLP228 P0001
     T00390033=
KHSE 011851Z AUTO VRB06KT 10SM CLR 09/M02 A3026 RMK AO2 SLP247
     T00891017 TSNO=
KHTS 011851Z 22010KT 10SM OVC050 02/M10 A3017 RMK AO2 SLP224
     T00221100=
KIGM 011851Z AUTO 00000KT FEW037 M02/M06 A3010 RMK AO2 SLP187
     T10221061 $=
####018002445####
SAUS99 KWBC 011854 RRA
METAR
KILG 011851Z 23013G21KT 10SM CLR 06/M10 A3007 RMK AO2 SLP184
     T00561100=
KIMM 011855Z AUTO 00000KT 6SM FEW039 27/23 A3015 RMK A01 P000=
KJCT 011851Z AUTO 09006KT 4SM BR OVC005 00/M01 A3015 RMK AO2 CIG
     004V009 PRESFR SLP208 I1000 T00001006=
KJFK 011851Z 24015KT 10SM SCT250 04/M12 A3004 RMK AO2 SLP172
     T00391117=
KLGA 011851Z 27012KT 10SM SCT250 03/M14 A3002 RMK AO2 SLP166
     T00281139=
KLGU 011851Z AUTO 30003KT 10SM CLR M12/M17 A3018 RMK AO2 SLP291
     T11171167=
KLKR 011855Z AUTO 19006KT 10SM CLR 12/00 A3025 RMK AO2=
KMDH 011852Z AUTO 23013KT 10SM CLR 04/M06 A3022 RMK AO2 SLP239
     T00391061=
KMPV 011851Z AUTO 19013G18KT 10SM SCT041 BKN110 M05/M13 A2980 RMK
     AO2 SLP112 T10501133=
KMTJ 011851Z AUTO 32005KT 1SM -SN BR BKN022 BKN030 OVC038 M09/M12
     A2998 RMK AO2 SNB17 SLP216 P0000 T10941117=
KMYL 011851Z AUTO 19005KT 10SM CLR M12/M17 A3014 RMK AO2 SLP288
     T11171167=
KORD 011851Z 24013G22KT 10SM FEW110 BKN250 M03/M12 A2997 RMK AO2
     SLP159 T10281117=
KORF 011851Z AUTO 25013G25KT 10SM CLR 09/M08 A3017 RMK AO2 SLP216
     T00941083 TSNO=
KOXR 011851Z 06007KT 10SM CLR 13/M06 A3015 RMK AO2 SLP208
     T01331056=
KPHX 011851Z VRB04KT 10SM BKN028 BKN055 06/M02 A3013 RMK AO2
     SLP205 T00561017=
KPIT 011851Z 22016G27KT 10SM SCT250 01/M10 A3000 RMK AO2 PK WND
     24031/1810 SLP182 T00061100=
KPVD 011851Z 24011KT 10SM FEW060 BKN250 00/M14 A2999 RMK AO2
     SLP154 T00001144=
KPWM 011851Z 22008G16KT 10SM FEW030 BKN250 M01/M14 A2990 RMK AO2
     SLP125 T10061144=
KRDU 011851Z 23009KT 10SM FEW250 10/M02 A3024 RMK AO2 SLP242
     T01001017=
KROW 011851Z 00000KT 10SM OVC008 M05/M07 A3010 RMK AO2 SLP216
     T10501072=
KSAD 011851Z AUTO 28005KT 10SM CLR 02/M01 A3003 RMK AO2 SLP174
     T00171011=
KSAN 011851Z 15005KT 10SM FEW010 12/M01 A3018 RMK AO2 SLP218
     T01221011=
KSAT 011851Z 33009KT 1 1/2SM R12R/5500VP6000FT -RA BR OVC006 03/02
     A3020 RMK AO2 SLP222 P0001 T00330022=
KSJT 011851Z 34004KT 10SM OVC006 M01/M02 A3019 RMK AO2
     UPB12E26FZRAE12 SLP242 P0000 I1000 T10111022=
KSLK 011851Z AUTO 22019G28KT 8SM -SN M07/M11 A2967 RMK AO2 PK WND
     22029/1758 SNB1753SNEMMB39 SLP076 P0000 T10671106 $=
KSMO 011851Z VRB04KT 10SM CLR 13/M03 A3016 RMK AO2 SLP213
     T01281033=
KSMX 011851Z 00000KT 10SM CLR 14/M02 A3014 RMK AO2 SLP211
     T01391017=
####018000267####
SPUS99 KWBC 011854
SPECI
PFKT 011851Z AUTO 06003KT 1 3/4SM -SN BR OVC012 M02/M02 A3022 RMK
     AO2 P0001 FZRANO=
KAPF 011851Z 00000KT 10SM SCT023 SCT031 26/20 A3012 RMK AO2=
KTVC 011851Z 24009G16KT 1SM -SN BLSN OVC016 M04/M06 A2973 RMK AO2
     P0000=
####018003747####
SAUS70 KWBC 011900 RRI
METAR
KDAG 011850Z AUTO 00000KT 10SM CLR 06/M17 A3016 RMK AO2 SLP217
     T00561172=
KEGE 011850Z 00000KT 10SM VCSH SCT080 BKN120 M12/M17 A2996=
KLBE 011850Z 25015G25KT 20SM SCT200 01/M10 A3003=
K4I7 011855Z AUTO 25009G17KT 10SM CLR 00/M11 A3011 RMK AO2=
KAEG 011851Z VRB04KT 10SM OVC009 M04/M07 A3000=
KBDN 011855Z AUTO 00000KT 10SM CLR M08/M15 A3028 RMK AO2=
KLQK 011855Z AUTO 10SM CLR 12/02 A3022 RMK AO2 T01220018=
KLRO 011855Z AUTO 00000KT 10SM -RA CLR 13/03 A3029 RMK AO2=
KMWA 011852Z 22010KT 20SM BKN250 04/M05 A3023=
KPAO 011847Z VRB04KT 10SM SKC 09/M05 A3017=
KWDG 011850Z 190012KT 5SM BR SCT024 OVC050 M01/M04 A3023=
KEFD 011850Z 03009KT 5SM BR OVC012 07/06 A3019=
KIWA 011848Z 00000KT 35SM SCT055 BKN200 06/M03 A3014=
PAPR 011845Z 06004KT 7SM SCT009 OVC020 M08/ A3028=
K2G4 011850Z AUTO 26015G25KT 10SM CLR M02/M13 A2995 RMK AO1=
K2W6 011849Z AUTO 24010G17KT 10SM CLR 06/M09 A3013 RMK AO1=
KACT 011851Z 02008KT 1 1/2SM BR OVC005 03/02 A3024 RMK AO2 SFC VIS
     2 1/2 UPE1755 CIG 003V007 SLP243 P0000 T00280017=
KAHN 011851Z VRB04KT 10SM CLR 14/M04 A3026 RMK AO2 SLP249
     T01391044=
KAIK 011855Z AUTO 00000KT 10SM CLR 13/02 A3029 RMK AO2 PNO=
KAQW 011852Z AUTO 20007KT 10SM CLR M02/M15 A2988 RMK AO2 SLP129
     T10171150=
KASH 011851Z VRB06KT 10SM CLR 00/M14 A2993 RMK AO2 T00001144
     SLP395=
KAVX 011851Z AUTO VRB03KT 10SM CLR 11/M01 A3013 RMK AO2 SLP208
     T01061011=
KBAZ 011851Z 36011KT 2SM -RA OVC003 03/ A3019 RMK AO2 SLP226 P0000
     T0033 $=
KBGD 011851Z AUTO 24008KT 10SM OVC012 M03/M07 A3010 RMK AO2 SLP218
     T10281067=
KBHK 011851Z AUTO 31010KT 10SM SCT035 BKN047 OVC060 M01/M07 A2997
     RMK AO2 SLP184 T10111072=
KCGE 011849Z AUTO 24007KT 10SM CLR 06/M07 A3011 RMK AO1=
KCGS 011845Z AUTO 22007KT 10SM CLR 06/M10 A3009 RMK AO1=
KCLE 011851Z 23022G27KT 10SM SCT250 00/M13 A2998 RMK AO2 PK WND
     24031/1823 SLP162 T00001128=
KCLS 011855Z AUTO 00000KT 10SM CLR M00/M03 A3033 RMK AO2=
KCMH 011851Z 24018G22KT 10SM FEW080 SCT200 02/M10 A3007 RMK AO2 PK
     WND 24026/1819 SLP190 T00171100=
KCSG 011851Z 00000KT 10SM CLR 14/01 A3028 RMK AO2 SLP253
     T01390006=
KD57 011855Z AUTO 32008KT 10SM OVC015 M02/M05 A2995 RMK AO2
     TSNO=
KDAW 011851Z AUTO VRB06KT 10SM CLR M01/M14 A2989 RMK AO2 SLP124
     T10111144=
KERI 011851Z 22021G29KT 10SM BKN110 M01/M13 A2990 RMK AO2 PK WND
     22033/1829 SLP133 T10061133=
KEWR 011851Z 25020G26KT 10SM SCT250 03/M13 A3002 RMK AO2 PK WND
     26026/1849 SLP166 T00331133=
KFFZ 011850Z 31005KT 40SM SCT055 04/M03 A3012 RMK WIND
     ESTIMATED=
KSTL 011851Z 26014G21KT 10SM BKN250 03/M09 A3018 RMK AO2 SLP231
     T00331089=
KTIX 011850Z 04007KT 7SM BKN006 OVC120 21/21 A3017=
KVDF 011855Z AUTO 05004KT 10SM BKN026 BKN035 OVC044 22/17 A3019
     RMK AO2=
KVNY 011851Z 00000KT 10SM CLR 10/M04 A3013 RMK AO2 SLP204
     T01001039=
KHDO 011851Z AUTO 03007KT 3SM -RA BR BKN005 BKN010 OVC034 04/03
     A3020 RMK AO2 RAE1754B04E12B33SNB1754E06B12E33 SLP228 P0001
     T00390033=
KILG 011851Z 23013G21KT 10SM CLR 06/M10 A3007 RMK AO2 SLP184
     T00561100=
KIMM 011855Z AUTO 00000KT 6SM FEW039 27/23 A3015 RMK A01 P000=
KJCT 011851Z AUTO 09006KT 4SM BR OVC005 00/M01 A3015 RMK AO2 CIG
     004V009 PRESFR SLP208 I1000 T00001006=
KJFK 011851Z 24015KT 10SM SCT250 04/M12 A3004 RMK AO2 SLP172
     T00391117=
KLGA 011851Z 27012KT 10SM SCT250 03/M14 A3002 RMK AO2 SLP166
     T00281139=
KLGU 011851Z AUTO 30003KT 10SM CLR M12/M17 A3018 RMK AO2 SLP291
     T11171167=
KLKR 011855Z AUTO 19006KT 10SM CLR 12/00 A3025 RMK AO2=
KMDH 011852Z AUTO 23013KT 10SM CLR 04/M06 A3022 RMK AO2 SLP239
     T00391061=
####018000171####
SPUS80 KWBC 011854
SPECI
KMLU 011850Z 06003KT RA BKN006 BKN070 OVC090 03/02 A3029 RMK AO2
     P0006 $=
PANT 011850Z 16012G17KT 10SM OVC004 08/08 A3007 RMK AO2=
####018000483####
SAXX60 KWBC 011900 RRA
METAR
KNZY 011852Z AUTO 13006KT 10SM CLR 12/01 A3016 RMK AO2 SLP213
     T01220011 $=
KNFW 011852Z AUTO 00000KT 10SM OVC007 03/M01 A3030 RMK AO2
     RAE10UPB10E15 SLP243 P0001 T00281011=
KNHK 011852Z AUTO 25013KT 10SM CLR 07/M09 A3012 RMK AO2 SLP198
     T00671089 $=
KBAN 011852Z AUTO 00000KT CLR M04/M18 A3009 RMK AO2 SLP250
     T10391183 FZRANO $=
KNRB 011852Z AUTO 03009KT 10SM OVC025 16/11 A3024 RMK AO2 SLP239
     T01610111 $=
####018000273####
SPXX60 KWBC 011854
SPECI
KHLR 011852Z AUTO 36007KT 1/2SM -RA FG OVC005 02/02 A3022 RMK AO2
     VIS 1/2V1 RAE1817B1837 RVRNO=
KNBG 011850Z AUTO 08009KT 10SM OVC015 16/12 A3019 RMK AO2 $=
KTIK 011852Z AUTO 18007KT 10SM SCT008 OVC041 00/M03 A3023 RMK
     AO2=
####018001020####
SAUS70 KWBC 011900 RRJ
METAR
KMPV 011851Z AUTO 19013G18KT 10SM SCT041 BKN110 M05/M13 A2980 RMK
     AO2 SLP112 T10501133=
KMTJ 011851Z AUTO 32005KT 1SM -SN BR BKN022 BKN030 OVC038 M09/M12
     A2998 RMK AO2 SNB17 SLP216 P0000 T10941117=
KORD 011851Z 24013G22KT 10SM FEW110 BKN250 M03/M12 A2997 RMK AO2
     SLP159 T10281117=
KPHX 011851Z VRB04KT 10SM BKN028 BKN055 06/M02 A3013 RMK AO2
     SLP205 T00561017=
KPIT 011851Z 22016G27KT 10SM SCT250 01/M10 A3000 RMK AO2 PK WND
     24031/1810 SLP182 T00061100=
KPWM 011851Z 22008G16KT 10SM FEW030 BKN250 M01/M14 A2990 RMK AO2
     SLP125 T10061144=
KRDU 011851Z 23009KT 10SM FEW250 10/M02 A3024 RMK AO2 SLP242
     T01001017=
KSJT 011851Z 34004KT 10SM OVC006 M01/M02 A3019 RMK AO2
     UPB12E26FZRAE12 SLP242 P0000 I1000 T10111022=
KSLK 011851Z AUTO 22019G28KT 8SM -SN M07/M11 A2967 RMK AO2 PK WND
     22029/1758 SNB1753SNEMMB39 SLP076 P0000 T10671106 $=
KSMO 011851Z VRB04KT 10SM CLR 13/M03 A3016 RMK AO2 SLP213
     T01281033=
####018000366####
SPUS70 KWBC 011854
SPECI
KBOI 011850Z 00000KT 2 1/2SM SCT018 M08/M12 A3036 RMK AO2 SFC VIS
     7 SNE05 P0000=
KMTJ 011850Z AUTO 31006KT 1SM -SN BR BKN024 BKN030 OVC038 M09/M12
     A2998 RMK AO2 SNB17 P0000=
KAPF 011851Z 00000KT 10SM SCT023 SCT031 26/20 A3012 RMK AO2=
KTVC 011851Z 24009G16KT 1SM -SN BLSN OVC016 M04/M06 A2973 RMK AO2
     P0000=
####018003110####
SAUS80 KWBC 011900 RRC
METAR
KISM 011850Z 01006KT 10SM BKN014 BKN050 22/19 A3018=
KSNT 011851Z AUTO 00000KT M18/M23 A3014 RMK AO1 SLP309
     T11831228=
KP59 011851Z AUTO 36019G27KT M07/M11 A2967 RMK AO1 PK WND
     01033/1753 SLP065 T10671111=
KABQ 011852Z VRB04KT 10SM OVC014 M03/M06 A3001 RMK AO2 SLP201 MTN
     TOPS OBSC NE-SE T10281061=
KATT 011851Z AUTO 35005KT 3SM BR OVC007 03/02 A3023 RMK AO2 SLP243
     P0001 T00280022=
KBVE 011851Z AUTO 07012KT 10SM SCT023 BKN033 17/14 A3018 RMK AO2
     SLP219 T01720144=
KSAD 011851Z AUTO 28005KT 10SM CLR 02/M01 A3003 RMK AO2 SLP174
     T00171011=
KNYC 011851Z AUTO VRB06G19KT 10SM CLR 03/M14 A3003 RMK AO2 SLP162
     T00281139 $=
KSMX 011851Z 00000KT 10SM CLR 14/M02 A3014 RMK AO2 SLP211
     T01391017=
KABE 011851Z 23014KT 10SM CLR 03/M11 A3000 RMK AO2 SLP164
     T00331111=
KALB 011851Z 18015KT 10SM FEW230 BKN260 M01/M14 A2989 RMK AO2
     SLP127 T10061139=
KBDL 011851Z 22015G18KT 10SM BKN250 01/M14 A2994 RMK AO2 SLP142
     T00111139=
KBKW 011851Z AUTO 26010G20KT 10SM OVC044 00/M09 A3013 RMK AO2
     SLP238 T00001094=
KCAK 011851Z 24022G30KT 10SM FEW250 01/M12 A2997 RMK AO2 PK WND
     24030/1843 SLP163 T00111117 $=
KCBE 011849Z AUTO 21013G20KT 10SM CLR 06/M09 A3008 RMK AO1=
KCON 011851Z AUTO 24010KT 10SM CLR M01/M14 A2990 RMK AO2 SLP129
     T10111144=
KCRP 011851Z 36010KT 7SM OVC007 07/05 A3014 RMK AO2 SLP206
     T00670050=
KEKN 011851Z AUTO 26010G17KT 10SM OVC049 02/M08 A3008 RMK AO2
     SLP213 T00221083 TSNO=
KELP 011851Z 03005KT 10SM OVC012 02/M02 A3002 RMK AO2 SLP164 CLDS
     TPG MTNS SW-NW T00221022=
KTEB 011851Z 24011G18KT 10SM CLR 02/M13 A3001 RMK AO2 SLP161
     T00221133=
KVCT 011851Z 02011KT 7SM OVC006 07/05 A3017 RMK AO2 SLP214
     T00670050=
KYNG 011851Z 21013KT 10SM FEW250 00/M12 A2994 RMK AO2 PK WND
     23031/1752 SLP154 T00001117=
KHSE 011851Z AUTO VRB06KT 10SM CLR 09/M02 A3026 RMK AO2 SLP247
     T00891017 TSNO=
KHTS 011851Z 22010KT 10SM OVC050 02/M10 A3017 RMK AO2 SLP224
     T00221100=
KIGM 011851Z AUTO 00000KT FEW037 M02/M06 A3010 RMK AO2 SLP187
     T10221061 $=
KMYL 011851Z AUTO 19005KT 10SM CLR M12/M17 A3014 RMK AO2 SLP288
     T11171167=
KORF 011851Z AUTO 25013G25KT 10SM CLR 09/M08 A3017 RMK AO2 SLP216
     T00941083 TSNO=
KOXR 011851Z 06007KT 10SM CLR 13/M06 A3015 RMK AO2 SLP208
     T01331056=
KPVD 011851Z 24011KT 10SM FEW060 BKN250 00/M14 A2999 RMK AO2
     SLP154 T00001144=
KROW 011851Z 00000KT 10SM OVC008 M05/M07 A3010 RMK AO2 SLP216
     T10501072=
KSAD 011851Z AUTO 28005KT 10SM CLR 02/M01 A3003 RMK AO2 SLP174
     T00171011=
KSAN 011851Z 15005KT 10SM FEW010 12/M01 A3018 RMK AO2 SLP218
     T01221011=
KSAT 011851Z 33009KT 1 1/2SM R12R/5500VP6000FT -RA BR OVC006 03/02
     A3020 RMK AO2 SLP222 P0001 T00330022=
KSMX 011851Z 00000KT 10SM CLR 14/M02 A3014 RMK AO2 SLP211
     T01391017=
KBLU 011852Z AUTO VRB05KT 10SM CLR 07/M17 A3008 RMK AO2 SLP182
     T00671172=
KCDJ 011852Z AUTO 21009G16KT 01/M11 A3017 RMK AO1 SLP233
     T00061111=
####018000083####
SAAK32 KWBC 011800 RRC
METAR
PADL 011848Z 00000KT 15SM FEW001 M06/M07 A3027=
####018000448####
SADL33 KWBC 011845 RRA
METAR
EDDB 011850Z 22009KT CAVOK 02/01 Q1028 NOSIG=
EDDC 011850Z 23007KT CAVOK 02/00 Q1031 NOSIG=
EDDG 011850Z 20012KT CAVOK 04/00 Q1028 NOSIG=
EDDP 011850Z 20012KT CAVOK 02/01 Q1030 NOSIG=
EDDR 011850Z 21008KT 0100 R27/0600N FZFG VV/// M01/M01 Q1035
     NOSIG=
EDDT 011850Z 21008KT CAVOK 03/01 Q1028 NOSIG=
EDDV 011850Z 20006KT CAVOK 03/M01 Q1028 NOSIG=
EDDW 011850Z 21013KT CAVOK 04/M01 Q1025 NOSIG=
####018000119####
SAEE31 KWBC 011830 RRB
METAR
EYSA 011850Z 26015KT 4500 -DZ BR OVC003 04/03 Q1016 R32R/2///95
     R32L/2///95=
####018000106####
SAUS46 KPQR 011853
MTRREO
METAR KREO 011852Z AUTO 00000KT M13/M16 A3026 RMK AO1 SLP323 
T11281161
####018000093####
SPXX61 KWBC 011854
SPECI
EGUL 011850Z AUTO 21022G32KT 9999 OVC015 11/11 A3009 RMK AO2=
####018000093####
SPXX61 KWBC 011854
SPECI
EGVA 011850Z AUTO 22018G29KT 9999 OVC010 12/11 A3012 RMK AO2=
####018000113####
SPXX61 KWBC 011854
SPECI
ETAD 011850Z AUTO 23007KT 0800 R23/0350 -FZDZ FZFG VV001 M01/M01
A3053 RMK AO2=
####018000178####
SPXX62 KWBC 011854
SPECI
RKJK 011852Z AUTO 12004KT 2 1/2SM -SN BR FEW005 BKN009 OVC027
M05/M06 A3028 RMK AO2 VIS 2 1/2V6 VIS 1 RWY18 UPB1758E1802SNB1802
CIG 009V014 $=
####018000091####
SPXX62 KWBC 011854
SPECI
RKSO 011841Z AUTO 00000KT 7SM BKN029 M07/M12 A3027 RMK AO2=
####018000082####
SPUS44 KWBC 011854
SPECI
KBOI 011850Z 00000KT 2 1/2SM SCT018 M08/M12 A3036=
####018000105####
SPCN48 CWAO 011853
SPECI CYAH 011853Z AUTO 20011G18KT 5SM -SN BKN045 M17/M21 A2925 RMK
 SLP938=

####018000089####
SPUS52 KWBC 011854
SPECI
KMLU 011850Z 06003KT RA BKN006 BKN070 OVC090 03/02 A3029=
####018000101####
SASO31 AGGG 011900
METAR 011900

METAR AGGH 011900Z 00000KT 9999 HZ FEW015 SCT300 25/24 Q1005=


####018000076####
SAYE20 OYSN 011900
METAR OYSN 011900Z VRB01KT CAVOK 10/M14 Q1029 NOSIG=
####018000106####
SAUS45 KMSO 011854
MTRP69
METAR KP69 011852Z AUTO 00000KT M08/M13 A3048 RMK AO1 SLP369 
T10781128
####018000105####
SAUS46 KSGX 011854
MTRCZZ
METAR KCZZ 011852Z AUTO 00000KT 04/M03 A3007 RMK AO1 SLP189 
T00391028
####018000106####
SAUS43 KBIS 011853
MTRN60
METAR KN60 011852Z AUTO 34011KT M03/M07 A2996 RMK AO1 SLP172 
T10331072
####018000135####
SAUS43 KDTX 011854
MTRP58
METAR KP58 011851Z AUTO 25013G26KT 230V300 M02/M09 A2972 RMK AO1 PK 
WND 27030/1830 SLP078 T10221094
####018000070####
SAUS53 KWBC 011800 RRK
METAR
KEHA 011848Z AUTO 22002KT M03/M14=
####018000310####
SAUK34 EGGY 011850
METAR EGHE 011850Z NIL=
METAR EGHQ 011850Z 21023G33KT 8000 -RA BKN005 12/11 Q1023=
METAR EGJA 011850Z NIL=
METAR EGJB 011850Z 20021KT 9999 SCT012 BKN018 11/10 Q1029=
METAR EGJJ 011850Z 17017KT 9999 BKN018 09/08 Q1030 NOSIG=
METAR EGTE 011850Z 22020KT 9999 SCT009 BKN015 12/11 Q1023=
####018000579####
SAUK32 EGGY 011850
METAR EGAA 011850Z 25023KT 9999 -RA FEW008 BKN012 BKN017 12/12
    Q1003=
METAR EGAC 011850Z 23019KT 6000 -RADZ FEW009 SCT016 BKN020 14/12
    Q1003=
METAR EGFF 011850Z AUTO 23014KT 9999 -RA OVC012/// //////TCU
    12/11 Q1020 RERA=
METAR EGGW 011850Z 21018G29KT 170V230 9999 OVC008 10/09 Q1021=
METAR EGLC 011850Z 22019G29KT 9999 BKN012 11/07 Q1023=
METAR EGNM 011850Z 23016G28KT 180V270 9999 FEW008 BKN013 12/10
    Q1009=
METAR EGNX 011850Z 21030G40KT 9999 BKN011 12/10 Q1014=
METAR EGPD 011850Z 21010KT 180V240 9999 SCT022 12/10 Q0995 NOSIG=
####018000439####
SAUK33 EGGY 011850
METAR EGGD 011850Z 21020KT 9999 SCT008 BKN014 11/10 Q1020 RERA
    REDZ=
METAR EGGP 011850Z 20019KT 9999 VCSH BKN022 13/11 Q1012=
METAR EGHI 011850Z 23018KT 9000 RA BKN011 11/09 Q1025 =
METAR EGNS 011850Z 22029KT 7000 SCT007 OVC025 12/11 Q1006 NOSIG=
METAR EGNT 011850Z 24024G39KT 210V270 9999 -SHRA FEW009 BKN035
    13/10 Q1001=
METAR EGNV 011850Z NIL=
METAR EGPB 011850Z AUTO 29013KT 7000 NCD 07/06 Q0990=
####018000528####
SAUK31 EGGY 011850
METAR EGBB 011850Z 20014G24KT 170V230 9999 SCT009 OVC013 12/10
    Q1017=
METAR EGCC 011850Z NIL=
METAR EGKK 011850Z 21015G26KT 8000 OVC011 10/08 Q1025=
METAR COR EGLL 011850Z 22016KT 9999 OVC013 11/09 Q1023 NOSIG=
METAR EGPF 011850Z AUTO 22022G32KT 2900 +RA BKN006/// OVC015///
    //////CB 12/12 Q0998=
METAR EGPH 011850Z 22022KT 7000 -RA FEW012 SCT023 BKN032 13/11
    Q0998=
METAR EGPK 011850Z 21021KT 7000 -RADZ SCT006 BKN015 13/12 Q1000=
METAR EGSS 011850Z 22023KT 9999 OVC010 10/08 Q1021=
####018000311####
SAUK37 EGGY 011850
METAR EGAE 011850Z NIL=
METAR EGNC 011850Z NIL=
METAR EGNH 011850Z NIL=
METAR EGNJ 011850Z AUTO 21030KT 9999 BKN015/// OVC020/// 13/11
    Q1011=
METAR EGNR 011850Z NIL=
METAR EGPE 011850Z 26012KT 9999 -RA FEW010 BKN042 09/07 Q0995=
METAR EGPI 011850Z NIL=
METAR EGPN 011850Z NIL=
####018000326####
SAUK36 EGGY 011850
METAR EGBE 011850Z 21014KT 9999 -RA BKN014 12/11 Q1017=
METAR EGBJ 011850Z NIL=
METAR EGCN 011850Z 20025KT 9999 SCT012 OVC017 13/10 Q1013=
METAR EGSC 011850Z NIL=
METAR COR EGSH 011850Z 21020G30KT 9999 -RA BKN012 10/09 Q1019 RERA
     TEMPO BKN009=
METAR EGVN 011850Z NIL=
METAR EGWU 011850Z NIL=
####018000339####
SAUK35 EGGY 011850
METAR EGHH 011850Z 22019G29KT 9999 BKN011 12/10 Q1024=
METAR EGKA 011850Z 21022KT 9999 BKN010 09/07 Q1026=
METAR EGKB 011850Z NIL=
METAR EGLF 011850Z 22021G32KT 9999 BKN011 10/09 Q1024=
METAR EGMC 011850Z 22021KT 9999 BKN016 10/07 Q1023=
METAR EGMD 011850Z NIL=
METAR EGTC 011850Z NIL=
METAR EGTK 011850Z NIL=
####018000090####
SPUS81 KWBC 011854
SPECI
KHLR 011852Z AUTO 36007KT 1/2SM -RA FG OVC005 02/02 A3022=
####018000089####
SPUS81 KWBC 011854
SPECI
KMLU 011850Z 06003KT RA BKN006 BKN070 OVC090 03/02 A3029=
####018000080####
SPUS81 KWBC 011854
SPECI
PANT 011850Z 16012G17KT 10SM OVC004 08/08 A3007=
####018000306####
SASW39 LSSW 011850
METAR LSMA 011850Z AUTO 05001KT 5000NDV OVC010 M01/M03 Q1035 RMK GRN=
METAR LSMD 011850Z NIL=
METAR LSME 011850Z NIL=
METAR LSMM 011850Z NIL=
METAR LSMP 011850Z AUTO 00000KT 3600NDV BR NCD M05/M05 Q1036 RMK GRN=
METAR LSMS 011850Z AUTO 00000KT 5000NDV NCD M04/M06 Q1037 RMK GRN=
####018000134####
SAMH31 PKMR 011900
METAR PKMR 011851Z 04016KT 15SM SCT014TCU BKN045 BKN120 OVC300 28/25
 A2976 RMK TCU NE AND S SLP080 T02820245
####018000447####
SAUK38 EGGY 011850
METAR EGEC 011850Z NIL=
METAR EGPA 011850Z AUTO 28014KT 7000 DZ FEW007/// 08/07 Q0992=
METAR EGPC 011850Z AUTO 29016KT 9999 FEW020/// 07/05 Q0993=
METAR EGPL 011850Z AUTO 29018KT 7000 -RA FEW016/// BKN020///
    06/05 Q0998 RERA=
METAR EGPM 011850Z AUTO 30010KT 5000 DZ BKN002/// OVC011/// 06/05
    Q0989 RERA=
METAR EGPO 011850Z AUTO 28010KT 6000 -SHRA FEW013/// BKN018///
    06/04 Q0996=
METAR EGPU 011850Z NIL=
####018000336####
SASW32 LSSW 011850
METAR LSGC 011850Z AUTO VRB01KT CAVOK M05/M06 Q1033=
METAR LSGS 011850Z NIL=
METAR LSZG 011850Z AUTO 30002KT 1300 BR BKN004 M06/M06 Q1036=
METAR LSZR 011850Z AUTO VRB02KT 4100 BR OVC007 M02/M03 Q1036=
METAR LSZS 011850Z NIL=
METAR LSZC 011850Z AUTO VRB03KT 6000 OVC009 M02/M04 Q1035=
METAR LSZL 011850Z NIL=
####018000081####
SABZ24 SBPA 011900
METAR SBPA 011900Z 31010KT 9999 FEW040 BKN080 28/21 Q1003=
####018000659####
SASN32 ESWI 011850
METAR ESKN 011850Z 28014KT 9999 SCT017 07/04 Q1007 R26/19//95=
METAR ESOE 011850Z AUTO 23013G23KT 9999NDV -DZ FEW012/// SCT015///
07/06 Q1007 REUP=
METAR ESOK 011850Z AUTO 20010KT 9999 FEW008/// OVC009/// 05/05
Q1005=
METAR ESOW 011850Z AUTO 24010KT 220V290 9999 FEW015/// 06/04 Q1006=
METAR ESSA 011850Z 24012KT 9999 BKN015 06/04 Q1005 R01L/29//78
R08/29//76 R01R/29//77 TEMPO BKN012=
METAR ESSB 011850Z 24009KT 9999 BKN016 06/04 Q1006 R30/29//79=
METAR ESSD 011850Z AUTO 23016KT 9999 NCD 05/03 Q1003=
METAR ESSP 011850Z AUTO 26016KT 9999 FEW018/// 06/05 Q1008=
METAR ESSV 011850Z 23019KT 9999 BKN021 06/06 Q1011 R21/29//66=
####018000398####
SASN35 ESWI 011850
METAR ESGR 011850Z AUTO 21013KT 9999 SCT013/// BKN062/// OVC090///
07/05 Q1008 REDZ=
METAR ESKM 011850Z NIL=
METAR ESNL 011850Z AUTO VRB03KT 9999 NCD 02/M01 Q0993=
METAR ESNX 011850Z AUTO 23005KT 9999NDV FEW033/// 03/01 Q0990=
METAR ESNY 011850Z NIL=
METAR ESSF 011850Z NIL=
METAR ESSK 011850Z NIL=
METAR ESUD 011850Z AUTO VRB03KT 110V330 9999 FEW068/// 03/M01 Q0992=
####018000659####
SASN33 ESWI 011850
METAR ESNG 011850Z 18004KT 150V250 CAVOK M05/M05 Q0987=
METAR ESNK 011850Z 15005KT 0250 R17/0600N R35/0600N FZFG VV002
M01/M01 Q0998=
METAR ESNN 011850Z AUTO 36001KT 0350 R16/P1500N R34/P1500N BCFG NCD
M02/M02 Q0999 R16/79//36=
METAR ESNO 011850Z AUTO 26007KT 9999 SCT096/// 02/02 Q0995=
METAR ESNQ 011850Z AUTO 18007KT 9999 NCD M01/M03 Q0984=
METAR ESNS 011850Z AUTO 22008KT 9999 SCT090/// 04/02 Q0992=
METAR ESNU 011850Z AUTO 19005KT 9999 OVC082/// 03/03 Q0995
R14/75//65=
METAR ESNZ 011850Z AUTO 19009KT 9999 NCD 04/M01 Q0995=
METAR ESUT 011850Z AUTO 25005G16KT 190V320 9999 -RASN BKN026///
02/M01 Q0989 RESHUP REUP RERA=
####018000080####
SAIS32 LLBG 011850
METAR LLBG 011850Z 19005KT 9999 FEW035 12/07 Q1023 NOSIG=
####018000467####
SASN34 ESWI 011850
METAR ESCF 011850Z AUTO 24012KT 9999NDV BKN017/// 06/05 Q1009=
METAR ESDF 011850Z AUTO 23008KT 200V260 1300 1200// R01/P1500N
R19/P1500N BR VV004/// 05/05 Q1016=
METAR ESIB 011850Z AUTO 21016KT 9999NDV OVC007/// 07/06 Q1008=
METAR ESMV 011850Z NIL=
METAR ESPA 011850Z VRB04KT CAVOK 02/00 Q0991=
METAR ESPE 011850Z AUTO 17003KT 140V220 9999NDV DZ OVC058/// 02/00
Q0990=
METAR ESSL 011850Z AUTO 24008KT 9999NDV NCD 07/04 Q1009 R29/29//95=
####018000081####
SAMZ40 FQMA 011900
METAR FQMA 011900Z 05008KT 9999 SCT020 25/20 Q1012 NOSIG=
####018002170####
SAUS20 KNKA 011854
METAR KIOW 011852Z AUTO 26017KT 10SM CLR 00/M09 A3005 RMK AO2 SLP184 
 T00001089=
METAR KISN 011852Z AUTO 32007KT 10SM FEW017 OVC027 M02/M06 A2999 RMK 
 AO2 SLP182 T10221061=
METAR KLND 011853Z AUTO 00000KT 7SM FEW047 SCT055 OVC080 M19/M23 
 A3007 RMK AO2 SLP316 T11941233=
METAR KMBG 011852Z AUTO 34012KT 10SM SCT029 OVC050 01/M05 A2993 RMK 
    AO2 SLP156 T00061050=
METAR KMEB 011852Z AUTO 24006KT 10SM CLR 11/01 A3027 RMK AO2 SLP252 
 T01060006=
METAR KMFD 011852Z 22018G29KT 10SM CLR M01/M12 A2997 RMK AO2 PK WND 
 23030/1840 SLP165 T10061117=
METAR KMKE 011852Z 25013G20KT 10SM OVC100 M04/M11 A2989 RMK AO2 
 SLP134 T10391111=
METAR KMLI 011852Z 24014G21KT 10SM CLR M01/M10 A3003 RMK AO2 SLP179 
 T10061100=
METAR KMWH 011852Z 00000KT 10SM BKN040 M06/M11 A3047 RMK AO2 SLP339 
 T10611106=
METAR KOKB 011852Z AUTO VRB04KT 10SM CLR 12/01 A3016 RMK AO2 SLP211 
 T01220006=
METAR KOKC 011852Z 19008KT 3SM HZ BKN008 BKN015 OVC041 00/M03 A3023 
 RMK AO2 SFC VIS 6 SLP248 T00001033=
METAR KOMA 011852Z 19007KT 10SM BKN200 M01/M09 A3008 RMK AO2 SLP201 
 T10061089=
METAR KORE 011852Z AUTO 21012KT 10SM CLR M02/M14 A2990 RMK AO2 
 SLP135 T10171144=
METAR KPUC 011853Z AUTO 09009G18KT 10SM CLR 02/M18 A2993 RMK AO2 
 SLP168 T00221178=
METAR KPWK 011852Z 23011KT 10SM CLR M02/M11 A2998 RMK AO2 SLP161 
 T10171111=
METAR KPYM 011852Z AUTO 23012KT 10SM CLR 00/M14 A2998 RMK AO2 SLP153 
 T00001139=
METAR KRAP 011852Z VRB03KT 10SM OVC080 M01/M07 A2999 RMK AO2 SLP199 
 T10061067=
METAR KSPS 011852Z AUTO 00000KT OVC027 M02/M04 A3026 RMK AO2 SLP255 
 T10171044 $=
METAR KSUX 011852Z 29005KT 10SM CLR 00/M08 A3003 RMK AO2 SLP186 
 T00001078=
METAR KTAN 011852Z AUTO 22009G15KT 180V250 10SM CLR 01/M14 A2998 RMK 
 AO2 SLP150 T00061144=
METAR KTOL 011852Z 23020G28KT 10SM CLR M02/M13 A2995 RMK AO2 PK WND 
 25030/1805 SLP150 T10171133=
METAR KTRM 011852Z AUTO 00000KT 10SM CLR 09/M02 A3020 RMK AO2 SLP226 
 T00891017 TSNO=
METAR KUNV 011853Z 24015G22KT 10SM SKC 02/M13 A2993=
SPECI PAQH 011852Z AUTO 06006KT 10SM FEW006 M05/M06 A3028 RMK AO2 
 SNB12E34 P0000 FZRANO=
####018002994####
SAUS20 KNKA 011854
METAR KABI 011852Z 36004KT 2SM BR OVC004 M03/M03 A3020 RMK AO2 
 UPB09E19 SLP241 P0000 T10281033=
METAR KABQ 011852Z VRB04KT 10SM OVC014 M03/M06 A3001 RMK AO2 SLP201 
 MTN TOPS OBSC NE-SE T10281061=
METAR KAFN 011852Z AUTO 19013G20KT 170V240 10SM CLR M03/M14 A2986 
 RMK AO2 SLP133 T10281144=
METAR KALS 011852Z AUTO 17015KT 10SM CLR M03/M09 A2986 RMK AO2 
 SLP179 T10281089 $=
METAR KARR 011852Z 24015G24KT 10SM CLR M01/M11 A3000 RMK AO2 PK WND 
 25026/1813 SLP168 T10111111 $=
METAR KATL 011852Z 29004KT 10SM BKN065 BKN230 13/M04 A3027 RMK AO2 
 SLP254 T01331039=
METAR KBDR 011852Z 24015KT 10SM CLR 02/M12 A3000 RMK AO2 SLP159 
 T00171117=
METAR KBIS 011852Z 34007KT 10SM OVC016 M02/M06 A2997 RMK AO2 SLP170 
 T10171056=
METAR KBLF 011852Z AUTO 25011KT 10SM OVC039 02/M08 A3013 RMK AO2 
 SLP225 T00171078=
METAR KBLH 011852Z AUTO VRB03KT 10SM CLR 07/M01 A3020 RMK AO2 SLP227 
 T00671011 $=
METAR KBLU 011852Z AUTO VRB05KT 10SM CLR 07/M17 A3008 RMK AO2 SLP182 
 T00671172=
METAR KBML 011852Z AUTO 20006KT 10SM BKN048 M04/M14 A2975 RMK AO2 
 SLP095 T10441139=
METAR KCID 011852Z 24015KT 10SM CLR 00/M08 A2998 RMK AO2 SLP166 
 T00001083 $=
METAR KCKV 011852Z AUTO 24006KT 10SM OVC040 03/M07 A3027 RMK AO2 
 SLP257 T00281072=
METAR KCLT 011852Z VRB03KT 10SM FEW160 SCT250 11/M02 A3023 RMK AO2 
 SLP239 T01061022=
METAR KCQX 011852Z AUTO 25011G19KT 10SM BKN032 00/M08 A3000 RMK AO2 
 SLP162 T00001078=
METAR KCVG 011852Z 23014G18KT 10SM SCT150 BKN250 03/M10 A3012 RMK 
 AO2 SLP207 T00281100=
METAR KCWF 011850Z 01011KT 10SM OVC013 08/04 A3019=
METAR KDCA 011852Z 24013G18KT 10SM BKN250 08/M10 A3011 RMK AO2 
 SLP195 T00781100=
METAR KDPA 011852Z 23016KT 10SM CLR M02/M11 A2997 RMK AO2 SLP160 
 T10171111=
METAR KDVN 011852Z AUTO 24018G23KT 10SM CLR 00/M10 A3002 RMK AO2 
 SLP177 T00001100=
METAR KEFD 011850Z 03009KT 5SM BR OVC012 07/06 A3019=
METAR KESN 011850Z 23013KT 10SM FEW250 06/M07 A3014=
METAR KEST 011852Z AUTO 29017KT 10SM CLR M02/M07 A2994 RMK AO2 
 SLP162 T10221072=
METAR KGLR 011853Z AUTO 26018G29KT 1/2SM SN FZFG VV015 M06/M06 A2964 
 RMK AO2 PK WND 26029/1848 SLP059 P0000 T10561056=
METAR KGLS 011852Z 04014KT 2 1/2SM BR OVC008 08/07 A3014 RMK AO2 CIG 
 006V010 SLP207 T00830072=
METAR KGRI 011853Z 27007KT 10SM CLR M01/M08 A3006 RMK AO2 SLP214 
 T10111083=
METAR KHIE 011852Z AUTO 23008KT 10SM FEW043 M04/M14 A2978 RMK AO2 
 SLP102 T10391139=
METAR KHOB 011850Z 00000KT 4SM BR OVC004 M05/M05 A3011=
METAR KHRL 011852Z 32012KT 4SM BR OVC005 07/06 A3014 RMK AO2 SLP205 
 T00670061=
METAR KHUL 011853Z AUTO 22010G22KT 170V240 10SM SCT050 M04/M16 A2974 
 RMK AO2 SLP082 T10441156=
METAR KIAD 011852Z 21007G17KT 10SM BKN250 05/M09 A3009 RMK AO2 
 SLP191 T00501089=
METAR KIEN 011852Z AUTO 25007KT 10SM CLR M04/M12 A3002 RMK AO2 
 SLP215 T10391122=
METAR KIJD 011852Z AUTO 22011G17KT 10SM CLR 00/M14 A2997 RMK AO2 
 SLP153 T00001139=
####018001718####
SAEU KAWN 011900 RRA
METAR EDDB 011850Z 22009KT CAVOK 02/01 Q1028 NOSIG=
METAR EDDC 011850Z 23007KT CAVOK 02/00 Q1031 NOSIG=
METAR EDDE 011850Z 23012KT CAVOK 01/00 Q1031 NOSIG=
METAR EDDF 011850Z 19007KT 5000 BR FEW006 OVC015 03/02 Q1035 NOSIG=
METAR EDDG 011850Z 20012KT CAVOK 04/00 Q1028 NOSIG=
METAR EDDH 011850Z 22015KT 9999 FEW015 BKN250 04/00 Q1023 NOSIG=
METAR EDDK 011850Z 13009KT CAVOK 01/M01 Q1032 R14L/190195 R14R///99//
      R06/99 NOSIG=
METAR EDDL 011850Z 17013KT CAVOK 03/00 Q1030 NOSIG=
METAR EDDM 011850Z VRB01KT 0350 R26R/0375V0600N R26L/0300N FZFG BKN001
      BKN003 M05/M05 Q1035 R88/290095 NOSIG=
METAR EDDN 011850Z 19004KT 160V240 4500 -DZ BR BKN003 01/01 Q1035 R28/290195
      NOSIG=
METAR EDDR 011850Z 21008KT 0100 R27/0600N FZFG VV/// M01/M01 Q1035
      NOSIG=
METAR EDDS 011850Z 22002KT 5000 BR BKN005 M00/M01 Q1035 R07/0///95
      TEMPO 4000=
METAR EDDT 011850Z 21008KT CAVOK 03/01 Q1028 NOSIG=
METAR EDDV 011850Z 20006KT CAVOK 03/M01 Q1028 NOSIG=
METAR EDDW 011850Z 21013KT CAVOK 04/M01 Q1025 NOSIG=
METAR EKKA 011850Z 22021G39KT 7000 -RA FEW005 BKN007 08/08 Q1012=
METAR EKSP 011850Z 22020KT 2000 -DZRA OVC004 05/05 Q1017=
METAR EKVG 011850Z AUTO 29021G31KT 2500NDV -SHPL BKN017/// 01/M00 Q0988=
METAR GVAC 011900Z 05014KT 9999 BKN015 SCT100 BKN200 21/15 Q1016 NOSIG=
METAR LMML 011845Z 04016KT 9999 SCT036 10/05 Q1022 NOSIG=
METAR LQMO 011900Z 13006KT 100V180 CAVOK 01/M17 Q1028=
METAR LSGG 011850Z 15001KT 9000 NSC M02/M03 Q1036 NOSIG=
METAR LSZA 011850Z VRB01KT CAVOK M01/M02 Q1035 NOSIG=
METAR LSZB 011850Z VRB03KT 5000 BR NSC M08/M08 Q1035 NOSIG=
METAR LSZH 011850Z 27004KT 5000 BR FEW007 BKN008 M02/M04 Q1036 NOSIG=
####018001057####
SPUS17 KAWN 011854 RRI
SPECI KAFF 011849Z AUTO VRB04KT 10SM -SN SCT009 M05/M10 A2993 RMK AO2
      SNB19=
SPECI KBAD 011849Z AUTO 05004KT 3SM RA BR OVC008 02/02 A3026 RMK AO2
      CIG 008V011 PRESFR=
SPECI KCOF 011848Z AUTO 12008KT 10SM FEW010 SCT015 SCT022 23/21 A3016
      RMK AO2=
SPECI KDYS 011848Z AUTO 00000KT 3SM BR OVC004 M03/M05 A3020 RMK AO2
      $=
SPECI KFBG 011849Z AUTO VRB02KT 10SM CLR 10/00 A3025 RMK AO2=
SPECI KFCS 011848Z AUTO 30004KT 1SM -SN BR VV014 M07/M09 A2995 RMK
      AO2 RVRNO=
SPECI KFSI 011848Z AUTO 20005KT 7SM OVC007 M03/M03 A3024 RMK AO2=
SPECI KFSI 011849Z AUTO 20005KT 6SM BR OVC006 M03/M03 A3024 RMK AO2=
SPECI KHLR 011852Z AUTO 36007KT 1/2SM -RA FG OVC005 02/02 A3022 RMK
      AO2 VIS 1/2V1 RAE1817B1837 RVRNO=
SPECI KIAB 011848Z AUTO 20006KT 10SM UP SCT020 BKN035 M03/M07 A3019
      RMK AO2 UPB1813 CIG 019 RWY19=
SPECI KLTS 011848Z AUTO 21004KT 4SM -FZDZ BR OVC005 M04/M04 A3024 RMK
      AO2 DZB1813 $=
SPECI KNBG 011850Z AUTO 08009KT 10SM OVC015 16/12 A3019 RMK AO2 $=
####018000620####
SAZZ40 KAWN 011900
METAR MGGT 011900Z 36014KT 9999 SCT020 22/12 Q1025 A3027 FEW200=
METAR MSLP 011850Z 08005KT 020V190 CAVOK 35/14 Q1009 A2981=
METAR MSSS 011850Z 35005KT CAVOK 32/19 Q1015 A2997=
METAR OAKB 011850Z 02003KT 1500 FU NSC M03/M11 Q1026 NOSIG RMK AMB
      AMB=
METAR ORMM 011900Z 25005KT CAVOK 09/05 Q1021 NOSIG=
METAR ORNI 011900Z 00000KT 8000 SCT045 11/05 Q1021 NOSIG=
METAR ROTM 011858Z 01013G19KT 9999 BKN040 BKN050 12/06 A3025 RMK SLP230
      XWND ADV T01220056=
METAR TKPN 011900Z 09012KT 9999 FEW022 29/22 Q1018=
METAR TUPJ 011900Z 09010KT 9999 SCT021 28/24 Q1019 RMK A3010=
####018000096####
SPCN48 CWAO 011853
SPECI CYOY 011853Z AUTO 23011KT 190V260 3SM -SN OVC018 M06/M09 A2963=

####018000208####
SAIS31 LLBG 011850
METAR LLET 011850Z 01007KT CAVOK 18/M02 Q1023 RMK FEW100=
METAR LLHA 011850Z NIL=
METAR LLIB 011850Z NIL=
METAR LLOV 011850Z NIL=
METAR LLSD 011850Z 20010KT 9000 FEW035 16/07 Q1022=
####018000085####
SAPK31 OPSK 011853
METAR OPSK 011900Z 00000KTS 2000 HZ NSC 10/06 Q.1019 RH. 74PC=
####018000095####
SABZ21 SBRF 011900
METAR SBRF 011900Z 18004KT 9999 FEW010 BKN020 BKN060 25/24 Q1012 RERA
=
####018000111####
SPCN41 CWAO 011854
SPECI CYDL 011854Z AUTO 06003KT 020V080 1 1/4SM -SN OVC024 M03/ A2988
 RMK SLP150=

####018000208####
SAAK41 KNKA 011854
SPECI PAQH 011852Z AUTO 06006KT 10SM FEW006 M05/M06 A3028 RMK AO2 
 SNB12E34 P0000 FZRANO=
METAR PATA 011852Z 08008KT 10SM FEW020 OVC038 M07/M09 A3031 RMK AO2 
 SLP270 T10671089=
####018000085####
SAUK31 EGGY 011850 RRA
METAR EGCC 011850Z 20020KT 9999 SCT016 BKN026 12/10 Q1012=
####018000068####
SABZ21 SBSV 011900
METAR SBSV 011900Z 09011KT CAVOK 29/22 Q1013=
####018000108####
SPCN43 CWAO 011854
SPECI CYET 011854Z AUTO 25004KT 9SM -RA BKN044 OVC050 01/M01 A2996
 RMK SLP181=

####018000101####
SPAU31 AMMC 011854
SPECI YPDN 011853Z 30019KT 8000 -SHRA FEW006 SCT014 BKN035 25/23 Q1005=


####018000114####
SAUS41 KAKQ 011854
MTRNUI
METAR KNUI 011853Z AUTO 24011KT 10SM CLR 07/M08 A3012 RMK AO2 SLP198 
T00721083
####018000101####
SPAU67 AMMC 011854
SPECI YPDN 011853Z 30019KT 8000 -SHRA FEW006 SCT014 BKN035 25/23 Q1005=


####018000134####
SAUS44 KLZK 011854
MTRMWT
METAR KMWT 011853Z AUTO 00000KT 3SM RA BR FEW045 OVC080 03/01 A3024 
RMK AO2 SLP250 P0008 T00280006
####018001692####
SAEU KAWN 011900 RRB
METAR EDDP 011850Z 20012KT CAVOK 02/01 Q1030 NOSIG=
METAR EGAC 011850Z 23019KT 6000 -RADZ FEW009 SCT016 BKN020 14/12 Q1003=
METAR EGFF 011850Z AUTO 23014KT 9999 -RA OVC012/// //////TCU 12/11
      Q1020 RERA=
METAR EGGD 011850Z 21020KT 9999 SCT008 BKN014 11/10 Q1020 RERA REDZ=
METAR EGGP 011850Z 20019KT 9999 VCSH BKN022 13/11 Q1012=
METAR EGHH 011850Z 22019G29KT 9999 BKN011 12/10 Q1024=
METAR EGJB 011850Z 20021KT 9999 SCT012 BKN018 11/10 Q1029=
METAR EGJJ 011850Z 17017KT 9999 BKN018 09/08 Q1030 NOSIG=
METAR EGKA 011850Z 21022KT 9999 BKN010 09/07 Q1026=
METAR EGKK 011850Z 21015G26KT 8000 OVC011 10/08 Q1025=
METAR COR EGLL 011850Z 22016KT 9999 OVC013 11/09 Q1023 NOSIG=
METAR EGNJ 011850Z AUTO 21030KT 9999 BKN015/// OVC020/// 13/11 Q1011=
METAR EGNM 011850Z 23016G28KT 180V270 9999 FEW008 BKN013 12/10 Q1009=
METAR EGNT 011850Z 24024G39KT 210V270 9999 -SHRA FEW009 BKN035 13/10
      Q1001=
METAR EGNX 011850Z 21030G40KT 9999 BKN011 12/10 Q1014=
METAR COR EGSH 011850Z 21020G30KT 9999 -RA BKN012 10/09 Q1019 RERA
      TEMPO BKN009=
METAR EKAH 011850Z AUTO 21010G22KT 130V290 9999NDV -DZ OVC006/// 07/05
      Q1014=
METAR EKBI 011850Z 21020G31KT 3000 -DZRA OVC003 06/06 Q1015=
METAR EKCH 011850Z 23018KT 3000 BR BKN005 05/04 Q1019 TEMPO BKN004=
METAR EKEB 011850Z AUTO 20016G29KT 2200NDV BR OVC002/// 07/07 Q1016=
METAR EKRK 011850Z AUTO 23019KT 1900NDV BR SCT001/// OVC003/// 04/04
      Q1018=
METAR EKRN 011850Z AUTO 24021KT 6000NDV OVC008/// 05/03 Q1021=
METAR EKVD 011850Z AUTO 22020KT //// ///////// 06/05 Q1016=
METAR EKYT 011850Z 22021KT 5000 -RA FEW006 BKN010 BKN014 08/07 Q1010
      R88/D=
####018001648####
SAEW KAWN 011900
METAR EDDB 011850Z 22009KT CAVOK 02/01 Q1028 NOSIG=
METAR EDDC 011850Z 23007KT CAVOK 02/00 Q1031 NOSIG=
METAR EDDE 011850Z 23012KT CAVOK 01/00 Q1031 NOSIG=
METAR EDDF 011850Z 19007KT 5000 BR FEW006 OVC015 03/02 Q1035 NOSIG=
METAR EDDG 011850Z 20012KT CAVOK 04/00 Q1028 NOSIG=
METAR EDDH 011850Z 22015KT 9999 FEW015 BKN250 04/00 Q1023 NOSIG=
METAR EDDK 011850Z 13009KT CAVOK 01/M01 Q1032 R14L/190195 R14R///99//
      R06/99 NOSIG=
METAR EDDL 011850Z 17013KT CAVOK 03/00 Q1030 NOSIG=
METAR EDDM 011850Z VRB01KT 0350 R26R/0375V0600N R26L/0300N FZFG BKN001
      BKN003 M05/M05 Q1035 R88/290095 NOSIG=
METAR EDDN 011850Z 19004KT 160V240 4500 -DZ BR BKN003 01/01 Q1035 R28/290195
      NOSIG=
METAR EDDP 011850Z 20012KT CAVOK 02/01 Q1030 NOSIG=
METAR EDDR 011850Z 21008KT 0100 R27/0600N FZFG VV/// M01/M01 Q1035
      NOSIG=
METAR EDDS 011850Z 22002KT 5000 BR BKN005 M00/M01 Q1035 R07/0///95
      TEMPO 4000=
METAR EDDT 011850Z 21008KT CAVOK 03/01 Q1028 NOSIG=
METAR EDDV 011850Z 20006KT CAVOK 03/M01 Q1028 NOSIG=
METAR EDDW 011850Z 21013KT CAVOK 04/M01 Q1025 NOSIG=
METAR EKEB 011850Z AUTO 20016G29KT 2200NDV BR OVC002/// 07/07 Q1016=
METAR EKKA 011850Z 22021G39KT 7000 -RA FEW005 BKN007 08/08 Q1012=
METAR EKSP 011850Z 22020KT 2000 -DZRA OVC004 05/05 Q1017=
METAR EKVG 011850Z AUTO 29021G31KT 2500NDV -SHPL BKN017/// 01/M00 Q0988=
METAR LSGG 011850Z 15001KT 9000 NSC M02/M03 Q1036 NOSIG=
METAR LSZA 011850Z VRB01KT CAVOK M01/M02 Q1035 NOSIG=
METAR LSZB 011850Z VRB03KT 5000 BR NSC M08/M08 Q1035 NOSIG=
METAR LSZH 011850Z 27004KT 5000 BR FEW007 BKN008 M02/M04 Q1036 NOSIG=
####018001805####
SAUK KAWN 011900
METAR EGAA 011850Z 25023KT 9999 -RA FEW008 BKN012 BKN017 12/12 Q1003=
METAR EGAC 011850Z 23019KT 6000 -RADZ FEW009 SCT016 BKN020 14/12 Q1003=
METAR EGBB 011850Z 20014G24KT 170V230 9999 SCT009 OVC013 12/10 Q1017=
METAR EGFF 011850Z AUTO 23014KT 9999 -RA OVC012/// //////TCU 12/11
      Q1020 RERA=
METAR EGGD 011850Z 21020KT 9999 SCT008 BKN014 11/10 Q1020 RERA REDZ=
METAR EGGP 011850Z 20019KT 9999 VCSH BKN022 13/11 Q1012=
METAR EGGW 011850Z 21018G29KT 170V230 9999 OVC008 10/09 Q1021=
METAR EGHH 011850Z 22019G29KT 9999 BKN011 12/10 Q1024=
METAR EGHI 011850Z 23018KT 9000 RA BKN011 11/09 Q1025=
METAR EGJB 011850Z 20021KT 9999 SCT012 BKN018 11/10 Q1029=
METAR EGJJ 011850Z 17017KT 9999 BKN018 09/08 Q1030 NOSIG=
METAR EGKA 011850Z 21022KT 9999 BKN010 09/07 Q1026=
METAR EGKK 011850Z 21015G26KT 8000 OVC011 10/08 Q1025=
METAR EGLC 011850Z 22019G29KT 9999 BKN012 11/07 Q1023=
METAR EGLF 011850Z 22021G32KT 9999 BKN011 10/09 Q1024=
METAR COR EGLL 011850Z 22016KT 9999 OVC013 11/09 Q1023 NOSIG=
METAR EGMC 011850Z 22021KT 9999 BKN016 10/07 Q1023=
METAR EGNJ 011850Z AUTO 21030KT 9999 BKN015/// OVC020/// 13/11 Q1011=
METAR EGNM 011850Z 23016G28KT 180V270 9999 FEW008 BKN013 12/10 Q1009=
METAR EGNS 011850Z 22029KT 7000 SCT007 OVC025 12/11 Q1006 NOSIG=
METAR EGNT 011850Z 24024G39KT 210V270 9999 -SHRA FEW009 BKN035 13/10
      Q1001=
METAR EGNX 011850Z 21030G40KT 9999 BKN011 12/10 Q1014=
METAR EGPD 011850Z 21010KT 180V240 9999 SCT022 12/10 Q0995 NOSIG=
METAR EGPH 011850Z 22022KT 7000 -RA FEW012 SCT023 BKN032 13/11 Q0998=
METAR EGPK 011850Z 21021KT 7000 -RADZ SCT006 BKN015 13/12 Q1000=
METAR COR EGSH 011850Z 21020G30KT 9999 -RA BKN012 10/09 Q1019 RERA
      TEMPO BKN009=
METAR EGSS 011850Z 22023KT 9999 OVC010 10/08 Q1021=
####018000122####
SPCN31 CWAO 011852
SPECI CYYQ 011852Z 31020G27KT 12SM -SN DRSN BKN014 M27/M31 A2975 RMK
 SC6 VIS NE-SE 1 SLP077=

####018000416####
SAFI32 EFHK 011850
METAR EFHA 011850Z AUTO 20005KT 160V240 9999 -RA 
VCSH OVC003 01/00 Q0998=
EFHF 011850Z AUTO 25009KT 210V270 9999 OVC010 04/02 Q1002=
EFKK 011850Z 21005KT 170V240 9000 -SHRA BKN002 OVC004 03/03 Q0995=
EFMA 011850Z AUTO 24005KT 190V320 9999 FEW017 BKN202 06/04 Q1003=
METAR EFPO 011850Z AUTO 25010KT CAVOK 04/02 Q1000 R12/29//95=
EFSI 011850Z AUTO 19005KT 120V230 9999 OVC003 02/02 Q0997=
####018000126####
SAUS44 KMEG 011854
MTRTUP
METAR KTUP 011853Z 00000KT 10SM BKN080 BKN090 OVC110 07/M04 A3031 
RMK AO2 SLP266 T00721039
####018000113####
SAUS44 KBMX 011854
MTRHEY
METAR KHEY 011853Z AUTO 10005KT 10SM CLR 14/05 A3023 RMK AO2 SLP226 
T01440050
####018000122####
SAUS45 KABQ 011854
MTRCQC
METAR KCQC 011853Z AUTO 27007KT 6SM BR OVC003 M06/M08 A2991 RMK AO2 
SLP180 T10561078 $
####018000123####
SAUS45 KABQ 011854
MTRTCS
METAR KTCS 011853Z AUTO 35004KT 10SM OVC013 M01/M04 A2998 RMK AO2 
SLP161 T10061039 TSNO
####018000105####
SAUS44 KMAF 011854
MTR6R6
METAR K6R6 011853Z AUTO 02003KT 01/M02 A3011 RMK AO1 SLP203 
T00061017
####018002643####
SAUS20 KNKA 011854
METAR K42J 011855Z AUTO 05005KT 9SM OVC018 17/12 A3023 RMK AO1 TSNO
=
METAR KADC 011853Z AUTO 36011KT 10SM SCT023 OVC044 M06/M11 A2989
 RMK AO2=
METAR KANQ 011915Z AUTO 24016KT 10SM CLR M03/M12 A2993 RMK=
METAR KBBP 011855Z AUTO 21004KT 10SM CLR 12/01 A3027 RMK AO2=
METAR KBVE 011851Z AUTO 07012KT 10SM SCT023 BKN033 17/14 A3018 RMK
 AO2 SLP219 T01720144=
METAR KCFV 011852Z AUTO 19006KT 10SM OVC038 M01/M09 A3026 RMK AO2 
 SLP257 T10061089=
METAR KCKI 011855Z AUTO 17003KT 10SM 13/07 A3028 RMK AO2=
METAR KCNU 011852Z AUTO 20008KT 10SM OVC043 M01/M09 A3024 RMK AO2 
 SLP252 T10111094=
METAR KCPS 011853Z 25010G17KT 10SM CLR 03/M07 A3018 RMK AO2 SLP224 
 T00331067=
METAR KCQW 011855Z AUTO 22008KT 10SM CLR 11/M01 A3026 RMK AO2=
METAR KDDC 011852Z AUTO 24006KT 10SM OVC032 M04/M12 A3011 RMK AO2 
 SLP226 T10391122=
METAR KE80 011855Z AUTO 21004KT 10SM OVC013 M02/M04 A3001 RMK AO2 
     T10171042=
METAR KGGE 011855Z AUTO 22004KT 10SM CLR 13/02 A3029 RMK AO2=
METAR KGPH 011855Z AUTO 26007KT 10SM CLR 01/M12 A3018 RMK AO2=
METAR KHLC 011853Z AUTO 27007KT 10SM BKN095 M05/M12 A3010 RMK AO2 
 SLP230 T10501117=
METAR KHSA 011850Z 09005KT 7SM CLR 13/08 A3021=
METAR KHUT 011852Z 21010KT 10SM OVC029 M02/M07 A3016 RMK AO2 SLP226 
 T10221072 $=
METAR KJFX 011855Z AUTO 00000KT 10SM CLR 10/00 A3029 RMK A02 P-128 
=
METAR KLUX 011855Z AUTO 23007KT 10SM CLR 11/03 A3025 RMK AO2=
METAR KLWC 011852Z AUTO 23008KT 10SM CLR 01/M10 A3018 RMK AO2 SLP230 
    T00061100=
METAR KMCW 011853Z AUTO 28014KT 10SM OVC070 M03/M07 A2994 RMK AO2 
 SLP155 T10281072=
METAR KMHK 011852Z 21008KT 10SM CLR M01/M12 A3016 RMK AO2 SLP226 
 T10061117=
METAR KMKS 011855Z AUTO 00000KT 10SM CLR 15/02 A3027 RMK AO2=
METAR KORS 011855Z AUTO 10SM CLR 02/M01 A3032 RMK AO2=
METAR KOTM 011853Z AUTO 24013G21KT 10SM CLR 01/M09 A3005 RMK AO2 
 SLP188 T00061089=
METAR KPHT 011855Z AUTO 23006KT 10SM OVC045 02/M08 A3028 RMK=
METAR KPPF 011852Z AUTO 21005KT 10SM FEW029 OVC035 00/M09 A3026 RMK 
 AO2 SLP256 T00001089=
METAR KSGF 011852Z 23008KT 8SM OVC026 00/M04 A3023 RMK AO2 SLP251 
 T00001044=
METAR KSPI 011852Z 25015G22KT 10SM CLR 00/M11 A3014 RMK AO2 SLP213 
 T00001106=
METAR KSWO 011853Z AUTO 17003KT 10SM OVC020 M01/M06 A3025 RMK AO2 
 UPB1755E16FZRAB16E27 SLP254 P0001 T10111056 TSNO=
METAR KTEX 011855Z AUTO 25010KT 10SM SCT038 OVC046 M07/M10 A2983 
 RMK AO2 T10671100=
METAR KUNO 011853Z AUTO 25006KT 10SM OVC036 02/M05 A3025 RMK AO2 
    SLP253 T00171050=
METAR KVTN 011852Z AUTO 30007KT 10SM CLR M03/M11 A3000 RMK AO2 
 SLP202 T10281111=
####018000089####
SAUS46 KLOX 011854
MTRMWS
METAR KMWS 011845Z  0502G03KT 07/M22 RMK SNOW DEPTH 0.00
####018000117####
SAUS44 KMEG 011854
MTROQT
METAR KOQT 011853Z AUTO VRB03KT 10SM OVC043 04/M06 A3029 RMK AO2 
SLP275 T00391061
####018000106####
SAUS42 KTAE 011854
MTRCTY
METAR KCTY 011853Z AUTO 06007KT 18/11 A3020 RMK AO1 SLP225 T01780106 
$
####018000086####
SABZ19 SBBE 011900
METAR SBBE 011900Z 01004KT 9999 SCT025 BKN100 28/24 Q1010 RETS=
####018000123####
SAUS44 KMRX 011854
MTRNIP
METAR KNIP 011853Z AUTO 03008KT 10SM BKN023 OVC030 17/10 A3025 RMK 
AO2 SLP237 T01720100
####018000572####
SADR31 MDSD 011900
METAR
METAR MDPP 011900Z 09012KT 9999 SCT020 28/24 Q1018 NOSIG=
METAR MDST 011900Z 12011KT 9999 SCT023 30/20 Q1017 60%
METAR MDPC 011900Z 12005KT 070V150 9999 FEW020 28/23 Q1019 NOSIG=
METAR MDBH 011900Z 13016KT 9999 FEW023 31/22 Q1018=
METAR MDJB 011900Z 00000KT 9999 SCT020 30/22 Q1019=
METAR MDSD 011900Z 16005KT 9999 FEW022 31/22 Q1017 NODIG=
METAR MDLR 011900Z 07010KT 9999 SCT022 29/22 Q1018=
METAR MDCY 011900Z 02012KT 9999 SCT020 28/24 Q1017=
METAR MDAB 011900Z 09010KT 9999 FEW020CB FEW022 30/26 Q1018 CB/S 
30/27 Q1019=
####018000095####
SPAU31 YBBN 011854
SPECI YPDN 011853Z 30019KT 8000 -SHRA FEW006 SCT014 BKN035 25/23
Q1005=
####018003685####
SAUS99 KWBC 011855 RRA
METAR
KOKB 011852Z AUTO VRB04KT 10SM CLR 12/01 A3016 RMK AO2 SLP211
     T01220006=
KOKC 011852Z 19008KT 3SM HZ BKN008 BKN015 OVC041 00/M03 A3023 RMK
     AO2 SFC VIS 6 SLP248 T00001033=
KOMA 011852Z 19007KT 10SM BKN200 M01/M09 A3008 RMK AO2 SLP201
     T10061089=
KORE 011852Z AUTO 21012KT 10SM CLR M02/M14 A2990 RMK AO2 SLP135
     T10171144=
KPUC 011853Z AUTO 09009G18KT 10SM CLR 02/M18 A2993 RMK AO2 SLP168
     T00221178=
KPWK 011852Z 23011KT 10SM CLR M02/M11 A2998 RMK AO2 SLP161
     T10171111=
KPYM 011852Z AUTO 23012KT 10SM CLR 00/M14 A2998 RMK AO2 SLP153
     T00001139=
KRAP 011852Z VRB03KT 10SM OVC080 M01/M07 A2999 RMK AO2 SLP199
     T10061067=
KSPS 011852Z AUTO 00000KT OVC027 M02/M04 A3026 RMK AO2 SLP255
     T10171044 $=
KSUX 011852Z 29005KT 10SM CLR 00/M08 A3003 RMK AO2 SLP186
     T00001078=
KTAN 011852Z AUTO 22009G15KT 180V250 10SM CLR 01/M14 A2998 RMK AO2
     SLP150 T00061144=
KTOL 011852Z 23020G28KT 10SM CLR M02/M13 A2995 RMK AO2 PK WND
     25030/1805 SLP150 T10171133=
KTRM 011852Z AUTO 00000KT 10SM CLR 09/M02 A3020 RMK AO2 SLP226
     T00891017 TSNO=
KUNV 011853Z 24015G22KT 10SM SKC 02/M13 A2993=
PATA 011852Z 08008KT 10SM FEW020 OVC038 M07/M09 A3031 RMK AO2
     SLP270 T10671089=
K42J 011855Z AUTO 05005KT 9SM OVC018 17/12 A3023 RMK AO1 TSNO=
KADC 011853Z AUTO 36011KT 10SM SCT023 OVC044 M06/M11 A2989 RMK
     AO2=
KANQ 011915Z AUTO 24016KT 10SM CLR M03/M12 A2993 RMK=
KBBP 011855Z AUTO 21004KT 10SM CLR 12/01 A3027 RMK AO2=
KBVE 011851Z AUTO 07012KT 10SM SCT023 BKN033 17/14 A3018 RMK AO2
     SLP219 T01720144=
KCFV 011852Z AUTO 19006KT 10SM OVC038 M01/M09 A3026 RMK AO2 SLP257
     T10061089=
KCKI 011855Z AUTO 17003KT 10SM 13/07 A3028 RMK AO2=
KCNU 011852Z AUTO 20008KT 10SM OVC043 M01/M09 A3024 RMK AO2 SLP252
     T10111094=
KCPS 011853Z 25010G17KT 10SM CLR 03/M07 A3018 RMK AO2 SLP224
     T00331067=
KCQW 011855Z AUTO 22008KT 10SM CLR 11/M01 A3026 RMK AO2=
KDDC 011852Z AUTO 24006KT 10SM OVC032 M04/M12 A3011 RMK AO2 SLP226
     T10391122=
KE80 011855Z AUTO 21004KT 10SM OVC013 M02/M04 A3001 RMK AO2
     T10171042=
KGGE 011855Z AUTO 22004KT 10SM CLR 13/02 A3029 RMK AO2=
KGPH 011855Z AUTO 26007KT 10SM CLR 01/M12 A3018 RMK AO2=
KHLC 011853Z AUTO 27007KT 10SM BKN095 M05/M12 A3010 RMK AO2 SLP230
     T10501117=
KHSA 011850Z 09005KT 7SM CLR 13/08 A3021=
KHUT 011852Z 21010KT 10SM OVC029 M02/M07 A3016 RMK AO2 SLP226
     T10221072 $=
KJFX 011855Z AUTO 00000KT 10SM CLR 10/00 A3029 RMK A02 P-128=
KLUX 011855Z AUTO 23007KT 10SM CLR 11/03 A3025 RMK AO2=
KLWC 011852Z AUTO 23008KT 10SM CLR 01/M10 A3018 RMK AO2 SLP230
     T00061100=
KMCW 011853Z AUTO 28014KT 10SM OVC070 M03/M07 A2994 RMK AO2 SLP155
     T10281072=
KMHK 011852Z 21008KT 10SM CLR M01/M12 A3016 RMK AO2 SLP226
     T10061117=
KMKS 011855Z AUTO 00000KT 10SM CLR 15/02 A3027 RMK AO2=
KORS 011855Z AUTO 10SM CLR 02/M01 A3032 RMK AO2=
KOTM 011853Z AUTO 24013G21KT 10SM CLR 01/M09 A3005 RMK AO2 SLP188
     T00061089=
KPHT 011855Z AUTO 23006KT 10SM OVC045 02/M08 A3028 RMK=
KPPF 011852Z AUTO 21005KT 10SM FEW029 OVC035 00/M09 A3026 RMK AO2
     SLP256 T00001089=
KSGF 011852Z 23008KT 8SM OVC026 00/M04 A3023 RMK AO2 SLP251
     T00001044=
KSPI 011852Z 25015G22KT 10SM CLR 00/M11 A3014 RMK AO2 SLP213
     T00001106=
KSWO 011853Z AUTO 17003KT 10SM OVC020 M01/M06 A3025 RMK AO2
     UPB1755E16FZRAB16E27 SLP254 P0001 T10111056 TSNO=
KTEX 011855Z AUTO 25010KT 10SM SCT038 OVC046 M07/M10 A2983 RMK AO2
     T10671100=
KUNO 011853Z AUTO 25006KT 10SM OVC036 02/M05 A3025 RMK AO2 SLP253
     T00171050=
####018003689####
SAUS99 KWBC 011855
METAR
KABI 011852Z 36004KT 2SM BR OVC004 M03/M03 A3020 RMK AO2 UPB09E19
     SLP241 P0000 T10281033=
KABQ 011852Z VRB04KT 10SM OVC014 M03/M06 A3001 RMK AO2 SLP201 MTN
     TOPS OBSC NE-SE T10281061=
KAFN 011852Z AUTO 19013G20KT 170V240 10SM CLR M03/M14 A2986 RMK
     AO2 SLP133 T10281144=
KALS 011852Z AUTO 17015KT 10SM CLR M03/M09 A2986 RMK AO2 SLP179
     T10281089 $=
KARR 011852Z 24015G24KT 10SM CLR M01/M11 A3000 RMK AO2 PK WND
     25026/1813 SLP168 T10111111 $=
KATL 011852Z 29004KT 10SM BKN065 BKN230 13/M04 A3027 RMK AO2
     SLP254 T01331039=
KBDR 011852Z 24015KT 10SM CLR 02/M12 A3000 RMK AO2 SLP159
     T00171117=
KBIS 011852Z 34007KT 10SM OVC016 M02/M06 A2997 RMK AO2 SLP170
     T10171056=
KBLF 011852Z AUTO 25011KT 10SM OVC039 02/M08 A3013 RMK AO2 SLP225
     T00171078=
KBLH 011852Z AUTO VRB03KT 10SM CLR 07/M01 A3020 RMK AO2 SLP227
     T00671011 $=
KBLU 011852Z AUTO VRB05KT 10SM CLR 07/M17 A3008 RMK AO2 SLP182
     T00671172=
KBML 011852Z AUTO 20006KT 10SM BKN048 M04/M14 A2975 RMK AO2 SLP095
     T10441139=
KCID 011852Z 24015KT 10SM CLR 00/M08 A2998 RMK AO2 SLP166
     T00001083 $=
KCKV 011852Z AUTO 24006KT 10SM OVC040 03/M07 A3027 RMK AO2 SLP257
     T00281072=
KCLT 011852Z VRB03KT 10SM FEW160 SCT250 11/M02 A3023 RMK AO2
     SLP239 T01061022=
KCQX 011852Z AUTO 25011G19KT 10SM BKN032 00/M08 A3000 RMK AO2
     SLP162 T00001078=
KCVG 011852Z 23014G18KT 10SM SCT150 BKN250 03/M10 A3012 RMK AO2
     SLP207 T00281100=
KCWF 011850Z 01011KT 10SM OVC013 08/04 A3019=
KDCA 011852Z 24013G18KT 10SM BKN250 08/M10 A3011 RMK AO2 SLP195
     T00781100=
KDPA 011852Z 23016KT 10SM CLR M02/M11 A2997 RMK AO2 SLP160
     T10171111=
KDVN 011852Z AUTO 24018G23KT 10SM CLR 00/M10 A3002 RMK AO2 SLP177
     T00001100=
KEFD 011850Z 03009KT 5SM BR OVC012 07/06 A3019=
KESN 011850Z 23013KT 10SM FEW250 06/M07 A3014=
KEST 011852Z AUTO 29017KT 10SM CLR M02/M07 A2994 RMK AO2 SLP162
     T10221072=
KGLR 011853Z AUTO 26018G29KT 1/2SM SN FZFG VV015 M06/M06 A2964 RMK
     AO2 PK WND 26029/1848 SLP059 P0000 T10561056=
KGLS 011852Z 04014KT 2 1/2SM BR OVC008 08/07 A3014 RMK AO2 CIG
     006V010 SLP207 T00830072=
KGRI 011853Z 27007KT 10SM CLR M01/M08 A3006 RMK AO2 SLP214
     T10111083=
KHIE 011852Z AUTO 23008KT 10SM FEW043 M04/M14 A2978 RMK AO2 SLP102
     T10391139=
KHOB 011850Z 00000KT 4SM BR OVC004 M05/M05 A3011=
KHRL 011852Z 32012KT 4SM BR OVC005 07/06 A3014 RMK AO2 SLP205
     T00670061=
KHUL 011853Z AUTO 22010G22KT 170V240 10SM SCT050 M04/M16 A2974 RMK
     AO2 SLP082 T10441156=
KIAD 011852Z 21007G17KT 10SM BKN250 05/M09 A3009 RMK AO2 SLP191
     T00501089=
KIEN 011852Z AUTO 25007KT 10SM CLR M04/M12 A3002 RMK AO2 SLP215
     T10391122=
KIJD 011852Z AUTO 22011G17KT 10SM CLR 00/M14 A2997 RMK AO2 SLP153
     T00001139=
KIOW 011852Z AUTO 26017KT 10SM CLR 00/M09 A3005 RMK AO2 SLP184
     T00001089=
KISN 011852Z AUTO 32007KT 10SM FEW017 OVC027 M02/M06 A2999 RMK AO2
     SLP182 T10221061=
KLND 011853Z AUTO 00000KT 7SM FEW047 SCT055 OVC080 M19/M23 A3007
     RMK AO2 SLP316 T11941233=
KMBG 011852Z AUTO 34012KT 10SM SCT029 OVC050 01/M05 A2993 RMK AO2
     SLP156 T00061050=
KMEB 011852Z AUTO 24006KT 10SM CLR 11/01 A3027 RMK AO2 SLP252
     T01060006=
KMFD 011852Z 22018G29KT 10SM CLR M01/M12 A2997 RMK AO2 PK WND
     23030/1840 SLP165 T10061117=
KMKE 011852Z 25013G20KT 10SM OVC100 M04/M11 A2989 RMK AO2 SLP134
     T10391111=
KMLI 011852Z 24014G21KT 10SM CLR M01/M10 A3003 RMK AO2 SLP179
     T10061100=
KMWH 011852Z 00000KT 10SM BKN040 M06/M11 A3047 RMK AO2 SLP339
     T10611106=
####018000117####
SAUS99 KWBC 011855 RRB
METAR
KVTN 011852Z AUTO 30007KT 10SM CLR M03/M11 A3000 RMK AO2 SLP202
     T10281111=
####018000213####
SPUS99 KWBC 011855
SPECI
PAQH 011852Z AUTO 06006KT 10SM FEW006 M05/M06 A3028 RMK AO2
     SNB12E34 P0000 FZRANO=
PAQH 011852Z AUTO 06006KT 10SM FEW006 M05/M06 A3028 RMK AO2
     SNB12E34 P0000 FZRANO=
####018000097####
SPAU31 KWBC 011855
SPECI
YPDN 011853Z 30019KT 8000 -SHRA FEW006 SCT014 BKN035 25/23 Q1005=
####018000120####
SPCN31 KWBC 011855
SPECI
CYYQ 011852Z 31020G27KT 12SM -SN DRSN BKN014 M27/M31 A2975 RMK SC6
VIS NE-SE 1 SLP077=
####018000088####
SAGI32 EGRR 011850
METAR LXGB 011850Z 08019KT 9999 FEW013 BKN025 15/10 Q1035 NOSIG=
####018000088####
SACV20 GVBA 011900
METAR GVBA 011900Z 06013KT 9999 SCT015 SCT100 22/16 Q1015 NOSIG=
####018000111####
SAGM31 PGUM 011854
MTRGUM
METAR PGUM 011854Z 05009KT 10SM OVC050 26/22 A2985 RMK AO2 SLP101 
T02560222
####018000106####
SAUS45 KLKN 011855
MTRP68
METAR KP68 011853Z AUTO 07003KT M07/M18 A3012 RMK AO1 SLP268 
T10671178
####018000115####
SPAU31 AMMC 011855
SPECI YPDN 011853Z 30019KT 8000 -SHRA FEW006 SCT014 BKN035 25/23 Q1005
     RESHRA=


####018000453####
SAIN31 VABB 011840
METAR VAAH 011840Z 05008KT 4000 HZ SCT020 BKN080
    18/14 Q1013 NOSIG=
METAR VABB 011840Z 07004KT 1400 R27/1400 FU FEW100 22/16 Q1011 NOSIG=
METAR VANP 011840Z 07004KT 3000 HZ SCT020 BKN090 17/15 Q1013 NOSIG=
METAR VOHS 011840Z 14003KT 6000 SCT015 SCT100 17/13 Q1013 NOSIG=
METAR VOMM 011840Z 00000KT 3500 BR SCT018 25/24 Q1010 TEMPO 3000 BR=
METAR VOTR 011840Z 10003KT 4000 BR FEW016 SCT100 25/24 Q1011
    NOSIG=
####018000088####
SACV20 GVNP 011900
METAR GVNP 011900Z 05016KT 9999 FEW023 BKN200 22/16 Q1015 NOSIG=
####018000111####
SAKA31 PTTP 011900
METAR PTTP 011852Z 07009KT 15SM SCT018 BKN130 OVC300 28/23 A2976 RMK
SLP078 T02780232=
####018000098####
SAPH41 RPLC 011800
METAR RPLC 011800Z
32005KT 9999 FEW036 BKN300 20/17 Q1016 RMK NOSIG A2998=
####018000084####
SACS31 MROC 011852
METAR MRLB 011900Z 08025G36KT 9999 FEW040 BKN250 32/16 A2977=
####018000082####
SAUK35 EGGY 011850 RRA
METAR EGKB 011850Z 21022G32KT 9999 BKN008 09/07 Q1024 =
####018000383####
SABX31 EBBR 011850
METAR EBAW 011850Z AUTO 21015KT CAVOK 04/M01 Q1029=
METAR EBBR 011850Z 21018KT CAVOK 03/M02 Q1030 NOSIG=
METAR EBCI 011850Z 20016KT CAVOK 02/M01 Q1031 NOSIG=
METAR EBLG 011850Z 20013KT CAVOK 02/M02 Q1031 NOSIG=
METAR EBOS 011850Z 19015KT CAVOK 03/M00 Q1028 NOSIG=
METAR ELLX 011850Z 21006KT 160V260 0100 R24/0400V0500N FZFG VV///
    M02/M01 Q1034 NOSIG=
####018000514####
SAOS31 LOWM 011850
METAR LOWW 011850Z 02005KT 9999 BKN042 02/01 Q1034 R88/19//95 NOSIG=
METAR LOWL 011850Z 30002KT 5000 BR FEW013 SCT020 BKN055 00/M01 Q1036
 R08/29//95 TEMPO 4000=
METAR LOWS 011850Z 32005KT 3300 1000N R15/P1500D FZBCFG FEW015
 M04/M04 Q1035 R15/19//95 TEMPO 0500 FZBCFG=
METAR LOWI 011850Z 23004KT 8000 SKC M05/M05 Q1035 R08/19//95 NOSIG=
METAR LOWG 011850Z VRB01KT 9999 BKN050 M02/M06 Q1034 R17/1///95
 NOSIG=
METAR LOWK 011850Z 31002KT 9999 BKN060 M02/M05 Q1035 R10L/490294
 NOSIG=
####018000046####
SAOS32 LOWM 011850
METAR LOXZ 011850Z NIL=
####018000081####
SABZ19 SBMQ 011900
METAR SBMQ 011900Z 08010KT 9999 SCT027 BKN100 34/23 Q1010=
####018000118####
SAUS42 TJSJ 011855
MTRJNR
METAR TJNR 011853Z AUTO 07008KT 10SM FEW024 29/22 A3012 RMK AO2 
SLP199 T02890222 $
####018000109####
SAUS46 KLOX 011854
MTRLAX
METAR KLAX 011853Z 09007KT 10SM CLR 11/M02 A3016 RMK AO2 SLP214 
T01111022
####018000115####
SPAU67 AMMC 011855
SPECI YPDN 011853Z 30019KT 8000 -SHRA FEW006 SCT014 BKN035 25/23 Q1005
     RESHRA=


####018000113####
SAUS44 KBMX 011855
MTRLOR
METAR KLOR 011853Z AUTO 12004KT 10SM CLR 14/06 A3023 RMK AO2 SLP235 
T01440056
####018000492####
SANO38 ENMI 011850
METAR ENDR 011850Z AUTO 23035KT 07/03 Q0988=
METAR ENEK 011850Z 20044KT 7000 RA BKN010 10/08 Q1003 W09/S6=
METAR ENGC 011850Z 22020KT 9999 -RA BKN005 08/07 Q0988 W08/S6=
METAR ENHE 011850Z NIL=
METAR ENOA 011850Z 22029KT 7000 OVC007 08/08 Q0989 W///S5=
METAR ENSL 011850Z AUTO 22046KT 7000NDV BKN012/// 10/09 Q0994
           W08/S6=
METAR ENFB 011850Z AUTO 21007KT 170V230 9999NDV -RA BKN005/// 07/07
           Q0988 W///S5=
METAR ENSF 011850Z NIL=
####018000561####
SANO35 ENMI 011850
METAR ENMS 011850Z 24010KT 180V280 9999 -SHRA SCT022 BKN030 04/01
           Q0989 RMK WIND 412FT VRB08KT=
METAR ENRM 011850Z 21030G40KT 9999 VCTS FEW010 SCT020 BKN023 06/04
           Q0990=
METAR ENRS 011850Z 21026KT 9999 BKN021 06/03 Q0981=
METAR ENSK 011850Z 17014KT 9999 -SHRA FEW020 SCT025 BKN030 07/03
           Q0982 RESHRA=
METAR ENSO 011850Z NIL=
METAR ENST 011850Z 18017KT 9999 VCSH FEW015TCU FEW022 SCT040 05/03
           Q0988 RMK WIND 300FT 17018KT=
METAR ENVD 011850Z 29005KT 9999 SCT044 02/01 Q0986=
####018000576####
SANO37 ENMI 011850
METAR ENNO 011850Z NIL=
METAR ENOV 011850Z VRB03KT 9999 -RA FEW015 SCT021 BKN030 05/01 Q0992
           RMK WIND 2175FT 13020KT=
METAR ENSD 011850Z 15005KT 9999 -RA FEW018 BKN026 04/03 Q0993 RMK
           WIND 1138FT 08006KT=
METAR ENSG 011850Z 06006KT 7000 -RASN FEW002 SCT08 VV014 01/01 Q0994
           RMK WIND 3901FT 15019KT=
METAR ENSN 011850Z NIL=
METAR ENSR 011850Z 15011KT CAVOK 04/M02 Q0984 RMK WIND 1119FT
           13016KT=
METAR ENSS 011850Z 19011KT 9999 SCT027 SCT055 02/01 Q0985 RMK WIND
           500FT 19018KT=
####018000101####
SAUS44 KLCH 011855
MTRP92
METAR KP92 011853Z AUTO VRB04KT 12/09 A3018 RMK AO1 SLP220 T01220094
####018000095####
SAPH RPLC 011800
METAR RPLC 011800Z
32005KT 9999 FEW036 BKN300 20/17 Q1016 RMK NOSIG A2998
####018000092####
SABZ24 SBCG 011900
METAR SBCG 011900Z 33015G25KT 9999 VCSH SCT030 FEW040TCU 31/20 Q1011=
####018000160####
SAEO32 EETN 011850
METAR EEKA 011850Z NIL=
METAR EEKE 011850Z NIL=
METAR EETU 011850Z AUTO 24014KT 8000 BR OVC005/// 03/02 Q1007=
METAR EEPU 011850Z NIL=
####018000671####
SANO33 ENMI 011850
METAR ENAT 011850Z 17003KT CAVOK 02/M03 Q0985 RMK WIND 700FT
           15010KT=
METAR ENBL 011850Z VRB01KT 6000 -SHRASN FEW007 BKN020 01/00 Q0992=
METAR ENEV 011850Z 16004KT 9999 -RA SCT025 BKN035 04/02 Q0984 RMK
           WIND 1400FT 21011KT=
METAR ENFL 011850Z 10019KT 9999 -SHRA FEW012 SCT018 BKN030 04/03
           Q0991=
METAR ENKB 011850Z 27006KT 9999 FEW018 SCT042 BKN080 05/03 Q0992=
METAR ENKR 011850Z 23010KT 9999 FEW027 BKN034 02/00 Q0986 RMK WIND
           731FT 25019KT=
METAR ENML 011850Z 30006KT 9999 FEW030 SCT060 06/01 Q0991=
METAR ENNA 011850Z 16010KT 140V200 CAVOK 04/M02 Q0985 RMK WIND 1800FT
           23017KT=
####018000091####
SACS31 MROC 011847
METAR
MROC 011900Z 07018G29KT 9999 FEW030 SCT250 26/12 A2997 NOSIG=
####018000068####
SAFI01 MBPV 011900
MBPV 011900Z 11010KT 9999 SCT015 29/22 Q1019=
####018000074####
SABZ21 SBFZ 011900
METAR SBFZ 011900Z 07012KT 9999 FEW023 29/21 Q1011=
####018000735####
SAIY31 LIIB 011850
METAR LIEA 011850Z VRB02KT CAVOK 05/02 Q1031=
METAR LIEE 011850Z 04005KT CAVOK 06/04 Q1030=
METAR LIEO 011850Z 02013KT 9999 SCT035 10/02 Q1032=
METAR LIMC 011850Z 35003KT 310V030 CAVOK M02/M04 Q1035 NOSIG=
METAR LIME 011850Z 01004KT 7000 NSC M00/M03 Q1035=
METAR LIMF 011850Z 00000KT 4500 BR NSC 00/M03 Q1034=
METAR LIMJ 011850Z 03006KT 010V070 CAVOK 07/M05 Q1033=
METAR LIML 011850Z 22002KT 7000 NSC M00/M01 Q1036 NOSIG=
METAR LIRA 011845Z 02008KT 360V060 CAVOK 04/M05 Q1028=
METAR LIRF 011850Z 04013KT CAVOK 06/M02 Q1029 NOSIG=
METAR LIRN 011850Z 04008KT 9999 FEW040 07/M03 Q1028 WS RWY 06=
METAR LIRP 011845Z 32004KT CAVOK 05/M00 Q1033 NOSIG=
METAR LIRQ 011850Z 27005KT 210V340 CAVOK 07/M03 Q1033=
####018000590####
SAIY32 LIIB 011850
METAR LIBD 011850Z 26005KT 9999 FEW035 01/M04 Q1028=
METAR LIBR 011845Z 01013KT CAVOK 06/M01 Q1026 NOSIG=
METAR LICC 011850Z 03011KT 9999 FEW070 09/M02 Q1024=
METAR LICJ 011850Z 05008KT 360V070 9999 SCT040 10/03 Q1026=
METAR LIPB 011850Z VRB02KT CAVOK M02/M04 Q1036=
METAR LIPE 011850Z 25004KT CAVOK M01/M03 Q1035=
METAR LIPH 011845Z /////KT 9000 NSC 01/M01 Q1035=
METAR LIPK 011850Z NIL=
METAR LIPQ 011850Z VRB02KT CAVOK 02/M07 Q1034=
METAR LIPR 011850Z NIL=
METAR LIPX 011845Z 30006KT 6000 NSC 00/M02 Q1035=
METAR LIPZ 011850Z VRB02KT CAVOK 01/M03 Q1035=
####018000091####
SPCN42 CWAO 011852
SPECI CYBV 011852Z 32015G22KT 6SM BLSN FEW010 FEW220 RMK ST2CS1=

